{"type": "FeatureCollection", "features": [{"type": "Feature", "geometry": {"type": "Point", "coordinates": [-84.396553, 33.771]}, "properties": {"name": "The Coca-Cola Company", "group": "The Coca-Cola Company", "rank": 1, "kind": "headquarters", "place": "Atlanta", "source": "Wikidata", "link": "http://www.wikidata.org/entity/Q3295867", "audit": "Break Free From Plastic Brand Audit 2023: number 1 of the World's Worst Plastic Polluters"}}, {"type": "Feature", "geometry": {"type": "Point", "coordinates": [-80.834383, 35.158404]}, "properties": {"name": "Coca-Cola Consolidated, Inc.", "group": "The Coca-Cola Company", "rank": 1, "kind": "subsidiary headquarters", "place": "Charlotte", "source": "Wikidata", "link": "http://www.wikidata.org/entity/Q5139058", "audit": "Break Free From Plastic Brand Audit 2023: number 1 of the World's Worst Plastic Polluters"}}, {"type": "Feature", "geometry": {"type": "Point", "coordinates": [12.5, 42.5]}, "properties": {"name": "Q3747509", "group": "The Coca-Cola Company", "rank": 1, "kind": "subsidiary headquarters", "place": "Italy", "source": "Wikidata", "link": "http://www.wikidata.org/entity/Q3747509", "audit": "Break Free From Plastic Brand Audit 2023: number 1 of the World's Worst Plastic Polluters"}}, {"type": "Feature", "geometry": {"type": "Point", "coordinates": [-122.436944, 37.458889]}, "properties": {"name": "Odwalla", "group": "The Coca-Cola Company", "rank": 1, "kind": "subsidiary headquarters", "place": "Half Moon Bay", "source": "Wikidata", "link": "http://www.wikidata.org/entity/Q3031783", "audit": "Break Free From Plastic Brand Audit 2023: number 1 of the World's Worst Plastic Polluters"}}, {"type": "Feature", "geometry": {"type": "Point", "coordinates": [139.691667, 35.689444]}, "properties": {"name": "Coca-Cola Bottlers Japan Holdings", "group": "The Coca-Cola Company", "rank": 1, "kind": "subsidiary headquarters", "place": "Tokyo", "source": "Wikidata", "link": "http://www.wikidata.org/entity/Q28685058", "audit": "Break Free From Plastic Brand Audit 2023: number 1 of the World's Worst Plastic Polluters"}}, {"type": "Feature", "geometry": {"type": "Point", "coordinates": [-73.9525, 40.8825]}, "properties": {"name": "Fuze Beverage", "group": "The Coca-Cola Company", "rank": 1, "kind": "subsidiary headquarters", "place": "Englewood Cliffs", "source": "Wikidata", "link": "http://www.wikidata.org/entity/Q21178899", "audit": "Break Free From Plastic Brand Audit 2023: number 1 of the World's Worst Plastic Polluters"}}, {"type": "Feature", "geometry": {"type": "Point", "coordinates": [121.05, 14.516667]}, "properties": {"name": "Coca-Cola Europacific Aboitiz Philippines", "group": "The Coca-Cola Company", "rank": 1, "kind": "subsidiary headquarters", "place": "Taguig", "source": "Wikidata", "link": "http://www.wikidata.org/entity/Q5139059", "audit": "Break Free From Plastic Brand Audit 2023: number 1 of the World's Worst Plastic Polluters"}}, {"type": "Feature", "geometry": {"type": "Point", "coordinates": [-80.2506, 40.175]}, "properties": {"name": "Cameron Coca-Cola", "group": "The Coca-Cola Company", "rank": 1, "kind": "subsidiary headquarters", "place": "Washington", "source": "Wikidata", "link": "http://www.wikidata.org/entity/Q5026213", "audit": "Break Free From Plastic Brand Audit 2023: number 1 of the World's Worst Plastic Polluters"}}, {"type": "Feature", "geometry": {"type": "Point", "coordinates": [-117.566667, 33.866667]}, "properties": {"name": "Blue Sky Beverage Company", "group": "The Coca-Cola Company", "rank": 1, "kind": "subsidiary headquarters", "place": "Corona", "source": "Wikidata", "link": "http://www.wikidata.org/entity/Q4929861", "audit": "Break Free From Plastic Brand Audit 2023: number 1 of the World's Worst Plastic Polluters"}}, {"type": "Feature", "geometry": {"type": "Point", "coordinates": [3.393611, 6.456111]}, "properties": {"name": "Chi Limited", "group": "The Coca-Cola Company", "rank": 1, "kind": "subsidiary headquarters", "place": "Lagos", "source": "Wikidata", "link": "http://www.wikidata.org/entity/Q23020249", "audit": "Break Free From Plastic Brand Audit 2023: number 1 of the World's Worst Plastic Polluters"}}, {"type": "Feature", "geometry": {"type": "Point", "coordinates": [2.269167, 48.823056]}, "properties": {"name": "Coca-Cola Europacific Partners", "group": "The Coca-Cola Company", "rank": 1, "kind": "subsidiary headquarters", "place": "Issy-les-Moulineaux", "source": "Wikidata", "link": "http://www.wikidata.org/entity/Q20811256", "audit": "Break Free From Plastic Brand Audit 2023: number 1 of the World's Worst Plastic Polluters"}}, {"type": "Feature", "geometry": {"type": "Point", "coordinates": [-118.401667, 34.017222]}, "properties": {"name": "Merv Griffin Enterprises", "group": "The Coca-Cola Company", "rank": 1, "kind": "subsidiary headquarters", "place": "Sony Pictures Studios", "source": "Wikidata", "link": "http://www.wikidata.org/entity/Q6820806", "audit": "Break Free From Plastic Brand Audit 2023: number 1 of the World's Worst Plastic Polluters"}}, {"type": "Feature", "geometry": {"type": "Point", "coordinates": [-95.614167, 29.599444]}, "properties": {"name": "Minute Maid", "group": "The Coca-Cola Company", "rank": 1, "kind": "subsidiary headquarters", "place": "Sugar Land", "source": "Wikidata", "link": "http://www.wikidata.org/entity/Q1206056", "audit": "Break Free From Plastic Brand Audit 2023: number 1 of the World's Worst Plastic Polluters"}}, {"type": "Feature", "geometry": {"type": "Point", "coordinates": [-98.5795, 39.828175]}, "properties": {"name": "ELP Communications", "group": "The Coca-Cola Company", "rank": 1, "kind": "subsidiary headquarters", "place": "United States", "source": "Wikidata", "link": "http://www.wikidata.org/entity/Q5323317", "audit": "Break Free From Plastic Brand Audit 2023: number 1 of the World's Worst Plastic Polluters"}}, {"type": "Feature", "geometry": {"type": "Point", "coordinates": [25.6, -33.958056]}, "properties": {"name": "Coca-Cola Beverages Africa", "group": "The Coca-Cola Company", "rank": 1, "kind": "subsidiary headquarters", "place": "Gqeberha", "source": "Wikidata", "link": "http://www.wikidata.org/entity/Q18636508", "audit": "Break Free From Plastic Brand Audit 2023: number 1 of the World's Worst Plastic Polluters"}}, {"type": "Feature", "geometry": {"type": "Point", "coordinates": [28.960278, 41.01]}, "properties": {"name": "Coca-Cola İçecek", "group": "The Coca-Cola Company", "rank": 1, "kind": "subsidiary headquarters", "place": "Istanbul", "source": "Wikidata", "link": "http://www.wikidata.org/entity/Q16988436", "audit": "Break Free From Plastic Brand Audit 2023: number 1 of the World's Worst Plastic Polluters"}}, {"type": "Feature", "geometry": {"type": "Point", "coordinates": [8.486111, 47.196944]}, "properties": {"name": "Coca-Cola HBC", "group": "The Coca-Cola Company", "rank": 1, "kind": "subsidiary headquarters", "place": "Steinhausen", "source": "Wikidata", "link": "http://www.wikidata.org/entity/Q1104910", "audit": "Break Free From Plastic Brand Audit 2023: number 1 of the World's Worst Plastic Polluters"}}, {"type": "Feature", "geometry": {"type": "Point", "coordinates": [-70.65, -33.4375]}, "properties": {"name": "Coca-Cola Andina", "group": "The Coca-Cola Company", "rank": 1, "kind": "subsidiary headquarters", "place": "Santiago", "source": "Wikidata", "link": "http://www.wikidata.org/entity/Q3052066", "audit": "Break Free From Plastic Brand Audit 2023: number 1 of the World's Worst Plastic Polluters"}}, {"type": "Feature", "geometry": {"type": "Point", "coordinates": [-1.404444, 50.906667]}, "properties": {"name": "Innocent Drinks", "group": "The Coca-Cola Company", "rank": 1, "kind": "subsidiary headquarters", "place": "Southampton", "source": "Wikidata", "link": "http://www.wikidata.org/entity/Q1664118", "audit": "Break Free From Plastic Brand Audit 2023: number 1 of the World's Worst Plastic Polluters"}}, {"type": "Feature", "geometry": {"type": "Point", "coordinates": [10.964167, 59.898889]}, "properties": {"name": "Coca-Cola Norge AS", "group": "The Coca-Cola Company", "rank": 1, "kind": "subsidiary headquarters", "place": "Lørenskog", "source": "Wikidata", "link": "http://www.wikidata.org/entity/Q17762567", "audit": "Break Free From Plastic Brand Audit 2023: number 1 of the World's Worst Plastic Polluters"}}, {"type": "Feature", "geometry": {"type": "Point", "coordinates": [-0.52102, 51.886]}, "properties": {"name": "Costa Coffee", "group": "The Coca-Cola Company", "rank": 1, "kind": "subsidiary headquarters", "place": "Dunstable", "source": "Wikidata", "link": "http://www.wikidata.org/entity/Q608845", "audit": "Break Free From Plastic Brand Audit 2023: number 1 of the World's Worst Plastic Polluters"}}, {"type": "Feature", "geometry": {"type": "Point", "coordinates": [-98.5795, 39.828175]}, "properties": {"name": "Merv Griffin Enterprises", "group": "The Coca-Cola Company", "rank": 1, "kind": "subsidiary headquarters", "place": "United States", "source": "Wikidata", "link": "http://www.wikidata.org/entity/Q6820806", "audit": "Break Free From Plastic Brand Audit 2023: number 1 of the World's Worst Plastic Polluters"}}, {"type": "Feature", "geometry": {"type": "Point", "coordinates": [4.48, 51.92]}, "properties": {"name": "Coca-Cola Nederland", "group": "The Coca-Cola Company", "rank": 1, "kind": "subsidiary headquarters", "place": "Rotterdam", "source": "Wikidata", "link": "http://www.wikidata.org/entity/Q125525121", "audit": "Break Free From Plastic Brand Audit 2023: number 1 of the World's Worst Plastic Polluters"}}, {"type": "Feature", "geometry": {"type": "Point", "coordinates": [151.21, -33.867778]}, "properties": {"name": "Coca-Cola Amatil", "group": "The Coca-Cola Company", "rank": 1, "kind": "subsidiary headquarters", "place": "Sydney", "source": "Wikidata", "link": "http://www.wikidata.org/entity/Q2981189", "audit": "Break Free From Plastic Brand Audit 2023: number 1 of the World's Worst Plastic Polluters"}}, {"type": "Feature", "geometry": {"type": "Point", "coordinates": [-75.0, 43.0]}, "properties": {"name": "Sunbow Entertainment", "group": "The Coca-Cola Company", "rank": 1, "kind": "subsidiary headquarters", "place": "New York", "source": "Wikidata", "link": "http://www.wikidata.org/entity/Q10374807", "audit": "Break Free From Plastic Brand Audit 2023: number 1 of the World's Worst Plastic Polluters"}}, {"type": "Feature", "geometry": {"type": "Point", "coordinates": [-74.006111, 40.712778]}, "properties": {"name": "Energy Brands", "group": "The Coca-Cola Company", "rank": 1, "kind": "subsidiary headquarters", "place": "New York City", "source": "Wikidata", "link": "http://www.wikidata.org/entity/Q1094880", "audit": "Break Free From Plastic Brand Audit 2023: number 1 of the World's Worst Plastic Polluters"}}, {"type": "Feature", "geometry": {"type": "Point", "coordinates": [27.570556, 53.827222]}, "properties": {"name": "Coca-Cola HBC Belarus", "group": "The Coca-Cola Company", "rank": 1, "kind": "subsidiary headquarters", "place": "Kaliadzičy", "source": "Wikidata", "link": "http://www.wikidata.org/entity/Q117220912", "audit": "Break Free From Plastic Brand Audit 2023: number 1 of the World's Worst Plastic Polluters"}}, {"type": "Feature", "geometry": {"type": "Point", "coordinates": [12.6911, 56.0483]}, "properties": {"name": "Zoégas Kaffe", "group": "Nestlé", "rank": 2, "kind": "subsidiary headquarters", "place": "Helsingborg", "source": "Wikidata", "link": "http://www.wikidata.org/entity/Q10725034", "audit": "Break Free From Plastic Brand Audit 2023: number 2 of the World's Worst Plastic Polluters"}}, {"type": "Feature", "geometry": {"type": "Point", "coordinates": [2.09389, 41.3795]}, "properties": {"name": "Nestle España", "group": "Nestlé", "rank": 2, "kind": "subsidiary headquarters", "place": "Esplugues de Llobregat", "source": "Wikidata", "link": "http://www.wikidata.org/entity/Q110872981", "audit": "Break Free From Plastic Brand Audit 2023: number 2 of the World's Worst Plastic Polluters"}}, {"type": "Feature", "geometry": {"type": "Point", "coordinates": [-85.951944, 43.468333]}, "properties": {"name": "Gerber Products Company", "group": "Nestlé", "rank": 2, "kind": "subsidiary headquarters", "place": "Fremont", "source": "Wikidata", "link": "http://www.wikidata.org/entity/Q523452", "audit": "Break Free From Plastic Brand Audit 2023: number 2 of the World's Worst Plastic Polluters"}}, {"type": "Feature", "geometry": {"type": "Point", "coordinates": [-90.646526, 41.937785]}, "properties": {"name": "Nestlé (United States)", "group": "Nestlé", "rank": 2, "kind": "subsidiary headquarters", "place": "Glendale", "source": "Wikidata", "link": "http://www.wikidata.org/entity/Q30338234", "audit": "Break Free From Plastic Brand Audit 2023: number 2 of the World's Worst Plastic Polluters"}}, {"type": "Feature", "geometry": {"type": "Point", "coordinates": [-79.402847, 43.815498]}, "properties": {"name": "Nestlé (Canada)", "group": "Nestlé", "rank": 2, "kind": "subsidiary headquarters", "place": "North York", "source": "Wikidata", "link": "http://www.wikidata.org/entity/Q30338236", "audit": "Break Free From Plastic Brand Audit 2023: number 2 of the World's Worst Plastic Polluters"}}, {"type": "Feature", "geometry": {"type": "Point", "coordinates": [18.1336, 51.7516]}, "properties": {"name": "Winiary", "group": "Nestlé", "rank": 2, "kind": "subsidiary headquarters", "place": "Kalisz", "source": "Wikidata", "link": "http://www.wikidata.org/entity/Q9375201", "audit": "Break Free From Plastic Brand Audit 2023: number 2 of the World's Worst Plastic Polluters"}}, {"type": "Feature", "geometry": {"type": "Point", "coordinates": [6.835, 46.466944]}, "properties": {"name": "Nestlé", "group": "Nestlé", "rank": 2, "kind": "headquarters", "place": "Vevey", "source": "Wikidata", "link": "http://www.wikidata.org/entity/Q160746", "audit": "Break Free From Plastic Brand Audit 2023: number 2 of the World's Worst Plastic Polluters"}}, {"type": "Feature", "geometry": {"type": "Point", "coordinates": [-79.534722, 8.971111]}, "properties": {"name": "Unilac, Inc.", "group": "Nestlé", "rank": 2, "kind": "subsidiary headquarters", "place": "Panama City", "source": "Wikidata", "link": "http://www.wikidata.org/entity/Q118287939", "audit": "Break Free From Plastic Brand Audit 2023: number 2 of the World's Worst Plastic Polluters"}}, {"type": "Feature", "geometry": {"type": "Point", "coordinates": [-1.083333, 53.95]}, "properties": {"name": "Rowntree's", "group": "Nestlé", "rank": 2, "kind": "subsidiary headquarters", "place": "York", "source": "Wikidata", "link": "http://www.wikidata.org/entity/Q695070", "audit": "Break Free From Plastic Brand Audit 2023: number 2 of the World's Worst Plastic Polluters"}}, {"type": "Feature", "geometry": {"type": "Point", "coordinates": [9.19, 45.466944]}, "properties": {"name": "Perugina", "group": "Nestlé", "rank": 2, "kind": "subsidiary headquarters", "place": "Milan", "source": "Wikidata", "link": "http://www.wikidata.org/entity/Q1080968", "audit": "Break Free From Plastic Brand Audit 2023: number 2 of the World's Worst Plastic Polluters"}}, {"type": "Feature", "geometry": {"type": "Point", "coordinates": [13.858257, 50.684577]}, "properties": {"name": "Tivall CZ", "group": "Nestlé", "rank": 2, "kind": "subsidiary headquarters", "place": "Krupka", "source": "Wikidata", "link": "http://www.wikidata.org/entity/Q54941175", "audit": "Break Free From Plastic Brand Audit 2023: number 2 of the World's Worst Plastic Polluters"}}, {"type": "Feature", "geometry": {"type": "Point", "coordinates": [-122.33, 47.605]}, "properties": {"name": "Seattle's Best Coffee", "group": "Nestlé", "rank": 2, "kind": "subsidiary headquarters", "place": "Seattle", "source": "Wikidata", "link": "http://www.wikidata.org/entity/Q766329", "audit": "Break Free From Plastic Brand Audit 2023: number 2 of the World's Worst Plastic Polluters"}}, {"type": "Feature", "geometry": {"type": "Point", "coordinates": [6.633333, 46.533333]}, "properties": {"name": "Cereal Partners Worldwide", "group": "Nestlé", "rank": 2, "kind": "subsidiary headquarters", "place": "Lausanne", "source": "Wikidata", "link": "http://www.wikidata.org/entity/Q5064058", "audit": "Break Free From Plastic Brand Audit 2023: number 2 of the World's Worst Plastic Polluters"}}, {"type": "Feature", "geometry": {"type": "Point", "coordinates": [8.459444, 47.180278]}, "properties": {"name": "Maggi", "group": "Nestlé", "rank": 2, "kind": "subsidiary headquarters", "place": "Cham", "source": "Wikidata", "link": "http://www.wikidata.org/entity/Q688424", "audit": "Break Free From Plastic Brand Audit 2023: number 2 of the World's Worst Plastic Polluters"}}, {"type": "Feature", "geometry": {"type": "Point", "coordinates": [-122.25, 37.8]}, "properties": {"name": "Blue Bottle Coffee Company", "group": "Nestlé", "rank": 2, "kind": "subsidiary headquarters", "place": "Oakland", "source": "Wikidata", "link": "http://www.wikidata.org/entity/Q4928917", "audit": "Break Free From Plastic Brand Audit 2023: number 2 of the World's Worst Plastic Polluters"}}, {"type": "Feature", "geometry": {"type": "Point", "coordinates": [6.633333, 46.533333]}, "properties": {"name": "Nespresso", "group": "Nestlé", "rank": 2, "kind": "subsidiary headquarters", "place": "Lausanne", "source": "Wikidata", "link": "http://www.wikidata.org/entity/Q301301", "audit": "Break Free From Plastic Brand Audit 2023: number 2 of the World's Worst Plastic Polluters"}}, {"type": "Feature", "geometry": {"type": "Point", "coordinates": [-1.55998, 54.305]}, "properties": {"name": "Froneri", "group": "Nestlé", "rank": 2, "kind": "subsidiary headquarters", "place": "Leeming Bar", "source": "Wikidata", "link": "http://www.wikidata.org/entity/Q7273233", "audit": "Break Free From Plastic Brand Audit 2023: number 2 of the World's Worst Plastic Polluters"}}, {"type": "Feature", "geometry": {"type": "Point", "coordinates": [6.15, 46.2]}, "properties": {"name": "Alcon", "group": "Nestlé", "rank": 2, "kind": "subsidiary headquarters", "place": "Geneva", "source": "Wikidata", "link": "http://www.wikidata.org/entity/Q684825", "audit": "Break Free From Plastic Brand Audit 2023: number 2 of the World's Worst Plastic Polluters"}}, {"type": "Feature", "geometry": {"type": "Point", "coordinates": [-73.552222, 41.096667]}, "properties": {"name": "BlueTriton Brands", "group": "Nestlé", "rank": 2, "kind": "subsidiary headquarters", "place": "Stamford", "source": "Wikidata", "link": "http://www.wikidata.org/entity/Q16242798", "audit": "Break Free From Plastic Brand Audit 2023: number 2 of the World's Worst Plastic Polluters"}}, {"type": "Feature", "geometry": {"type": "Point", "coordinates": [12.143889, 43.575556]}, "properties": {"name": "Buitoni", "group": "Nestlé", "rank": 2, "kind": "subsidiary headquarters", "place": "Sansepolcro", "source": "Wikidata", "link": "http://www.wikidata.org/entity/Q1003155", "audit": "Break Free From Plastic Brand Audit 2023: number 2 of the World's Worst Plastic Polluters"}}, {"type": "Feature", "geometry": {"type": "Point", "coordinates": [2.628889, 48.854722]}, "properties": {"name": "Herta Foods", "group": "Nestlé", "rank": 2, "kind": "subsidiary headquarters", "place": "Noisiel", "source": "Wikidata", "link": "http://www.wikidata.org/entity/Q1614599", "audit": "Break Free From Plastic Brand Audit 2023: number 2 of the World's Worst Plastic Polluters"}}, {"type": "Feature", "geometry": {"type": "Point", "coordinates": [2.628889, 48.854722]}, "properties": {"name": "Menier Chocolate", "group": "Nestlé", "rank": 2, "kind": "subsidiary headquarters", "place": "Noisiel", "source": "Wikidata", "link": "http://www.wikidata.org/entity/Q1581054", "audit": "Break Free From Plastic Brand Audit 2023: number 2 of the World's Worst Plastic Polluters"}}, {"type": "Feature", "geometry": {"type": "Point", "coordinates": [50.116667, 53.183333]}, "properties": {"name": "Ruchoco", "group": "Nestlé", "rank": 2, "kind": "subsidiary headquarters", "place": "Samara", "source": "Wikidata", "link": "http://www.wikidata.org/entity/Q4398279", "audit": "Break Free From Plastic Brand Audit 2023: number 2 of the World's Worst Plastic Polluters"}}, {"type": "Feature", "geometry": {"type": "Point", "coordinates": [9.19, 45.466944]}, "properties": {"name": "Sanpellegrino S.p.A.", "group": "Nestlé", "rank": 2, "kind": "subsidiary headquarters", "place": "Milan", "source": "Wikidata", "link": "http://www.wikidata.org/entity/Q2222482", "audit": "Break Free From Plastic Brand Audit 2023: number 2 of the World's Worst Plastic Polluters"}}, {"type": "Feature", "geometry": {"type": "Point", "coordinates": [9.19, 45.466944]}, "properties": {"name": "Buitoni", "group": "Nestlé", "rank": 2, "kind": "subsidiary headquarters", "place": "Milan", "source": "Wikidata", "link": "http://www.wikidata.org/entity/Q1003155", "audit": "Break Free From Plastic Brand Audit 2023: number 2 of the World's Worst Plastic Polluters"}}, {"type": "Feature", "geometry": {"type": "Point", "coordinates": [-6.260278, 53.349722]}, "properties": {"name": "Nestlé Ireland", "group": "Nestlé", "rank": 2, "kind": "subsidiary headquarters", "place": "Dublin", "source": "Wikidata", "link": "http://www.wikidata.org/entity/Q137537376", "audit": "Break Free From Plastic Brand Audit 2023: number 2 of the World's Worst Plastic Polluters"}}, {"type": "Feature", "geometry": {"type": "Point", "coordinates": [14.421389, 50.0875]}, "properties": {"name": "Nestlé Česko", "group": "Nestlé", "rank": 2, "kind": "subsidiary headquarters", "place": "Prague", "source": "Wikidata", "link": "http://www.wikidata.org/entity/Q58206677", "audit": "Break Free From Plastic Brand Audit 2023: number 2 of the World's Worst Plastic Polluters"}}, {"type": "Feature", "geometry": {"type": "Point", "coordinates": [10.205969, 59.745361]}, "properties": {"name": "Drammens Is", "group": "Nestlé", "rank": 2, "kind": "subsidiary headquarters", "place": "Drammen", "source": "Wikidata", "link": "http://www.wikidata.org/entity/Q5305792", "audit": "Break Free From Plastic Brand Audit 2023: number 2 of the World's Worst Plastic Polluters"}}, {"type": "Feature", "geometry": {"type": "Point", "coordinates": [6.85, 46.466667]}, "properties": {"name": "Société des Produits Nestlé", "group": "Nestlé", "rank": 2, "kind": "subsidiary headquarters", "place": "Vevey", "source": "Wikidata", "link": "http://www.wikidata.org/entity/Q100430305", "audit": "Break Free From Plastic Brand Audit 2023: number 2 of the World's Worst Plastic Polluters"}}, {"type": "Feature", "geometry": {"type": "Point", "coordinates": [34.942778, 31.996667]}, "properties": {"name": "Osem", "group": "Nestlé", "rank": 2, "kind": "subsidiary headquarters", "place": "Shoham", "source": "Wikidata", "link": "http://www.wikidata.org/entity/Q2915350", "audit": "Break Free From Plastic Brand Audit 2023: number 2 of the World's Worst Plastic Polluters"}}, {"type": "Feature", "geometry": {"type": "Point", "coordinates": [-77.0375, -12.06]}, "properties": {"name": "D'Onofrio", "group": "Nestlé", "rank": 2, "kind": "subsidiary headquarters", "place": "Lima", "source": "Wikidata", "link": "http://www.wikidata.org/entity/Q5203166", "audit": "Break Free From Plastic Brand Audit 2023: number 2 of the World's Worst Plastic Polluters"}}, {"type": "Feature", "geometry": {"type": "Point", "coordinates": [24.031592, 49.841952]}, "properties": {"name": "Svitoch", "group": "Nestlé", "rank": 2, "kind": "subsidiary headquarters", "place": "Lviv", "source": "Wikidata", "link": "http://www.wikidata.org/entity/Q7652758", "audit": "Break Free From Plastic Brand Audit 2023: number 2 of the World's Worst Plastic Polluters"}}, {"type": "Feature", "geometry": {"type": "Point", "coordinates": [6.787256, 50.661278]}, "properties": {"name": "Nestlé Purina PetCare", "group": "Nestlé", "rank": 2, "kind": "subsidiary headquarters", "place": "Euskirchen", "source": "Wikidata", "link": "http://www.wikidata.org/entity/Q542376", "audit": "Break Free From Plastic Brand Audit 2023: number 2 of the World's Worst Plastic Polluters"}}, {"type": "Feature", "geometry": {"type": "Point", "coordinates": [23.8, 38.05]}, "properties": {"name": "Nestlé Hellas", "group": "Nestlé", "rank": 2, "kind": "subsidiary headquarters", "place": "Marousi", "source": "Wikidata", "link": "http://www.wikidata.org/entity/Q141540027", "audit": "Break Free From Plastic Brand Audit 2023: number 2 of the World's Worst Plastic Polluters"}}, {"type": "Feature", "geometry": {"type": "Point", "coordinates": [-73.944824, 40.892319]}, "properties": {"name": "Unilever (United States)", "group": "Unilever", "rank": 3, "kind": "subsidiary headquarters", "place": "Englewood Cliffs", "source": "Wikidata", "link": "http://www.wikidata.org/entity/Q28971005", "audit": "Break Free From Plastic Brand Audit 2023: number 3 of the World's Worst Plastic Polluters"}}, {"type": "Feature", "geometry": {"type": "Point", "coordinates": [9.213489, 49.1319]}, "properties": {"name": "Knorr", "group": "Unilever", "rank": 3, "kind": "subsidiary headquarters", "place": "Heilbronn", "source": "Wikidata", "link": "http://www.wikidata.org/entity/Q313882", "audit": "Break Free From Plastic Brand Audit 2023: number 3 of the World's Worst Plastic Polluters"}}, {"type": "Feature", "geometry": {"type": "Point", "coordinates": [120.99277, 14.585246]}, "properties": {"name": "Unilever Philippines", "group": "Unilever", "rank": 3, "kind": "subsidiary headquarters", "place": "Paco", "source": "Wikidata", "link": "http://www.wikidata.org/entity/Q18159894", "audit": "Break Free From Plastic Brand Audit 2023: number 3 of the World's Worst Plastic Polluters"}}, {"type": "Feature", "geometry": {"type": "Point", "coordinates": [120.99277, 14.585246]}, "properties": {"name": "Unilever Philippines", "group": "Unilever", "rank": 3, "kind": "subsidiary headquarters", "place": "Manila", "source": "Wikidata", "link": "http://www.wikidata.org/entity/Q18159894", "audit": "Break Free From Plastic Brand Audit 2023: number 3 of the World's Worst Plastic Polluters"}}, {"type": "Feature", "geometry": {"type": "Point", "coordinates": [9.993404, 53.539135]}, "properties": {"name": "Unilever (Germany)", "group": "Unilever", "rank": 3, "kind": "subsidiary headquarters", "place": "Hamburg", "source": "Wikidata", "link": "http://www.wikidata.org/entity/Q28971006", "audit": "Break Free From Plastic Brand Audit 2023: number 3 of the World's Worst Plastic Polluters"}}, {"type": "Feature", "geometry": {"type": "Point", "coordinates": [72.855436, 19.113744]}, "properties": {"name": "Hindustan Unilever", "group": "Unilever", "rank": 3, "kind": "subsidiary headquarters", "place": "Mumbai", "source": "Wikidata", "link": "http://www.wikidata.org/entity/Q1619376", "audit": "Break Free From Plastic Brand Audit 2023: number 3 of the World's Worst Plastic Polluters"}}, {"type": "Feature", "geometry": {"type": "Point", "coordinates": [4.502562, 51.914429]}, "properties": {"name": "Unilever (Netherlands)", "group": "Unilever", "rank": 3, "kind": "subsidiary headquarters", "place": "Vlaardingen", "source": "Wikidata", "link": "http://www.wikidata.org/entity/Q28971003", "audit": "Break Free From Plastic Brand Audit 2023: number 3 of the World's Worst Plastic Polluters"}}, {"type": "Feature", "geometry": {"type": "Point", "coordinates": [72.8775, 19.075833]}, "properties": {"name": "Kwality Wall's", "group": "Unilever", "rank": 3, "kind": "subsidiary headquarters", "place": "Mumbai", "source": "Wikidata", "link": "http://www.wikidata.org/entity/Q6450059", "audit": "Break Free From Plastic Brand Audit 2023: number 3 of the World's Worst Plastic Polluters"}}, {"type": "Feature", "geometry": {"type": "Point", "coordinates": [73.383333, 54.966667]}, "properties": {"name": "Inmarko", "group": "Unilever", "rank": 3, "kind": "subsidiary headquarters", "place": "Omsk", "source": "Wikidata", "link": "http://www.wikidata.org/entity/Q4201147", "audit": "Break Free From Plastic Brand Audit 2023: number 3 of the World's Worst Plastic Polluters"}}, {"type": "Feature", "geometry": {"type": "Point", "coordinates": [10.0, 53.55]}, "properties": {"name": "Margarine-Union", "group": "Unilever", "rank": 3, "kind": "subsidiary headquarters", "place": "Hamburg", "source": "Wikidata", "link": "http://www.wikidata.org/entity/Q120147760", "audit": "Break Free From Plastic Brand Audit 2023: number 3 of the World's Worst Plastic Polluters"}}, {"type": "Feature", "geometry": {"type": "Point", "coordinates": [8.466111, 49.487778]}, "properties": {"name": "Sunlicht Gesellschaft", "group": "Unilever", "rank": 3, "kind": "subsidiary headquarters", "place": "Mannheim", "source": "Wikidata", "link": "http://www.wikidata.org/entity/Q107072191", "audit": "Break Free From Plastic Brand Audit 2023: number 3 of the World's Worst Plastic Polluters"}}, {"type": "Feature", "geometry": {"type": "Point", "coordinates": [0.03, 51.5]}, "properties": {"name": "John Knight", "group": "Unilever", "rank": 3, "kind": "subsidiary headquarters", "place": "Silvertown", "source": "Wikidata", "link": "http://www.wikidata.org/entity/Q106782547", "audit": "Break Free From Plastic Brand Audit 2023: number 3 of the World's Worst Plastic Polluters"}}, {"type": "Feature", "geometry": {"type": "Point", "coordinates": [-87.864444, 41.907778]}, "properties": {"name": "Alberto-Culver", "group": "Unilever", "rank": 3, "kind": "subsidiary headquarters", "place": "Melrose Park", "source": "Wikidata", "link": "http://www.wikidata.org/entity/Q1574066", "audit": "Break Free From Plastic Brand Audit 2023: number 3 of the World's Worst Plastic Polluters"}}, {"type": "Feature", "geometry": {"type": "Point", "coordinates": [13.383333, 52.516667]}, "properties": {"name": "Margarine-Union", "group": "Unilever", "rank": 3, "kind": "subsidiary headquarters", "place": "Berlin", "source": "Wikidata", "link": "http://www.wikidata.org/entity/Q120147760", "audit": "Break Free From Plastic Brand Audit 2023: number 3 of the World's Worst Plastic Polluters"}}, {"type": "Feature", "geometry": {"type": "Point", "coordinates": [4.27306, 52.10806]}, "properties": {"name": "Norfolkline", "group": "Unilever", "rank": 3, "kind": "subsidiary headquarters", "place": "Scheveningen", "source": "Wikidata", "link": "http://www.wikidata.org/entity/Q913879", "audit": "Break Free From Plastic Brand Audit 2023: number 3 of the World's Worst Plastic Polluters"}}, {"type": "Feature", "geometry": {"type": "Point", "coordinates": [-118.459167, 33.990833]}, "properties": {"name": "Dollar Shave Club", "group": "Unilever", "rank": 3, "kind": "subsidiary headquarters", "place": "Venice", "source": "Wikidata", "link": "http://www.wikidata.org/entity/Q5289224", "audit": "Break Free From Plastic Brand Audit 2023: number 3 of the World's Worst Plastic Polluters"}}, {"type": "Feature", "geometry": {"type": "Point", "coordinates": [67.01, 24.86]}, "properties": {"name": "Unilever Pakistan", "group": "Unilever", "rank": 3, "kind": "subsidiary headquarters", "place": "Karachi", "source": "Wikidata", "link": "http://www.wikidata.org/entity/Q7885211", "audit": "Break Free From Plastic Brand Audit 2023: number 3 of the World's Worst Plastic Polluters"}}, {"type": "Feature", "geometry": {"type": "Point", "coordinates": [34.891688, 31.965599]}, "properties": {"name": "Unilever Israel", "group": "Unilever", "rank": 3, "kind": "subsidiary headquarters", "place": "Lod", "source": "Wikidata", "link": "http://www.wikidata.org/entity/Q30526669", "audit": "Break Free From Plastic Brand Audit 2023: number 3 of the World's Worst Plastic Polluters"}}, {"type": "Feature", "geometry": {"type": "Point", "coordinates": [9.935556, 51.533889]}, "properties": {"name": "4P Rube Göttingen", "group": "Unilever", "rank": 3, "kind": "subsidiary headquarters", "place": "Göttingen", "source": "Wikidata", "link": "http://www.wikidata.org/entity/Q19833952", "audit": "Break Free From Plastic Brand Audit 2023: number 3 of the World's Worst Plastic Polluters"}}, {"type": "Feature", "geometry": {"type": "Point", "coordinates": [10.0, 53.55]}, "properties": {"name": "Sunlicht Gesellschaft", "group": "Unilever", "rank": 3, "kind": "subsidiary headquarters", "place": "Hamburg", "source": "Wikidata", "link": "http://www.wikidata.org/entity/Q107072191", "audit": "Break Free From Plastic Brand Audit 2023: number 3 of the World's Worst Plastic Polluters"}}, {"type": "Feature", "geometry": {"type": "Point", "coordinates": [2.305556, 48.903611]}, "properties": {"name": "Valentino Beauty", "group": "Unilever", "rank": 3, "kind": "subsidiary headquarters", "place": "Clichy", "source": "Wikidata", "link": "http://www.wikidata.org/entity/Q134788648", "audit": "Break Free From Plastic Brand Audit 2023: number 3 of the World's Worst Plastic Polluters"}}, {"type": "Feature", "geometry": {"type": "Point", "coordinates": [106.49, -6.2]}, "properties": {"name": "Unilever (Indonesia)", "group": "Unilever", "rank": 3, "kind": "subsidiary headquarters", "place": "Tangerang", "source": "Wikidata", "link": "http://www.wikidata.org/entity/Q7885208", "audit": "Break Free From Plastic Brand Audit 2023: number 3 of the World's Worst Plastic Polluters"}}, {"type": "Feature", "geometry": {"type": "Point", "coordinates": [5.135556, 47.301667]}, "properties": {"name": "Amora", "group": "Unilever", "rank": 3, "kind": "subsidiary headquarters", "place": "Chevigny-Saint-Sauveur", "source": "Wikidata", "link": "http://www.wikidata.org/entity/Q474032", "audit": "Break Free From Plastic Brand Audit 2023: number 3 of the World's Worst Plastic Polluters"}}, {"type": "Feature", "geometry": {"type": "Point", "coordinates": [34.9, 31.95]}, "properties": {"name": "Unilever Israel", "group": "Unilever", "rank": 3, "kind": "subsidiary headquarters", "place": "Lod", "source": "Wikidata", "link": "http://www.wikidata.org/entity/Q30526669", "audit": "Break Free From Plastic Brand Audit 2023: number 3 of the World's Worst Plastic Polluters"}}, {"type": "Feature", "geometry": {"type": "Point", "coordinates": [5.55, 52.316667]}, "properties": {"name": "Mentadent", "group": "Unilever", "rank": 3, "kind": "subsidiary headquarters", "place": "Netherlands", "source": "Wikidata", "link": "http://www.wikidata.org/entity/Q3854745", "audit": "Break Free From Plastic Brand Audit 2023: number 3 of the World's Worst Plastic Polluters"}}, {"type": "Feature", "geometry": {"type": "Point", "coordinates": [-4.25, 55.861111]}, "properties": {"name": "Q874407", "group": "Unilever", "rank": 3, "kind": "subsidiary headquarters", "place": "Glasgow", "source": "Wikidata", "link": "http://www.wikidata.org/entity/Q874407", "audit": "Break Free From Plastic Brand Audit 2023: number 3 of the World's Worst Plastic Polluters"}}, {"type": "Feature", "geometry": {"type": "Point", "coordinates": [37.6175, 55.750556]}, "properties": {"name": "Moscow margarine factory", "group": "Unilever", "rank": 3, "kind": "subsidiary headquarters", "place": "Moscow", "source": "Wikidata", "link": "http://www.wikidata.org/entity/Q19910161", "audit": "Break Free From Plastic Brand Audit 2023: number 3 of the World's Worst Plastic Polluters"}}, {"type": "Feature", "geometry": {"type": "Point", "coordinates": [60.612778, 56.835556]}, "properties": {"name": "Kalina", "group": "Unilever", "rank": 3, "kind": "subsidiary headquarters", "place": "Yekaterinburg", "source": "Wikidata", "link": "http://www.wikidata.org/entity/Q4209414", "audit": "Break Free From Plastic Brand Audit 2023: number 3 of the World's Worst Plastic Polluters"}}, {"type": "Feature", "geometry": {"type": "Point", "coordinates": [12.916667, 56.083333]}, "properties": {"name": "Findus", "group": "Unilever", "rank": 3, "kind": "subsidiary headquarters", "place": "Bjuv Municipality", "source": "Wikidata", "link": "http://www.wikidata.org/entity/Q869728", "audit": "Break Free From Plastic Brand Audit 2023: number 3 of the World's Worst Plastic Polluters"}}, {"type": "Feature", "geometry": {"type": "Point", "coordinates": [-0.1275, 51.507222]}, "properties": {"name": "Bovril", "group": "Unilever", "rank": 3, "kind": "subsidiary headquarters", "place": "London", "source": "Wikidata", "link": "http://www.wikidata.org/entity/Q2441410", "audit": "Break Free From Plastic Brand Audit 2023: number 3 of the World's Worst Plastic Polluters"}}, {"type": "Feature", "geometry": {"type": "Point", "coordinates": [-74.006111, 40.712778]}, "properties": {"name": "Sir Kensington’s", "group": "Unilever", "rank": 3, "kind": "subsidiary headquarters", "place": "New York City", "source": "Wikidata", "link": "http://www.wikidata.org/entity/Q48740752", "audit": "Break Free From Plastic Brand Audit 2023: number 3 of the World's Worst Plastic Polluters"}}, {"type": "Feature", "geometry": {"type": "Point", "coordinates": [9.9333, 53.55]}, "properties": {"name": "Deutsche Jurgens-Werke", "group": "Unilever", "rank": 3, "kind": "subsidiary headquarters", "place": "Altona", "source": "Wikidata", "link": "http://www.wikidata.org/entity/Q107013863", "audit": "Break Free From Plastic Brand Audit 2023: number 3 of the World's Worst Plastic Polluters"}}, {"type": "Feature", "geometry": {"type": "Point", "coordinates": [-73.17083, 44.46694]}, "properties": {"name": "Ben & Jerry's", "group": "Unilever", "rank": 3, "kind": "subsidiary headquarters", "place": "South Burlington", "source": "Wikidata", "link": "http://www.wikidata.org/entity/Q816412", "audit": "Break Free From Plastic Brand Audit 2023: number 3 of the World's Worst Plastic Polluters"}}, {"type": "Feature", "geometry": {"type": "Point", "coordinates": [4.48, 51.92]}, "properties": {"name": "Unilever", "group": "Unilever", "rank": 3, "kind": "headquarters", "place": "Rotterdam", "source": "Wikidata", "link": "http://www.wikidata.org/entity/Q157062", "audit": "Break Free From Plastic Brand Audit 2023: number 3 of the World's Worst Plastic Polluters"}}, {"type": "Feature", "geometry": {"type": "Point", "coordinates": [12.482778, 41.893056]}, "properties": {"name": "Findus", "group": "Unilever", "rank": 3, "kind": "subsidiary headquarters", "place": "Rome", "source": "Wikidata", "link": "http://www.wikidata.org/entity/Q869728", "audit": "Break Free From Plastic Brand Audit 2023: number 3 of the World's Worst Plastic Polluters"}}, {"type": "Feature", "geometry": {"type": "Point", "coordinates": [151.21, -33.867778]}, "properties": {"name": "Unilever Australasia", "group": "Unilever", "rank": 3, "kind": "subsidiary headquarters", "place": "Sydney", "source": "Wikidata", "link": "http://www.wikidata.org/entity/Q7885206", "audit": "Break Free From Plastic Brand Audit 2023: number 3 of the World's Worst Plastic Polluters"}}, {"type": "Feature", "geometry": {"type": "Point", "coordinates": [-122.679167, 45.515]}, "properties": {"name": "Tazo", "group": "Unilever", "rank": 3, "kind": "subsidiary headquarters", "place": "Portland", "source": "Wikidata", "link": "http://www.wikidata.org/entity/Q766351", "audit": "Break Free From Plastic Brand Audit 2023: number 3 of the World's Worst Plastic Polluters"}}, {"type": "Feature", "geometry": {"type": "Point", "coordinates": [7.676111, 45.079167]}, "properties": {"name": "Grom", "group": "Unilever", "rank": 3, "kind": "subsidiary headquarters", "place": "Turin", "source": "Wikidata", "link": "http://www.wikidata.org/entity/Q3776892", "audit": "Break Free From Plastic Brand Audit 2023: number 3 of the World's Worst Plastic Polluters"}}, {"type": "Feature", "geometry": {"type": "Point", "coordinates": [13.266667, 52.483333]}, "properties": {"name": "Deutsche Jurgens-Werke", "group": "Unilever", "rank": 3, "kind": "subsidiary headquarters", "place": "Grunewald", "source": "Wikidata", "link": "http://www.wikidata.org/entity/Q107013863", "audit": "Break Free From Plastic Brand Audit 2023: number 3 of the World's Worst Plastic Polluters"}}, {"type": "Feature", "geometry": {"type": "Point", "coordinates": [-0.1275, 51.507222]}, "properties": {"name": "Unilever", "group": "Unilever", "rank": 3, "kind": "headquarters", "place": "London", "source": "Wikidata", "link": "http://www.wikidata.org/entity/Q157062", "audit": "Break Free From Plastic Brand Audit 2023: number 3 of the World's Worst Plastic Polluters"}}, {"type": "Feature", "geometry": {"type": "Point", "coordinates": [12.9, 53.7]}, "properties": {"name": "Pfanni", "group": "Unilever", "rank": 3, "kind": "subsidiary headquarters", "place": "Stavenhagen", "source": "Wikidata", "link": "http://www.wikidata.org/entity/Q1349139", "audit": "Break Free From Plastic Brand Audit 2023: number 3 of the World's Worst Plastic Polluters"}}, {"type": "Feature", "geometry": {"type": "Point", "coordinates": [106.826944, -6.175278]}, "properties": {"name": "Unilever (Indonesia)", "group": "Unilever", "rank": 3, "kind": "subsidiary headquarters", "place": "Jakarta", "source": "Wikidata", "link": "http://www.wikidata.org/entity/Q7885208", "audit": "Break Free From Plastic Brand Audit 2023: number 3 of the World's Worst Plastic Polluters"}}, {"type": "Feature", "geometry": {"type": "Point", "coordinates": [37.6175, 55.750556]}, "properties": {"name": "Lebedyansky", "group": "PepsiCo", "rank": 4, "kind": "subsidiary headquarters", "place": "Moscow", "source": "Wikidata", "link": "http://www.wikidata.org/entity/Q642959", "audit": "Break Free From Plastic Brand Audit 2023: number 4 of the World's Worst Plastic Polluters"}}, {"type": "Feature", "geometry": {"type": "Point", "coordinates": [-66.885556, 10.4975]}, "properties": {"name": "Pepsi-Cola Venezuela", "group": "PepsiCo", "rank": 4, "kind": "subsidiary headquarters", "place": "Plaza Venezuela", "source": "Wikidata", "link": "http://www.wikidata.org/entity/Q6071936", "audit": "Break Free From Plastic Brand Audit 2023: number 4 of the World's Worst Plastic Polluters"}}, {"type": "Feature", "geometry": {"type": "Point", "coordinates": [37.5658, 55.8781]}, "properties": {"name": "Lianozovsky dairy combine", "group": "PepsiCo", "rank": 4, "kind": "subsidiary headquarters", "place": "Vostochnoye Degunino District", "source": "Wikidata", "link": "http://www.wikidata.org/entity/Q19844075", "audit": "Break Free From Plastic Brand Audit 2023: number 4 of the World's Worst Plastic Polluters"}}, {"type": "Feature", "geometry": {"type": "Point", "coordinates": [-73.766667, 41.0325]}, "properties": {"name": "Sabra", "group": "PepsiCo", "rank": 4, "kind": "subsidiary headquarters", "place": "White Plains", "source": "Wikidata", "link": "http://www.wikidata.org/entity/Q7396323", "audit": "Break Free From Plastic Brand Audit 2023: number 4 of the World's Worst Plastic Polluters"}}, {"type": "Feature", "geometry": {"type": "Point", "coordinates": [4.8, 52.466667]}, "properties": {"name": "Duyvis", "group": "PepsiCo", "rank": 4, "kind": "subsidiary headquarters", "place": "Koog aan de Zaan", "source": "Wikidata", "link": "http://www.wikidata.org/entity/Q2189294", "audit": "Break Free From Plastic Brand Audit 2023: number 4 of the World's Worst Plastic Polluters"}}, {"type": "Feature", "geometry": {"type": "Point", "coordinates": [-73.714444, 41.040556]}, "properties": {"name": "PepsiCo", "group": "PepsiCo", "rank": 4, "kind": "headquarters", "place": "Purchase", "source": "Wikidata", "link": "http://www.wikidata.org/entity/Q334800", "audit": "Break Free From Plastic Brand Audit 2023: number 4 of the World's Worst Plastic Polluters"}}, {"type": "Feature", "geometry": {"type": "Point", "coordinates": [-105.292778, 40.019444]}, "properties": {"name": "Izze Beverage Company", "group": "PepsiCo", "rank": 4, "kind": "subsidiary headquarters", "place": "Boulder", "source": "Wikidata", "link": "http://www.wikidata.org/entity/Q16850746", "audit": "Break Free From Plastic Brand Audit 2023: number 4 of the World's Worst Plastic Polluters"}}, {"type": "Feature", "geometry": {"type": "Point", "coordinates": [-103.933333, 19.183333]}, "properties": {"name": "Gamesa", "group": "PepsiCo", "rank": 4, "kind": "subsidiary headquarters", "place": "Coquimatlán Municipality", "source": "Wikidata", "link": "http://www.wikidata.org/entity/Q5520129", "audit": "Break Free From Plastic Brand Audit 2023: number 4 of the World's Worst Plastic Polluters"}}, {"type": "Feature", "geometry": {"type": "Point", "coordinates": [-87.627778, 41.881944]}, "properties": {"name": "Quaker Oats Company", "group": "PepsiCo", "rank": 4, "kind": "subsidiary headquarters", "place": "Chicago", "source": "Wikidata", "link": "http://www.wikidata.org/entity/Q2699694", "audit": "Break Free From Plastic Brand Audit 2023: number 4 of the World's Worst Plastic Polluters"}}, {"type": "Feature", "geometry": {"type": "Point", "coordinates": [31.8, 47.43]}, "properties": {"name": "Sandora", "group": "PepsiCo", "rank": 4, "kind": "subsidiary headquarters", "place": "Mykolaiv Oblast", "source": "Wikidata", "link": "http://www.wikidata.org/entity/Q4407548", "audit": "Break Free From Plastic Brand Audit 2023: number 4 of the World's Worst Plastic Polluters"}}, {"type": "Feature", "geometry": {"type": "Point", "coordinates": [3.35, 6.533333]}, "properties": {"name": "Pepsi", "group": "PepsiCo", "rank": 4, "kind": "subsidiary headquarters", "place": "Mushin", "source": "Wikidata", "link": "http://www.wikidata.org/entity/Q47719", "audit": "Break Free From Plastic Brand Audit 2023: number 4 of the World's Worst Plastic Polluters"}}, {"type": "Feature", "geometry": {"type": "Point", "coordinates": [-87.627778, 41.881944]}, "properties": {"name": "Tropicana Products", "group": "PepsiCo", "rank": 4, "kind": "subsidiary headquarters", "place": "Chicago", "source": "Wikidata", "link": "http://www.wikidata.org/entity/Q1846049", "audit": "Break Free From Plastic Brand Audit 2023: number 4 of the World's Worst Plastic Polluters"}}, {"type": "Feature", "geometry": {"type": "Point", "coordinates": [151.181389, -33.796667]}, "properties": {"name": "The Smith's Snackfood Company", "group": "PepsiCo", "rank": 4, "kind": "subsidiary headquarters", "place": "Chatswood", "source": "Wikidata", "link": "http://www.wikidata.org/entity/Q7764913", "audit": "Break Free From Plastic Brand Audit 2023: number 4 of the World's Worst Plastic Polluters"}}, {"type": "Feature", "geometry": {"type": "Point", "coordinates": [-1.15754, 52.669169]}, "properties": {"name": "PepsiCo Holdings", "group": "PepsiCo", "rank": 4, "kind": "subsidiary headquarters", "place": "Leicester", "source": "Wikidata", "link": "http://www.wikidata.org/entity/Q30713701", "audit": "Break Free From Plastic Brand Audit 2023: number 4 of the World's Worst Plastic Polluters"}}, {"type": "Feature", "geometry": {"type": "Point", "coordinates": [34.907683, 32.185783]}, "properties": {"name": "SodaStream", "group": "PepsiCo", "rank": 4, "kind": "subsidiary headquarters", "place": "Kfar Saba", "source": "Wikidata", "link": "http://www.wikidata.org/entity/Q683006", "audit": "Break Free From Plastic Brand Audit 2023: number 4 of the World's Worst Plastic Polluters"}}, {"type": "Feature", "geometry": {"type": "Point", "coordinates": [-49.271944, -25.429722]}, "properties": {"name": "Elma Chips", "group": "PepsiCo", "rank": 4, "kind": "subsidiary headquarters", "place": "Curitiba", "source": "Wikidata", "link": "http://www.wikidata.org/entity/Q96210467", "audit": "Break Free From Plastic Brand Audit 2023: number 4 of the World's Worst Plastic Polluters"}}, {"type": "Feature", "geometry": {"type": "Point", "coordinates": [-79.608722, 43.655972]}, "properties": {"name": "PepsiCo Canada", "group": "PepsiCo", "rank": 4, "kind": "subsidiary headquarters", "place": "Mississauga", "source": "Wikidata", "link": "http://www.wikidata.org/entity/Q30713677", "audit": "Break Free From Plastic Brand Audit 2023: number 4 of the World's Worst Plastic Polluters"}}, {"type": "Feature", "geometry": {"type": "Point", "coordinates": [3.36305, 6.52641]}, "properties": {"name": "Pepsi", "group": "PepsiCo", "rank": 4, "kind": "subsidiary headquarters", "place": "Mushin", "source": "Wikidata", "link": "http://www.wikidata.org/entity/Q47719", "audit": "Break Free From Plastic Brand Audit 2023: number 4 of the World's Worst Plastic Polluters"}}, {"type": "Feature", "geometry": {"type": "Point", "coordinates": [-96.75, 33.05]}, "properties": {"name": "Frito-Lay", "group": "PepsiCo", "rank": 4, "kind": "subsidiary headquarters", "place": "Plano", "source": "Wikidata", "link": "http://www.wikidata.org/entity/Q1221751", "audit": "Break Free From Plastic Brand Audit 2023: number 4 of the World's Worst Plastic Polluters"}}, {"type": "Feature", "geometry": {"type": "Point", "coordinates": [-87.627778, 41.881944]}, "properties": {"name": "Gatorade", "group": "PepsiCo", "rank": 4, "kind": "subsidiary headquarters", "place": "Chicago", "source": "Wikidata", "link": "http://www.wikidata.org/entity/Q304992", "audit": "Break Free From Plastic Brand Audit 2023: number 4 of the World's Worst Plastic Polluters"}}, {"type": "Feature", "geometry": {"type": "Point", "coordinates": [1.323333, 47.6225]}, "properties": {"name": "Chocolat Poulain", "group": "Mondelēz International", "rank": 5, "kind": "subsidiary headquarters", "place": "Villebarou", "source": "Wikidata", "link": "http://www.wikidata.org/entity/Q2376804", "audit": "Break Free From Plastic Brand Audit 2023: number 5 of the World's Worst Plastic Polluters"}}, {"type": "Feature", "geometry": {"type": "Point", "coordinates": [37.6175, 55.750556]}, "properties": {"name": "Alpen Gold", "group": "Mondelēz International", "rank": 5, "kind": "subsidiary headquarters", "place": "Moscow", "source": "Wikidata", "link": "http://www.wikidata.org/entity/Q4033817", "audit": "Break Free From Plastic Brand Audit 2023: number 5 of the World's Worst Plastic Polluters"}}, {"type": "Feature", "geometry": {"type": "Point", "coordinates": [3.393611, 6.456111]}, "properties": {"name": "Cadbury Nigeria Plc", "group": "Mondelēz International", "rank": 5, "kind": "subsidiary headquarters", "place": "Lagos", "source": "Wikidata", "link": "http://www.wikidata.org/entity/Q60751390", "audit": "Break Free From Plastic Brand Audit 2023: number 5 of the World's Worst Plastic Polluters"}}, {"type": "Feature", "geometry": {"type": "Point", "coordinates": [-87.627778, 41.881944]}, "properties": {"name": "Mondelez International", "group": "Mondelēz International", "rank": 5, "kind": "headquarters", "place": "Chicago", "source": "Wikidata", "link": "http://www.wikidata.org/entity/Q12857502", "audit": "Break Free From Plastic Brand Audit 2023: number 5 of the World's Worst Plastic Polluters"}}, {"type": "Feature", "geometry": {"type": "Point", "coordinates": [-74.3637, 40.8186]}, "properties": {"name": "Nabisco", "group": "Mondelēz International", "rank": 5, "kind": "subsidiary headquarters", "place": "East Hanover", "source": "Wikidata", "link": "http://www.wikidata.org/entity/Q1545718", "audit": "Break Free From Plastic Brand Audit 2023: number 5 of the World's Worst Plastic Polluters"}}, {"type": "Feature", "geometry": {"type": "Point", "coordinates": [14.421389, 50.0875]}, "properties": {"name": "Mondelez CR Biscuit Production", "group": "Mondelēz International", "rank": 5, "kind": "subsidiary headquarters", "place": "Prague", "source": "Wikidata", "link": "http://www.wikidata.org/entity/Q58196997", "audit": "Break Free From Plastic Brand Audit 2023: number 5 of the World's Worst Plastic Polluters"}}, {"type": "Feature", "geometry": {"type": "Point", "coordinates": [8.006389, 48.819167]}, "properties": {"name": "Lefèvre-Utile", "group": "Mondelēz International", "rank": 5, "kind": "subsidiary headquarters", "place": "Rountzenheim", "source": "Wikidata", "link": "http://www.wikidata.org/entity/Q779511", "audit": "Break Free From Plastic Brand Audit 2023: number 5 of the World's Worst Plastic Polluters"}}, {"type": "Feature", "geometry": {"type": "Point", "coordinates": [10.738889, 59.913333]}, "properties": {"name": "Freia", "group": "Mondelēz International", "rank": 5, "kind": "subsidiary headquarters", "place": "Q585", "source": "Wikidata", "link": "http://www.wikidata.org/entity/Q1453800", "audit": "Break Free From Plastic Brand Audit 2023: number 5 of the World's Worst Plastic Polluters"}}, {"type": "Feature", "geometry": {"type": "Point", "coordinates": [-0.499, 51.563]}, "properties": {"name": "Cadbury", "group": "Mondelēz International", "rank": 5, "kind": "subsidiary headquarters", "place": "Denham", "source": "Wikidata", "link": "http://www.wikidata.org/entity/Q6677525", "audit": "Break Free From Plastic Brand Audit 2023: number 5 of the World's Worst Plastic Polluters"}}, {"type": "Feature", "geometry": {"type": "Point", "coordinates": [139.691667, 35.689444]}, "properties": {"name": "Mondelēz Japan", "group": "Mondelēz International", "rank": 5, "kind": "subsidiary headquarters", "place": "Tokyo", "source": "Wikidata", "link": "http://www.wikidata.org/entity/Q11506393", "audit": "Break Free From Plastic Brand Audit 2023: number 5 of the World's Worst Plastic Polluters"}}, {"type": "Feature", "geometry": {"type": "Point", "coordinates": [-0.48007, 51.555884]}, "properties": {"name": "Mondelēz International (United Kingdom)", "group": "Mondelēz International", "rank": 5, "kind": "subsidiary headquarters", "place": "Uxbridge", "source": "Wikidata", "link": "http://www.wikidata.org/entity/Q29002342", "audit": "Break Free From Plastic Brand Audit 2023: number 5 of the World's Worst Plastic Polluters"}}, {"type": "Feature", "geometry": {"type": "Point", "coordinates": [8.690356, 44.728869]}, "properties": {"name": "Saiwa", "group": "Mondelēz International", "rank": 5, "kind": "subsidiary headquarters", "place": "Capriata d'Orba", "source": "Wikidata", "link": "http://www.wikidata.org/entity/Q3945151", "audit": "Break Free From Plastic Brand Audit 2023: number 5 of the World's Worst Plastic Polluters"}}, {"type": "Feature", "geometry": {"type": "Point", "coordinates": [8.797101, 53.076041]}, "properties": {"name": "Mondelēz International (Germany)", "group": "Mondelēz International", "rank": 5, "kind": "subsidiary headquarters", "place": "Bremen", "source": "Wikidata", "link": "http://www.wikidata.org/entity/Q30343760", "audit": "Break Free From Plastic Brand Audit 2023: number 5 of the World's Worst Plastic Polluters"}}, {"type": "Feature", "geometry": {"type": "Point", "coordinates": [103.818249, 1.265075]}, "properties": {"name": "Mondelēz International (Singapore)", "group": "Mondelēz International", "rank": 5, "kind": "subsidiary headquarters", "place": "Singapore", "source": "Wikidata", "link": "http://www.wikidata.org/entity/Q29002343", "audit": "Break Free From Plastic Brand Audit 2023: number 5 of the World's Worst Plastic Polluters"}}, {"type": "Feature", "geometry": {"type": "Point", "coordinates": [-74.365, 40.82]}, "properties": {"name": "Nabisco", "group": "Mondelēz International", "rank": 5, "kind": "subsidiary headquarters", "place": "East Hanover", "source": "Wikidata", "link": "http://www.wikidata.org/entity/Q1545718", "audit": "Break Free From Plastic Brand Audit 2023: number 5 of the World's Worst Plastic Polluters"}}, {"type": "Feature", "geometry": {"type": "Point", "coordinates": [8.766769, 53.103]}, "properties": {"name": "Café HAG", "group": "Mondelēz International", "rank": 5, "kind": "subsidiary headquarters", "place": "Bremen", "source": "Wikidata", "link": "http://www.wikidata.org/entity/Q1721037", "audit": "Break Free From Plastic Brand Audit 2023: number 5 of the World's Worst Plastic Polluters"}}, {"type": "Feature", "geometry": {"type": "Point", "coordinates": [-7.62, 33.599167]}, "properties": {"name": "Bimo (Morocco)", "group": "Mondelēz International", "rank": 5, "kind": "subsidiary headquarters", "place": "Casablanca", "source": "Wikidata", "link": "http://www.wikidata.org/entity/Q2903813", "audit": "Break Free From Plastic Brand Audit 2023: number 5 of the World's Worst Plastic Polluters"}}, {"type": "Feature", "geometry": {"type": "Point", "coordinates": [-79.678456, 43.605589]}, "properties": {"name": "Mondelēz International (Canada)", "group": "Mondelēz International", "rank": 5, "kind": "subsidiary headquarters", "place": "Mississauga", "source": "Wikidata", "link": "http://www.wikidata.org/entity/Q29002344", "audit": "Break Free From Plastic Brand Audit 2023: number 5 of the World's Worst Plastic Polluters"}}, {"type": "Feature", "geometry": {"type": "Point", "coordinates": [2.352222, 48.856667]}, "properties": {"name": "Cadbury France", "group": "Mondelēz International", "rank": 5, "kind": "subsidiary headquarters", "place": "Paris", "source": "Wikidata", "link": "http://www.wikidata.org/entity/Q2932616", "audit": "Break Free From Plastic Brand Audit 2023: number 5 of the World's Worst Plastic Polluters"}}, {"type": "Feature", "geometry": {"type": "Point", "coordinates": [2.261944, 48.800833]}, "properties": {"name": "Mondelez France SAS", "group": "Mondelēz International", "rank": 5, "kind": "subsidiary headquarters", "place": "Clamart", "source": "Wikidata", "link": "http://www.wikidata.org/entity/Q62098652", "audit": "Break Free From Plastic Brand Audit 2023: number 5 of the World's Worst Plastic Polluters"}}, {"type": "Feature", "geometry": {"type": "Point", "coordinates": [14.421389, 50.0875]}, "properties": {"name": "Opavia", "group": "Mondelēz International", "rank": 5, "kind": "subsidiary headquarters", "place": "Prague", "source": "Wikidata", "link": "http://www.wikidata.org/entity/Q2025018", "audit": "Break Free From Plastic Brand Audit 2023: number 5 of the World's Worst Plastic Polluters"}}, {"type": "Feature", "geometry": {"type": "Point", "coordinates": [-84.31167, 39.35778]}, "properties": {"name": "Iams", "group": "Mars, Inc.", "rank": 6, "kind": "subsidiary headquarters", "place": "Mason", "source": "Wikidata", "link": "http://www.wikidata.org/entity/Q1466792", "audit": "Break Free From Plastic Brand Audit 2023: number 6 of the World's Worst Plastic Polluters"}}, {"type": "Feature", "geometry": {"type": "Point", "coordinates": [-86.8575, 35.929167]}, "properties": {"name": "Nutro Products", "group": "Mars, Inc.", "rank": 6, "kind": "subsidiary headquarters", "place": "Franklin", "source": "Wikidata", "link": "http://www.wikidata.org/entity/Q7070532", "audit": "Break Free From Plastic Brand Audit 2023: number 6 of the World's Worst Plastic Polluters"}}, {"type": "Feature", "geometry": {"type": "Point", "coordinates": [-98.5795, 39.828175]}, "properties": {"name": "Mars, Incorporated", "group": "Mars, Inc.", "rank": 6, "kind": "headquarters", "place": "United States", "source": "Wikidata", "link": "http://www.wikidata.org/entity/Q695087", "audit": "Break Free From Plastic Brand Audit 2023: number 6 of the World's Worst Plastic Polluters"}}, {"type": "Feature", "geometry": {"type": "Point", "coordinates": [-77.175278, 38.928333]}, "properties": {"name": "Pedigree Petfoods", "group": "Mars, Inc.", "rank": 6, "kind": "subsidiary headquarters", "place": "McLean", "source": "Wikidata", "link": "http://www.wikidata.org/entity/Q2027177", "audit": "Break Free From Plastic Brand Audit 2023: number 6 of the World's Worst Plastic Polluters"}}, {"type": "Feature", "geometry": {"type": "Point", "coordinates": [2.285363, 48.871543]}, "properties": {"name": "Mars (France)", "group": "Mars, Inc.", "rank": 6, "kind": "subsidiary headquarters", "place": "Paris", "source": "Wikidata", "link": "http://www.wikidata.org/entity/Q29123749", "audit": "Break Free From Plastic Brand Audit 2023: number 6 of the World's Worst Plastic Polluters"}}, {"type": "Feature", "geometry": {"type": "Point", "coordinates": [-122.419444, 37.775]}, "properties": {"name": "Whistle", "group": "Mars, Inc.", "rank": 6, "kind": "subsidiary headquarters", "place": "San Francisco", "source": "Wikidata", "link": "http://www.wikidata.org/entity/Q30598093", "audit": "Break Free From Plastic Brand Audit 2023: number 6 of the World's Worst Plastic Polluters"}}, {"type": "Feature", "geometry": {"type": "Point", "coordinates": [7.787778, 48.816667]}, "properties": {"name": "Mars Wrigley Confectionary", "group": "Mars, Inc.", "rank": 6, "kind": "subsidiary headquarters", "place": "Haguenau", "source": "Wikidata", "link": "http://www.wikidata.org/entity/Q3294954", "audit": "Break Free From Plastic Brand Audit 2023: number 6 of the World's Worst Plastic Polluters"}}, {"type": "Feature", "geometry": {"type": "Point", "coordinates": [-95.383056, 29.762778]}, "properties": {"name": "Ben's Original", "group": "Mars, Inc.", "rank": 6, "kind": "subsidiary headquarters", "place": "Houston", "source": "Wikidata", "link": "http://www.wikidata.org/entity/Q566095", "audit": "Break Free From Plastic Brand Audit 2023: number 6 of the World's Worst Plastic Polluters"}}, {"type": "Feature", "geometry": {"type": "Point", "coordinates": [-122.580019, 45.536444]}, "properties": {"name": "Banfield Pet Hospital", "group": "Mars, Inc.", "rank": 6, "kind": "subsidiary headquarters", "place": "Portland", "source": "Wikidata", "link": "http://www.wikidata.org/entity/Q2882416", "audit": "Break Free From Plastic Brand Audit 2023: number 6 of the World's Worst Plastic Polluters"}}, {"type": "Feature", "geometry": {"type": "Point", "coordinates": [-77.175278, 38.928333]}, "properties": {"name": "Mars, Incorporated", "group": "Mars, Inc.", "rank": 6, "kind": "headquarters", "place": "McLean", "source": "Wikidata", "link": "http://www.wikidata.org/entity/Q695087", "audit": "Break Free From Plastic Brand Audit 2023: number 6 of the World's Worst Plastic Polluters"}}, {"type": "Feature", "geometry": {"type": "Point", "coordinates": [4.208611, 43.684722]}, "properties": {"name": "Royal Canin", "group": "Mars, Inc.", "rank": 6, "kind": "subsidiary headquarters", "place": "Aimargues", "source": "Wikidata", "link": "http://www.wikidata.org/entity/Q1849609", "audit": "Break Free From Plastic Brand Audit 2023: number 6 of the World's Worst Plastic Polluters"}}, {"type": "Feature", "geometry": {"type": "Point", "coordinates": [-87.627778, 41.881944]}, "properties": {"name": "Wrigley Company", "group": "Mars, Inc.", "rank": 6, "kind": "subsidiary headquarters", "place": "Chicago", "source": "Wikidata", "link": "http://www.wikidata.org/entity/Q819241", "audit": "Break Free From Plastic Brand Audit 2023: number 6 of the World's Worst Plastic Polluters"}}, {"type": "Feature", "geometry": {"type": "Point", "coordinates": [-0.632692, 51.52384]}, "properties": {"name": "Mars (United Kingdom)", "group": "Mars, Inc.", "rank": 6, "kind": "subsidiary headquarters", "place": "Slough", "source": "Wikidata", "link": "http://www.wikidata.org/entity/Q29123751", "audit": "Break Free From Plastic Brand Audit 2023: number 6 of the World's Worst Plastic Polluters"}}, {"type": "Feature", "geometry": {"type": "Point", "coordinates": [8.65, 49.866667]}, "properties": {"name": "Wella", "group": "Procter & Gamble", "rank": 7, "kind": "subsidiary headquarters", "place": "Darmstadt", "source": "Wikidata", "link": "http://www.wikidata.org/entity/Q702674", "audit": "Break Free From Plastic Brand Audit 2023: number 7 of the World's Worst Plastic Polluters"}}, {"type": "Feature", "geometry": {"type": "Point", "coordinates": [13.733473, 50.103793]}, "properties": {"name": "Procter & Gamble - Rakona", "group": "Procter & Gamble", "rank": 7, "kind": "subsidiary headquarters", "place": "Rakovník", "source": "Wikidata", "link": "http://www.wikidata.org/entity/Q28807997", "audit": "Break Free From Plastic Brand Audit 2023: number 7 of the World's Worst Plastic Polluters"}}, {"type": "Feature", "geometry": {"type": "Point", "coordinates": [2.315206, 48.915838]}, "properties": {"name": "Procter & Gamble (France)", "group": "Procter & Gamble", "rank": 7, "kind": "subsidiary headquarters", "place": "Asnières-sur-Seine", "source": "Wikidata", "link": "http://www.wikidata.org/entity/Q30343799", "audit": "Break Free From Plastic Brand Audit 2023: number 7 of the World's Worst Plastic Polluters"}}, {"type": "Feature", "geometry": {"type": "Point", "coordinates": [2.305556, 48.903611]}, "properties": {"name": "Valentino Beauty", "group": "Procter & Gamble", "rank": 7, "kind": "subsidiary headquarters", "place": "Clichy", "source": "Wikidata", "link": "http://www.wikidata.org/entity/Q134788648", "audit": "Break Free From Plastic Brand Audit 2023: number 7 of the World's Worst Plastic Polluters"}}, {"type": "Feature", "geometry": {"type": "Point", "coordinates": [-84.353, 39.2885]}, "properties": {"name": "Procter & Gamble", "group": "Procter & Gamble", "rank": 7, "kind": "headquarters", "place": "Cincinnati", "source": "Wikidata", "link": "http://www.wikidata.org/entity/Q212405", "audit": "Break Free From Plastic Brand Audit 2023: number 7 of the World's Worst Plastic Polluters"}}, {"type": "Feature", "geometry": {"type": "Point", "coordinates": [4.342561, 50.904462]}, "properties": {"name": "Procter & Gamble (Belgium)", "group": "Procter & Gamble", "rank": 7, "kind": "subsidiary headquarters", "place": "Grimbergen", "source": "Wikidata", "link": "http://www.wikidata.org/entity/Q30338321", "audit": "Break Free From Plastic Brand Audit 2023: number 7 of the World's Worst Plastic Polluters"}}, {"type": "Feature", "geometry": {"type": "Point", "coordinates": [-84.353, 39.2885]}, "properties": {"name": "Procter & Gamble", "group": "Procter & Gamble", "rank": 7, "kind": "headquarters", "place": "Ohio", "source": "Wikidata", "link": "http://www.wikidata.org/entity/Q212405", "audit": "Break Free From Plastic Brand Audit 2023: number 7 of the World's Worst Plastic Polluters"}}, {"type": "Feature", "geometry": {"type": "Point", "coordinates": [8.528889, 50.170833]}, "properties": {"name": "Braun", "group": "Procter & Gamble", "rank": 7, "kind": "subsidiary headquarters", "place": "Kronberg im Taunus", "source": "Wikidata", "link": "http://www.wikidata.org/entity/Q631220", "audit": "Break Free From Plastic Brand Audit 2023: number 7 of the World's Worst Plastic Polluters"}}, {"type": "Feature", "geometry": {"type": "Point", "coordinates": [8.231973, 46.798562]}, "properties": {"name": "Pantene", "group": "Procter & Gamble", "rank": 7, "kind": "subsidiary headquarters", "place": "Switzerland", "source": "Wikidata", "link": "http://www.wikidata.org/entity/Q1353013", "audit": "Break Free From Plastic Brand Audit 2023: number 7 of the World's Worst Plastic Polluters"}}, {"type": "Feature", "geometry": {"type": "Point", "coordinates": [135.183083, 34.69125]}, "properties": {"name": "P&G Japan", "group": "Procter & Gamble", "rank": 7, "kind": "subsidiary headquarters", "place": "Hyōgo Prefecture", "source": "Wikidata", "link": "http://www.wikidata.org/entity/Q11335979", "audit": "Break Free From Plastic Brand Audit 2023: number 7 of the World's Worst Plastic Polluters"}}, {"type": "Feature", "geometry": {"type": "Point", "coordinates": [8.53333, 50.15]}, "properties": {"name": "Procter & Gamble Deutschland", "group": "Procter & Gamble", "rank": 7, "kind": "subsidiary headquarters", "place": "Schwalbach am Taunus", "source": "Wikidata", "link": "http://www.wikidata.org/entity/Q30338323", "audit": "Break Free From Plastic Brand Audit 2023: number 7 of the World's Worst Plastic Polluters"}}, {"type": "Feature", "geometry": {"type": "Point", "coordinates": [-118.24368, 34.05223]}, "properties": {"name": "OUAI", "group": "Procter & Gamble", "rank": 7, "kind": "subsidiary headquarters", "place": "Los Angeles", "source": "Wikidata", "link": "http://www.wikidata.org/entity/Q111820312", "audit": "Break Free From Plastic Brand Audit 2023: number 7 of the World's Worst Plastic Polluters"}}, {"type": "Feature", "geometry": {"type": "Point", "coordinates": [-87.627778, 41.881944]}, "properties": {"name": "Ferrara Candy Company", "group": "Procter & Gamble", "rank": 7, "kind": "subsidiary headquarters", "place": "Chicago", "source": "Wikidata", "link": "http://www.wikidata.org/entity/Q5445249", "audit": "Break Free From Plastic Brand Audit 2023: number 7 of the World's Worst Plastic Polluters"}}, {"type": "Feature", "geometry": {"type": "Point", "coordinates": [-118.24368, 34.05223]}, "properties": {"name": "Max Factor", "group": "Procter & Gamble", "rank": 7, "kind": "subsidiary headquarters", "place": "Los Angeles", "source": "Wikidata", "link": "http://www.wikidata.org/entity/Q2354647", "audit": "Break Free From Plastic Brand Audit 2023: number 7 of the World's Worst Plastic Polluters"}}, {"type": "Feature", "geometry": {"type": "Point", "coordinates": [-71.057778, 42.360278]}, "properties": {"name": "Gillette", "group": "Procter & Gamble", "rank": 7, "kind": "subsidiary headquarters", "place": "Boston", "source": "Wikidata", "link": "http://www.wikidata.org/entity/Q503592", "audit": "Break Free From Plastic Brand Audit 2023: number 7 of the World's Worst Plastic Polluters"}}, {"type": "Feature", "geometry": {"type": "Point", "coordinates": [23.8, 38.05]}, "properties": {"name": "Procter & Gamble Hellas", "group": "Procter & Gamble", "rank": 7, "kind": "subsidiary headquarters", "place": "Marousi", "source": "Wikidata", "link": "http://www.wikidata.org/entity/Q141546780", "audit": "Break Free From Plastic Brand Audit 2023: number 7 of the World's Worst Plastic Polluters"}}, {"type": "Feature", "geometry": {"type": "Point", "coordinates": [89.866667, 24.016667]}, "properties": {"name": "Grameen Danone", "group": "Danone", "rank": 8, "kind": "subsidiary headquarters", "place": "Bangladesh", "source": "Wikidata", "link": "http://www.wikidata.org/entity/Q633382", "audit": "Break Free From Plastic Brand Audit 2023: number 8 of the World's Worst Plastic Polluters"}}, {"type": "Feature", "geometry": {"type": "Point", "coordinates": [19.133333, 49.6]}, "properties": {"name": "Żywiec Zdrój", "group": "Danone", "rank": 8, "kind": "subsidiary headquarters", "place": "Cięcina", "source": "Wikidata", "link": "http://www.wikidata.org/entity/Q86723894", "audit": "Break Free From Plastic Brand Audit 2023: number 8 of the World's Worst Plastic Polluters"}}, {"type": "Feature", "geometry": {"type": "Point", "coordinates": [2.176944, 41.3825]}, "properties": {"name": "Aguas Danone SA", "group": "Danone", "rank": 8, "kind": "subsidiary headquarters", "place": "Barcelona", "source": "Wikidata", "link": "http://www.wikidata.org/entity/Q110888003", "audit": "Break Free From Plastic Brand Audit 2023: number 8 of the World's Worst Plastic Polluters"}}, {"type": "Feature", "geometry": {"type": "Point", "coordinates": [21.011111, 52.23]}, "properties": {"name": "Żywiec Zdrój", "group": "Danone", "rank": 8, "kind": "subsidiary headquarters", "place": "Warsaw", "source": "Wikidata", "link": "http://www.wikidata.org/entity/Q86723894", "audit": "Break Free From Plastic Brand Audit 2023: number 8 of the World's Worst Plastic Polluters"}}, {"type": "Feature", "geometry": {"type": "Point", "coordinates": [5.038571, 52.117575]}, "properties": {"name": "Danone (Netherlands)", "group": "Danone", "rank": 8, "kind": "subsidiary headquarters", "place": "Utrecht", "source": "Wikidata", "link": "http://www.wikidata.org/entity/Q28971347", "audit": "Break Free From Plastic Brand Audit 2023: number 8 of the World's Worst Plastic Polluters"}}, {"type": "Feature", "geometry": {"type": "Point", "coordinates": [4.493333, 52.061111]}, "properties": {"name": "Nutricia", "group": "Danone", "rank": 8, "kind": "subsidiary headquarters", "place": "Zoetermeer", "source": "Wikidata", "link": "http://www.wikidata.org/entity/Q2104662", "audit": "Break Free From Plastic Brand Audit 2023: number 8 of the World's Worst Plastic Polluters"}}, {"type": "Feature", "geometry": {"type": "Point", "coordinates": [14.461389, 50.078137]}, "properties": {"name": "Danone (Czechia)", "group": "Danone", "rank": 8, "kind": "subsidiary headquarters", "place": "Prague", "source": "Wikidata", "link": "http://www.wikidata.org/entity/Q36878622", "audit": "Break Free From Plastic Brand Audit 2023: number 8 of the World's Worst Plastic Polluters"}}, {"type": "Feature", "geometry": {"type": "Point", "coordinates": [-104.984722, 39.739167]}, "properties": {"name": "Danone North America", "group": "Danone", "rank": 8, "kind": "subsidiary headquarters", "place": "Denver", "source": "Wikidata", "link": "http://www.wikidata.org/entity/Q18379350", "audit": "Break Free From Plastic Brand Audit 2023: number 8 of the World's Worst Plastic Polluters"}}, {"type": "Feature", "geometry": {"type": "Point", "coordinates": [-7.635212, 33.586661]}, "properties": {"name": "Danone (Morocco)", "group": "Danone", "rank": 8, "kind": "subsidiary headquarters", "place": "Casablanca", "source": "Wikidata", "link": "http://www.wikidata.org/entity/Q28971349", "audit": "Break Free From Plastic Brand Audit 2023: number 8 of the World's Worst Plastic Polluters"}}, {"type": "Feature", "geometry": {"type": "Point", "coordinates": [-71.373889, 42.865]}, "properties": {"name": "Stonyfield Farm", "group": "Danone", "rank": 8, "kind": "subsidiary headquarters", "place": "Londonderry", "source": "Wikidata", "link": "http://www.wikidata.org/entity/Q3499743", "audit": "Break Free From Plastic Brand Audit 2023: number 8 of the World's Worst Plastic Polluters"}}, {"type": "Feature", "geometry": {"type": "Point", "coordinates": [4.883333, 52.366667]}, "properties": {"name": "Nutricia", "group": "Danone", "rank": 8, "kind": "subsidiary headquarters", "place": "Amsterdam", "source": "Wikidata", "link": "http://www.wikidata.org/entity/Q2104662", "audit": "Break Free From Plastic Brand Audit 2023: number 8 of the World's Worst Plastic Polluters"}}, {"type": "Feature", "geometry": {"type": "Point", "coordinates": [2.684699, 48.658538]}, "properties": {"name": "Danone (France)", "group": "Danone", "rank": 8, "kind": "subsidiary headquarters", "place": "Palaiseau", "source": "Wikidata", "link": "http://www.wikidata.org/entity/Q28971348", "audit": "Break Free From Plastic Brand Audit 2023: number 8 of the World's Worst Plastic Polluters"}}, {"type": "Feature", "geometry": {"type": "Point", "coordinates": [2.307222, 48.875]}, "properties": {"name": "Danone", "group": "Danone", "rank": 8, "kind": "headquarters", "place": "Paris", "source": "Wikidata", "link": "http://www.wikidata.org/entity/Q329426", "audit": "Break Free From Plastic Brand Audit 2023: number 8 of the World's Worst Plastic Polluters"}}, {"type": "Feature", "geometry": {"type": "Point", "coordinates": [-2.192497, 51.402354]}, "properties": {"name": "Danone", "group": "Danone", "rank": 8, "kind": "subsidiary headquarters", "place": "Trowbridge", "source": "Wikidata", "link": "http://www.wikidata.org/entity/Q28971350", "audit": "Break Free From Plastic Brand Audit 2023: number 8 of the World's Worst Plastic Polluters"}}, {"type": "Feature", "geometry": {"type": "Point", "coordinates": [37.738, 55.628]}, "properties": {"name": "Q4037021", "group": "Danone", "rank": 8, "kind": "subsidiary headquarters", "place": "Moscow Oblast", "source": "Wikidata", "link": "http://www.wikidata.org/entity/Q4037021", "audit": "Break Free From Plastic Brand Audit 2023: number 8 of the World's Worst Plastic Polluters"}}, {"type": "Feature", "geometry": {"type": "Point", "coordinates": [-7.62, 33.599167]}, "properties": {"name": "Q2944575", "group": "Danone", "rank": 8, "kind": "subsidiary headquarters", "place": "Casablanca", "source": "Wikidata", "link": "http://www.wikidata.org/entity/Q2944575", "audit": "Break Free From Plastic Brand Audit 2023: number 8 of the World's Worst Plastic Polluters"}}, {"type": "Feature", "geometry": {"type": "Point", "coordinates": [120.1675, 30.25]}, "properties": {"name": "Wahaha Joint Venture Company", "group": "Danone", "rank": 8, "kind": "subsidiary headquarters", "place": "Hangzhou", "source": "Wikidata", "link": "http://www.wikidata.org/entity/Q17032450", "audit": "Break Free From Plastic Brand Audit 2023: number 8 of the World's Worst Plastic Polluters"}}, {"type": "Feature", "geometry": {"type": "Point", "coordinates": [19.14102, 49.6022]}, "properties": {"name": "Żywiec Zdrój", "group": "Danone", "rank": 8, "kind": "subsidiary headquarters", "place": "Cięcina", "source": "Wikidata", "link": "http://www.wikidata.org/entity/Q86723894", "audit": "Break Free From Plastic Brand Audit 2023: number 8 of the World's Worst Plastic Polluters"}}, {"type": "Feature", "geometry": {"type": "Point", "coordinates": [3.1839, 50.8081]}, "properties": {"name": "Q498666", "group": "Danone", "rank": 8, "kind": "subsidiary headquarters", "place": "Wevelgem", "source": "Wikidata", "link": "http://www.wikidata.org/entity/Q498666", "audit": "Break Free From Plastic Brand Audit 2023: number 8 of the World's Worst Plastic Polluters"}}, {"type": "Feature", "geometry": {"type": "Point", "coordinates": [4.771944, 45.836944]}, "properties": {"name": "Blédina", "group": "Danone", "rank": 8, "kind": "subsidiary headquarters", "place": "Limonest", "source": "Wikidata", "link": "http://www.wikidata.org/entity/Q2907440", "audit": "Break Free From Plastic Brand Audit 2023: number 8 of the World's Worst Plastic Polluters"}}, {"type": "Feature", "geometry": {"type": "Point", "coordinates": [-77.4919, 37.58]}, "properties": {"name": "Altria", "group": "Altria", "rank": 9, "kind": "headquarters", "place": "Richmond", "source": "Wikidata", "link": "http://www.wikidata.org/entity/Q445007", "audit": "Break Free From Plastic Brand Audit 2023: number 9 of the World's Worst Plastic Polluters"}}, {"type": "Feature", "geometry": {"type": "Point", "coordinates": [-77.436667, 37.540833]}, "properties": {"name": "Philip Morris USA", "group": "Altria", "rank": 9, "kind": "subsidiary headquarters", "place": "Richmond", "source": "Wikidata", "link": "http://www.wikidata.org/entity/Q1726300", "audit": "Break Free From Plastic Brand Audit 2023: number 9 of the World's Worst Plastic Polluters"}}, {"type": "Feature", "geometry": {"type": "Point", "coordinates": [-122.419444, 37.775]}, "properties": {"name": "Juul", "group": "Altria", "rank": 9, "kind": "subsidiary headquarters", "place": "San Francisco", "source": "Wikidata", "link": "http://www.wikidata.org/entity/Q21017093", "audit": "Break Free From Plastic Brand Audit 2023: number 9 of the World's Worst Plastic Polluters"}}, {"type": "Feature", "geometry": {"type": "Point", "coordinates": [28.960278, 41.01]}, "properties": {"name": "Tekel", "group": "British American Tobacco", "rank": 10, "kind": "subsidiary headquarters", "place": "Istanbul", "source": "Wikidata", "link": "http://www.wikidata.org/entity/Q3784942", "audit": "Break Free From Plastic Brand Audit 2023: number 10 of the World's Worst Plastic Polluters"}}, {"type": "Feature", "geometry": {"type": "Point", "coordinates": [-0.1275, 51.507222]}, "properties": {"name": "Rothmans International", "group": "British American Tobacco", "rank": 10, "kind": "subsidiary headquarters", "place": "London", "source": "Wikidata", "link": "http://www.wikidata.org/entity/Q597191", "audit": "Break Free From Plastic Brand Audit 2023: number 10 of the World's Worst Plastic Polluters"}}, {"type": "Feature", "geometry": {"type": "Point", "coordinates": [6.070556, 51.929444]}, "properties": {"name": "Turkish-Macedonian Tobacco Company", "group": "British American Tobacco", "rank": 10, "kind": "subsidiary headquarters", "place": "Zevenaar", "source": "Wikidata", "link": "http://www.wikidata.org/entity/Q16069876", "audit": "Break Free From Plastic Brand Audit 2023: number 10 of the World's Worst Plastic Polluters"}}, {"type": "Feature", "geometry": {"type": "Point", "coordinates": [6.075019, 51.924152]}, "properties": {"name": "Turkish-Macedonian Tobacco Company", "group": "British American Tobacco", "rank": 10, "kind": "subsidiary headquarters", "place": "BAT factory Zevenaar", "source": "Wikidata", "link": "http://www.wikidata.org/entity/Q16069876", "audit": "Break Free From Plastic Brand Audit 2023: number 10 of the World's Worst Plastic Polluters"}}, {"type": "Feature", "geometry": {"type": "Point", "coordinates": [151.21, -33.867778]}, "properties": {"name": "British Tobacco Company (Australia)", "group": "British American Tobacco", "rank": 10, "kind": "subsidiary headquarters", "place": "Sydney", "source": "Wikidata", "link": "http://www.wikidata.org/entity/Q114015804", "audit": "Break Free From Plastic Brand Audit 2023: number 10 of the World's Worst Plastic Polluters"}}, {"type": "Feature", "geometry": {"type": "Point", "coordinates": [112.632728, -7.96893]}, "properties": {"name": "Bentoel Group", "group": "British American Tobacco", "rank": 10, "kind": "subsidiary headquarters", "place": "Malang", "source": "Wikidata", "link": "http://www.wikidata.org/entity/Q4890522", "audit": "Break Free From Plastic Brand Audit 2023: number 10 of the World's Worst Plastic Polluters"}}, {"type": "Feature", "geometry": {"type": "Point", "coordinates": [79.860556, 6.926667]}, "properties": {"name": "Ceylon Tobacco Company", "group": "British American Tobacco", "rank": 10, "kind": "subsidiary headquarters", "place": "Colombo", "source": "Wikidata", "link": "http://www.wikidata.org/entity/Q16858778", "audit": "Break Free From Plastic Brand Audit 2023: number 10 of the World's Worst Plastic Polluters"}}, {"type": "Feature", "geometry": {"type": "Point", "coordinates": [-79.386667, 43.670278]}, "properties": {"name": "Rothmans International", "group": "British American Tobacco", "rank": 10, "kind": "subsidiary headquarters", "place": "Toronto", "source": "Wikidata", "link": "http://www.wikidata.org/entity/Q597191", "audit": "Break Free From Plastic Brand Audit 2023: number 10 of the World's Worst Plastic Polluters"}}, {"type": "Feature", "geometry": {"type": "Point", "coordinates": [14.421389, 50.0875]}, "properties": {"name": "British American Tobacco (Czech Republic)", "group": "British American Tobacco", "rank": 10, "kind": "subsidiary headquarters", "place": "Prague", "source": "Wikidata", "link": "http://www.wikidata.org/entity/Q52852923", "audit": "Break Free From Plastic Brand Audit 2023: number 10 of the World's Worst Plastic Polluters"}}, {"type": "Feature", "geometry": {"type": "Point", "coordinates": [9.995813, 53.559878]}, "properties": {"name": "British American Tobacco (Germany)", "group": "British American Tobacco", "rank": 10, "kind": "subsidiary headquarters", "place": "Hamburg", "source": "Wikidata", "link": "http://www.wikidata.org/entity/Q28979056", "audit": "Break Free From Plastic Brand Audit 2023: number 10 of the World's Worst Plastic Polluters"}}, {"type": "Feature", "geometry": {"type": "Point", "coordinates": [-0.1275, 51.507222]}, "properties": {"name": "British American Tobacco", "group": "British American Tobacco", "rank": 10, "kind": "headquarters", "place": "London", "source": "Wikidata", "link": "http://www.wikidata.org/entity/Q856411", "audit": "Break Free From Plastic Brand Audit 2023: number 10 of the World's Worst Plastic Polluters"}}, {"type": "Feature", "geometry": {"type": "Point", "coordinates": [18.423889, -33.925278]}, "properties": {"name": "United Tobacco Companies (South)", "group": "British American Tobacco", "rank": 10, "kind": "subsidiary headquarters", "place": "Cape Town", "source": "Wikidata", "link": "http://www.wikidata.org/entity/Q113750332", "audit": "Break Free From Plastic Brand Audit 2023: number 10 of the World's Worst Plastic Polluters"}}, {"type": "Feature", "geometry": {"type": "Point", "coordinates": [-73.586841, 45.503343]}, "properties": {"name": "Imperial Tobacco Company of Canada Ltd.", "group": "British American Tobacco", "rank": 10, "kind": "subsidiary headquarters", "place": "Montreal", "source": "Wikidata", "link": "http://www.wikidata.org/entity/Q16985782", "audit": "Break Free From Plastic Brand Audit 2023: number 10 of the World's Worst Plastic Polluters"}}, {"type": "Feature", "geometry": {"type": "Point", "coordinates": [46.035, 51.53]}, "properties": {"name": "Tobacco factory in Saratov", "group": "British American Tobacco", "rank": 10, "kind": "subsidiary headquarters", "place": "Saratov", "source": "Wikidata", "link": "http://www.wikidata.org/entity/Q4073885", "audit": "Break Free From Plastic Brand Audit 2023: number 10 of the World's Worst Plastic Polluters"}}, {"type": "Feature", "geometry": {"type": "Point", "coordinates": [139.737896, 35.662763]}, "properties": {"name": "British American Tobacco (Japan)", "group": "British American Tobacco", "rank": 10, "kind": "subsidiary headquarters", "place": "Tokyo", "source": "Wikidata", "link": "http://www.wikidata.org/entity/Q28979060", "audit": "Break Free From Plastic Brand Audit 2023: number 10 of the World's Worst Plastic Polluters"}}, {"type": "Feature", "geometry": {"type": "Point", "coordinates": [-0.1275, 51.507222]}, "properties": {"name": "Tobacco Securities Trust", "group": "British American Tobacco", "rank": 10, "kind": "subsidiary headquarters", "place": "London", "source": "Wikidata", "link": "http://www.wikidata.org/entity/Q106809300", "audit": "Break Free From Plastic Brand Audit 2023: number 10 of the World's Worst Plastic Polluters"}}, {"type": "Feature", "geometry": {"type": "Point", "coordinates": [4.883333, 52.366667]}, "properties": {"name": "Turkish-Macedonian Tobacco Company", "group": "British American Tobacco", "rank": 10, "kind": "subsidiary headquarters", "place": "Amsterdam", "source": "Wikidata", "link": "http://www.wikidata.org/entity/Q16069876", "audit": "Break Free From Plastic Brand Audit 2023: number 10 of the World's Worst Plastic Polluters"}}, {"type": "Feature", "geometry": {"type": "Point", "coordinates": [-73.585771, 45.481792]}, "properties": {"name": "British American Tobacco (Canada)", "group": "British American Tobacco", "rank": 10, "kind": "subsidiary headquarters", "place": "Montreal", "source": "Wikidata", "link": "http://www.wikidata.org/entity/Q28979064", "audit": "Break Free From Plastic Brand Audit 2023: number 10 of the World's Worst Plastic Polluters"}}, {"type": "Feature", "geometry": {"type": "Point", "coordinates": [-43.205556, -22.911111]}, "properties": {"name": "BAT Brasil", "group": "British American Tobacco", "rank": 10, "kind": "subsidiary headquarters", "place": "Rio de Janeiro", "source": "Wikidata", "link": "http://www.wikidata.org/entity/Q3492450", "audit": "Break Free From Plastic Brand Audit 2023: number 10 of the World's Worst Plastic Polluters"}}]}