{"type": "FeatureCollection", "features": [{"type": "Feature", "geometry": {"type": "Point", "coordinates": [7.102222222, 50.735277777]}, "properties": {"rank": 1, "name": "KfW", "total_assets_in_dollars": "$538.8 billion", "total_assets_usd": 538811503359, "total_assets": 477947000000.0, "total_assets_currency": "EUR", "total_assets_year": "2017", "usd_rate": 0.8870393393987349, "usd_rate_source": "European Central Bank euro reference rates, year average", "wikidata": "https://www.wikidata.org/wiki/Q658270", "kind": "national development bank; state development institution", "hq": "Berlin; Bonn; Frankfurt", "country": "Germany", "employees": "6700", "founded": "1948-11-18", "website": "https://www.kfw.de", "owner": "Baden-Württemberg; Bavaria; Berlin; Brandenburg; Bremen; Germany; Hamburg; Hesse; Lower Saxony; Mecklenburg-Vorpommern; North Rhine-Westphalia; Q1275809; Rhineland-Palatinate; Saarland; Saxony; Saxony-Anhalt; Schleswig-Holstein; Thuringia", "ceo": "Günther Bräunig"}}, {"type": "Feature", "geometry": {"type": "Point", "coordinates": [121.033333333, 14.583333333]}, "properties": {"rank": 2, "name": "Asian Development Bank", "total_assets_in_dollars": "$282.1 billion", "total_assets_usd": 282100000000, "total_assets": 282100000000.0, "total_assets_currency": "USD", "total_assets_year": "2021", "usd_rate": 1.0, "usd_rate_source": "European Central Bank euro reference rates, year average", "wikidata": "https://www.wikidata.org/wiki/Q188822", "kind": "international financial institution; multilateral development bank; public company; publishing house", "hq": "Mandaluyong", "country": "Philippines", "employees": "3687", "founded": "1966-12-19", "website": "https://adb.org", "exchange": "Australian Securities Exchange"}}]}