{"type": "FeatureCollection", "filters": [], "features": [{"type": "Feature", "geometry": {"type": "Point", "coordinates": [-73.5674, 45.5019]}, "properties": {"k": "b0", "p": 1, "t": 1, "n": "The Biosafety Clearing-House — Cartagena Protocol", "c": "", "f": ""}}, {"type": "Feature", "geometry": {"type": "Point", "coordinates": [2.3522, 48.8566]}, "properties": {"k": "b1", "p": 1, "t": 1, "n": "OECD — BioTrack", "c": "", "f": ""}}, {"type": "Feature", "geometry": {"type": "Point", "coordinates": [6.135, 46.227]}, "properties": {"k": "b2", "p": 1, "t": 1, "n": "WIPO — patents over living material", "c": "", "f": ""}}, {"type": "Feature", "geometry": {"type": "Point", "coordinates": [12.4886, 41.8886]}, "properties": {"k": "b3", "p": 1, "t": 1, "n": "FAO — seed, food safety and the Plant Treaty", "c": "", "f": ""}}, {"type": "Feature", "geometry": {"type": "Point", "coordinates": [15.4913, 78.2359]}, "properties": {"k": "b4", "p": 1, "t": 1, "n": "Crop Trust & the Svalbard Global Seed Vault", "c": "", "f": ""}}, {"type": "Feature", "geometry": {"type": "Point", "coordinates": [-1.913, 53.2587]}, "properties": {"k": "b5", "p": 1, "t": 1, "n": "GM Contamination Register — the global drift and spread record", "c": "", "f": ""}}, {"type": "Feature", "geometry": {"type": "Point", "coordinates": [12.6742, 41.8267]}, "properties": {"k": "b6", "p": 1, "t": 1, "n": "Earth observation — open satellite imagery", "c": "", "f": ""}}, {"type": "Feature", "geometry": {"type": "Point", "coordinates": [-122.4714, 37.7823]}, "properties": {"k": "b7", "p": 1, "t": 1, "n": "Archiving & change monitoring", "c": "", "f": ""}}, {"type": "Feature", "geometry": {"type": "Point", "coordinates": [8.626, 45.81]}, "properties": {"k": "b8", "p": 1, "t": 1, "n": "Independent GM testing — laboratories & methods", "c": "", "f": ""}}, {"type": "Feature", "geometry": {"type": "Point", "coordinates": [-0.1278, 51.5074]}, "properties": {"k": "b9", "p": 1, "t": 1, "n": "Corporate ownership & money, worldwide", "c": "", "f": ""}}, {"type": "Feature", "geometry": {"type": "Point", "coordinates": [6.5665, 53.2194]}, "properties": {"k": "b10", "p": 1, "t": 1, "n": "Land, tenure & territory, worldwide", "c": "", "f": ""}}, {"type": "Feature", "geometry": {"type": "Point", "coordinates": [-77.1013, 38.9959]}, "properties": {"k": "b11", "p": 1, "t": 1, "n": "Researchers, publications & retractions", "c": "", "f": ""}}, {"type": "Feature", "geometry": {"type": "Point", "coordinates": [4.3525, 50.8467]}, "properties": {"k": "b12", "p": 1, "t": 1, "n": "European Union — authorisation, courts & lobbying", "c": "", "f": ""}}, {"type": "Feature", "geometry": {"type": "Point", "coordinates": [38.7613, 9.0108]}, "properties": {"k": "b13", "p": 1, "t": 1, "n": "Africa — regional biosafety & food sovereignty", "c": "", "f": ""}}, {"type": "Feature", "geometry": {"type": "Point", "coordinates": [2.1686, 41.3874]}, "properties": {"k": "b14", "p": 1, "t": 1, "n": "Global farmer & food-sovereignty movements", "c": "", "f": ""}}, {"type": "Feature", "geometry": {"type": "Point", "coordinates": [18.4241, -33.9249]}, "properties": {"k": "b15", "p": 1, "t": 1, "n": "AfricanLII — free African law", "c": "", "f": ""}}, {"type": "Feature", "geometry": {"type": "Point", "coordinates": [151.2313, -33.9173]}, "properties": {"k": "b16", "p": 1, "t": 1, "n": "WorldLII — federated world law", "c": "", "f": ""}}, {"type": "Feature", "geometry": {"type": "Point", "coordinates": [-77.0365, 38.8977]}, "properties": {"k": "b17", "p": 1, "t": 1, "n": "Officials, interests & the revolving door", "c": "", "f": ""}}, {"type": "Feature", "geometry": {"type": "Point", "coordinates": [6.1432, 46.2044]}, "properties": {"k": "b18", "p": 1, "t": 1, "n": "Changing the rule — international complaint mechanisms", "c": "", "f": ""}}, {"type": "Feature", "geometry": {"type": "Point", "coordinates": [-123.0868, 44.0521]}, "properties": {"k": "b19", "p": 1, "t": 1, "n": "Strategic & public-interest environmental litigation", "c": "", "f": ""}}, {"type": "Feature", "geometry": {"type": "Point", "coordinates": [6.9833, 51.0333]}, "properties": {"k": "b20", "p": 1, "t": 1, "n": "The four — agricultural biotechnology majors", "c": "", "f": ""}}, {"type": "Feature", "geometry": {"type": "Point", "coordinates": [-77.0369, 38.9072]}, "properties": {"k": "b21", "p": 1, "t": 1, "n": "Industry associations — who argues on their behalf", "c": "", "f": ""}}, {"type": "Feature", "geometry": {"type": "Point", "coordinates": [-77.0261, 38.8977]}, "properties": {"k": "b22", "p": 1, "t": 1, "n": "Gene editing & synthetic biology firms", "c": "", "f": ""}}, {"type": "Feature", "geometry": {"type": "Point", "coordinates": [-0.127, 51.5194]}, "properties": {"k": "b23", "p": 1, "t": 1, "n": "Assisted reproduction — the industry and its records", "c": "", "f": ""}}, {"type": "Feature", "geometry": {"type": "Point", "coordinates": [-77.1, 39]}, "properties": {"k": "b24", "p": 1, "t": 1, "n": "Public money & public agencies", "c": "", "f": ""}}]}