{"type": "FeatureCollection", "source": "https://raw.githubusercontent.com/WelcomeToYourGalaxy/GMO-map/main/index.html", "features": [{"type": "Feature", "geometry": {"type": "Point", "coordinates": [-121.1, 44.6]}, "properties": {"name": "Glyphosate-resistant creeping bentgrass — spread into wild Agrostis", "source": "escape:crop", "type": "Grass, transgene escape into wild relatives", "state": "Jefferson County, Oregon, USA", "precise": false, "impact": 5, "company": "Scotts / Monsanto", "status": "Spread; eradication abandoned", "phase": "post", "date": "2004-01-01", "size": "Established in wild populations across multiple counties", "url": "https://www.epa.gov/", "desc": "Creeping bentgrass engineered to survive glyphosate, grown in trials for the golf-course market, moved out of its plots into resident populations and hybridised with wild relatives. It is the strongest documented case of transgene spread into wild plant communities anywhere, it was found by accident during unrelated fieldwork, and the plants are still there — eradication was attempted for years and abandoned.", "tags": "[\"seed:traits\", \"rules:regulators\"]", "species": "[\"forage\"]", "group": "Crops"}}, {"type": "Feature", "geometry": {"type": "Point", "coordinates": [-42.37, -21.13]}, "properties": {"name": "GloFish — fluorescent transgenic fish established in Brazilian streams", "source": "escape:animal", "type": "Ornamental fish, escape into wild waters", "state": "Muriaé region, Minas Gerais, Brazil", "precise": false, "impact": 4, "company": "Ornamental fish farms", "status": "Established in the wild", "phase": "post", "date": "2022-01-01", "size": "Multiple streams in the Atlantic Forest region", "url": "https://www.glofish.com/", "desc": "Fluorescent transgenic zebrafish, sold as aquarium pets since 2003, spread from ornamental fish farms and established breeding populations in Atlantic Forest streams. The pathway was never the aquarium. It was the farm supplying them, and nobody was monitoring it because a decorative pet was not treated as an environmental question.", "tags": "[\"livestock:pets\", \"livestock:aqua\"]", "species": "[\"fish\"]", "group": "Animals"}}, {"type": "Feature", "geometry": {"type": "Point", "coordinates": [-93.6, 41.9]}, "properties": {"name": "StarLink maize — unapproved variety in the human food supply", "source": "escape:crop", "type": "Maize, unapproved variety in food", "state": "United States (nationwide recall)", "precise": false, "impact": 5, "company": "Aventis CropScience", "status": "Recalled; residues persisted for years", "phase": "post", "date": "2000-01-01", "size": "Estimated 300+ recalled food products", "url": "https://www.epa.gov/", "desc": "A maize approved only for animal feed turned up in taco shells and hundreds of other foods, triggering a nationwide recall in 2000. It had entered the human supply through ordinary grain handling, and the episode is why segregating an approved-for-feed-only crop is now generally treated as impossible in practice.", "tags": "[\"seed:traits\", \"rules:standards\"]", "species": "[\"food_crops\"]", "group": "Crops"}}, {"type": "Feature", "geometry": {"type": "Point", "coordinates": [-92.3, 34.7]}, "properties": {"name": "LLRICE 601 — unapproved rice in the US commercial supply", "source": "escape:crop", "type": "Rice, unapproved variety in commerce", "state": "Arkansas and the US rice belt", "precise": false, "impact": 5, "company": "Bayer CropScience", "status": "Withdrawn; markets closed", "phase": "post", "date": "2006-01-01", "size": "US rice exports; EU and Japan import suspensions", "url": "https://www.aphis.usda.gov/biotechnology", "desc": "An experimental rice line never approved for sale was found throughout the US commercial supply, having spread from research plots years earlier. Exports were rejected, prices collapsed, and farmers who had never planted it carried the loss.", "tags": "[\"seed:traits\", \"rules:standards\"]", "species": "[\"food_crops\"]", "group": "Crops"}}, {"type": "Feature", "geometry": {"type": "Point", "coordinates": [-106.6, 52.1]}, "properties": {"name": "Triffid flax — deregistered line found in exports a decade later", "source": "escape:crop", "type": "Flax, deregistered variety in exports", "state": "Saskatchewan, Canada", "precise": false, "impact": 4, "company": "University of Saskatchewan", "status": "Deregistered 2001; found in exports 2009", "phase": "post", "date": "2009-01-01", "size": "Canadian flax exports to the EU", "url": "https://inspection.canada.ca/en/plant-varieties/plants-novel-traits", "desc": "A flax variety deregistered in Canada in 2001 to protect European exports appeared in European shipments a decade later. Deregistration removed the paperwork; it did not remove the seed, which persisted in the system long after the record said it was gone.", "tags": "[\"seed:traits\", \"rules:standards\"]", "species": "[\"food_crops\"]", "group": "Crops"}}, {"type": "Feature", "geometry": {"type": "Point", "coordinates": [-96.72, 17.07]}, "properties": {"name": "Transgenes in Mexican maize landraces", "source": "escape:crop", "type": "Maize, transgene presence in landraces", "state": "Oaxaca and southern Mexico", "precise": false, "impact": 5, "company": "Origin disputed", "status": "Confirmed by later independent surveys", "phase": "post", "date": "2001-01-01", "size": "Multiple communities across several states", "url": "https://www.biodiversidad.gob.mx/", "desc": "Engineered sequences found in maize landraces in Oaxaca, the crop's centre of origin. This is not cross-breeding into a crop but into the reservoir every commercial maize variety on Earth was ultimately bred from, and Mexico has had to defend its restrictions against a US trade challenge since.", "tags": "[\"seed:traits\", \"seed:germplasm\"]", "species": "[\"food_crops\"]", "group": "Crops"}}, {"type": "Feature", "geometry": {"type": "Point", "coordinates": [-100.5, 47.5]}, "properties": {"name": "Feral herbicide-tolerant canola with stacked traits, roadsides", "source": "escape:crop", "type": "Canola, feral populations with stacked traits", "state": "North Dakota, USA", "precise": false, "impact": 4, "company": "Multiple", "status": "Established; self-sustaining", "phase": "post", "date": "2010-01-01", "size": "Roadside populations across the state", "url": "https://www.aphis.usda.gov/biotechnology", "desc": "Canola growing wild along North Dakota roadsides, carrying herbicide-tolerance traits — and some plants carrying traits from two different companies, a combination nobody bred, made by plants breeding with each other outside any field.", "tags": "[\"seed:traits\", \"rules:ip\"]", "species": "[\"food_crops\"]", "group": "Crops"}}, {"type": "Feature", "geometry": {"type": "Point", "coordinates": [-40.51, -11.18]}, "properties": {"name": "Jacobina — engineered mosquito genome entering the wild population", "source": "escape:animal", "type": "Mosquito, introgression from release strain", "state": "Jacobina, Bahia, Brazil", "precise": false, "impact": 4, "company": "Oxitec", "status": "Introgression documented", "phase": "post", "date": "2019-01-01", "size": "27 months of weekly releases, ~450,000 males per week", "url": "https://www.oxitec.com/", "desc": "Researchers found the engineered mosquito lineage released at Jacobina had introgressed into the local wild population, which the company had said would not happen. The finding came from independent scientists rather than from any monitoring attached to the release.", "tags": "[\"wild:insects\", \"wild:drives\"]", "species": "[\"insects\"]", "group": "Animals"}}, {"type": "Feature", "geometry": {"type": "Point", "coordinates": [-89.2, 40.0]}, "properties": {"name": "Bt10 maize — wrong unapproved line shipped for four years", "source": "escape:crop", "type": "Maize, unapproved line distributed in error", "state": "United States (exports to EU and Japan)", "precise": false, "impact": 4, "company": "Syngenta", "status": "Disclosed after four years", "phase": "post", "date": "2005-01-01", "size": "Estimated tens of thousands of tonnes", "url": "https://www.aphis.usda.gov/biotechnology", "desc": "An unapproved maize line was shipped to Europe and Japan for four years because the company had confused it with an approved one. Nobody noticed until testing at the destination, which means the error was in the identity of the material rather than in its containment.", "tags": "[\"seed:traits\", \"rules:standards\"]", "species": "[\"food_crops\"]", "group": "Crops"}}, {"type": "Feature", "geometry": {"type": "Point", "coordinates": [75.71, 19.75]}, "properties": {"name": "Unapproved herbicide-tolerant cotton planted at scale", "source": "escape:crop", "type": "Cotton, unapproved trait planted commercially", "state": "Maharashtra and Gujarat, India", "precise": false, "impact": 5, "company": "Unlicensed seed trade", "status": "Ongoing; enforcement limited", "phase": "post", "date": "2017-01-01", "size": "Estimated millions of hectares", "url": "https://moef.gov.in/", "desc": "Unapproved herbicide-tolerant cotton was found planted across large areas of India before any approval process had assessed it. The seed moved through informal channels ahead of the regulator, which is a sequence several countries have followed.", "tags": "[\"seed:traits\", \"seed:distribution\"]", "species": "[\"fibre\"]", "group": "Crops"}}, {"type": "Feature", "geometry": {"type": "Point", "coordinates": [114.3, 30.6]}, "properties": {"name": "Bt63 rice — unapproved GM rice in food products and exports", "source": "escape:crop", "type": "Rice, unapproved variety in food chain", "state": "Hubei and central China", "precise": false, "impact": 4, "company": "Unlicensed seed supply", "status": "Recurrent detections", "phase": "post", "date": "2005-01-01", "size": "Detected in exports to Europe over many years", "url": "http://www.moa.gov.cn/", "desc": "Unapproved GM rice was found in food products and exports from China, traced to research material that had reached farmers. Rice is a staple eaten directly, which makes the food-safety argument here less abstract than for feed crops.", "tags": "[\"seed:traits\", \"rules:standards\"]", "species": "[\"food_crops\"]", "group": "Crops"}}, {"type": "Feature", "geometry": {"type": "Point", "coordinates": [4.9, 52.37]}, "properties": {"name": "GM petunias — engineered ornamentals found in worldwide commerce", "source": "escape:crop", "type": "Ornamental plant, unapproved variety in trade", "state": "Netherlands and worldwide horticultural trade", "precise": false, "impact": 3, "company": "Multiple breeders", "status": "Withdrawn and destroyed", "phase": "post", "date": "2017-01-01", "size": "Dozens of varieties across many countries", "url": "https://www.aphis.usda.gov/biotechnology", "desc": "Petunias sold worldwide as ornamentals were found to be engineered, decades after research lines had apparently entered the trade. Nobody had been checking flowers, because ornamentals were not thought of as organisms anyone needed to track.", "tags": "[\"seed:distribution\", \"rules:regulators\"]", "species": "[\"vegetables\"]", "group": "Crops"}}, {"type": "Feature", "geometry": {"type": "Point", "coordinates": [-118.4, 45.5]}, "properties": {"name": "Roundup Ready wheat — unapproved wheat in an Oregon field", "source": "escape:crop", "type": "Wheat, unapproved line found volunteering", "state": "Eastern Oregon, USA", "precise": false, "impact": 4, "company": "Monsanto", "status": "Investigated; origin never established", "phase": "post", "date": "2013-01-01", "size": "Export suspensions by Japan and South Korea", "url": "https://www.aphis.usda.gov/biotechnology", "desc": "Wheat engineered to survive glyphosate, never approved anywhere, found growing in an Oregon field years after the trials ended. Japan and South Korea suspended US wheat imports. No route from the trial plots to that field was ever established.", "tags": "[\"seed:traits\", \"rules:regulators\"]", "species": "[\"food_crops\"]", "group": "Crops"}}, {"type": "Feature", "geometry": {"type": "Point", "coordinates": [102.83, 16.44]}, "properties": {"name": "GM papaya — unapproved virus-resistant plants in commercial orchards", "source": "escape:crop", "type": "Papaya, unapproved variety in cultivation", "state": "Khon Kaen, Thailand", "precise": false, "impact": 3, "company": "Government research station", "status": "Confirmed; plants destroyed", "phase": "post", "date": "2004-01-01", "size": "Orchards across multiple provinces", "url": "https://www.doa.go.th/", "desc": "Unapproved virus-resistant papaya was found in commercial plantings in Thailand, having spread from a research station. Papaya is propagated and traded locally, so material moves through channels no register follows.", "tags": "[\"seed:traits\", \"seed:distribution\"]", "species": "[\"food_crops\"]", "group": "Crops"}}, {"type": "Feature", "geometry": {"type": "Point", "coordinates": [-116.2, 43.6]}, "properties": {"name": "Herbicide-tolerant bentgrass — second spread via seed movement", "source": "escape:crop", "type": "Grass, secondary spread beyond control area", "state": "Malheur County, Oregon and into Idaho", "precise": false, "impact": 4, "company": "Scotts", "status": "Spread beyond the designated control area", "phase": "post", "date": "2010-01-01", "size": "Irrigation canals and adjacent land in two states", "url": "https://www.aphis.usda.gov/biotechnology", "desc": "A second bentgrass spread, this time through seed movement rather than pollen, into a different watershed. The first incident had prompted monitoring; the second showed the monitoring was watching the wrong pathway.", "tags": "[\"seed:traits\", \"rules:regulators\"]", "species": "[\"forage\"]", "group": "Crops"}}, {"type": "Feature", "geometry": {"type": "Point", "coordinates": [70.8, 22.31]}, "properties": {"name": "Bt cotton found growing before any approval existed", "source": "escape:crop", "type": "Cotton, unapproved trait in commercial fields", "state": "Gujarat, India", "precise": false, "impact": 5, "company": "Unlicensed seed trade", "status": "Legalised after the fact", "phase": "post", "date": "2001-01-01", "size": "Estimated tens of thousands of hectares before approval", "url": "https://moef.gov.in/", "desc": "Bt cotton was found growing in Gujarat before India had approved any engineered crop, and the government had to decide retroactively what to do with a harvest already in the market. It chose to approve.", "tags": "[\"seed:traits\", \"rules:regulators\"]", "species": "[\"fibre\"]", "group": "Crops"}}, {"type": "Feature", "geometry": {"type": "Point", "coordinates": [135.19, 34.69]}, "properties": {"name": "GM oilseed rape naturalised around import ports", "source": "escape:crop", "type": "Canola, feral populations at import points", "state": "Ports and roadsides, Japan", "precise": false, "impact": 3, "company": "Not applicable — spillage in transit", "status": "Established and self-sustaining", "phase": "post", "date": "2005-01-01", "size": "Roadsides between ports and crushing plants", "url": "https://www.biodic.go.jp/bch/english/e_index.html", "desc": "Engineered oilseed rape found naturalised around Japanese ports and along the roads inland from them, spilled from imported grain in transit. Japan grows none of it. The plants arrived as cargo.", "tags": "[\"seed:distribution\", \"rules:regulators\"]", "species": "[\"food_crops\"]", "group": "Crops"}}, {"type": "Feature", "geometry": {"type": "Point", "coordinates": [-77.04, 38.9]}, "properties": {"name": "Engineered petunias — second wave found after the first recall", "source": "escape:crop", "type": "Ornamental plant, unapproved variety in trade", "state": "United States and Europe", "precise": false, "impact": 2, "company": "Multiple breeders", "status": "Withdrawn again", "phase": "post", "date": "2021-01-01", "size": "Further varieties on sale years after the first clearance", "url": "https://www.aphis.usda.gov/biotechnology", "desc": "A second wave of engineered petunias found in the United States and Europe after the first recall, showing the material had never been fully removed from the ornamental trade.", "tags": "[\"seed:distribution\", \"rules:regulators\"]", "species": "[\"vegetables\"]", "group": "Crops"}}, {"type": "Feature", "geometry": {"type": "Point", "coordinates": [151.21, -33.87]}, "properties": {"name": "Herbicide-tolerant canola in a country that never approved it", "source": "escape:crop", "type": "Canola, unapproved trait in cultivation", "state": "New South Wales, Australia", "precise": false, "impact": 3, "company": "Seed supply chain", "status": "Detected in certified seed lots", "phase": "post", "date": "2008-01-01", "size": "Certified seed lots and adjacent crops", "url": "https://www.ogtr.gov.au/", "desc": "Herbicide-tolerant canola found growing in New South Wales, in a state that had not approved it. Seed moves along roads with the trucks carrying it.", "tags": "[\"seed:traits\", \"rules:regulators\"]", "species": "[\"food_crops\"]", "group": "Crops"}}, {"type": "Feature", "geometry": {"type": "Point", "coordinates": [-118.4, 47.05]}, "properties": {"name": "Engineered wheat found again, years after the first Oregon case", "source": "escape:crop", "type": "Wheat, unapproved line found volunteering", "state": "Washington and Montana, USA", "precise": false, "impact": 4, "company": "Monsanto", "status": "Investigated; origin unexplained", "phase": "post", "date": "2016-01-01", "size": "Isolated fields; export markets disrupted again", "url": "https://www.aphis.usda.gov/biotechnology", "desc": "Engineered wheat found again in Washington and Montana, years after the Oregon incident and in different states. Two unexplained appearances of a crop never commercialised anywhere.", "tags": "[\"seed:traits\", \"rules:regulators\"]", "species": "[\"food_crops\"]", "group": "Crops"}}, {"type": "Feature", "geometry": {"type": "Point", "coordinates": [6.15, 62.47]}, "properties": {"name": "Farmed salmon genetics established in wild Norwegian rivers", "source": "escape:animal", "type": "Salmon, genetic introgression into wild populations", "state": "Norwegian salmon rivers", "precise": false, "impact": 5, "company": "Salmon farming sector", "status": "Documented in a majority of assessed rivers", "phase": "post", "date": "2017-01-01", "size": "Assessed across ~200 wild populations", "url": "https://www.hi.no/en", "desc": "Norwegian monitoring finds farmed salmon genetics in a large majority of assessed wild rivers. Nothing engineered is involved: intensive selection plus escapes from pens has already changed wild fish, which is the baseline any argument about engineered salmon starts from.", "tags": "[\"livestock:aqua\", \"seed:germplasm\"]", "species": "[\"fish\"]", "group": "Animals"}}, {"type": "Feature", "geometry": {"type": "Point", "coordinates": [-72.94, -41.47]}, "properties": {"name": "Atlantic salmon established in Patagonian rivers after farm spread", "source": "escape:animal", "type": "Salmon, introduced species established after spread", "state": "Los Lagos and Aysén, Chile", "precise": false, "impact": 4, "company": "Chilean salmon sector", "status": "Naturalised", "phase": "post", "date": "2018-01-01", "size": "Multiple river systems; single spread of hundreds of thousands of fish", "url": "https://www.sernapesca.cl/", "desc": "Atlantic salmon, not native to Chile, have spread out of farms in very large numbers and established in Patagonian rivers. Again nothing engineered — just farming at scale in a place the species could survive.", "tags": "[\"livestock:aqua\"]", "species": "[\"fish\"]", "group": "Animals"}}, {"type": "Feature", "geometry": {"type": "Point", "coordinates": [4.9, 52.37]}, "properties": {"name": "Engineered petunias in a third wave, years after two recalls", "source": "escape:crop", "type": "Ornamental plant, unapproved variety recurring in trade", "state": "European and North American horticultural trade", "precise": false, "impact": 2, "company": "Multiple breeders", "status": "Recurrent", "phase": "post", "date": "2023-01-01", "size": "Varieties still surfacing after two clearance rounds", "url": "https://www.aphis.usda.gov/biotechnology", "desc": "A third wave of engineered petunias, years after two recalls. Each round was described as the end of it.", "tags": "[\"seed:distribution\", \"rules:regulators\"]", "species": "[\"vegetables\"]", "group": "Crops"}}, {"type": "Feature", "geometry": {"type": "Point", "coordinates": [31.0, 49.0]}, "properties": {"name": "Unapproved GM soy planted across Ukraine", "source": "escape:crop", "type": "Soy, unapproved trait in commercial cultivation", "state": "Ukraine", "precise": false, "impact": 4, "company": "Unlicensed seed trade", "status": "Widespread; enforcement limited", "phase": "post", "date": "2013-01-01", "size": "Estimated a substantial share of the national soy crop", "url": "https://minagro.gov.ua/", "desc": "Unapproved GM soy planted across a large share of Ukrainian soy area, in a country with no functioning approval system. A country with no register does not thereby have no engineered crops; it has no record of them.", "tags": "[\"seed:traits\", \"rules:regulators\"]", "species": "[\"food_crops\"]", "group": "Crops"}}, {"type": "Feature", "geometry": {"type": "Point", "coordinates": [-108.98, 25.69]}, "properties": {"name": "GM maize found growing in Mexico despite the planting prohibition", "source": "escape:crop", "type": "Maize, unapproved cultivation in a centre of origin", "state": "Sinaloa and northern Mexico", "precise": false, "impact": 5, "company": "Origin disputed", "status": "Detected; enforcement contested", "phase": "post", "date": "2017-01-01", "size": "Detected in commercial fields and in tortilla samples", "url": "https://www.conahcyt.mx/cibiogem/", "desc": "GM maize found growing in Mexico despite the planting prohibition, in the north where seed crosses the border with trade. A prohibition on planting does not stop seed arriving.", "tags": "[\"seed:traits\", \"rules:regulators\"]", "species": "[\"food_crops\"]", "group": "Crops"}}, {"type": "Feature", "geometry": {"type": "Point", "coordinates": [-42.3667, -21.1]}, "properties": {"name": "Paraíba do Sul basin — recorded spread", "source": "escape:animal", "type": "Recorded spread", "state": "Muriaé, Minas Gerais — headwater creeks of the Paraíba do Sul basin, Atlantic Forest", "precise": false, "impact": 3, "company": "", "size": "", "status": "Industry organisation", "phase": "post", "date": "", "url": "https://news.mongabay.com/2022/04/gm-fish-engineered-to-glow-in-the-dark-are-found-in-brazil-creeks/", "desc": "The first engineered animal known to have established a self-sustaining population in the wild. Fluorescent zebrafish were found in all five sampled headwater creeks of the southeastern Paraíba do Sul basin, first seen in 2015, beside Latin America's largest ornamental aquaculture centre whose roughly 4,500 ponds discharge into those streams. Surveys since show them breeding year-round with a peak in the rainy season, and reaching maturity earlier than unmodified zebrafish, which speeds the cycle further. They are banned in Brazil and were still being advertised for sale there. A single specimen found in Florida canals in 2014 did not establish, most likely because something ate it; here there is no predator that takes them. Three things line up in one record: a ban that did not stop the sale, a pond wall that was the entire containment measure, and a trait that is visible to the naked eye — which is the only reason anyone noticed at all.", "checked": "2026-08-21", "tags": "[\"livestock:pets\", \"livestock:aqua\", \"wild:microbes\", \"rules:regulators\"]", "kind": "journalism", "voice": "commentary", "trust": "medium", "skind": "news", "otype": "registry", "species": "[\"fish\"]", "group": "Animals"}}]}