{"type": "FeatureCollection", "features": [{"type": "Feature", "geometry": {"type": "Point", "coordinates": [-74.0776, 4.5981]}, "properties": {"name": "Colombia's Congress: the parapolitics convictions", "group": "Convicted, or found by a court", "branch": "lawmaking", "working for or tied to": "Paramilitary death squads (AUC)", "what the record says": "Since the scandal broke in 2006, more than 60 congressmen and seven governors have been convicted for using paramilitary intimidation to get elected; some 140 more former congressmen were under investigation (Colombia Reports). Human Rights Watch counted more than 55 current and former members of Congress convicted by its 2014 report. Paramilitaries had signed pacts with politicians to 'refound the motherland'. Demobilised paramilitaries named close to a thousand politicians as accomplices (InSight Crime). In 2024 León Valencia, whose research helped open the cases, counted 86 members of Congress convicted and 50 more investigated: 136, which he describes as half of Congress (Publimetro).", "sources": "https://colombiareports.com/parapolitics/ https://www.hrw.org/world-report/2014/country-chapters/colombia https://insightcrime.org/news/brief/colombia-election-results-show-persisting-criminal-influence-in-politics/ https://www.publimetro.co/noticias/2024/05/01/la-parapolitica-fue-un-hecho-unico-en-el-mundo-la-mitad-del-congreso-fue-investigado-leon-valencia/", "source": "Compiled for this map on 28 September 2026 from the sources listed", "years": "2002–2014 (elections of 2002 and 2006 mainly)", "count": "86 convicted, 136 investigated (Valencia, 2024); earlier counts 55 to 61"}}, {"type": "Feature", "geometry": {"type": "Point", "coordinates": [-74.0776, 4.5981]}, "properties": {"name": "Colombia's Congress after parapolitics: candidates with ties to illegal groups elected", "group": "Documented ties, funding, or laws written for them", "branch": "lawmaking", "working for or tied to": "Paramilitary and criminal groups", "what the record says": "Of 131 candidates questioned for criminal ties by the Peace and Reconciliation Foundation, 69 won seats (33 Senate, 36 Chamber): investigated for direct ties with criminal groups, or connected to politicians accused or convicted of parapolitics.", "sources": "https://insightcrime.org/news/brief/colombia-election-results-show-persisting-criminal-influence-in-politics/", "source": "Compiled for this map on 28 September 2026 from the sources listed", "count": "69 elected"}}, {"type": "Feature", "geometry": {"type": "Point", "coordinates": [139.7449, 35.6759]}, "properties": {"name": "Japan's ruling party and the Unification Church", "group": "Documented ties, funding, or laws written for them", "branch": "lawmaking", "working for or tied to": "Unification Church (Family Federation for World Peace and Unification), South Korea", "what the record says": "The Liberal Democratic Party's own survey (September 2022): 179 of its 379 national lawmakers had ties with the church and related groups, from attending events to receiving election help; 17 received election help. The party named 121 with substantial ties. The survey did not cover local assembly members.", "sources": "https://www.japantimes.co.jp/news/2022/09/08/national/ldp-unification-church-survey/ https://www.marketscreener.com/news/latest/Japan-ruling-party-says-179-of-379-lawmakers-had-interactions-with-Unification-Church-41720694/", "source": "Compiled for this map on 28 September 2026 from the sources listed", "years": "surveyed 2022", "count": "179 of 379", "share of the body": "47%"}}, {"type": "Feature", "geometry": {"type": "Point", "coordinates": [4.3752, 50.8386]}, "properties": {"name": "Qatargate: Antonio Panzeri and Francesco Giorgi (European Parliament)", "group": "Admitted by the person, or by the side that paid or ran them", "branch": "lawmaking", "working for or tied to": "Qatar and Morocco", "what the record says": "Former MEP Panzeri took a plea deal; parliamentary assistant Giorgi admitted to accepting bribes from Qatari officials in exchange for influencing the European Parliament's decisions. About €1.5 million in cash was seized in the December 2022 raids.", "sources": "https://en.wikipedia.org/wiki/Qatar_corruption_scandal_at_the_European_Parliament https://www.ansa.it/amp/english/news/world/2023/01/18/panzeri-accountant-arrested-in-qatargate-probe_a8037eb5-b081-4f7b-aa5e-515be7a83c3d.html", "source": "Compiled for this map on 28 September 2026 from the sources listed", "years": "from 2019 (Giorgi's account); raids December 2022"}}, {"type": "Feature", "geometry": {"type": "Point", "coordinates": [4.3752, 50.8386]}, "properties": {"name": "Qatargate: Eva Kaili, Marc Tarabella, Andrea Cozzolino, Marie Arena (European Parliament)", "group": "Charged or alleged, not proven", "branch": "lawmaking", "working for or tied to": "Qatar and Morocco (alleged)", "what the record says": "Charged in the Qatargate investigation; each denies wrongdoing. No one had been convicted as of the sources' dates. Kaili was a vice-president of the Parliament; Arena was charged in 2025 with belonging to a criminal organisation.", "sources": "https://en.wikipedia.org/wiki/Qatar_corruption_scandal_at_the_European_Parliament", "source": "Compiled for this map on 28 September 2026 from the sources listed", "status": "charged; they deny it"}}, {"type": "Feature", "geometry": {"type": "Point", "coordinates": [-75.7009, 45.4236]}, "properties": {"name": "Canada's Parliament: members said to assist foreign states (NSICOP report)", "group": "Found by an official inquiry", "branch": "lawmaking", "working for or tied to": "China and India, among others (unnamed parliamentarians)", "what the record says": "The National Security and Intelligence Committee of Parliamentarians (June 2024) wrote that some elected officials 'began wittingly assisting foreign state actors soon after their election'. It named no one publicly. The public inquiry that followed (Justice Hogue) found the situation 'not as clear cut, nor as extreme' as the report's wording suggested.", "sources": "https://www.cbc.ca/news/politics/foreign-interference-trudeau-nsicop-1.7222730 https://www.cbc.ca/news/politics/final-report-public-inquiry-foregin-interference-1.7443597", "source": "Compiled for this map on 28 September 2026 from the sources listed", "years": "report 2024", "status": "disputed by the public inquiry"}}, {"type": "Feature", "geometry": {"type": "Point", "coordinates": [-98.58, 39.83]}, "properties": {"name": "United States: state laws copied from bills written by industry and advocacy groups", "group": "Documented ties, funding, or laws written for them", "branch": "lawmaking", "working for or tied to": "Industry groups, ALEC and other model-bill writers", "what the record says": "USA Today, the Arizona Republic and the Center for Public Integrity compared nearly a million bills: at least 10,000 bills introduced over eight years were copied almost entirely from model legislation, and more than 2,100 became law. By author: 4,301 industry, 4,012 conservative groups, 1,602 liberal groups, 248 others. Placed at the middle of the country: it covers all 50 state legislatures.", "sources": "https://publicintegrity.org/politics/state-politics/copy-paste-legislate/you-elected-them-to-write-new-laws-theyre-letting-corporations-do-it-instead/ https://morrisoninstitute.asu.edu/blog/az-among-top-states-passing-copycat-bills-written-national-partisan-industry-groups", "source": "Compiled for this map on 28 September 2026 from the sources listed", "years": "about 2011–2019", "count": "10,000+ bills, 2,100+ laws"}}, {"type": "Feature", "geometry": {"type": "Point", "coordinates": [13.3762, 52.5186]}, "properties": {"name": "Gregor Gysi (Bundestag)", "group": "Found by an official inquiry", "branch": "lawmaking", "working for or tied to": "Stasi (East German secret police)", "what the record says": "In 1998 the Bundestag's immunity committee concluded he had collaborated with the Stasi from 1978 to 1989 under the name IM Notar. He denies it.", "sources": "https://en.wikipedia.org/wiki/Gregor_Gysi", "source": "Compiled for this map on 28 September 2026 from the sources listed", "status": "committee finding; he denies it"}}, {"type": "Feature", "geometry": {"type": "Point", "coordinates": [13.3762, 52.5186]}, "properties": {"name": "Lutz Heilmann (Bundestag)", "group": "Named in opened secret-police or spy-service files", "branch": "lawmaking", "working for or tied to": "Stasi (East German secret police)", "what the record says": "Elected in 2005; revealed as a full-time Stasi employee from 1985 to 1990, the only full-time Stasi employee elected to the Bundestag.", "sources": "https://en.wikipedia.org/wiki/Lutz_Heilmann", "source": "Compiled for this map on 28 September 2026 from the sources listed", "years": "Stasi 1985–1990; MP 2005–2009"}}, {"type": "Feature", "geometry": {"type": "Point", "coordinates": [13.0645, 52.3906]}, "properties": {"name": "Lothar Bisky (Volkskammer, Brandenburg parliament, Bundestag)", "group": "Named in opened secret-police or spy-service files", "branch": "lawmaking", "working for or tied to": "Stasi (East German secret police)", "what the record says": "Stasi records list him as an informer under the code names Bienert (1966–1970) and Klaus Heine (from 1987), described as reliable.", "sources": "https://en.wikipedia.org/wiki/Lothar_Bisky", "source": "Compiled for this map on 28 September 2026 from the sources listed"}}, {"type": "Feature", "geometry": {"type": "Point", "coordinates": [13.3762, 52.5186]}, "properties": {"name": "Diether Dehm (Bundestag)", "group": "Named in opened secret-police or spy-service files", "branch": "lawmaking", "working for or tied to": "Stasi (East German secret police)", "what the record says": "Stasi files show he reported to the Stasi, including on the SPD, West German artists and the University of Frankfurt, and on Wolf Biermann in 1976.", "sources": "https://en.wikipedia.org/wiki/Diether_Dehm", "source": "Compiled for this map on 28 September 2026 from the sources listed"}}, {"type": "Feature", "geometry": {"type": "Point", "coordinates": [7.0982, 50.7374]}, "properties": {"name": "West Germany: the Stasi's agents and wiretaps", "group": "Named in opened secret-police or spy-service files", "branch": "ruling and running", "working for or tied to": "Stasi foreign intelligence (HVA)", "what the record says": "The Stasi's foreign intelligence service recruited 20,000 to 30,000 agents in West Germany during the Cold War, and listened to the phone calls of the West German president, the heads of its security services, senior officials in Bonn and all members of the Bundestag (CIA review of the Stasi archive's own study). In 2010 the Stasi archive was asked to check about 2,000 people who sat in the Bundestag between 1949 and 1989.", "sources": "https://www.cia.gov/resources/csi/static/West-Arbeit-des-MfS.pdf https://www.osw.waw.pl/en/publikacje/analyses/2010-10-13/gauck-office-will-investigate-links-between-bundestag-and-stasi", "source": "Compiled for this map on 28 September 2026 from the sources listed", "years": "1950–1989", "count": "20,000–30,000 agents"}}, {"type": "Feature", "geometry": {"type": "Point", "coordinates": [-99.1332, 19.4326]}, "properties": {"name": "Genaro García Luna (Mexico's Secretary of Public Security)", "group": "Convicted, or found by a court", "branch": "ruling and running", "working for or tied to": "Sinaloa Cartel", "what the record says": "Convicted by a US jury in February 2023 and sentenced to 460 months for taking millions of dollars in bribes from the Sinaloa Cartel while he ran Mexico's fight against it (2006–2012); his police leaked information to the cartel. He denied it.", "sources": "https://www.justice.gov/usao-edny/pr/ex-mexican-secretary-public-security-genaro-garcia-luna-sentenced-over-38-years", "source": "Compiled for this map on 28 September 2026 from the sources listed", "years": "2006–2012"}}, {"type": "Feature", "geometry": {"type": "Point", "coordinates": [-79.5199, 8.9824]}, "properties": {"name": "Manuel Noriega (ruler of Panama)", "group": "Admitted by the person, or by the side that paid or ran them", "branch": "ruling and running", "working for or tied to": "CIA and the US Army", "what the record says": "US prosecutors' 1991 court filings acknowledged that Noriega was a paid asset of the US Army and had a paid relationship with the CIA, confirming payments of $300,162; he supplied information including Panama's position in the Canal treaty talks. He ruled Panama 1983–1989.", "sources": "https://www.tampabay.com/archive/1991/05/31/noriega-worked-for-cia/ https://www.cia.gov/readingroom/document/cia-rdp99-00418r000100370026-4", "source": "Compiled for this map on 28 September 2026 from the sources listed", "years": "from the 1960s or 70s to the 1980s"}}, {"type": "Feature", "geometry": {"type": "Point", "coordinates": [-75.8813, 41.2459]}, "properties": {"name": "The kids-for-cash judges: Mark Ciavarella and Michael Conahan (Luzerne County, Pennsylvania)", "group": "Convicted, or found by a court", "branch": "courts", "working for or tied to": "The builder and co-owner of two for-profit youth detention centres", "what the record says": "The judges shut the county's own juvenile detention centre and took $2.8 million in illegal payments from the builder and co-owner of two private lockups, then filled them with children. Ciavarella was convicted of racketeering (28 years); Conahan pleaded guilty. The Pennsylvania Supreme Court threw out about 4,000 of Ciavarella's juvenile rulings (2003–2008).", "sources": "https://witf.org/2020/08/26/kids-for-cash-judge-from-luzerne-county-loses-bid-for-lighter-prison-sentence https://www.nbcnews.com/id/wbna44105072", "source": "Compiled for this map on 28 September 2026 from the sources listed", "years": "2003–2008"}}, {"type": "Feature", "geometry": {"type": "Point", "coordinates": [13.2344, -8.839]}, "properties": {"name": "Odebrecht's bribes to officials in Angola", "group": "Admitted by the person, or by the side that paid or ran them", "branch": "company", "working for or tied to": "Odebrecht (Brazilian construction company) and Braskem", "what the record says": "In its December 2016 guilty plea in the United States, Odebrecht admitted paying about $788 million in bribes to officials and political parties, through a division that worked as a bribery department, for more than 100 projects in twelve countries (Angola, Argentina, Brazil, Colombia, Dominican Republic, Ecuador, Guatemala, Mexico, Mozambique, Panama, Peru, Venezuela), from 2001 to 2016, gaining about $3.336 billion. This point marks the officials of Angola; the plea does not name them.", "sources": "https://justice.gov/opa/press-release/file/919911/download https://fcpa.stanford.edu/enforcement-action.html?id=635", "source": "Compiled for this map on 28 September 2026 from the sources listed", "years": "2001–2016", "placed at": "the capital of Angola"}}, {"type": "Feature", "geometry": {"type": "Point", "coordinates": [-58.3816, -34.6037]}, "properties": {"name": "Odebrecht's bribes to officials in Argentina", "group": "Admitted by the person, or by the side that paid or ran them", "branch": "company", "working for or tied to": "Odebrecht (Brazilian construction company) and Braskem", "what the record says": "In its December 2016 guilty plea in the United States, Odebrecht admitted paying about $788 million in bribes to officials and political parties, through a division that worked as a bribery department, for more than 100 projects in twelve countries (Angola, Argentina, Brazil, Colombia, Dominican Republic, Ecuador, Guatemala, Mexico, Mozambique, Panama, Peru, Venezuela), from 2001 to 2016, gaining about $3.336 billion. This point marks the officials of Argentina; the plea does not name them.", "sources": "https://justice.gov/opa/press-release/file/919911/download https://fcpa.stanford.edu/enforcement-action.html?id=635", "source": "Compiled for this map on 28 September 2026 from the sources listed", "years": "2001–2016", "placed at": "the capital of Argentina"}}, {"type": "Feature", "geometry": {"type": "Point", "coordinates": [-47.8825, -15.7942]}, "properties": {"name": "Odebrecht's bribes to officials in Brazil", "group": "Admitted by the person, or by the side that paid or ran them", "branch": "company", "working for or tied to": "Odebrecht (Brazilian construction company) and Braskem", "what the record says": "In its December 2016 guilty plea in the United States, Odebrecht admitted paying about $788 million in bribes to officials and political parties, through a division that worked as a bribery department, for more than 100 projects in twelve countries (Angola, Argentina, Brazil, Colombia, Dominican Republic, Ecuador, Guatemala, Mexico, Mozambique, Panama, Peru, Venezuela), from 2001 to 2016, gaining about $3.336 billion. This point marks the officials of Brazil; the plea does not name them.", "sources": "https://justice.gov/opa/press-release/file/919911/download https://fcpa.stanford.edu/enforcement-action.html?id=635", "source": "Compiled for this map on 28 September 2026 from the sources listed", "years": "2001–2016", "placed at": "the capital of Brazil"}}, {"type": "Feature", "geometry": {"type": "Point", "coordinates": [-74.0721, 4.711]}, "properties": {"name": "Odebrecht's bribes to officials in Colombia", "group": "Admitted by the person, or by the side that paid or ran them", "branch": "company", "working for or tied to": "Odebrecht (Brazilian construction company) and Braskem", "what the record says": "In its December 2016 guilty plea in the United States, Odebrecht admitted paying about $788 million in bribes to officials and political parties, through a division that worked as a bribery department, for more than 100 projects in twelve countries (Angola, Argentina, Brazil, Colombia, Dominican Republic, Ecuador, Guatemala, Mexico, Mozambique, Panama, Peru, Venezuela), from 2001 to 2016, gaining about $3.336 billion. This point marks the officials of Colombia; the plea does not name them.", "sources": "https://justice.gov/opa/press-release/file/919911/download https://fcpa.stanford.edu/enforcement-action.html?id=635", "source": "Compiled for this map on 28 September 2026 from the sources listed", "years": "2001–2016", "placed at": "the capital of Colombia"}}, {"type": "Feature", "geometry": {"type": "Point", "coordinates": [-69.9312, 18.4861]}, "properties": {"name": "Odebrecht's bribes to officials in Dominican Republic", "group": "Admitted by the person, or by the side that paid or ran them", "branch": "company", "working for or tied to": "Odebrecht (Brazilian construction company) and Braskem", "what the record says": "In its December 2016 guilty plea in the United States, Odebrecht admitted paying about $788 million in bribes to officials and political parties, through a division that worked as a bribery department, for more than 100 projects in twelve countries (Angola, Argentina, Brazil, Colombia, Dominican Republic, Ecuador, Guatemala, Mexico, Mozambique, Panama, Peru, Venezuela), from 2001 to 2016, gaining about $3.336 billion. This point marks the officials of Dominican Republic; the plea does not name them.", "sources": "https://justice.gov/opa/press-release/file/919911/download https://fcpa.stanford.edu/enforcement-action.html?id=635", "source": "Compiled for this map on 28 September 2026 from the sources listed", "years": "2001–2016", "placed at": "the capital of Dominican Republic"}}, {"type": "Feature", "geometry": {"type": "Point", "coordinates": [-78.4678, -0.1807]}, "properties": {"name": "Odebrecht's bribes to officials in Ecuador", "group": "Admitted by the person, or by the side that paid or ran them", "branch": "company", "working for or tied to": "Odebrecht (Brazilian construction company) and Braskem", "what the record says": "In its December 2016 guilty plea in the United States, Odebrecht admitted paying about $788 million in bribes to officials and political parties, through a division that worked as a bribery department, for more than 100 projects in twelve countries (Angola, Argentina, Brazil, Colombia, Dominican Republic, Ecuador, Guatemala, Mexico, Mozambique, Panama, Peru, Venezuela), from 2001 to 2016, gaining about $3.336 billion. This point marks the officials of Ecuador; the plea does not name them.", "sources": "https://justice.gov/opa/press-release/file/919911/download https://fcpa.stanford.edu/enforcement-action.html?id=635", "source": "Compiled for this map on 28 September 2026 from the sources listed", "years": "2001–2016", "placed at": "the capital of Ecuador"}}, {"type": "Feature", "geometry": {"type": "Point", "coordinates": [-90.5069, 14.6349]}, "properties": {"name": "Odebrecht's bribes to officials in Guatemala", "group": "Admitted by the person, or by the side that paid or ran them", "branch": "company", "working for or tied to": "Odebrecht (Brazilian construction company) and Braskem", "what the record says": "In its December 2016 guilty plea in the United States, Odebrecht admitted paying about $788 million in bribes to officials and political parties, through a division that worked as a bribery department, for more than 100 projects in twelve countries (Angola, Argentina, Brazil, Colombia, Dominican Republic, Ecuador, Guatemala, Mexico, Mozambique, Panama, Peru, Venezuela), from 2001 to 2016, gaining about $3.336 billion. This point marks the officials of Guatemala; the plea does not name them.", "sources": "https://justice.gov/opa/press-release/file/919911/download https://fcpa.stanford.edu/enforcement-action.html?id=635", "source": "Compiled for this map on 28 September 2026 from the sources listed", "years": "2001–2016", "placed at": "the capital of Guatemala"}}, {"type": "Feature", "geometry": {"type": "Point", "coordinates": [-99.1332, 19.4326]}, "properties": {"name": "Odebrecht's bribes to officials in Mexico", "group": "Admitted by the person, or by the side that paid or ran them", "branch": "company", "working for or tied to": "Odebrecht (Brazilian construction company) and Braskem", "what the record says": "In its December 2016 guilty plea in the United States, Odebrecht admitted paying about $788 million in bribes to officials and political parties, through a division that worked as a bribery department, for more than 100 projects in twelve countries (Angola, Argentina, Brazil, Colombia, Dominican Republic, Ecuador, Guatemala, Mexico, Mozambique, Panama, Peru, Venezuela), from 2001 to 2016, gaining about $3.336 billion. This point marks the officials of Mexico; the plea does not name them.", "sources": "https://justice.gov/opa/press-release/file/919911/download https://fcpa.stanford.edu/enforcement-action.html?id=635", "source": "Compiled for this map on 28 September 2026 from the sources listed", "years": "2001–2016", "placed at": "the capital of Mexico"}}, {"type": "Feature", "geometry": {"type": "Point", "coordinates": [32.5732, -25.9692]}, "properties": {"name": "Odebrecht's bribes to officials in Mozambique", "group": "Admitted by the person, or by the side that paid or ran them", "branch": "company", "working for or tied to": "Odebrecht (Brazilian construction company) and Braskem", "what the record says": "In its December 2016 guilty plea in the United States, Odebrecht admitted paying about $788 million in bribes to officials and political parties, through a division that worked as a bribery department, for more than 100 projects in twelve countries (Angola, Argentina, Brazil, Colombia, Dominican Republic, Ecuador, Guatemala, Mexico, Mozambique, Panama, Peru, Venezuela), from 2001 to 2016, gaining about $3.336 billion. This point marks the officials of Mozambique; the plea does not name them.", "sources": "https://justice.gov/opa/press-release/file/919911/download https://fcpa.stanford.edu/enforcement-action.html?id=635", "source": "Compiled for this map on 28 September 2026 from the sources listed", "years": "2001–2016", "placed at": "the capital of Mozambique"}}, {"type": "Feature", "geometry": {"type": "Point", "coordinates": [-79.5199, 8.9824]}, "properties": {"name": "Odebrecht's bribes to officials in Panama", "group": "Admitted by the person, or by the side that paid or ran them", "branch": "company", "working for or tied to": "Odebrecht (Brazilian construction company) and Braskem", "what the record says": "In its December 2016 guilty plea in the United States, Odebrecht admitted paying about $788 million in bribes to officials and political parties, through a division that worked as a bribery department, for more than 100 projects in twelve countries (Angola, Argentina, Brazil, Colombia, Dominican Republic, Ecuador, Guatemala, Mexico, Mozambique, Panama, Peru, Venezuela), from 2001 to 2016, gaining about $3.336 billion. This point marks the officials of Panama; the plea does not name them.", "sources": "https://justice.gov/opa/press-release/file/919911/download https://fcpa.stanford.edu/enforcement-action.html?id=635", "source": "Compiled for this map on 28 September 2026 from the sources listed", "years": "2001–2016", "placed at": "the capital of Panama"}}, {"type": "Feature", "geometry": {"type": "Point", "coordinates": [-77.0428, -12.0464]}, "properties": {"name": "Odebrecht's bribes to officials in Peru", "group": "Admitted by the person, or by the side that paid or ran them", "branch": "company", "working for or tied to": "Odebrecht (Brazilian construction company) and Braskem", "what the record says": "In its December 2016 guilty plea in the United States, Odebrecht admitted paying about $788 million in bribes to officials and political parties, through a division that worked as a bribery department, for more than 100 projects in twelve countries (Angola, Argentina, Brazil, Colombia, Dominican Republic, Ecuador, Guatemala, Mexico, Mozambique, Panama, Peru, Venezuela), from 2001 to 2016, gaining about $3.336 billion. This point marks the officials of Peru; the plea does not name them.", "sources": "https://justice.gov/opa/press-release/file/919911/download https://fcpa.stanford.edu/enforcement-action.html?id=635", "source": "Compiled for this map on 28 September 2026 from the sources listed", "years": "2001–2016", "placed at": "the capital of Peru"}}, {"type": "Feature", "geometry": {"type": "Point", "coordinates": [-66.9036, 10.4806]}, "properties": {"name": "Odebrecht's bribes to officials in Venezuela", "group": "Admitted by the person, or by the side that paid or ran them", "branch": "company", "working for or tied to": "Odebrecht (Brazilian construction company) and Braskem", "what the record says": "In its December 2016 guilty plea in the United States, Odebrecht admitted paying about $788 million in bribes to officials and political parties, through a division that worked as a bribery department, for more than 100 projects in twelve countries (Angola, Argentina, Brazil, Colombia, Dominican Republic, Ecuador, Guatemala, Mexico, Mozambique, Panama, Peru, Venezuela), from 2001 to 2016, gaining about $3.336 billion. This point marks the officials of Venezuela; the plea does not name them.", "sources": "https://justice.gov/opa/press-release/file/919911/download https://fcpa.stanford.edu/enforcement-action.html?id=635", "source": "Compiled for this map on 28 September 2026 from the sources listed", "years": "2001–2016", "placed at": "the capital of Venezuela"}}, {"type": "Feature", "geometry": {"type": "Point", "coordinates": [-38.5014, -12.9714]}, "properties": {"name": "Odebrecht, Salvador, Brazil", "group": "Admitted by the person, or by the side that paid or ran them", "branch": "company", "working for or tied to": "Odebrecht itself (the captor)", "what the record says": "The company that admitted paying about $788 million in bribes in twelve countries (2001–2016). Its former head Marcelo Odebrecht was sentenced to 19 years in Brazil for bribes to Petrobras executives.", "sources": "https://justice.gov/opa/press-release/file/919911/download https://en.wikipedia.org/wiki/Odebrecht", "source": "Compiled for this map on 28 September 2026 from the sources listed", "years": "2001–2016"}}, {"type": "Feature", "geometry": {"type": "Point", "coordinates": [-74.0762, 4.5975]}, "properties": {"name": "Humberto Builes Correa (Congress of Colombia)", "group": "Convicted, or found by a court", "branch": "lawmaking", "working for or tied to": "Paramilitary groups (AUC and allied blocs)", "what the record says": "Listed among members of Congress convicted by the Supreme Court for parapolitics (Cambio Radical senators), in Verdad Abierta's count of the Court's sentences as reported by Las2orillas.", "sources": "https://www.las2orillas.co/?p=25389", "source": "Compiled for this map on 28 September 2026 from the sources listed", "placed at": "the Capitolio Nacional, Bogotá"}}, {"type": "Feature", "geometry": {"type": "Point", "coordinates": [-74.0762, 4.5975]}, "properties": {"name": "Rubén Darío Quintero (Congress of Colombia)", "group": "Convicted, or found by a court", "branch": "lawmaking", "working for or tied to": "Paramilitary groups (AUC and allied blocs)", "what the record says": "Listed among members of Congress convicted by the Supreme Court for parapolitics (Cambio Radical senators), in Verdad Abierta's count of the Court's sentences as reported by Las2orillas.", "sources": "https://www.las2orillas.co/?p=25389", "source": "Compiled for this map on 28 September 2026 from the sources listed", "placed at": "the Capitolio Nacional, Bogotá"}}, {"type": "Feature", "geometry": {"type": "Point", "coordinates": [-74.0762, 4.5975]}, "properties": {"name": "Reginaldo Montes (Congress of Colombia)", "group": "Convicted, or found by a court", "branch": "lawmaking", "working for or tied to": "Paramilitary groups (AUC and allied blocs)", "what the record says": "Listed among members of Congress convicted by the Supreme Court for parapolitics (Cambio Radical senators), in Verdad Abierta's count of the Court's sentences as reported by Las2orillas.", "sources": "https://www.las2orillas.co/?p=25389", "source": "Compiled for this map on 28 September 2026 from the sources listed", "placed at": "the Capitolio Nacional, Bogotá"}}, {"type": "Feature", "geometry": {"type": "Point", "coordinates": [-74.0762, 4.5975]}, "properties": {"name": "Jairo Enrique Merlano (Congress of Colombia)", "group": "Convicted, or found by a court", "branch": "lawmaking", "working for or tied to": "Paramilitary groups (AUC and allied blocs)", "what the record says": "Listed among members of Congress convicted by the Supreme Court for parapolitics (Cambio Radical senators), in Verdad Abierta's count of the Court's sentences as reported by Las2orillas.", "sources": "https://www.las2orillas.co/?p=25389", "source": "Compiled for this map on 28 September 2026 from the sources listed", "placed at": "the Capitolio Nacional, Bogotá"}}, {"type": "Feature", "geometry": {"type": "Point", "coordinates": [-74.0762, 4.5975]}, "properties": {"name": "Javier Cáceres Leal (Congress of Colombia)", "group": "Convicted, or found by a court", "branch": "lawmaking", "working for or tied to": "Paramilitary groups (AUC and allied blocs)", "what the record says": "Listed among members of Congress convicted by the Supreme Court for parapolitics (Cambio Radical senators), in Verdad Abierta's count of the Court's sentences as reported by Las2orillas.", "sources": "https://www.las2orillas.co/?p=25389", "source": "Compiled for this map on 28 September 2026 from the sources listed", "placed at": "the Capitolio Nacional, Bogotá"}}, {"type": "Feature", "geometry": {"type": "Point", "coordinates": [-74.0762, 4.5975]}, "properties": {"name": "Fabio Arango Torres (Congress of Colombia)", "group": "Convicted, or found by a court", "branch": "lawmaking", "working for or tied to": "Paramilitary groups (AUC and allied blocs)", "what the record says": "Listed among members of Congress convicted by the Supreme Court for parapolitics (Cambio Radical representatives), in Verdad Abierta's count of the Court's sentences as reported by Las2orillas.", "sources": "https://www.las2orillas.co/?p=25389", "source": "Compiled for this map on 28 September 2026 from the sources listed", "placed at": "the Capitolio Nacional, Bogotá"}}, {"type": "Feature", "geometry": {"type": "Point", "coordinates": [-74.0762, 4.5975]}, "properties": {"name": "José María Conde Romero (Congress of Colombia)", "group": "Convicted, or found by a court", "branch": "lawmaking", "working for or tied to": "Paramilitary groups (AUC and allied blocs)", "what the record says": "Listed among members of Congress convicted by the Supreme Court for parapolitics (Cambio Radical representatives), in Verdad Abierta's count of the Court's sentences as reported by Las2orillas.", "sources": "https://www.las2orillas.co/?p=25389", "source": "Compiled for this map on 28 September 2026 from the sources listed", "placed at": "the Capitolio Nacional, Bogotá"}}, {"type": "Feature", "geometry": {"type": "Point", "coordinates": [-74.0762, 4.5975]}, "properties": {"name": "Oscar Leonidas Wilches Carreño (Congress of Colombia)", "group": "Convicted, or found by a court", "branch": "lawmaking", "working for or tied to": "Paramilitary groups (AUC and allied blocs)", "what the record says": "Listed among members of Congress convicted by the Supreme Court for parapolitics (Cambio Radical representatives), in Verdad Abierta's count of the Court's sentences as reported by Las2orillas.", "sources": "https://www.las2orillas.co/?p=25389", "source": "Compiled for this map on 28 September 2026 from the sources listed", "placed at": "the Capitolio Nacional, Bogotá"}}, {"type": "Feature", "geometry": {"type": "Point", "coordinates": [-74.0762, 4.5975]}, "properties": {"name": "Edgar Eulises Torres Murillo (Congress of Colombia)", "group": "Convicted, or found by a court", "branch": "lawmaking", "working for or tied to": "Paramilitary groups (AUC and allied blocs)", "what the record says": "Listed among members of Congress convicted by the Supreme Court for parapolitics (Cambio Radical representatives), in Verdad Abierta's count of the Court's sentences as reported by Las2orillas.", "sources": "https://www.las2orillas.co/?p=25389", "source": "Compiled for this map on 28 September 2026 from the sources listed", "placed at": "the Capitolio Nacional, Bogotá"}}, {"type": "Feature", "geometry": {"type": "Point", "coordinates": [-74.0762, 4.5975]}, "properties": {"name": "Jesús Enrique Doval Urango (Congress of Colombia)", "group": "Convicted, or found by a court", "branch": "lawmaking", "working for or tied to": "Paramilitary groups (AUC and allied blocs)", "what the record says": "Listed among members of Congress convicted by the Supreme Court for parapolitics (Cambio Radical representatives), in Verdad Abierta's count of the Court's sentences as reported by Las2orillas.", "sources": "https://www.las2orillas.co/?p=25389", "source": "Compiled for this map on 28 September 2026 from the sources listed", "placed at": "the Capitolio Nacional, Bogotá"}}, {"type": "Feature", "geometry": {"type": "Point", "coordinates": [-74.0762, 4.5975]}, "properties": {"name": "Estanislao Ortiz Lara (Congress of Colombia)", "group": "Convicted, or found by a court", "branch": "lawmaking", "working for or tied to": "Paramilitary groups (AUC and allied blocs)", "what the record says": "Listed among members of Congress convicted by the Supreme Court for parapolitics (Cambio Radical representatives), in Verdad Abierta's count of the Court's sentences as reported by Las2orillas.", "sources": "https://www.las2orillas.co/?p=25389", "source": "Compiled for this map on 28 September 2026 from the sources listed", "placed at": "the Capitolio Nacional, Bogotá"}}, {"type": "Feature", "geometry": {"type": "Point", "coordinates": [-74.0762, 4.5975]}, "properties": {"name": "Jaime Cervantes Valero (Congress of Colombia)", "group": "Convicted, or found by a court", "branch": "lawmaking", "working for or tied to": "Paramilitary groups (AUC and allied blocs)", "what the record says": "Listed among members of Congress convicted by the Supreme Court for parapolitics (Cambio Radical representatives), in Verdad Abierta's count of the Court's sentences as reported by Las2orillas.", "sources": "https://www.las2orillas.co/?p=25389", "source": "Compiled for this map on 28 September 2026 from the sources listed", "placed at": "the Capitolio Nacional, Bogotá"}}, {"type": "Feature", "geometry": {"type": "Point", "coordinates": [-74.0762, 4.5975]}, "properties": {"name": "César Augusto Andrade (Congress of Colombia)", "group": "Convicted, or found by a court", "branch": "lawmaking", "working for or tied to": "Paramilitary groups (AUC and allied blocs)", "what the record says": "Listed among members of Congress convicted by the Supreme Court for parapolitics (Cambio Radical representatives), in Verdad Abierta's count of the Court's sentences as reported by Las2orillas.", "sources": "https://www.las2orillas.co/?p=25389", "source": "Compiled for this map on 28 September 2026 from the sources listed", "placed at": "the Capitolio Nacional, Bogotá"}}, {"type": "Feature", "geometry": {"type": "Point", "coordinates": [-74.0762, 4.5975]}, "properties": {"name": "Manuel Darío Ávila Peralta (Congress of Colombia)", "group": "Convicted, or found by a court", "branch": "lawmaking", "working for or tied to": "Paramilitary groups (AUC and allied blocs)", "what the record says": "Listed among members of Congress convicted by the Supreme Court for parapolitics (Cambio Radical representatives), in Verdad Abierta's count of the Court's sentences as reported by Las2orillas.", "sources": "https://www.las2orillas.co/?p=25389", "source": "Compiled for this map on 28 September 2026 from the sources listed", "placed at": "the Capitolio Nacional, Bogotá"}}, {"type": "Feature", "geometry": {"type": "Point", "coordinates": [-74.0762, 4.5975]}, "properties": {"name": "Juan Manuel López Cabrales (Congress of Colombia)", "group": "Convicted, or found by a court", "branch": "lawmaking", "working for or tied to": "Paramilitary groups (AUC and allied blocs)", "what the record says": "Listed among members of Congress convicted by the Supreme Court for parapolitics (Liberal Party), in Verdad Abierta's count of the Court's sentences as reported by Las2orillas.", "sources": "https://www.las2orillas.co/?p=25389", "source": "Compiled for this map on 28 September 2026 from the sources listed", "placed at": "the Capitolio Nacional, Bogotá"}}, {"type": "Feature", "geometry": {"type": "Point", "coordinates": [-74.0762, 4.5975]}, "properties": {"name": "Mario Salomón Náder (Congress of Colombia)", "group": "Convicted, or found by a court", "branch": "lawmaking", "working for or tied to": "Paramilitary groups (AUC and allied blocs)", "what the record says": "Listed among members of Congress convicted by the Supreme Court for parapolitics (Liberal Party), in Verdad Abierta's count of the Court's sentences as reported by Las2orillas.", "sources": "https://www.las2orillas.co/?p=25389", "source": "Compiled for this map on 28 September 2026 from the sources listed", "placed at": "the Capitolio Nacional, Bogotá"}}, {"type": "Feature", "geometry": {"type": "Point", "coordinates": [-74.0762, 4.5975]}, "properties": {"name": "Enrique Rafael Caballero (Congress of Colombia)", "group": "Convicted, or found by a court", "branch": "lawmaking", "working for or tied to": "Paramilitary groups (AUC and allied blocs)", "what the record says": "Sentenced by the Supreme Court to five years and seven months after accepting ties with paramilitary chief Hernán Giraldo Serna in the campaign that took him to Congress in 2002.", "sources": "https://cooperativa.cl/noticias/mundo/colombia/justicia-condeno-a-prision-a-otro-politico-colombiano-por-nexos-con/2011-03-10/021804.html", "source": "Compiled for this map on 28 September 2026 from the sources listed", "placed at": "the Capitolio Nacional, Bogotá"}}, {"type": "Feature", "geometry": {"type": "Point", "coordinates": [-74.0762, 4.5975]}, "properties": {"name": "Álvaro García Romero (Congress of Colombia)", "group": "Convicted, or found by a court", "branch": "lawmaking", "working for or tied to": "Paramilitary groups (AUC and allied blocs)", "what the record says": "Given the heaviest sentence, 40 years, for his part in the Macayepo massacre, in which Sucre paramilitaries killed 15 farmworkers.", "sources": "https://www.las2orillas.co/?p=25389", "source": "Compiled for this map on 28 September 2026 from the sources listed", "placed at": "the Capitolio Nacional, Bogotá"}}, {"type": "Feature", "geometry": {"type": "Point", "coordinates": [-74.0762, 4.5975]}, "properties": {"name": "Mario Uribe Escobar (Congress of Colombia)", "group": "Convicted, or found by a court", "branch": "lawmaking", "working for or tied to": "Paramilitary groups (AUC and allied blocs)", "what the record says": "Former president of Congress and cousin of President Álvaro Uribe; convicted for ties with the AUC paramilitaries.", "sources": "https://en.wikipedia.org/wiki/Colombian_parapolitics_scandal", "source": "Compiled for this map on 28 September 2026 from the sources listed", "placed at": "the Capitolio Nacional, Bogotá"}}, {"type": "Feature", "geometry": {"type": "Point", "coordinates": [-74.0762, 4.5975]}, "properties": {"name": "Miguel Pinedo (Congress of Colombia)", "group": "Convicted, or found by a court", "branch": "lawmaking", "working for or tied to": "Paramilitary groups (AUC and allied blocs)", "what the record says": "Former member of Congress convicted for parapolitics.", "sources": "https://accounter.co/noticias/actualidad/las-perlas-de-las-megapensiones__trashed", "source": "Compiled for this map on 28 September 2026 from the sources listed", "placed at": "the Capitolio Nacional, Bogotá"}}, {"type": "Feature", "geometry": {"type": "Point", "coordinates": [-74.0762, 4.5975]}, "properties": {"name": "Ramón Antonio Valencia (Congress of Colombia)", "group": "Convicted, or found by a court", "branch": "lawmaking", "working for or tied to": "Paramilitary groups (AUC and allied blocs)", "what the record says": "Former member of Congress sentenced to 45 months for ties with paramilitary groups.", "sources": "https://accounter.co/noticias/actualidad/las-perlas-de-las-megapensiones__trashed", "source": "Compiled for this map on 28 September 2026 from the sources listed", "placed at": "the Capitolio Nacional, Bogotá"}}, {"type": "Feature", "geometry": {"type": "Point", "coordinates": [-74.0762, 4.5975]}, "properties": {"name": "José María Imbett (Congress of Colombia)", "group": "Convicted, or found by a court", "branch": "lawmaking", "working for or tied to": "Paramilitary groups (AUC and allied blocs)", "what the record says": "Former member of Congress convicted for parapolitics.", "sources": "https://accounter.co/noticias/actualidad/las-perlas-de-las-megapensiones__trashed", "source": "Compiled for this map on 28 September 2026 from the sources listed", "placed at": "the Capitolio Nacional, Bogotá"}}, {"type": "Feature", "geometry": {"type": "Point", "coordinates": [-74.0762, 4.5975]}, "properties": {"name": "Vicente Blel Saad (Congress of Colombia)", "group": "Convicted, or found by a court", "branch": "lawmaking", "working for or tied to": "Paramilitary groups (AUC and allied blocs)", "what the record says": "Former senator convicted for parapolitics.", "sources": "https://www.las2orillas.co/?p=27326", "source": "Compiled for this map on 28 September 2026 from the sources listed", "placed at": "the Capitolio Nacional, Bogotá"}}, {"type": "Feature", "geometry": {"type": "Point", "coordinates": [-74.0762, 4.5975]}, "properties": {"name": "Ciro Ramírez (Congress of Colombia)", "group": "Convicted, or found by a court", "branch": "lawmaking", "working for or tied to": "Paramilitary groups (AUC and allied blocs)", "what the record says": "Sentenced to seven years for ties with the AUC's Bloque Central Bolívar.", "sources": "https://www.las2orillas.co/?p=27326", "source": "Compiled for this map on 28 September 2026 from the sources listed", "placed at": "the Capitolio Nacional, Bogotá"}}, {"type": "Feature", "geometry": {"type": "Point", "coordinates": [-74.0762, 4.5975]}, "properties": {"name": "Alirio Villamizar (Congress of Colombia)", "group": "Convicted, or found by a court", "branch": "lawmaking", "working for or tied to": "Paramilitary groups (AUC and allied blocs)", "what the record says": "Former member of Congress for Norte de Santander, convicted for parapolitics.", "sources": "https://www.las2orillas.co/?p=27326", "source": "Compiled for this map on 28 September 2026 from the sources listed", "placed at": "the Capitolio Nacional, Bogotá"}}, {"type": "Feature", "geometry": {"type": "Point", "coordinates": [-74.0762, 4.5975]}, "properties": {"name": "Óscar Suárez Mira (Congress of Colombia)", "group": "Convicted, or found by a court", "branch": "lawmaking", "working for or tied to": "Paramilitary groups (AUC and allied blocs)", "what the record says": "Sentenced in January 2011 to nine years for ties with the Autodefensas del Urabá Antioqueño.", "sources": "https://www.las2orillas.co/?p=27326", "source": "Compiled for this map on 28 September 2026 from the sources listed", "placed at": "the Capitolio Nacional, Bogotá"}}, {"type": "Feature", "geometry": {"type": "Point", "coordinates": [-74.0762, 4.5975]}, "properties": {"name": "Luis Alberto Gil Castillo (Congress of Colombia)", "group": "Convicted, or found by a court", "branch": "lawmaking", "working for or tied to": "Paramilitary groups (AUC and allied blocs)", "what the record says": "Former senator sentenced by the Supreme Court to seven and a half years for accepting electoral support from paramilitary leader Iván Roberto Duque ('Ernesto Báez').", "sources": "https://telemedellin.tv/?p=3092", "source": "Compiled for this map on 28 September 2026 from the sources listed", "placed at": "the Capitolio Nacional, Bogotá"}}, {"type": "Feature", "geometry": {"type": "Point", "coordinates": [-74.0762, 4.5975]}, "properties": {"name": "Óscar Reyes (Congress of Colombia)", "group": "Convicted, or found by a court", "branch": "lawmaking", "working for or tied to": "Paramilitary groups (AUC and allied blocs)", "what the record says": "Sentenced by the Supreme Court for ties with paramilitary leaders including Carlos Castaño and Salvatore Mancuso to fund his 2006 campaign.", "sources": "https://telemedellin.tv/?p=3092", "source": "Compiled for this map on 28 September 2026 from the sources listed", "placed at": "the Capitolio Nacional, Bogotá"}}, {"type": "Feature", "geometry": {"type": "Point", "coordinates": [-74.0762, 4.5975]}, "properties": {"name": "Eric Morris (Congress of Colombia)", "group": "Convicted, or found by a court", "branch": "lawmaking", "working for or tied to": "Paramilitary groups (AUC and allied blocs)", "what the record says": "Among the first members of Congress convicted in the parapolitics cases.", "sources": "https://www.eltiempo.com/archivo/documento/cms-3930608", "source": "Compiled for this map on 28 September 2026 from the sources listed", "placed at": "the Capitolio Nacional, Bogotá"}}, {"type": "Feature", "geometry": {"type": "Point", "coordinates": [-74.0762, 4.5975]}, "properties": {"name": "Alfonso Campo Escobar (Congress of Colombia)", "group": "Convicted, or found by a court", "branch": "lawmaking", "working for or tied to": "Paramilitary groups (AUC and allied blocs)", "what the record says": "Convicted; he accepted an early sentence.", "sources": "https://www.eltiempo.com/archivo/documento/cms-3930608", "source": "Compiled for this map on 28 September 2026 from the sources listed", "placed at": "the Capitolio Nacional, Bogotá"}}, {"type": "Feature", "geometry": {"type": "Point", "coordinates": [-74.0762, 4.5975]}, "properties": {"name": "Dieb Maloof (Congress of Colombia)", "group": "Convicted, or found by a court", "branch": "lawmaking", "working for or tied to": "Paramilitary groups (AUC and allied blocs)", "what the record says": "Among the first members of Congress convicted in the parapolitics cases.", "sources": "https://www.eltiempo.com/archivo/documento/cms-3930608", "source": "Compiled for this map on 28 September 2026 from the sources listed", "placed at": "the Capitolio Nacional, Bogotá"}}, {"type": "Feature", "geometry": {"type": "Point", "coordinates": [-74.0762, 4.5975]}, "properties": {"name": "Rocío Arias (Congress of Colombia)", "group": "Admitted by the person, or by the side that paid or ran them", "branch": "lawmaking", "working for or tied to": "Paramilitary groups (AUC and allied blocs)", "what the record says": "Accepted an early sentence after her arrest (El Tiempo).", "sources": "https://www.eltiempo.com/archivo/documento/cms-3930608", "source": "Compiled for this map on 28 September 2026 from the sources listed", "placed at": "the Capitolio Nacional, Bogotá"}}, {"type": "Feature", "geometry": {"type": "Point", "coordinates": [14.4205, 50.0907]}, "properties": {"name": "Andrej Babiš (Czech prime minister 2017–2021)", "group": "Named in opened secret-police or spy-service files", "branch": "ruling and running", "working for or tied to": "StB (Czechoslovak secret police)", "what the record says": "The StB's records, held by Slovakia's Nation's Memory Institute, register him as a secret collaborator. Historians told a Slovak court the records are credible and meet every requirement for a registered collaborator; he denies collaborating and has sued over the records.", "sources": "https://www.e15.cz/domaci/zaznamy-o-babisove-spolupraci-s-stb-jsou-verohodne-rekli-u-soudu-historici-1085015", "source": "Compiled for this map on 28 September 2026 from the sources listed", "status": "in the StB records; he denies it"}}]}