{"type": "FeatureCollection", "features": [{"type": "Feature", "geometry": {"type": "Point", "coordinates": [17.1077, 48.1486]}, "properties": {"name": "Stanislav Stolárik", "group": "Named in opened secret-police or spy-service files", "branch": "other office", "working for or tied to": "StB (Czechoslovak secret police) or military counter-intelligence", "offices held (Wikidata)": "titular bishop; diocesan bishop; auxiliary bishop", "date of birth (Wikidata and the register agree)": "1955-02-27", "citizenship": "Slovensko", "registered as": "informer", "note": "The StB's registration book lists this person, with the same name and birth date as Wikidata's record, as informer. A registration is the StB's own record, not a court finding; Slovak courts have heard challenges to some.", "Wikidata": "https://www.wikidata.org/wiki/Q1637006", "Wikipedia": "https://sk.wikipedia.org/wiki/Stanislav_Stol%C3%A1rik", "ÚPN search": "https://www.upn.gov.sk/projekty/regpro/vysledky-vyhladavania/?kraj=&priezvisko=Stol%C3%A1rik&meno=Stanislav&krycie_meno=&datum_narodenia=&kategoria=", "source": "Nation's Memory Institute (ÚPN), StB registration books, matched to Wikidata by name and birth date, read 2026-09-30", "placed at": "the capital of their country of citizenship", "part": "stb", "register record 1: priezvisko": "Stolárik", "register record 1: meno": "Stanislav", "register record 1: dátum narodenia": "27.02.1955", "register record 1: krycie meno": "Apoštol", "register record 1: kategória": "preverovaná osoba , signálny zväzok , nepriateľská osoba", "register record 1: registračné číslo": "14191", "register record 1: séria": "I", "register record 1: kraj": "Košice", "register record 1: poznámka": "", "register record 1: ": "zobraz stranu", "register record 2: priezvisko": "Stolárik", "register record 2: meno": "Stanislav", "register record 2: dátum narodenia": "27.02.1955", "register record 2: krycie meno": "stano", "register record 2: kategória": "kandidát tajnej spolupráce", "register record 2: registračné číslo": "17212", "register record 2: séria": "I", "register record 2: kraj": "Košice", "register record 2: poznámka": "", "register record 2: ": "zobraz stranu", "register record 3: priezvisko": "Stolárik", "register record 3: meno": "Stanislav", "register record 3: dátum narodenia": "27.02.1955", "register record 3: krycie meno": "stano", "register record 3: kategória": "kandidát tajnej spolupráce", "register record 3: registračné číslo": "18902", "register record 3: séria": "I", "register record 3: kraj": "Košice", "register record 3: poznámka": "", "register record 3: ": "zobraz stranu"}}, {"type": "Feature", "geometry": {"type": "Point", "coordinates": [17.1077, 48.1486]}, "properties": {"name": "František Tondra", "group": "Named in opened secret-police or spy-service files", "branch": "ruling and running", "working for or tied to": "StB (Czechoslovak secret police) or military counter-intelligence", "offices held (Wikidata)": "President of the Conference of Slovak Bishops; Roman Catholic Bishop of Spiš", "date of birth (Wikidata and the register agree)": "1936-06-04", "citizenship": "Slovensko", "registered as": "informer", "note": "The StB's registration book lists this person, with the same name and birth date as Wikidata's record, as informer. A registration is the StB's own record, not a court finding; Slovak courts have heard challenges to some.", "Wikidata": "https://www.wikidata.org/wiki/Q1373560", "Wikipedia": "https://sk.wikipedia.org/wiki/Franti%C5%A1ek_Tondra", "ÚPN search": "https://www.upn.gov.sk/projekty/regpro/vysledky-vyhladavania/?kraj=&priezvisko=Tondra&meno=Franti%C5%A1ek&krycie_meno=&datum_narodenia=&kategoria=", "source": "Nation's Memory Institute (ÚPN), StB registration books, matched to Wikidata by name and birth date, read 2026-09-30", "placed at": "the capital of their country of citizenship", "part": "stb", "register record 1: priezvisko": "Tondra", "register record 1: meno": "František", "register record 1: dátum narodenia": "04.06.1936", "register record 1: krycie meno": "františek", "register record 1: kategória": "kandidát tajnej spolupráce", "register record 1: registračné číslo": "21414", "register record 1: séria": "I", "register record 1: kraj": "Košice", "register record 1: poznámka": "", "register record 1: ": "zobraz stranu", "register record 2: priezvisko": "TONDRA", "register record 2: meno": "František", "register record 2: dátum narodenia": "04.06.1936", "register record 2: krycie meno": "", "register record 2: kategória": "kandidát tajnej spolupráce", "register record 2: registračné číslo": "5529", "register record 2: séria": "I", "register record 2: kraj": "Banská Bystrica", "register record 2: poznámka": "", "register record 2: ": "zobraz stranu"}}, {"type": "Feature", "geometry": {"type": "Point", "coordinates": [17.1077, 48.1486]}, "properties": {"name": "Ján Babjak", "group": "Named in opened secret-police or spy-service files", "branch": "other office", "working for or tied to": "StB (Czechoslovak secret police) or military counter-intelligence", "offices held (Wikidata)": "Bishop of the Eparchy of Prešov; Greek Catholic Archeparch of Prešov", "date of birth (Wikidata and the register agree)": "1953-10-28", "citizenship": "Slovensko", "registered as": "informer", "note": "The StB's registration book lists this person, with the same name and birth date as Wikidata's record, as informer. A registration is the StB's own record, not a court finding; Slovak courts have heard challenges to some.", "Wikidata": "https://www.wikidata.org/wiki/Q1373595", "Wikipedia": "https://sk.wikipedia.org/wiki/J%C3%A1n_Babjak", "ÚPN search": "https://www.upn.gov.sk/projekty/regpro/vysledky-vyhladavania/?kraj=&priezvisko=Babjak&meno=J%C3%A1n&krycie_meno=&datum_narodenia=&kategoria=", "source": "Nation's Memory Institute (ÚPN), StB registration books, matched to Wikidata by name and birth date, read 2026-09-30", "placed at": "the capital of their country of citizenship", "part": "stb", "register record 1: priezvisko": "Babjak", "register record 1: meno": "Ján", "register record 1: dátum narodenia": "28.10.1953", "register record 1: krycie meno": "Cyril", "register record 1: kategória": "preverovaná osoba , dôverník", "register record 1: registračné číslo": "13591", "register record 1: séria": "I", "register record 1: kraj": "Košice", "register record 1: poznámka": "", "register record 1: ": "zobraz stranu", "register record 2: priezvisko": "Babjak", "register record 2: meno": "Ján", "register record 2: dátum narodenia": "28.10.1953", "register record 2: krycie meno": "Ľuba", "register record 2: kategória": "signálny zväzok , nepriateľská osoba", "register record 2: registračné číslo": "20793", "register record 2: séria": "I", "register record 2: kraj": "Košice", "register record 2: poznámka": "", "register record 2: ": "zobraz stranu", "register record 3: priezvisko": "Babjak", "register record 3: meno": "Ján", "register record 3: dátum narodenia": "28.10.1953", "register record 3: krycie meno": "ľuba", "register record 3: kategória": "signálny zväzok", "register record 3: registračné číslo": "21469", "register record 3: séria": "I", "register record 3: kraj": "Košice", "register record 3: poznámka": "", "register record 3: ": "zobraz stranu"}}, {"type": "Feature", "geometry": {"type": "Point", "coordinates": [17.1077, 48.1486]}, "properties": {"name": "Peter Dubovský", "group": "Named in opened secret-police or spy-service files", "branch": "other office", "working for or tied to": "StB (Czechoslovak secret police) or military counter-intelligence", "offices held (Wikidata)": "titular bishop; auxiliary bishop", "date of birth (Wikidata and the register agree)": "1921-06-28", "citizenship": "Slovensko", "registered as": "informer", "note": "The StB's registration book lists this person, with the same name and birth date as Wikidata's record, as informer. A registration is the StB's own record, not a court finding; Slovak courts have heard challenges to some.", "Wikidata": "https://www.wikidata.org/wiki/Q1324467", "Wikipedia": "https://sk.wikipedia.org/wiki/Peter_Dubovsk%C3%BD_(biskup)", "ÚPN search": "https://www.upn.gov.sk/projekty/regpro/vysledky-vyhladavania/?kraj=&priezvisko=Dubovsk%C3%BD&meno=Peter&krycie_meno=&datum_narodenia=&kategoria=", "source": "Nation's Memory Institute (ÚPN), StB registration books, matched to Wikidata by name and birth date, read 2026-09-30", "placed at": "the capital of their country of citizenship", "part": "stb", "register record 1: priezvisko": "DUBOVSKÝ", "register record 1: meno": "Peter", "register record 1: dátum narodenia": "28.06.1921", "register record 1: krycie meno": "BISKUP", "register record 1: kategória": "pozorovací zväzok, signálny zväzok , preverovaná osoba , nepriateľská osoba", "register record 1: registračné číslo": "159", "register record 1: séria": "I", "register record 1: kraj": "Banská Bystrica", "register record 1: poznámka": "", "register record 1: ": "zobraz stranu", "register record 2: priezvisko": "DUBOVSKÝ", "register record 2: meno": "Peter", "register record 2: dátum narodenia": "28.06.1921", "register record 2: krycie meno": "BISKUP", "register record 2: kategória": "signálny zväzok , osobný zväzok", "register record 2: registračné číslo": "10261", "register record 2: séria": "I", "register record 2: kraj": "Banská Bystrica", "register record 2: poznámka": "", "register record 2: ": "zobraz stranu"}}, {"type": "Feature", "geometry": {"type": "Point", "coordinates": [17.1077, 48.1486]}, "properties": {"name": "Róbert Bezák", "group": "Named in opened secret-police or spy-service files", "branch": "other office", "working for or tied to": "StB (Czechoslovak secret police) or military counter-intelligence", "offices held (Wikidata)": "Roman Catholic Archbishop of Trnava", "date of birth (Wikidata and the register agree)": "1960-03-01", "citizenship": "Slovensko", "registered as": "informer", "note": "The StB's registration book lists this person, with the same name and birth date as Wikidata's record, as informer. A registration is the StB's own record, not a court finding; Slovak courts have heard challenges to some.", "Wikidata": "https://www.wikidata.org/wiki/Q1342450", "Wikipedia": "https://sk.wikipedia.org/wiki/R%C3%B3bert_Bez%C3%A1k", "ÚPN search": "https://www.upn.gov.sk/projekty/regpro/vysledky-vyhladavania/?kraj=&priezvisko=Bez%C3%A1k&meno=R%C3%B3bert&krycie_meno=&datum_narodenia=&kategoria=", "source": "Nation's Memory Institute (ÚPN), StB registration books, matched to Wikidata by name and birth date, read 2026-09-30", "placed at": "the capital of their country of citizenship", "part": "stb", "register record 1: priezvisko": "BEZÁK", "register record 1: meno": "Robert", "register record 1: dátum narodenia": "01.03.1960", "register record 1: krycie meno": "SEBASTIAN", "register record 1: kategória": "preverovaná osoba", "register record 1: registračné číslo": "18549", "register record 1: séria": "I", "register record 1: kraj": "Banská Bystrica", "register record 1: poznámka": "", "register record 1: ": "zobraz stranu"}}, {"type": "Feature", "geometry": {"type": "Point", "coordinates": [17.1077, 48.1486]}, "properties": {"name": "Rudolf Schuster", "group": "Named in opened secret-police or spy-service files", "branch": "lawmaking", "working for or tied to": "StB (Czechoslovak secret police) or military counter-intelligence", "offices held (Wikidata)": "Member of the National Council of the Slovak Republic; mayor of Košice; President of Slovakia", "date of birth (Wikidata and the register agree)": "1934-01-04", "citizenship": "Slovensko", "registered as": "informer", "note": "The StB's registration book lists this person, with the same name and birth date as Wikidata's record, as informer. A registration is the StB's own record, not a court finding; Slovak courts have heard challenges to some.", "Wikidata": "https://www.wikidata.org/wiki/Q163813", "Wikipedia": "https://sk.wikipedia.org/wiki/Rudolf_Schuster", "ÚPN search": "https://www.upn.gov.sk/projekty/regpro/vysledky-vyhladavania/?kraj=&priezvisko=Schuster&meno=Rudolf&krycie_meno=&datum_narodenia=&kategoria=", "source": "Nation's Memory Institute (ÚPN), StB registration books, matched to Wikidata by name and birth date, read 2026-09-30", "placed at": "the capital of their country of citizenship", "part": "stb", "register record 1: priezvisko": "Schuster", "register record 1: meno": "Rudolf", "register record 1: dátum narodenia": "04.01.1934", "register record 1: krycie meno": "", "register record 1: kategória": "dôverník", "register record 1: registračné číslo": "9330", "register record 1: séria": "I", "register record 1: kraj": "Košice", "register record 1: poznámka": "", "register record 1: ": "zobraz stranu"}}, {"type": "Feature", "geometry": {"type": "Point", "coordinates": [17.1077, 48.1486]}, "properties": {"name": "Andrej Imrich", "group": "Named in opened secret-police or spy-service files", "branch": "other office", "working for or tied to": "StB (Czechoslovak secret police) or military counter-intelligence", "offices held (Wikidata)": "titular bishop; auxiliary bishop", "date of birth (Wikidata and the register agree)": "1948-01-09", "citizenship": "Slovensko", "registered as": "informer", "note": "The StB's registration book lists this person, with the same name and birth date as Wikidata's record, as informer. A registration is the StB's own record, not a court finding; Slovak courts have heard challenges to some.", "Wikidata": "https://www.wikidata.org/wiki/Q502857", "Wikipedia": "https://sk.wikipedia.org/wiki/Andrej_Imrich", "ÚPN search": "https://www.upn.gov.sk/projekty/regpro/vysledky-vyhladavania/?kraj=&priezvisko=Imrich&meno=Andrej&krycie_meno=&datum_narodenia=&kategoria=", "source": "Nation's Memory Institute (ÚPN), StB registration books, matched to Wikidata by name and birth date, read 2026-09-30", "placed at": "the capital of their country of citizenship", "part": "stb", "register record 1: priezvisko": "IMRICH", "register record 1: meno": "Andrej", "register record 1: dátum narodenia": "09.01.1948", "register record 1: krycie meno": "ANDREJ", "register record 1: kategória": "preverovaná osoba", "register record 1: registračné číslo": "18122", "register record 1: séria": "I", "register record 1: kraj": "Banská Bystrica", "register record 1: poznámka": "", "register record 1: ": "zobraz stranu"}}, {"type": "Feature", "geometry": {"type": "Point", "coordinates": [17.1077, 48.1486]}, "properties": {"name": "Ján Chryzostom Korec", "group": "Named in opened secret-police or spy-service files", "branch": "other office", "working for or tied to": "StB (Czechoslovak secret police) or military counter-intelligence", "offices held (Wikidata)": "cardinal; Roman Catholic Bishop of Nitra", "date of birth (Wikidata and the register agree)": "1924-01-22", "citizenship": "Slovensko", "registered as": "informer", "note": "The StB's registration book lists this person, with the same name and birth date as Wikidata's record, as informer. A registration is the StB's own record, not a court finding; Slovak courts have heard challenges to some.", "Wikidata": "https://www.wikidata.org/wiki/Q548336", "Wikipedia": "https://sk.wikipedia.org/wiki/J%C3%A1n_Chryzostom_Korec", "ÚPN search": "https://www.upn.gov.sk/projekty/regpro/vysledky-vyhladavania/?kraj=&priezvisko=Korec&meno=J%C3%A1n&krycie_meno=&datum_narodenia=&kategoria=", "source": "Nation's Memory Institute (ÚPN), StB registration books, matched to Wikidata by name and birth date, read 2026-09-30", "placed at": "the capital of their country of citizenship", "part": "stb", "register record 1: priezvisko": "Korec", "register record 1: meno": "Ján", "register record 1: dátum narodenia": "22.01.1924", "register record 1: krycie meno": "", "register record 1: kategória": "osobný zväzok", "register record 1: registračné číslo": "327", "register record 1: séria": "I", "register record 1: kraj": "Bratislava", "register record 1: poznámka": "", "register record 1: ": "zobraz stranu"}}, {"type": "Feature", "geometry": {"type": "Point", "coordinates": [17.1077, 48.1486]}, "properties": {"name": "Ján Orosch", "group": "Named in opened secret-police or spy-service files", "branch": "other office", "working for or tied to": "StB (Czechoslovak secret police) or military counter-intelligence", "offices held (Wikidata)": "titular bishop; apostolic administrator; Roman Catholic Archbishop of Trnava; auxiliary bishop", "date of birth (Wikidata and the register agree)": "1953-05-28", "citizenship": "Slovensko", "registered as": "informer", "note": "The StB's registration book lists this person, with the same name and birth date as Wikidata's record, as informer. A registration is the StB's own record, not a court finding; Slovak courts have heard challenges to some.", "Wikidata": "https://www.wikidata.org/wiki/Q357082", "Wikipedia": "https://sk.wikipedia.org/wiki/J%C3%A1n_Orosch", "ÚPN search": "https://www.upn.gov.sk/projekty/regpro/vysledky-vyhladavania/?kraj=&priezvisko=Orosch&meno=J%C3%A1n&krycie_meno=&datum_narodenia=&kategoria=", "source": "Nation's Memory Institute (ÚPN), StB registration books, matched to Wikidata by name and birth date, read 2026-09-30", "placed at": "the capital of their country of citizenship", "part": "stb", "register record 1: priezvisko": "OROSCH", "register record 1: meno": "Ján", "register record 1: dátum narodenia": "28.05.1953", "register record 1: krycie meno": "JOHAN", "register record 1: kategória": "preverovaná osoba , signálny zväzok", "register record 1: registračné číslo": "9760", "register record 1: séria": "I", "register record 1: kraj": "Banská Bystrica", "register record 1: poznámka": "", "register record 1: ": "zobraz stranu"}}, {"type": "Feature", "geometry": {"type": "Point", "coordinates": [17.1077, 48.1486]}, "properties": {"name": "Anna Záborská", "group": "Named in opened secret-police or spy-service files", "branch": "lawmaking", "working for or tied to": "StB (Czechoslovak secret police) or military counter-intelligence", "offices held (Wikidata)": "Member of the European Parliament", "date of birth (Wikidata and the register agree)": "1948-06-07", "citizenship": "Slovensko", "registered as": "informer", "note": "The StB's registration book lists this person, with the same name and birth date as Wikidata's record, as informer. A registration is the StB's own record, not a court finding; Slovak courts have heard challenges to some.", "Wikidata": "https://www.wikidata.org/wiki/Q455164", "Wikipedia": "https://sk.wikipedia.org/wiki/Anna_Z%C3%A1borsk%C3%A1", "ÚPN search": "https://www.upn.gov.sk/projekty/regpro/vysledky-vyhladavania/?kraj=&priezvisko=Z%C3%A1borsk%C3%A1&meno=Anna&krycie_meno=&datum_narodenia=&kategoria=", "source": "Nation's Memory Institute (ÚPN), StB registration books, matched to Wikidata by name and birth date, read 2026-09-30", "placed at": "the capital of their country of citizenship", "part": "stb", "register record 1: priezvisko": "ZÁBORSKÁ", "register record 1: meno": "Anna", "register record 1: dátum narodenia": "07.06.1948", "register record 1: krycie meno": "HANA", "register record 1: kategória": "kandidát tajnej spolupráce", "register record 1: registračné číslo": "17437", "register record 1: séria": "I", "register record 1: kraj": "Banská Bystrica", "register record 1: poznámka": "", "register record 1: ": "zobraz stranu"}}, {"type": "Feature", "geometry": {"type": "Point", "coordinates": [17.1077, 48.1486]}, "properties": {"name": "Zdenko Trebuľa", "group": "Named in opened secret-police or spy-service files", "branch": "ruling and running", "working for or tied to": "StB (Czechoslovak secret police) or military counter-intelligence", "offices held (Wikidata)": "mayor of Košice", "date of birth (Wikidata and the register agree)": "1955-09-29", "citizenship": "Slovensko", "registered as": "informer", "note": "The StB's registration book lists this person, with the same name and birth date as Wikidata's record, as informer. A registration is the StB's own record, not a court finding; Slovak courts have heard challenges to some.", "Wikidata": "https://www.wikidata.org/wiki/Q8067932", "Wikipedia": "https://sk.wikipedia.org/wiki/Zdenko_Trebu%C4%BEa", "ÚPN search": "https://www.upn.gov.sk/projekty/regpro/vysledky-vyhladavania/?kraj=&priezvisko=Trebu%C4%BEa&meno=Zdenko&krycie_meno=&datum_narodenia=&kategoria=", "source": "Nation's Memory Institute (ÚPN), StB registration books, matched to Wikidata by name and birth date, read 2026-09-30", "placed at": "the capital of their country of citizenship", "part": "stb", "register record 1: priezvisko": "Trebuľa", "register record 1: meno": "Zdenko", "register record 1: dátum narodenia": "29.09.1955", "register record 1: krycie meno": "zdenko", "register record 1: kategória": "dôverník", "register record 1: registračné číslo": "21482", "register record 1: séria": "I", "register record 1: kraj": "Košice", "register record 1: poznámka": "", "register record 1: ": "zobraz stranu"}}, {"type": "Feature", "geometry": {"type": "Point", "coordinates": [17.1077, 48.1486]}, "properties": {"name": "Bernard Bober", "group": "Named in opened secret-police or spy-service files", "branch": "ruling and running", "working for or tied to": "StB (Czechoslovak secret police) or military counter-intelligence", "offices held (Wikidata)": "titular bishop; President of the Conference of Slovak Bishops; Roman Catholic Archbishop of Košice; auxiliary bishop", "date of birth (Wikidata and the register agree)": "1950-11-03", "citizenship": "Slovensko", "registered as": "informer", "note": "The StB's registration book lists this person, with the same name and birth date as Wikidata's record, as informer. A registration is the StB's own record, not a court finding; Slovak courts have heard challenges to some.", "Wikidata": "https://www.wikidata.org/wiki/Q822317", "Wikipedia": "https://sk.wikipedia.org/wiki/Bernard_Bober", "ÚPN search": "https://www.upn.gov.sk/projekty/regpro/vysledky-vyhladavania/?kraj=&priezvisko=Bober&meno=Bernard&krycie_meno=&datum_narodenia=&kategoria=", "source": "Nation's Memory Institute (ÚPN), StB registration books, matched to Wikidata by name and birth date, read 2026-09-30", "placed at": "the capital of their country of citizenship", "part": "stb", "register record 1: priezvisko": "Bober", "register record 1: meno": "Bernard", "register record 1: dátum narodenia": "03.11.1950", "register record 1: krycie meno": "Bernard", "register record 1: kategória": "kandidát tajnej spolupráce", "register record 1: registračné číslo": "13345", "register record 1: séria": "I", "register record 1: kraj": "Košice", "register record 1: poznámka": "", "register record 1: ": "zobraz stranu"}}, {"type": "Feature", "geometry": {"type": "Point", "coordinates": [17.1077, 48.1486]}, "properties": {"name": "Milan Šášik", "group": "Named in opened secret-police or spy-service files", "branch": "other office", "working for or tied to": "StB (Czechoslovak secret police) or military counter-intelligence", "offices held (Wikidata)": "titular bishop; apostolic administrator; diocesan bishop", "date of birth (Wikidata and the register agree)": "1952-09-17", "citizenship": "Slovensko", "registered as": "informer", "note": "The StB's registration book lists this person, with the same name and birth date as Wikidata's record, as informer. A registration is the StB's own record, not a court finding; Slovak courts have heard challenges to some.", "Wikidata": "https://www.wikidata.org/wiki/Q926741", "Wikipedia": "https://sk.wikipedia.org/wiki/Milan_%C5%A0%C3%A1%C5%A1ik", "ÚPN search": "https://www.upn.gov.sk/projekty/regpro/vysledky-vyhladavania/?kraj=&priezvisko=%C5%A0a%C5%A1ik&meno=Milan&krycie_meno=&datum_narodenia=&kategoria=", "source": "Nation's Memory Institute (ÚPN), StB registration books, matched to Wikidata by name and birth date, read 2026-09-30", "placed at": "the capital of their country of citizenship", "part": "stb", "register record 1: priezvisko": "ŠÁŠIK", "register record 1: meno": "Milan", "register record 1: dátum narodenia": "17.09.1952", "register record 1: krycie meno": "AKTIVISTA", "register record 1: kategória": "signálny zväzok", "register record 1: registračné číslo": "13439", "register record 1: séria": "I", "register record 1: kraj": "Banská Bystrica", "register record 1: poznámka": "", "register record 1: ": "zobraz stranu", "register record 2: priezvisko": "ŠÁŠIK", "register record 2: meno": "Milan", "register record 2: dátum narodenia": "17.09.1952", "register record 2: krycie meno": "AKTIVISTA", "register record 2: kategória": "nepriateľská osoba", "register record 2: registračné číslo": "15887", "register record 2: séria": "I", "register record 2: kraj": "Banská Bystrica", "register record 2: poznámka": "", "register record 2: ": "zobraz stranu"}}, {"type": "Feature", "geometry": {"type": "Point", "coordinates": [17.1077, 48.1486]}, "properties": {"name": "Mikuláš Dušek", "group": "Named in opened secret-police or spy-service files", "branch": "ruling and running", "working for or tied to": "StB (Czechoslovak secret police) or military counter-intelligence", "offices held (Wikidata)": "director", "date of birth (Wikidata and the register agree)": "1913-06-07", "citizenship": "Slovensko", "registered as": "informer", "note": "The StB's registration book lists this person, with the same name and birth date as Wikidata's record, as informer. A registration is the StB's own record, not a court finding; Slovak courts have heard challenges to some.", "Wikidata": "https://www.wikidata.org/wiki/Q945986", "Wikipedia": "https://sk.wikipedia.org/wiki/Mikul%C3%A1%C5%A1_Du%C5%A1ek", "ÚPN search": "https://www.upn.gov.sk/projekty/regpro/vysledky-vyhladavania/?kraj=&priezvisko=Du%C5%A1ek&meno=Mikul%C3%A1%C5%A1&krycie_meno=&datum_narodenia=&kategoria=", "source": "Nation's Memory Institute (ÚPN), StB registration books, matched to Wikidata by name and birth date, read 2026-09-30", "placed at": "the capital of their country of citizenship", "part": "stb", "register record 1: priezvisko": "Dušek", "register record 1: meno": "Mikuláš", "register record 1: dátum narodenia": "07.06.1913", "register record 1: krycie meno": "", "register record 1: kategória": "signálny zväzok , pozorovací zväzok", "register record 1: registračné číslo": "6302", "register record 1: séria": "I", "register record 1: kraj": "Bratislava", "register record 1: poznámka": "", "register record 1: ": "zobraz stranu", "register record 2: priezvisko": "Dušek", "register record 2: meno": "Mikuláš", "register record 2: dátum narodenia": "07.06.1913", "register record 2: krycie meno": "", "register record 2: kategória": "signálny zväzok", "register record 2: registračné číslo": "944", "register record 2: séria": "I", "register record 2: kraj": "Nitra", "register record 2: poznámka": "", "register record 2: ": "zobraz stranu"}}, {"type": "Feature", "geometry": {"type": "Point", "coordinates": [17.1077, 48.1486]}, "properties": {"name": "Ján Hirka", "group": "Named in opened secret-police or spy-service files", "branch": "other office", "working for or tied to": "StB (Czechoslovak secret police) or military counter-intelligence", "offices held (Wikidata)": "apostolic administrator; Bishop of the Eparchy of Prešov", "date of birth (Wikidata and the register agree)": "1923-11-16", "citizenship": "Slovensko", "registered as": "informer", "note": "The StB's registration book lists this person, with the same name and birth date as Wikidata's record, as informer. A registration is the StB's own record, not a court finding; Slovak courts have heard challenges to some.", "Wikidata": "https://www.wikidata.org/wiki/Q957390", "Wikipedia": "https://sk.wikipedia.org/wiki/J%C3%A1n_Hirka", "ÚPN search": "https://www.upn.gov.sk/projekty/regpro/vysledky-vyhladavania/?kraj=&priezvisko=Hirka&meno=J%C3%A1n&krycie_meno=&datum_narodenia=&kategoria=", "source": "Nation's Memory Institute (ÚPN), StB registration books, matched to Wikidata by name and birth date, read 2026-09-30", "placed at": "the capital of their country of citizenship", "part": "stb", "register record 1: priezvisko": "Hirka", "register record 1: meno": "Ján", "register record 1: dátum narodenia": "16.11.1923", "register record 1: krycie meno": "", "register record 1: kategória": "signálny zväzok", "register record 1: registračné číslo": "6945", "register record 1: séria": "I", "register record 1: kraj": "Košice", "register record 1: poznámka": "", "register record 1: ": "zobraz stranu", "register record 2: priezvisko": "Hirka", "register record 2: meno": "Ján", "register record 2: dátum narodenia": "16.11.1923", "register record 2: krycie meno": "", "register record 2: kategória": "pozorovací zväzok, osobný zväzok , preverovaná osoba , nepriateľská osoba", "register record 2: registračné číslo": "8270", "register record 2: séria": "I", "register record 2: kraj": "Košice", "register record 2: poznámka": "", "register record 2: ": "zobraz stranu", "register record 3: priezvisko": "Hirka", "register record 3: meno": "Ján", "register record 3: dátum narodenia": "16.11.1923", "register record 3: krycie meno": "ordinár", "register record 3: kategória": "osobný zväzok", "register record 3: registračné číslo": "21445", "register record 3: séria": "I", "register record 3: kraj": "Košice", "register record 3: poznámka": "", "register record 3: ": "zobraz stranu", "register record 4: priezvisko": "Hirka", "register record 4: meno": "Ján", "register record 4: dátum narodenia": "16.11.1923", "register record 4: krycie meno": "vladimír", "register record 4: kategória": "agent", "register record 4: registračné číslo": "21781", "register record 4: séria": "I", "register record 4: kraj": "Košice", "register record 4: poznámka": "", "register record 4: ": "zobraz stranu"}}, {"type": "Feature", "geometry": {"type": "Point", "coordinates": [17.1077, 48.1486]}, "properties": {"name": "Hana Ponická", "group": "Named in opened secret-police or spy-service files", "branch": "other office", "working for or tied to": "StB (Czechoslovak secret police) or military counter-intelligence", "offices held (Wikidata)": "spokesperson of Charter 77", "date of birth (Wikidata and the register agree)": "1922-07-15", "citizenship": "Slovensko", "registered as": "informer", "note": "The StB's registration book lists this person, with the same name and birth date as Wikidata's record, as informer. A registration is the StB's own record, not a court finding; Slovak courts have heard challenges to some.", "Wikidata": "https://www.wikidata.org/wiki/Q2604414", "Wikipedia": "https://sk.wikipedia.org/wiki/Hana_Ponick%C3%A1", "ÚPN search": "https://www.upn.gov.sk/projekty/regpro/vysledky-vyhladavania/?kraj=&priezvisko=Ponick%C3%A1&meno=Hana&krycie_meno=&datum_narodenia=&kategoria=", "source": "Nation's Memory Institute (ÚPN), StB registration books, matched to Wikidata by name and birth date, read 2026-09-30", "placed at": "the capital of their country of citizenship", "part": "stb", "register record 1: priezvisko": "PONICKÁ", "register record 1: meno": "Hana", "register record 1: dátum narodenia": "15.07.1922", "register record 1: krycie meno": "MLYN", "register record 1: kategória": "preverovaná osoba , signálny zväzok , osobný zväzok , nepriateľská osoba", "register record 1: registračné číslo": "6154", "register record 1: séria": "I", "register record 1: kraj": "Banská Bystrica", "register record 1: poznámka": "", "register record 1: ": "zobraz stranu"}}, {"type": "Feature", "geometry": {"type": "Point", "coordinates": [17.1077, 48.1486]}, "properties": {"name": "Martin Fronc", "group": "Named in opened secret-police or spy-service files", "branch": "lawmaking", "working for or tied to": "StB (Czechoslovak secret police) or military counter-intelligence", "offices held (Wikidata)": "education minister; Representative of the Parliamentary Assembly of the Council of Europe", "date of birth (Wikidata and the register agree)": "1947-11-28", "citizenship": "Slovensko", "registered as": "informer", "note": "The StB's registration book lists this person, with the same name and birth date as Wikidata's record, as informer. A registration is the StB's own record, not a court finding; Slovak courts have heard challenges to some.", "Wikidata": "https://www.wikidata.org/wiki/Q3090991", "Wikipedia": "https://sk.wikipedia.org/wiki/Martin_Fronc", "ÚPN search": "https://www.upn.gov.sk/projekty/regpro/vysledky-vyhladavania/?kraj=&priezvisko=Fronc&meno=Martin&krycie_meno=&datum_narodenia=&kategoria=", "source": "Nation's Memory Institute (ÚPN), StB registration books, matched to Wikidata by name and birth date, read 2026-09-30", "placed at": "the capital of their country of citizenship", "part": "stb", "register record 1: priezvisko": "FRONC", "register record 1: meno": "Martin", "register record 1: dátum narodenia": "28.11.1947", "register record 1: krycie meno": "KANTOR", "register record 1: kategória": "preverovaná osoba", "register record 1: registračné číslo": "15891", "register record 1: séria": "I", "register record 1: kraj": "Banská Bystrica", "register record 1: poznámka": "", "register record 1: ": "zobraz stranu"}}, {"type": "Feature", "geometry": {"type": "Point", "coordinates": [17.1077, 48.1486]}, "properties": {"name": "Peter Kothaj", "group": "Named in opened secret-police or spy-service files", "branch": "other office", "working for or tied to": "StB (Czechoslovak secret police) or military counter-intelligence", "offices held (Wikidata)": "Professeur des universités – Praticien hospitalier", "date of birth (Wikidata and the register agree)": "1951-10-05", "citizenship": "Slovensko", "registered as": "informer", "note": "The StB's registration book lists this person, with the same name and birth date as Wikidata's record, as informer. A registration is the StB's own record, not a court finding; Slovak courts have heard challenges to some.", "Wikidata": "https://www.wikidata.org/wiki/Q12773731", "Wikipedia": "https://sk.wikipedia.org/wiki/Peter_Kothaj", "ÚPN search": "https://www.upn.gov.sk/projekty/regpro/vysledky-vyhladavania/?kraj=&priezvisko=Kothaj&meno=Peter&krycie_meno=&datum_narodenia=&kategoria=", "source": "Nation's Memory Institute (ÚPN), StB registration books, matched to Wikidata by name and birth date, read 2026-09-30", "placed at": "the capital of their country of citizenship", "part": "stb", "register record 1: priezvisko": "KOTHAJ", "register record 1: meno": "Peter", "register record 1: dátum narodenia": "05.10.1951", "register record 1: krycie meno": "VIKTOR", "register record 1: kategória": "kandidát tajnej spolupráce", "register record 1: registračné číslo": "12981", "register record 1: séria": "I", "register record 1: kraj": "Banská Bystrica", "register record 1: poznámka": "", "register record 1: ": "zobraz stranu"}}, {"type": "Feature", "geometry": {"type": "Point", "coordinates": [17.1077, 48.1486]}, "properties": {"name": "Vladimír Mináč", "group": "Named in opened secret-police or spy-service files", "branch": "lawmaking", "working for or tied to": "StB (Czechoslovak secret police) or military counter-intelligence", "offices held (Wikidata)": "member of the Federal Assembly of Czechoslovakia", "date of birth (Wikidata and the register agree)": "1922-08-10", "citizenship": "Slovensko", "registered as": "informer", "note": "The StB's registration book lists this person, with the same name and birth date as Wikidata's record, as informer. A registration is the StB's own record, not a court finding; Slovak courts have heard challenges to some.", "Wikidata": "https://www.wikidata.org/wiki/Q11907472", "Wikipedia": "https://sk.wikipedia.org/wiki/Vladim%C3%ADr_Min%C3%A1%C4%8D", "ÚPN search": "https://www.upn.gov.sk/projekty/regpro/vysledky-vyhladavania/?kraj=&priezvisko=Min%C3%A1%C4%8D&meno=Vladim%C3%ADr&krycie_meno=&datum_narodenia=&kategoria=", "source": "Nation's Memory Institute (ÚPN), StB registration books, matched to Wikidata by name and birth date, read 2026-09-30", "placed at": "the capital of their country of citizenship", "part": "stb", "register record 1: priezvisko": "Mináč", "register record 1: meno": "Vladimír", "register record 1: dátum narodenia": "10.08.1922", "register record 1: krycie meno": "", "register record 1: kategória": "pozorovací zväzok", "register record 1: registračné číslo": "1434", "register record 1: séria": "I", "register record 1: kraj": "Bratislava", "register record 1: poznámka": "", "register record 1: ": "zobraz stranu"}}, {"type": "Feature", "geometry": {"type": "Point", "coordinates": [17.1077, 48.1486]}, "properties": {"name": "Peter Kónya", "group": "Named in opened secret-police or spy-service files", "branch": "other office", "working for or tied to": "StB (Czechoslovak secret police) or military counter-intelligence", "offices held (Wikidata)": "rector", "date of birth (Wikidata and the register agree)": "1966-08-20", "citizenship": "Slovensko", "registered as": "informer", "note": "The StB's registration book lists this person, with the same name and birth date as Wikidata's record, as informer. A registration is the StB's own record, not a court finding; Slovak courts have heard challenges to some.", "Wikidata": "https://www.wikidata.org/wiki/Q85421770", "Wikipedia": "https://sk.wikipedia.org/wiki/Peter_K%C3%B3nya", "ÚPN search": "https://www.upn.gov.sk/projekty/regpro/vysledky-vyhladavania/?kraj=&priezvisko=K%C3%B3nya&meno=Peter&krycie_meno=&datum_narodenia=&kategoria=", "source": "Nation's Memory Institute (ÚPN), StB registration books, matched to Wikidata by name and birth date, read 2026-09-30", "placed at": "the capital of their country of citizenship", "part": "stb", "register record 1: priezvisko": "Konya", "register record 1: meno": "Peter", "register record 1: dátum narodenia": "20.08.1966", "register record 1: krycie meno": "obranca", "register record 1: kategória": "kandidát tajnej spolupráce", "register record 1: registračné číslo": "18750", "register record 1: séria": "I", "register record 1: kraj": "Košice", "register record 1: poznámka": "", "register record 1: ": "zobraz stranu"}}, {"type": "Feature", "geometry": {"type": "Point", "coordinates": [17.1077, 48.1486]}, "properties": {"name": "Miroslav Mikolášik", "group": "Named in opened secret-police or spy-service files", "branch": "lawmaking", "working for or tied to": "StB (Czechoslovak secret police) or military counter-intelligence", "offices held (Wikidata)": "ambassador of Slovakia to Canada; Member of the European Parliament", "date of birth (Wikidata and the register agree)": "1952-09-11", "citizenship": "Slovensko", "registered as": "informer", "note": "The StB's registration book lists this person, with the same name and birth date as Wikidata's record, as informer. A registration is the StB's own record, not a court finding; Slovak courts have heard challenges to some.", "Wikidata": "https://www.wikidata.org/wiki/Q4597444", "Wikipedia": "https://sk.wikipedia.org/wiki/Miroslav_Mikol%C3%A1%C5%A1ik", "ÚPN search": "https://www.upn.gov.sk/projekty/regpro/vysledky-vyhladavania/?kraj=&priezvisko=Mikol%C3%A1%C5%A1ik&meno=Miroslav&krycie_meno=&datum_narodenia=&kategoria=", "source": "Nation's Memory Institute (ÚPN), StB registration books, matched to Wikidata by name and birth date, read 2026-09-30", "placed at": "the capital of their country of citizenship", "part": "stb", "register record 1: priezvisko": "MIKOLAŠÍK", "register record 1: meno": "Miroslav", "register record 1: dátum narodenia": "11.09.1952", "register record 1: krycie meno": "FERO", "register record 1: kategória": "preverovaná osoba", "register record 1: registračné číslo": "17045", "register record 1: séria": "I", "register record 1: kraj": "Banská Bystrica", "register record 1: poznámka": "", "register record 1: ": "zobraz stranu"}}, {"type": "Feature", "geometry": {"type": "Point", "coordinates": [17.1077, 48.1486]}, "properties": {"name": "Jozef Feranec", "group": "Named in opened secret-police or spy-service files", "branch": "other office", "working for or tied to": "StB (Czechoslovak secret police) or military counter-intelligence", "offices held (Wikidata)": "Roman Catholic Bishop of Banská Bystrica", "date of birth (Wikidata and the register agree)": "1910-03-14", "citizenship": "Slovensko", "registered as": "informer", "note": "The StB's registration book lists this person, with the same name and birth date as Wikidata's record, as informer. A registration is the StB's own record, not a court finding; Slovak courts have heard challenges to some.", "Wikidata": "https://www.wikidata.org/wiki/Q3503072", "Wikipedia": "https://sk.wikipedia.org/wiki/Jozef_Feranec", "ÚPN search": "https://www.upn.gov.sk/projekty/regpro/vysledky-vyhladavania/?kraj=&priezvisko=Feranec&meno=Jozef&krycie_meno=&datum_narodenia=&kategoria=", "source": "Nation's Memory Institute (ÚPN), StB registration books, matched to Wikidata by name and birth date, read 2026-09-30", "placed at": "the capital of their country of citizenship", "part": "stb", "register record 1: priezvisko": "FERANEC", "register record 1: meno": "Jozef", "register record 1: dátum narodenia": "14.03.1910", "register record 1: krycie meno": "PROFESOR", "register record 1: kategória": "informátor , preverovaná osoba", "register record 1: registračné číslo": "3130", "register record 1: séria": "I", "register record 1: kraj": "Banská Bystrica", "register record 1: poznámka": "", "register record 1: ": "zobraz stranu"}}, {"type": "Feature", "geometry": {"type": "Point", "coordinates": [17.1077, 48.1486]}, "properties": {"name": "Michal Drobný", "group": "Named in opened secret-police or spy-service files", "branch": "lawmaking", "working for or tied to": "StB (Czechoslovak secret police) or military counter-intelligence", "offices held (Wikidata)": "Member of the National Council of the Slovak Republic", "date of birth (Wikidata and the register agree)": "1934-10-27", "citizenship": "Slovensko", "registered as": "informer", "note": "The StB's registration book lists this person, with the same name and birth date as Wikidata's record, as informer. A registration is the StB's own record, not a court finding; Slovak courts have heard challenges to some.", "Wikidata": "https://www.wikidata.org/wiki/Q6835727", "Wikipedia": "https://sk.wikipedia.org/wiki/Michal_Drobn%C3%BD", "ÚPN search": "https://www.upn.gov.sk/projekty/regpro/vysledky-vyhladavania/?kraj=&priezvisko=Drobn%C3%BD&meno=Michal&krycie_meno=&datum_narodenia=&kategoria=", "source": "Nation's Memory Institute (ÚPN), StB registration books, matched to Wikidata by name and birth date, read 2026-09-30", "placed at": "the capital of their country of citizenship", "part": "stb", "register record 1: priezvisko": "DROBNÝ", "register record 1: meno": "Michal", "register record 1: dátum narodenia": "27.10.1934", "register record 1: krycie meno": "KOPECKÝ", "register record 1: kategória": "dôverník , kandidát tajnej spolupráce , agent", "register record 1: registračné číslo": "6025", "register record 1: séria": "I", "register record 1: kraj": "Banská Bystrica", "register record 1: poznámka": "", "register record 1: ": "zobraz stranu"}}, {"type": "Feature", "geometry": {"type": "Point", "coordinates": [17.1077, 48.1486]}, "properties": {"name": "Dominik Kaľata", "group": "Named in opened secret-police or spy-service files", "branch": "other office", "working for or tied to": "StB (Czechoslovak secret police) or military counter-intelligence", "offices held (Wikidata)": "titular bishop; bishop", "date of birth (Wikidata and the register agree)": "1925-05-19", "citizenship": "Slovensko", "registered as": "informer", "note": "The StB's registration book lists this person, with the same name and birth date as Wikidata's record, as informer. A registration is the StB's own record, not a court finding; Slovak courts have heard challenges to some.", "Wikidata": "https://www.wikidata.org/wiki/Q327339", "Wikipedia": "https://sk.wikipedia.org/wiki/Dominik_Ka%C4%BEata", "ÚPN search": "https://www.upn.gov.sk/projekty/regpro/vysledky-vyhladavania/?kraj=&priezvisko=Kalata&meno=Dominik&krycie_meno=&datum_narodenia=&kategoria=", "source": "Nation's Memory Institute (ÚPN), StB registration books, matched to Wikidata by name and birth date, read 2026-09-30", "placed at": "the capital of their country of citizenship", "part": "stb", "register record 1: priezvisko": "Kalata", "register record 1: meno": "Dominik", "register record 1: dátum narodenia": "19.05.1925", "register record 1: krycie meno": "", "register record 1: kategória": "osobný zväzok", "register record 1: registračné číslo": "921", "register record 1: séria": "I", "register record 1: kraj": "Košice", "register record 1: poznámka": "", "register record 1: ": "zobraz stranu"}}, {"type": "Feature", "geometry": {"type": "Point", "coordinates": [17.1077, 48.1486]}, "properties": {"name": "František Rábek", "group": "Named in opened secret-police or spy-service files", "branch": "other office", "working for or tied to": "StB (Czechoslovak secret police) or military counter-intelligence", "offices held (Wikidata)": "titular bishop; Bishop of the Military Ordinariate of Slovakia; auxiliary bishop", "date of birth (Wikidata and the register agree)": "1949-02-17", "citizenship": "Slovensko", "registered as": "informer", "note": "The StB's registration book lists this person, with the same name and birth date as Wikidata's record, as informer. A registration is the StB's own record, not a court finding; Slovak courts have heard challenges to some.", "Wikidata": "https://www.wikidata.org/wiki/Q555686", "Wikipedia": "https://sk.wikipedia.org/wiki/Franti%C5%A1ek_R%C3%A1bek", "ÚPN search": "https://www.upn.gov.sk/projekty/regpro/vysledky-vyhladavania/?kraj=&priezvisko=R%C3%A1bek&meno=Franti%C5%A1ek&krycie_meno=&datum_narodenia=&kategoria=", "source": "Nation's Memory Institute (ÚPN), StB registration books, matched to Wikidata by name and birth date, read 2026-09-30", "placed at": "the capital of their country of citizenship", "part": "stb", "register record 1: priezvisko": "RÁBEK", "register record 1: meno": "František", "register record 1: dátum narodenia": "17.02.1949", "register record 1: krycie meno": "KALVÁRIA", "register record 1: kategória": "preverovaná osoba", "register record 1: registračné číslo": "19881", "register record 1: séria": "I", "register record 1: kraj": "Banská Bystrica", "register record 1: poznámka": "", "register record 1: ": "zobraz stranu"}}, {"type": "Feature", "geometry": {"type": "Point", "coordinates": [17.1077, 48.1486]}, "properties": {"name": "Milan Chautur", "group": "Named in opened secret-police or spy-service files", "branch": "other office", "working for or tied to": "StB (Czechoslovak secret police) or military counter-intelligence", "offices held (Wikidata)": "titular bishop; Greek-Catholic eparch of Košice; apostolic exarch; auxiliary bishop", "date of birth (Wikidata and the register agree)": "1957-09-04", "citizenship": "Slovensko", "registered as": "informer", "note": "The StB's registration book lists this person, with the same name and birth date as Wikidata's record, as informer. A registration is the StB's own record, not a court finding; Slovak courts have heard challenges to some.", "Wikidata": "https://www.wikidata.org/wiki/Q730260", "Wikipedia": "https://sk.wikipedia.org/wiki/Milan_Chautur", "ÚPN search": "https://www.upn.gov.sk/projekty/regpro/vysledky-vyhladavania/?kraj=&priezvisko=Chautur&meno=Milan&krycie_meno=&datum_narodenia=&kategoria=", "source": "Nation's Memory Institute (ÚPN), StB registration books, matched to Wikidata by name and birth date, read 2026-09-30", "placed at": "the capital of their country of citizenship", "part": "stb", "register record 1: priezvisko": "Chautur", "register record 1: meno": "Milan", "register record 1: dátum narodenia": "04.09.1957", "register record 1: krycie meno": "Mikuláš", "register record 1: kategória": "kandidát tajnej spolupráce", "register record 1: registračné číslo": "17852", "register record 1: séria": "I", "register record 1: kraj": "Košice", "register record 1: poznámka": "", "register record 1: ": "zobraz stranu", "register record 2: priezvisko": "Chautur", "register record 2: meno": "Milan", "register record 2: dátum narodenia": "04.09.1957", "register record 2: krycie meno": "miki", "register record 2: kategória": "preverovaná osoba", "register record 2: registračné číslo": "18929", "register record 2: séria": "I", "register record 2: kraj": "Košice", "register record 2: poznámka": "", "register record 2: ": "zobraz stranu"}}, {"type": "Feature", "geometry": {"type": "Point", "coordinates": [17.1077, 48.1486]}, "properties": {"name": "Ján Šoth", "group": "Named in opened secret-police or spy-service files", "branch": "lawmaking", "working for or tied to": "StB (Czechoslovak secret police) or military counter-intelligence", "offices held (Wikidata)": "ambassador of Slovakia to Romania; ambassador of Slovakia to Italy; ambassador of Slovakia to France; First Councilor", "date of birth (Wikidata and the register agree)": "1960-02-02", "citizenship": "Slovensko", "registered as": "informer", "note": "The StB's registration book lists this person, with the same name and birth date as Wikidata's record, as informer. A registration is the StB's own record, not a court finding; Slovak courts have heard challenges to some.", "Wikidata": "https://www.wikidata.org/wiki/Q27990864", "Wikipedia": "https://sk.wikipedia.org/wiki/J%C3%A1n_%C5%A0oth", "ÚPN search": "https://www.upn.gov.sk/projekty/regpro/vysledky-vyhladavania/?kraj=&priezvisko=%C5%A0oth&meno=J%C3%A1n&krycie_meno=&datum_narodenia=&kategoria=", "source": "Nation's Memory Institute (ÚPN), StB registration books, matched to Wikidata by name and birth date, read 2026-09-30", "placed at": "the capital of their country of citizenship", "part": "stb", "register record 1: priezvisko": "Šoth", "register record 1: meno": "Ján", "register record 1: dátum narodenia": "02.02.1960", "register record 1: krycie meno": "Filatelista", "register record 1: kategória": "dôverník", "register record 1: registračné číslo": "13785", "register record 1: séria": "I", "register record 1: kraj": "Košice", "register record 1: poznámka": "", "register record 1: ": "zobraz stranu"}}, {"type": "Feature", "geometry": {"type": "Point", "coordinates": [17.1077, 48.1486]}, "properties": {"name": "Vladimír Haviar", "group": "Named in opened secret-police or spy-service files", "branch": "lawmaking", "working for or tied to": "StB (Czechoslovak secret police) or military counter-intelligence", "offices held (Wikidata)": "member of parliament", "date of birth (Wikidata and the register agree)": "1911-10-18", "citizenship": "Slovensko", "registered as": "informer", "note": "The StB's registration book lists this person, with the same name and birth date as Wikidata's record, as informer. A registration is the StB's own record, not a court finding; Slovak courts have heard challenges to some.", "Wikidata": "https://www.wikidata.org/wiki/Q11905014", "Wikipedia": "", "ÚPN search": "https://www.upn.gov.sk/projekty/regpro/vysledky-vyhladavania/?kraj=&priezvisko=Haviar&meno=Vladim%C3%ADr&krycie_meno=&datum_narodenia=&kategoria=", "source": "Nation's Memory Institute (ÚPN), StB registration books, matched to Wikidata by name and birth date, read 2026-09-30", "placed at": "the capital of their country of citizenship", "part": "stb", "register record 1: priezvisko": "Haviar", "register record 1: meno": "Vladimír", "register record 1: dátum narodenia": "18.10.1911", "register record 1: krycie meno": "", "register record 1: kategória": "evidenčný zväzok , osobný zväzok", "register record 1: registračné číslo": "388", "register record 1: séria": "I", "register record 1: kraj": "Bratislava", "register record 1: poznámka": "", "register record 1: ": "zobraz stranu", "register record 2: priezvisko": "Haviar", "register record 2: meno": "Vladimír", "register record 2: dátum narodenia": "18.10.1911", "register record 2: krycie meno": "", "register record 2: kategória": "osobný zväzok , pozorovací zväzok", "register record 2: registračné číslo": "1984", "register record 2: séria": "I", "register record 2: kraj": "Bratislava", "register record 2: poznámka": "", "register record 2: ": "zobraz stranu"}}, {"type": "Feature", "geometry": {"type": "Point", "coordinates": [17.1077, 48.1486]}, "properties": {"name": "Július Tóth", "group": "Named in opened secret-police or spy-service files", "branch": "ruling and running", "working for or tied to": "StB (Czechoslovak secret police) or military counter-intelligence", "offices held (Wikidata)": "Minister of Finance of the Slovak Republic", "date of birth (Wikidata and the register agree)": "1935-05-06", "citizenship": "Slovensko", "registered as": "informer", "note": "The StB's registration book lists this person, with the same name and birth date as Wikidata's record, as informer. A registration is the StB's own record, not a court finding; Slovak courts have heard challenges to some.", "Wikidata": "https://www.wikidata.org/wiki/Q12027604", "Wikipedia": "", "ÚPN search": "https://www.upn.gov.sk/projekty/regpro/vysledky-vyhladavania/?kraj=&priezvisko=T%C3%B3th&meno=J%C3%BAlius&krycie_meno=&datum_narodenia=&kategoria=", "source": "Nation's Memory Institute (ÚPN), StB registration books, matched to Wikidata by name and birth date, read 2026-09-30", "placed at": "the capital of their country of citizenship", "part": "stb", "register record 1: priezvisko": "Toth", "register record 1: meno": "Julius", "register record 1: dátum narodenia": "06.05.1935", "register record 1: krycie meno": "Július", "register record 1: kategória": "signálny zväzok , osobný zväzok , preverovaná osoba , nepriateľská osoba", "register record 1: registračné číslo": "9113", "register record 1: séria": "I", "register record 1: kraj": "Košice", "register record 1: poznámka": "", "register record 1: ": "zobraz stranu"}}, {"type": "Feature", "geometry": {"type": "Point", "coordinates": [17.1077, 48.1486]}, "properties": {"name": "Ladislav Molnár", "group": "Named in opened secret-police or spy-service files", "branch": "lawmaking", "working for or tied to": "StB (Czechoslovak secret police) or military counter-intelligence", "offices held (Wikidata)": "member of the Federal Assembly of Czechoslovakia", "date of birth (Wikidata and the register agree)": "1953-04-24", "citizenship": "Slovensko", "registered as": "informer", "note": "The StB's registration book lists this person, with the same name and birth date as Wikidata's record, as informer. A registration is the StB's own record, not a court finding; Slovak courts have heard challenges to some.", "Wikidata": "https://www.wikidata.org/wiki/Q12032564", "Wikipedia": "", "ÚPN search": "https://www.upn.gov.sk/projekty/regpro/vysledky-vyhladavania/?kraj=&priezvisko=Moln%C3%A1r&meno=Ladislav&krycie_meno=&datum_narodenia=&kategoria=", "source": "Nation's Memory Institute (ÚPN), StB registration books, matched to Wikidata by name and birth date, read 2026-09-30", "placed at": "the capital of their country of citizenship", "part": "stb", "register record 1: priezvisko": "Molnár", "register record 1: meno": "Ladislav", "register record 1: dátum narodenia": "24.04.1953", "register record 1: krycie meno": "Redaktor", "register record 1: kategória": "preverovaná osoba", "register record 1: registračné číslo": "15677", "register record 1: séria": "I", "register record 1: kraj": "Košice", "register record 1: poznámka": "", "register record 1: ": "zobraz stranu"}}, {"type": "Feature", "geometry": {"type": "Point", "coordinates": [17.1077, 48.1486]}, "properties": {"name": "Oľga Glosíková", "group": "Named in opened secret-police or spy-service files", "branch": "lawmaking", "working for or tied to": "StB (Czechoslovak secret police) or military counter-intelligence", "offices held (Wikidata)": "member of the Federal Assembly of Czechoslovakia; director", "date of birth (Wikidata and the register agree)": "1953-03-24", "citizenship": "Slovensko", "registered as": "informer", "note": "The StB's registration book lists this person, with the same name and birth date as Wikidata's record, as informer. A registration is the StB's own record, not a court finding; Slovak courts have heard challenges to some.", "Wikidata": "https://www.wikidata.org/wiki/Q12043418", "Wikipedia": "", "ÚPN search": "https://www.upn.gov.sk/projekty/regpro/vysledky-vyhladavania/?kraj=&priezvisko=Glos%C3%ADkov%C3%A1&meno=O%C4%BEga&krycie_meno=&datum_narodenia=&kategoria=", "source": "Nation's Memory Institute (ÚPN), StB registration books, matched to Wikidata by name and birth date, read 2026-09-30", "placed at": "the capital of their country of citizenship", "part": "stb", "register record 1: priezvisko": "Glosíková", "register record 1: meno": "Oľga", "register record 1: dátum narodenia": "24.03.1953", "register record 1: krycie meno": "oľga", "register record 1: kategória": "dôverník", "register record 1: registračné číslo": "17198", "register record 1: séria": "I", "register record 1: kraj": "Košice", "register record 1: poznámka": "", "register record 1: ": "zobraz stranu"}}, {"type": "Feature", "geometry": {"type": "Point", "coordinates": [17.1077, 48.1486]}, "properties": {"name": "František Reves", "group": "Named in opened secret-police or spy-service files", "branch": "other office", "working for or tied to": "StB (Czechoslovak secret police) or military counter-intelligence", "offices held (Wikidata)": "rector", "date of birth (Wikidata and the register agree)": "1911-05-02", "citizenship": "Slovensko", "registered as": "informer", "note": "The StB's registration book lists this person, with the same name and birth date as Wikidata's record, as informer. A registration is the StB's own record, not a court finding; Slovak courts have heard challenges to some.", "Wikidata": "https://www.wikidata.org/wiki/Q109515543", "Wikipedia": "", "ÚPN search": "https://www.upn.gov.sk/projekty/regpro/vysledky-vyhladavania/?kraj=&priezvisko=Reves&meno=Franti%C5%A1ek&krycie_meno=&datum_narodenia=&kategoria=", "source": "Nation's Memory Institute (ÚPN), StB registration books, matched to Wikidata by name and birth date, read 2026-09-30", "placed at": "the capital of their country of citizenship", "part": "stb", "register record 1: priezvisko": "Revesz", "register record 1: meno": "František", "register record 1: dátum narodenia": "02.05.1911", "register record 1: krycie meno": "", "register record 1: kategória": "osobný zväzok", "register record 1: registračné číslo": "40", "register record 1: séria": "I", "register record 1: kraj": "Bratislava", "register record 1: poznámka": "", "register record 1: ": "zobraz stranu", "register record 2: priezvisko": "Revesz", "register record 2: meno": "František", "register record 2: dátum narodenia": "02.05.1911", "register record 2: krycie meno": "", "register record 2: kategória": "osobný zväzok , pozorovací zväzok", "register record 2: registračné číslo": "924", "register record 2: séria": "I", "register record 2: kraj": "Bratislava", "register record 2: poznámka": "", "register record 2: ": "zobraz stranu"}}, {"type": "Feature", "geometry": {"type": "Point", "coordinates": [17.1077, 48.1486]}, "properties": {"name": "František Harabin", "group": "Named in opened secret-police or spy-service files", "branch": "other office", "working for or tied to": "StB (Czechoslovak secret police) or military counter-intelligence", "offices held (Wikidata)": "head teacher", "date of birth (Wikidata and the register agree)": "1946-08-27", "citizenship": "Slovensko", "registered as": "informer", "note": "The StB's registration book lists this person, with the same name and birth date as Wikidata's record, as informer. A registration is the StB's own record, not a court finding; Slovak courts have heard challenges to some.", "Wikidata": "https://www.wikidata.org/wiki/Q133836259", "Wikipedia": "", "ÚPN search": "https://www.upn.gov.sk/projekty/regpro/vysledky-vyhladavania/?kraj=&priezvisko=Harabin&meno=Franti%C5%A1ek&krycie_meno=&datum_narodenia=&kategoria=", "source": "Nation's Memory Institute (ÚPN), StB registration books, matched to Wikidata by name and birth date, read 2026-09-30", "placed at": "the capital of their country of citizenship", "part": "stb", "register record 1: priezvisko": "Harabin", "register record 1: meno": "František", "register record 1: dátum narodenia": "27.08.1946", "register record 1: krycie meno": "", "register record 1: kategória": "dôverník", "register record 1: registračné číslo": "8650", "register record 1: séria": "I", "register record 1: kraj": "Košice", "register record 1: poznámka": "", "register record 1: ": "zobraz stranu", "register record 2: priezvisko": "Harabin", "register record 2: meno": "František", "register record 2: dátum narodenia": "27.08.1946", "register record 2: krycie meno": "Robert", "register record 2: kategória": "preverovaná osoba", "register record 2: registračné číslo": "19848", "register record 2: séria": "I", "register record 2: kraj": "Košice", "register record 2: poznámka": "", "register record 2: ": "zobraz stranu"}}]}