{"type": "FeatureCollection", "features": [{"type": "Feature", "geometry": {"type": "Point", "coordinates": [-74.0324, 40.744]}, "properties": {"name": "Wiley / Hindawi", "group": "Big publishers that printed papers bought from paper mills, then retracted them", "type, as the page says": "Major publisher hit by paper mills", "rank on the page": 1, "based": "Hoboken, US", "documented scale": "11,300+ retractions", "detail": "After Wiley bought Hindawi (2021), paper mills flooded its special issues; Wiley retracted 11,300+ papers and had 19 journals delisted by Clarivate.", "tier": 1, "size of the record": 11300, "note": "Wiley discontinued the Hindawi brand in 2024; cleanup cost an estimated $35-40M."}}, {"type": "Feature", "geometry": {"type": "Point", "coordinates": [78.4867, 17.385]}, "properties": {"name": "OMICS Publishing Group", "group": "Publishers that take fees but skip real checking (predatory), fined or blacklisted", "type, as the page says": "Predatory publisher (sanctioned/listed)", "rank on the page": 2, "based": "Hyderabad, IN", "documented scale": "$50.1M US court judgment", "detail": "A US court ordered OMICS to pay $50.1M (2019) after the FTC proved deceptive practices: fake peer review, hidden fees, bogus impact factors and misused researcher names.", "tier": 1, "size of the record": 5000, "note": "The archetypal predatory publisher; also runs Allied Academies, Pulsus, iMedPub, Longdom."}}, {"type": "Feature", "geometry": {"type": "Point", "coordinates": [-94.1266, 30.0802]}, "properties": {"name": "Cabells Predatory Reports", "group": "Publishers that take fees but skip real checking (predatory), fined or blacklisted", "type, as the page says": "Predatory publisher (sanctioned/listed)", "rank on the page": 3, "based": "Beaumont, US", "documented scale": "15,000+ journals flagged", "detail": "The successor to Beall’s List; catalogues over 15,000 journals using deceptive or predatory practices.", "tier": 2, "size of the record": 15000, "note": "A catalogue, not one firm — a measure of the predatory long tail."}}, {"type": "Feature", "geometry": {"type": "Point", "coordinates": [-74.4121, 40.5187]}, "properties": {"name": "IEEE", "group": "Big publishers that printed papers bought from paper mills, then retracted them", "type, as the page says": "Major publisher hit by paper mills", "rank on the page": 4, "based": "Piscataway, US", "documented scale": "Thousands of papers removed", "detail": "Has withdrawn thousands of substandard or fabricated conference papers from IEEE Xplore, including computer-generated (SCIgen) nonsense papers.", "tier": 2, "size of the record": 7000, "note": "The world's largest technical professional body; mostly a conference-proceedings problem."}}, {"type": "Feature", "geometry": {"type": "Point", "coordinates": [13.405, 52.52]}, "properties": {"name": "Springer Nature", "group": "Big publishers that printed papers bought from paper mills, then retracted them", "type, as the page says": "Major publisher hit by paper mills", "rank on the page": 5, "based": "Berlin, DE", "documented scale": "Thousands of retractions", "detail": "Repeated mass retractions across BMC, the Arabian Journal of Geosciences and others for fake peer review and paper-mill content.", "tier": 2, "size of the record": 3000, "note": "A leading legitimate publisher; several journals were infiltrated and later purged."}}, {"type": "Feature", "geometry": {"type": "Point", "coordinates": [7.5886, 47.5596]}, "properties": {"name": "MDPI", "group": "Journals publishing huge numbers of papers fast, criticised for weak checks (megajournals)", "type, as the page says": "High-volume megajournal (criticised)", "rank on the page": 6, "based": "Basel, CH", "documented scale": "Megajournal; 2 journals delisted", "detail": "High-volume special-issue model; its IJERPH published ~17,000 papers in 2022; Clarivate delisted 2 MDPI titles and China's CAS put 22 on a warning list.", "tier": 2, "size of the record": 2500, "note": "MDPI rejects paper-mill claims and says delistings were on a 'content-relevance' criterion, not quality."}}, {"type": "Feature", "geometry": {"type": "Point", "coordinates": [4.9041, 52.3676]}, "properties": {"name": "Elsevier", "group": "Big publishers that printed papers bought from paper mills, then retracted them", "type, as the page says": "Major publisher hit by paper mills", "rank on the page": 7, "based": "Amsterdam, NL", "documented scale": "Hundreds+ retractions", "detail": "Paper-mill-infiltrated special issues and fake peer review have triggered retractions across multiple Elsevier journals.", "tier": 2, "size of the record": 1500, "note": "The largest scientific publisher; targeted by mills like everyone else."}}, {"type": "Feature", "geometry": {"type": "Point", "coordinates": [12, 24]}, "properties": {"name": "Beall's-listed predatory publishers", "group": "Publishers that take fees but skip real checking (predatory), fined or blacklisted", "type, as the page says": "Predatory publisher (sanctioned/listed)", "rank on the page": 8, "based": "(global list)", "documented scale": "1,000+ publishers catalogued", "detail": "Beall's List and its successor lists catalogued well over 1,000 predatory open-access publishers and journals that charge fees with little or no real peer review.", "tier": 2, "size of the record": 1200, "note": "A category, not one firm; the long tail of pay-to-publish operations."}}, {"type": "Feature", "geometry": {"type": "Point", "coordinates": [28.9784, 41.0082]}, "properties": {"name": "WASET", "group": "Fake or pay-to-present science conferences", "type, as the page says": "Predatory conference organiser", "rank on the page": 9, "based": "Istanbul, TR", "documented scale": "Predatory conferences & journals", "detail": "The World Academy of Science, Engineering and Technology is widely flagged for predatory conferences and journals using copied names and fake metrics.", "tier": 2, "size of the record": 1000, "note": "Investigated by journalists across Europe (e.g. the 2018 'Fake Science' exposes)."}}, {"type": "Feature", "geometry": {"type": "Point", "coordinates": [6.6323, 46.5197]}, "properties": {"name": "Frontiers", "group": "Journals publishing huge numbers of papers fast, criticised for weak checks (megajournals)", "type, as the page says": "High-volume megajournal (criticised)", "rank on the page": 10, "based": "Lausanne, CH", "documented scale": "Megajournal; integrity criticism", "detail": "Very high volume with heavy China exposure; once appeared on Beall's predatory list; criticised for pressure on editors. Cut output sharply after 2022.", "tier": 3, "size of the record": 1500, "note": "Frontiers disputes the predatory label; no mass-retraction event like Hindawi's."}}, {"type": "Feature", "geometry": {"type": "Point", "coordinates": [114.3055, 30.5928]}, "properties": {"name": "SCIRP (Scientific Research Publishing)", "group": "Publishers that take fees but skip real checking (predatory), fined or blacklisted", "type, as the page says": "Predatory publisher (sanctioned/listed)", "rank on the page": 11, "based": "Wuhan, CN", "documented scale": "Long predatory-listed", "detail": "Scientific Research Publishing has long appeared on predatory-publisher lists for weak review and aggressive fee-seeking.", "tier": 3, "size of the record": 800}}, {"type": "Feature", "geometry": {"type": "Point", "coordinates": [-1.288, 51.671]}, "properties": {"name": "Taylor & Francis", "group": "Big publishers that printed papers bought from paper mills, then retracted them", "type, as the page says": "Major publisher hit by paper mills", "rank on the page": 12, "based": "Abingdon, GB", "documented scale": "Journal delisted; 86+ retractions", "detail": "Its journal Bioengineered was delisted by Clarivate after paper-mill activity, with 86+ retractions there alone.", "tier": 3, "size of the record": 600, "note": "A major legitimate publisher with infiltrated titles."}}, {"type": "Feature", "geometry": {"type": "Point", "coordinates": [-122.4194, 37.7749]}, "properties": {"name": "PLOS (PLOS ONE)", "group": "Journals publishing huge numbers of papers fast, criticised for weak checks (megajournals)", "type, as the page says": "High-volume megajournal (criticised)", "rank on the page": 13, "based": "San Francisco, US", "documented scale": "Hundreds of retractions", "detail": "PLOS ONE, long the world’s largest journal, has retracted hundreds of papers, many for image manipulation and integrity failures.", "tier": 3, "size of the record": 600, "note": "A nonprofit open-access pioneer; sheer volume left a large cleanup."}}, {"type": "Feature", "geometry": {"type": "Point", "coordinates": [13.41, 52.525]}, "properties": {"name": "Scientific Reports (Springer Nature)", "group": "Journals publishing huge numbers of papers fast, criticised for weak checks (megajournals)", "type, as the page says": "High-volume megajournal (criticised)", "rank on the page": 14, "based": "Berlin, DE", "documented scale": "World’s largest journal; hundreds of retractions", "detail": "Publishes ~20,000 papers a year and has accumulated hundreds of retractions for manipulation and paper-mill content.", "tier": 3, "size of the record": 550}}, {"type": "Feature", "geometry": {"type": "Point", "coordinates": [-89.4012, 43.0731]}, "properties": {"name": "e-Century Publishing", "group": "Big publishers that printed papers bought from paper mills, then retracted them", "type, as the page says": "Major publisher hit by paper mills", "rank on the page": 15, "based": "Madison, US", "documented scale": "Mass paper-mill retractions", "detail": "Its biomedical journals saw mass retractions for paper-mill and image-duplication content; several were delisted.", "tier": 3, "size of the record": 500}}, {"type": "Feature", "geometry": {"type": "Point", "coordinates": [-118.8376, 34.1706]}, "properties": {"name": "Sage", "group": "Big publishers that printed papers bought from paper mills, then retracted them", "type, as the page says": "Major publisher hit by paper mills", "rank on the page": 16, "based": "Thousand Oaks, US", "documented scale": "Hundreds of retractions", "detail": "Retracted 209 + 122 papers from one engineering journal for compromised peer review; earlier exposed a 2014 fake-peer-review ring.", "tier": 3, "size of the record": 400}}, {"type": "Feature", "geometry": {"type": "Point", "coordinates": [55.4209, 25.3463]}, "properties": {"name": "Bentham Open", "group": "Publishers that take fees but skip real checking (predatory), fined or blacklisted", "type, as the page says": "Predatory publisher (sanctioned/listed)", "rank on the page": 17, "based": "Sharjah, AE", "documented scale": "Predatory-listed (since 2009)", "detail": "Subject of a famous 2009 sting when a deliberately nonsensical computer-generated paper was accepted.", "tier": 3, "size of the record": 400}}, {"type": "Feature", "geometry": {"type": "Point", "coordinates": [-0.1, 51.5074]}, "properties": {"name": "Allied Academies / Pulsus", "group": "Publishers that take fees but skip real checking (predatory), fined or blacklisted", "type, as the page says": "Predatory publisher (sanctioned/listed)", "rank on the page": 18, "based": "London, GB", "documented scale": "OMICS-owned", "detail": "Acquired by OMICS; carries the same predatory journal and conference practices.", "tier": 3, "size of the record": 300}}, {"type": "Feature", "geometry": {"type": "Point", "coordinates": [23.7275, 37.9838]}, "properties": {"name": "Spandidos Publications", "group": "Big publishers that printed papers bought from paper mills, then retracted them", "type, as the page says": "Major publisher hit by paper mills", "rank on the page": 19, "based": "Athens, GR", "documented scale": "Image-duplication retractions", "detail": "Greek biomedical publisher hit by waves of image-duplication retractions flagged by integrity sleuths.", "tier": 4, "size of the record": 300}}, {"type": "Feature", "geometry": {"type": "Point", "coordinates": [114.1694, 22.3193]}, "properties": {"name": "AME Publishing Company", "group": "Big publishers that printed papers bought from paper mills, then retracted them", "type, as the page says": "Major publisher hit by paper mills", "rank on the page": 20, "based": "Hong Kong, CN", "documented scale": "Journals delisted (2023)", "detail": "Several AME journals were removed from Clarivate’s Web of Science in the 2023 purge.", "tier": 4, "size of the record": 250}}, {"type": "Feature", "geometry": {"type": "Point", "coordinates": [-74.006, 40.7128]}, "properties": {"name": "Science Publishing Group", "group": "Publishers that take fees but skip real checking (predatory), fined or blacklisted", "type, as the page says": "Predatory publisher (sanctioned/listed)", "rank on the page": 21, "based": "New York, US", "documented scale": "Predatory-listed", "detail": "Open-access publisher long flagged for minimal review and deceptive metrics.", "tier": 4, "size of the record": 200}}, {"type": "Feature", "geometry": {"type": "Point", "coordinates": [-118.0276, 34.0686]}, "properties": {"name": "David Publishing", "group": "Publishers that take fees but skip real checking (predatory), fined or blacklisted", "type, as the page says": "Predatory publisher (sanctioned/listed)", "rank on the page": 22, "based": "El Monte, US", "documented scale": "Predatory-listed", "detail": "Mass solicitation and pay-to-publish journals across many fields.", "tier": 4, "size of the record": 200}}, {"type": "Feature", "geometry": {"type": "Point", "coordinates": [3.3792, 6.5244]}, "properties": {"name": "Academic Journals", "group": "Publishers that take fees but skip real checking (predatory), fined or blacklisted", "type, as the page says": "Predatory publisher (sanctioned/listed)", "rank on the page": 23, "based": "Lagos, NG", "documented scale": "Predatory-listed", "detail": "High-volume open-access publisher repeatedly listed as predatory.", "tier": 4, "size of the record": 180}}]}