{"type": "FeatureCollection", "features": [{"type": "Feature", "geometry": {"type": "Point", "coordinates": [-73.9858, 40.7565]}, "properties": {"Stock exchange": "Nasdaq (US)", "MIC": "XNAS", "Region": "United States", "City": "New York City", "Market cap (USD tn)": "36.0[4]", "Time zone": "EST/EDT", "Δ": "−5:00", "DST": "Mar–Nov", "Open hours (local time) Open": "09:30", "Open hours (local time) Close": "16:00", "Open hours (local time) Lunch": "No", "UTC (without DST) Open": "14:30", "UTC (without DST) Close": "21:00", "name": "Nasdaq (US)", "market_cap_usd_tn": null, "article": "https://en.wikipedia.org/wiki/Nasdaq", "position": "from the exchange's own Wikipedia article"}}, {"type": "Feature", "geometry": {"type": "Point", "coordinates": [-74.0111, 40.7069]}, "properties": {"Stock exchange": "New York Stock Exchange", "MIC": "XNYS", "Region": "United States", "City": "New York City", "Market cap (USD tn)": "31.0[5]", "Time zone": "EST/EDT", "Δ": "−5:00", "DST": "Mar–Nov", "Open hours (local time) Open": "09:30", "Open hours (local time) Close": "16:00", "Open hours (local time) Lunch": "No", "UTC (without DST) Open": "14:30", "UTC (without DST) Close": "21:00", "name": "New York Stock Exchange", "market_cap_usd_tn": null, "article": "https://en.wikipedia.org/wiki/New_York_Stock_Exchange", "position": "from the exchange's own Wikipedia article"}}, {"type": "Feature", "geometry": {"type": "Point", "coordinates": [121.5088, 31.2368]}, "properties": {"Stock exchange": "Shanghai Stock Exchange", "MIC": "XSHG", "Region": "China", "City": "Shanghai", "Market cap (USD tn)": "10.21[6]", "Time zone": "CST", "Δ": "+8:00", "DST": null, "Open hours (local time) Open": "09:30", "Open hours (local time) Close": "15:00", "Open hours (local time) Lunch": "11:30–13:00", "UTC (without DST) Open": "01:30", "UTC (without DST) Close": "07:00", "name": "Shanghai Stock Exchange", "market_cap_usd_tn": null, "article": "https://en.wikipedia.org/wiki/Shanghai_Stock_Exchange", "position": "from the exchange's own Wikipedia article"}}, {"type": "Feature", "geometry": {"type": "Point", "coordinates": [2.3522, 48.8567]}, "properties": {"Stock exchange": "Euronext", "MIC": "XAMS ASEX XBRU XMSM XLIS XMIL XOSL XPAR", "Region": "Europe", "City": "Amsterdam Athens Brussels Dublin Lisbon Milan Oslo Paris", "Market cap (USD tn)": "8.136[7]", "Time zone": "CET/CEST", "Δ": "+1:00", "DST": "Mar–Oct", "Open hours (local time) Open": "09:00", "Open hours (local time) Close": "17:30", "Open hours (local time) Lunch": "No", "UTC (without DST) Open": "08:00", "UTC (without DST) Close": "16:30", "name": "Euronext", "market_cap_usd_tn": null, "article": "https://en.wikipedia.org/wiki/Euronext", "position": "from its city's Wikipedia article"}}, {"type": "Feature", "geometry": {"type": "Point", "coordinates": [139.6922, 35.6897]}, "properties": {"Stock exchange": "Japan Exchange Group (Tokyo Stock Exchange)", "MIC": "XJPX (TYO)", "Region": "Japan", "City": "Tokyo", "Market cap (USD tn)": "7.95[8]", "Time zone": "JST", "Δ": "+9:00", "DST": "no", "Open hours (local time) Open": "09:00", "Open hours (local time) Close": "15:00", "Open hours (local time) Lunch": "11:30–12:30", "UTC (without DST) Open": "00:00", "UTC (without DST) Close": "06:00", "name": "Japan Exchange Group (Tokyo Stock Exchange)", "market_cap_usd_tn": null, "article": "https://en.wikipedia.org/wiki/Japan_Exchange_Group", "position": "from its city's Wikipedia article"}}, {"type": "Feature", "geometry": {"type": "Point", "coordinates": [114.0488, 22.5443]}, "properties": {"Stock exchange": "Shenzhen Stock Exchange", "MIC": "XSHE", "Region": "China", "City": "Shenzhen", "Market cap (USD tn)": "7.3[9]", "Time zone": "CST", "Δ": "+8:00", "DST": null, "Open hours (local time) Open": "09:30", "Open hours (local time) Close": "15:00", "Open hours (local time) Lunch": "11:30–13:00", "UTC (without DST) Open": "01:30", "UTC (without DST) Close": "07:00", "name": "Shenzhen Stock Exchange", "market_cap_usd_tn": null, "article": "https://en.wikipedia.org/wiki/Shenzhen_Stock_Exchange", "position": "from the exchange's own Wikipedia article"}}, {"type": "Feature", "geometry": {"type": "Point", "coordinates": [114.1577, 22.2841]}, "properties": {"Stock exchange": "Hong Kong Stock Exchange", "MIC": "XHKG", "Region": "Hong Kong", "City": "Hong Kong", "Market cap (USD tn)": "6.2[10]", "Time zone": "HKT", "Δ": "+8:00", "DST": null, "Open hours (local time) Open": "09:30", "Open hours (local time) Close": "16:00", "Open hours (local time) Lunch": "12:00-13:00", "UTC (without DST) Open": "01:30", "UTC (without DST) Close": "08:00", "name": "Hong Kong Stock Exchange", "market_cap_usd_tn": null, "article": "https://en.wikipedia.org/wiki/Hong_Kong_Stock_Exchange", "position": "from the exchange's own Wikipedia article"}}, {"type": "Feature", "geometry": {"type": "Point", "coordinates": [72.8334, 18.9298]}, "properties": {"Stock exchange": "Bombay Stock Exchange", "MIC": "XBOM", "Region": "India", "City": "Mumbai", "Market cap (USD tn)": "5.14[11]", "Time zone": "IST", "Δ": "+5:30", "DST": null, "Open hours (local time) Open": "09:15", "Open hours (local time) Close": "15:30", "Open hours (local time) Lunch": "No", "UTC (without DST) Open": "03:45", "UTC (without DST) Close": "10:00", "name": "Bombay Stock Exchange", "market_cap_usd_tn": null, "article": "https://en.wikipedia.org/wiki/Bombay_Stock_Exchange", "position": "from the exchange's own Wikipedia article"}}, {"type": "Feature", "geometry": {"type": "Point", "coordinates": [72.8597, 19.0603]}, "properties": {"Stock exchange": "National Stock Exchange", "MIC": "XNSE", "Region": "India", "City": "Mumbai", "Market cap (USD tn)": "5.12[12]", "Time zone": "IST", "Δ": "+5:30", "DST": null, "Open hours (local time) Open": "09:15", "Open hours (local time) Close": "15:30", "Open hours (local time) Lunch": "No", "UTC (without DST) Open": "03:45", "UTC (without DST) Close": "10:00", "name": "National Stock Exchange", "market_cap_usd_tn": null, "article": "https://en.wikipedia.org/wiki/National_Stock_Exchange_of_India", "position": "from the exchange's own Wikipedia article"}}, {"type": "Feature", "geometry": {"type": "Point", "coordinates": [121.5625, 25.0375]}, "properties": {"Stock exchange": "Taiwan Stock Exchange", "MIC": "XTAI", "Region": "Taiwan", "City": "Taipei", "Market cap (USD tn)": "4.97[13]", "Time zone": "NST (Taiwan)", "Δ": "+8:00", "DST": null, "Open hours (local time) Open": "09:00", "Open hours (local time) Close": "13:30", "Open hours (local time) Lunch": "No", "UTC (without DST) Open": "01:00", "UTC (without DST) Close": "05:30", "name": "Taiwan Stock Exchange", "market_cap_usd_tn": null, "article": "https://en.wikipedia.org/wiki/Taiwan_Stock_Exchange", "position": "from its city's Wikipedia article"}}, {"type": "Feature", "geometry": {"type": "Point", "coordinates": [129.075, 35.18]}, "properties": {"Stock exchange": "Korea Exchange", "MIC": "XKOS", "Region": "South Korea", "City": "Seoul Busan", "Market cap (USD tn)": "4.014[13]", "Time zone": "KST", "Δ": "+9:00", "DST": null, "Open hours (local time) Open": "09:00", "Open hours (local time) Close": "15:30", "Open hours (local time) Lunch": "No", "UTC (without DST) Open": "00:00", "UTC (without DST) Close": "06:30", "name": "Korea Exchange", "market_cap_usd_tn": null, "article": "https://en.wikipedia.org/wiki/Korea_Exchange", "position": "from its city's Wikipedia article"}}, {"type": "Feature", "geometry": {"type": "Point", "coordinates": [-79.3833, 43.6483]}, "properties": {"Stock exchange": "Toronto Stock Exchange", "MIC": "XTSE", "Region": "Canada", "City": "Toronto", "Market cap (USD tn)": "4.53[14]", "Time zone": "EST/EDT", "Δ": "−5:00", "DST": "Mar–Nov", "Open hours (local time) Open": "09:30", "Open hours (local time) Close": "16:00", "Open hours (local time) Lunch": "No", "UTC (without DST) Open": "14:30", "UTC (without DST) Close": "21:00", "name": "Toronto Stock Exchange", "market_cap_usd_tn": null, "article": "https://en.wikipedia.org/wiki/Toronto_Stock_Exchange", "position": "from the exchange's own Wikipedia article"}}, {"type": "Feature", "geometry": {"type": "Point", "coordinates": [-0.0992, 51.5153]}, "properties": {"Stock exchange": "London Stock Exchange", "MIC": "XLON", "Region": "United Kingdom", "City": "London", "Market cap (USD tn)": "3.94[15]", "Time zone": "GMT/BST", "Δ": "+0:00", "DST": "Mar–Oct", "Open hours (local time) Open": "08:00", "Open hours (local time) Close": "16:30", "Open hours (local time) Lunch": "No", "UTC (without DST) Open": "08:00", "UTC (without DST) Close": "16:30", "name": "London Stock Exchange", "market_cap_usd_tn": null, "article": "https://en.wikipedia.org/wiki/London_Stock_Exchange", "position": "from the exchange's own Wikipedia article"}}, {"type": "Feature", "geometry": {"type": "Point", "coordinates": [8.6822, 50.1106]}, "properties": {"Stock exchange": "German Stock Exchange (Deutsche Börse AG)", "MIC": "XFRA", "Region": "Germany", "City": "Frankfurt", "Market cap (USD tn)": "3.06", "Time zone": "CET/CEST", "Δ": "+1:00", "DST": "Mar–Oct", "Open hours (local time) Open": "9:00", "Open hours (local time) Close": "17:30", "Open hours (local time) Lunch": "No", "UTC (without DST) Open": "8:00", "UTC (without DST) Close": "16:30", "name": "German Stock Exchange (Deutsche Börse AG)", "market_cap_usd_tn": 3.06, "article": "https://en.wikipedia.org/wiki/Deutsche_B%C3%B6rse", "position": "from its city's Wikipedia article"}}, {"type": "Feature", "geometry": {"type": "Point", "coordinates": [46.7167, 24.6333]}, "properties": {"Stock exchange": "Saudi Exchange", "MIC": "XSAU", "Region": "Saudi Arabia", "City": "Riyadh", "Market cap (USD tn)": "2.63", "Time zone": "AST", "Δ": "+3:00", "DST": null, "Open hours (local time) Open": "10:00", "Open hours (local time) Close": "15:00", "Open hours (local time) Lunch": "No", "UTC (without DST) Open": "07:00", "UTC (without DST) Close": "12:00", "name": "Saudi Exchange", "market_cap_usd_tn": 2.63, "article": "https://en.wikipedia.org/wiki/Saudi_Exchange", "position": "from its city's Wikipedia article"}}, {"type": "Feature", "geometry": {"type": "Point", "coordinates": [151.2101, -33.868]}, "properties": {"Stock exchange": "Australian Securities Exchange", "MIC": "XASX", "Region": "Australia", "City": "Sydney", "Market cap (USD tn)": "1.97", "Time zone": "AEST/AEDT", "Δ": "+10:00", "DST": "Oct–Apr", "Open hours (local time) Open": "10:00", "Open hours (local time) Close": "16:00", "Open hours (local time) Lunch": "No", "UTC (without DST) Open": "00:00", "UTC (without DST) Close": "06:00", "name": "Australian Securities Exchange", "market_cap_usd_tn": 1.97, "article": "https://en.wikipedia.org/wiki/Australian_Securities_Exchange", "position": "from the exchange's own Wikipedia article"}}, {"type": "Feature", "geometry": {"type": "Point", "coordinates": [8.5411, 47.3744]}, "properties": {"Stock exchange": "SIX Swiss Exchange", "MIC": "XSWX", "Region": "Switzerland", "City": "Zürich", "Market cap (USD tn)": "1.79", "Time zone": "CET/CEST", "Δ": "+1:00", "DST": "Mar–Oct", "Open hours (local time) Open": "09:00", "Open hours (local time) Close": "17:30", "Open hours (local time) Lunch": "No", "UTC (without DST) Open": "07:00", "UTC (without DST) Close": "15:30", "name": "SIX Swiss Exchange", "market_cap_usd_tn": 1.79, "article": "https://en.wikipedia.org/wiki/SIX_Swiss_Exchange", "position": "from its city's Wikipedia article"}}, {"type": "Feature", "geometry": {"type": "Point", "coordinates": [-21.9425, 64.1458]}, "properties": {"Stock exchange": "Nasdaq Nordic and Baltic Exchanges", "MIC": "XCSE XSTO XHEL XTAL XRIS XLIT XICE", "Region": "Europe", "City": "Copenhagen Stockholm Helsinki Tallinn Riga Vilnius Reykjavík", "Market cap (USD tn)": "1.79", "Time zone": "EET/EEST", "Δ": "+2:00", "DST": "Mar–Oct", "Open hours (local time) Open": "10:00", "Open hours (local time) Close": "?", "Open hours (local time) Lunch": "18:30", "UTC (without DST) Open": "08:00", "UTC (without DST) Close": "16:30", "name": "Nasdaq Nordic and Baltic Exchanges", "market_cap_usd_tn": 1.79, "article": "https://en.wikipedia.org/wiki/Nasdaq_Nordic", "position": "from its city's Wikipedia article"}}, {"type": "Feature", "geometry": {"type": "Point", "coordinates": [28.0576, -26.1029]}, "properties": {"Stock exchange": "Johannesburg Stock Exchange", "MIC": "XJSE", "Region": "South Africa", "City": "Johannesburg", "Market cap (USD tn)": "1.53", "Time zone": "SAST", "Δ": "+2:00", "DST": null, "Open hours (local time) Open": "09:00", "Open hours (local time) Close": "16:50", "Open hours (local time) Lunch": "No", "UTC (without DST) Open": "07:00", "UTC (without DST) Close": "14:50", "name": "Johannesburg Stock Exchange", "market_cap_usd_tn": 1.53, "article": "https://en.wikipedia.org/wiki/Johannesburg_Stock_Exchange", "position": "from the exchange's own Wikipedia article"}}, {"type": "Feature", "geometry": {"type": "Point", "coordinates": [-46.6342, -23.5464]}, "properties": {"Stock exchange": "B3 (stock exchange)", "MIC": "BVMF", "Region": "Brazil", "City": "São Paulo", "Market cap (USD tn)": "1.10[16]", "Time zone": "BRT", "Δ": "−3:00", "DST": null, "Open hours (local time) Open": "10:00", "Open hours (local time) Close": "18:30", "Open hours (local time) Lunch": "No", "UTC (without DST) Open": "13:00", "UTC (without DST) Close": "21:30", "name": "B3 (stock exchange)", "market_cap_usd_tn": null, "article": "https://en.wikipedia.org/wiki/B3_%28stock_exchange%29", "position": "from the exchange's own Wikipedia article"}}, {"type": "Feature", "geometry": {"type": "Point", "coordinates": [32.0645, 34.7706]}, "properties": {"Stock exchange": "Tel Aviv Stock Exchange", "MIC": "XTAE", "Region": "Israel", "City": "Tel Aviv", "Market cap (USD tn)": "1.01[17]", "Time zone": "IST", "Δ": "+2:00", "DST": "Mar–Oct", "Open hours (local time) Open": "09:59", "Open hours (local time) Close": "17:14", "Open hours (local time) Lunch": "No", "UTC (without DST) Open": "07:59", "UTC (without DST) Close": "15:14", "name": "Tel Aviv Stock Exchange", "market_cap_usd_tn": null, "article": "https://en.wikipedia.org/wiki/Tel_Aviv_Stock_Exchange", "position": "from the exchange's own Wikipedia article"}}]}