{"type": "FeatureCollection", "features": [{"type": "Feature", "geometry": {"type": "Point", "coordinates": [11.0769, 44.7325]}, "properties": {"name": "Calciopoli", "what it is": "Mid-2000s match-fixing scandal in Italian football", "how it is here": "a match-fixing case in Wikidata", "the case": "match fixing in association football", "year": 2006, "country": "Italy", "Wikipedia": "https://en.wikipedia.org/wiki/Calciopoli", "Wikidata": "https://www.wikidata.org/wiki/Q719305", "placed at": "the middle of Italy: Wikidata gives no nearer place", "group": "A case or scandal", "source": "Wikidata (CC0)"}}, {"type": "Feature", "geometry": {"type": "Point", "coordinates": [-0.1727, 51.5294]}, "properties": {"name": "Pakistan cricket spot-fixing scandal", "what it is": "scandal during a Test cricket match between England and Pakistan at Lord's, London, England, in August 2010, in which 3 members of the Pakistani team took bribes from a bookmaker to bowl no-balls", "how it is here": "a match-fixing case in Wikidata", "the case": "match fixing", "year": 2010, "country": "United Kingdom", "Wikipedia": "https://en.wikipedia.org/wiki/Pakistan_cricket_spot-fixing_scandal", "Wikidata": "https://www.wikidata.org/wiki/Q7125779", "placed at": "its location", "group": "A case or scandal", "source": "Wikidata (CC0)"}}, {"type": "Feature", "geometry": {"type": "Point", "coordinates": [19.0171, 65.8592]}, "properties": {"name": "Q10674755", "how it is here": "a match-fixing case in Wikidata", "the case": "match fixing related to gambling", "year": 1990, "country": "Sweden", "Wikidata": "https://www.wikidata.org/wiki/Q10674755", "placed at": "the middle of Sweden: Wikidata gives no nearer place", "group": "A case or scandal", "source": "Wikidata (CC0)"}}, {"type": "Feature", "geometry": {"type": "Point", "coordinates": [27.2764, 63.2524]}, "properties": {"name": "Finnish pesäpallo match-fixing scandal", "what it is": "1998 sports scandal in Finland", "how it is here": "a match-fixing case in Wikidata", "the case": "match fixing related to gambling", "year": 1998, "country": "Finland", "Wikipedia": "https://en.wikipedia.org/wiki/Finnish_pes%C3%A4pallo_match-fixing_scandal", "Wikidata": "https://www.wikidata.org/wiki/Q11887685", "placed at": "the middle of Finland: Wikidata gives no nearer place", "group": "A case or scandal", "source": "Wikidata (CC0)"}}, {"type": "Feature", "geometry": {"type": "Point", "coordinates": [35.9929, 34.1334]}, "properties": {"name": "2013 Lebanese match fixing scandal", "what it is": "Association football match fixing scandal in Lebanon", "how it is here": "a match-fixing case in Wikidata", "the case": "match fixing", "year": 2013, "country": "Lebanon", "Wikipedia": "https://en.wikipedia.org/wiki/2013_Lebanese_football_match-fixing_scandal", "Wikidata": "https://www.wikidata.org/wiki/Q16156742", "placed at": "the middle of Lebanon: Wikidata gives no nearer place", "group": "A case or scandal", "source": "Wikidata (CC0)"}}, {"type": "Feature", "geometry": {"type": "Point", "coordinates": [128.1295, 36.3849]}, "properties": {"name": "Q27953371", "how it is here": "a match-fixing case in Wikidata", "the case": "match fixing", "year": 2013, "country": "South Korea", "Wikidata": "https://www.wikidata.org/wiki/Q27953371", "placed at": "the middle of South Korea: Wikidata gives no nearer place", "group": "A case or scandal", "source": "Wikidata (CC0)"}}, {"type": "Feature", "geometry": {"type": "Point", "coordinates": [27.2764, 63.2524]}, "properties": {"name": "Q18681149", "how it is here": "a match-fixing case in Wikidata", "the case": "match fixing in association football; match fixing related to gambling", "year": 2008, "country": "Finland", "Wikidata": "https://www.wikidata.org/wiki/Q18681149", "placed at": "the middle of Finland: Wikidata gives no nearer place", "group": "A case or scandal", "source": "Wikidata (CC0)"}}, {"type": "Feature", "geometry": {"type": "Point", "coordinates": [4.8004, 50.7854]}, "properties": {"name": "2017–2018 Belgian football fraud investigation", "what it is": "association football match-fixing scandal in Belgium", "how it is here": "a match-fixing case in Wikidata", "the case": "match fixing in association football", "year": 2017, "country": "Belgium", "Wikipedia": "https://en.wikipedia.org/wiki/2017%E2%80%932019_Belgian_football_fraud_scandal", "Wikidata": "https://www.wikidata.org/wiki/Q57305037", "placed at": "the middle of Belgium: Wikidata gives no nearer place", "group": "A case or scandal", "source": "Wikidata (CC0)"}}, {"type": "Feature", "geometry": {"type": "Point", "coordinates": [138.4422, 36.1425]}, "properties": {"name": "Black Mist Scandal", "what it is": "game-fixing scandal in Japanese professional baseball and flat track motorcycle racing", "how it is here": "a match-fixing case in Wikidata", "the case": "match fixing", "year": 1969, "country": "Japan", "Wikipedia": "https://en.wikipedia.org/wiki/Black_Mist_Scandal_(Japanese_baseball)", "Wikidata": "https://www.wikidata.org/wiki/Q39943", "placed at": "the middle of Japan: Wikidata gives no nearer place", "group": "A case or scandal", "source": "Wikidata (CC0)"}}, {"type": "Feature", "geometry": {"type": "Point", "coordinates": [128.1295, 36.3849]}, "properties": {"name": "Q12603701", "how it is here": "a match-fixing case in Wikidata", "the case": "match fixing", "country": "South Korea", "Wikidata": "https://www.wikidata.org/wiki/Q12603701", "placed at": "the middle of South Korea: Wikidata gives no nearer place", "group": "A case or scandal", "source": "Wikidata (CC0)"}}, {"type": "Feature", "geometry": {"type": "Point", "coordinates": [4.8004, 50.7854]}, "properties": {"name": "Maxime Authom", "what it is": "Belgian tennis player", "how it is here": "recorded as convicted of it", "country": "Belgium", "Wikipedia": "https://en.wikipedia.org/wiki/Maxime_Authom", "Wikidata": "https://www.wikidata.org/wiki/Q2515504", "placed at": "the middle of Belgium: Wikidata gives no nearer place", "group": "Convicted", "source": "Wikidata (CC0)"}}, {"type": "Feature", "geometry": {"type": "Point", "coordinates": [123.5864, -12.4326]}, "properties": {"name": "Nick Lindahl", "what it is": "Australian tennis player", "how it is here": "recorded as convicted of it", "country": "Australia", "Wikipedia": "https://en.wikipedia.org/wiki/Nick_Lindahl", "Wikidata": "https://www.wikidata.org/wiki/Q3292704", "placed at": "the middle of Ashmore and Cartier Is.: Wikidata gives no nearer place", "group": "Convicted", "source": "Wikidata (CC0)"}}, {"type": "Feature", "geometry": {"type": "Point", "coordinates": [64.0054, 41.6936]}, "properties": {"name": "Albina Khabibulina", "what it is": "Uzbekistani tennis player", "how it is here": "recorded as convicted of it", "country": "Uzbekistan", "Wikipedia": "https://en.wikipedia.org/wiki/Albina_Khabibulina", "Wikidata": "https://www.wikidata.org/wiki/Q4712400", "placed at": "the middle of Uzbekistan: Wikidata gives no nearer place", "group": "Convicted", "source": "Wikidata (CC0)"}}, {"type": "Feature", "geometry": {"type": "Point", "coordinates": [106.3373, 32.4982]}, "properties": {"name": "Lu Ning", "what it is": "Chinese snooker player", "how it is here": "recorded as convicted of it", "country": "People's Republic of China", "Wikipedia": "https://en.wikipedia.org/wiki/Lu_Ning", "Wikidata": "https://www.wikidata.org/wiki/Q6694882", "placed at": "the middle of China: Wikidata gives no nearer place", "group": "Convicted", "source": "Wikidata (CC0)"}}, {"type": "Feature", "geometry": {"type": "Point", "coordinates": [11.0769, 44.7325]}, "properties": {"name": "Armando Izzo", "what it is": "Italian footballer", "how it is here": "recorded as convicted of it", "country": "Italy", "Wikipedia": "https://en.wikipedia.org/wiki/Armando_Izzo", "Wikidata": "https://www.wikidata.org/wiki/Q16234654", "placed at": "the middle of Italy: Wikidata gives no nearer place", "group": "Convicted", "source": "Wikidata (CC0)"}}, {"type": "Feature", "geometry": {"type": "Point", "coordinates": [64.0054, 41.6936]}, "properties": {"name": "Sanjar Fayziev", "what it is": "Uzbek tennis player", "how it is here": "recorded as convicted of it", "country": "Uzbekistan", "Wikipedia": "https://en.wikipedia.org/wiki/Sanjar_Fayziev", "Wikidata": "https://www.wikidata.org/wiki/Q16941742", "placed at": "the middle of Uzbekistan: Wikidata gives no nearer place", "group": "Convicted", "source": "Wikidata (CC0)"}}, {"type": "Feature", "geometry": {"type": "Point", "coordinates": [4.8004, 50.7854]}, "properties": {"name": "Arthur De Greef", "what it is": "Belgian tennis player (1992-)", "how it is here": "recorded as convicted of it", "country": "Belgium", "Wikipedia": "https://en.wikipedia.org/wiki/Arthur_De_Greef_(tennis)", "Wikidata": "https://www.wikidata.org/wiki/Q17994043", "placed at": "the middle of Belgium: Wikidata gives no nearer place", "group": "Convicted", "source": "Wikidata (CC0)"}}, {"type": "Feature", "geometry": {"type": "Point", "coordinates": [29.4458, 26.1862]}, "properties": {"name": "Karim Hossam", "what it is": "Tennis player from Egypt", "how it is here": "recorded as convicted of it", "country": "Egypt", "Wikipedia": "https://en.wikipedia.org/wiki/Karim_Hossam", "Wikidata": "https://www.wikidata.org/wiki/Q18044118", "placed at": "the middle of Egypt: Wikidata gives no nearer place", "group": "Convicted", "source": "Wikidata (CC0)"}}, {"type": "Feature", "geometry": {"type": "Point", "coordinates": [106.3373, 32.4982]}, "properties": {"name": "Zhao Xintong", "what it is": "Chinese snooker player (born 1997)", "how it is here": "recorded as convicted of it", "country": "People's Republic of China", "Wikipedia": "https://en.wikipedia.org/wiki/Zhao_Xintong", "Wikidata": "https://www.wikidata.org/wiki/Q18542980", "placed at": "the middle of China: Wikidata gives no nearer place", "group": "Convicted", "source": "Wikidata (CC0)"}}, {"type": "Feature", "geometry": {"type": "Point", "coordinates": [106.3373, 32.4982]}, "properties": {"name": "Yan Bingtao", "what it is": "Chinese snooker player", "how it is here": "recorded as convicted of it", "country": "People's Republic of China", "Wikipedia": "https://en.wikipedia.org/wiki/Yan_Bingtao", "Wikidata": "https://www.wikidata.org/wiki/Q20084185", "placed at": "the middle of China: Wikidata gives no nearer place", "group": "Convicted", "source": "Wikidata (CC0)"}}, {"type": "Feature", "geometry": {"type": "Point", "coordinates": [29.4458, 26.1862]}, "properties": {"name": "Youssef Hossam", "what it is": "Egyptian tennis player", "how it is here": "recorded as convicted of it", "country": "Egypt", "Wikipedia": "https://en.wikipedia.org/wiki/Youssef_Hossam", "Wikidata": "https://www.wikidata.org/wiki/Q23039271", "placed at": "the middle of Egypt: Wikidata gives no nearer place", "group": "Convicted", "source": "Wikidata (CC0)"}}, {"type": "Feature", "geometry": {"type": "Point", "coordinates": [2.5523, 46.6961]}, "properties": {"name": "Clément Reix", "what it is": "French tennis player", "how it is here": "recorded as convicted of it", "country": "France", "Wikipedia": "https://en.wikipedia.org/wiki/Cl%C3%A9ment_Reix", "Wikidata": "https://www.wikidata.org/wiki/Q23831313", "placed at": "the middle of France: Wikidata gives no nearer place", "group": "Convicted", "source": "Wikidata (CC0)"}}, {"type": "Feature", "geometry": {"type": "Point", "coordinates": [-72.3189, -38.1518]}, "properties": {"name": "Bárbara Gatica", "what it is": "Chilean tennis player", "how it is here": "recorded as convicted of it", "country": "Chile", "Wikipedia": "https://en.wikipedia.org/wiki/B%C3%A1rbara_Gatica", "Wikidata": "https://www.wikidata.org/wiki/Q27049219", "placed at": "the middle of Chile: Wikidata gives no nearer place", "group": "Convicted", "source": "Wikidata (CC0)"}}, {"type": "Feature", "geometry": {"type": "Point", "coordinates": [106.3373, 32.4982]}, "properties": {"name": "Chen Zifan", "what it is": "Chinese snooker player", "how it is here": "recorded as convicted of it", "country": "People's Republic of China", "Wikipedia": "https://en.wikipedia.org/wiki/Chen_Zifan", "Wikidata": "https://www.wikidata.org/wiki/Q30040953", "placed at": "the middle of China: Wikidata gives no nearer place", "group": "Convicted", "source": "Wikidata (CC0)"}}, {"type": "Feature", "geometry": {"type": "Point", "coordinates": [-97.4826, 39.5385]}, "properties": {"name": "Ashley Kratzer", "what it is": "American tennis player", "how it is here": "recorded as convicted of it", "country": "United States", "Wikipedia": "https://en.wikipedia.org/wiki/Ashley_Kratzer", "Wikidata": "https://www.wikidata.org/wiki/Q36397388", "placed at": "the middle of United States of America: Wikidata gives no nearer place", "group": "Convicted", "source": "Wikidata (CC0)"}}, {"type": "Feature", "geometry": {"type": "Point", "coordinates": [11.0769, 44.7325]}, "properties": {"name": "Sandro Tonali", "what it is": "Italian association football player", "how it is here": "recorded as convicted of it", "country": "Italy", "Wikipedia": "https://en.wikipedia.org/wiki/Sandro_Tonali", "Wikidata": "https://www.wikidata.org/wiki/Q43402334", "placed at": "the middle of Italy: Wikidata gives no nearer place", "group": "Convicted", "source": "Wikidata (CC0)"}}, {"type": "Feature", "geometry": {"type": "Point", "coordinates": [7.5032, 9.4398]}, "properties": {"name": "Dickson Etuhu", "what it is": "Nigerian footballer (born 1982)", "how it is here": "recorded as convicted of it", "country": "Nigeria", "Wikipedia": "https://en.wikipedia.org/wiki/Dickson_Etuhu", "Wikidata": "https://www.wikidata.org/wiki/Q310660", "placed at": "the middle of Nigeria: Wikidata gives no nearer place", "group": "Convicted", "source": "Wikidata (CC0)"}}, {"type": "Feature", "geometry": {"type": "Point", "coordinates": [106.3373, 32.4982]}, "properties": {"name": "Liang Wenbo", "what it is": "Chinese snooker player", "how it is here": "recorded as convicted of it", "country": "People's Republic of China", "Wikipedia": "https://en.wikipedia.org/wiki/Liang_Wenbo", "Wikidata": "https://www.wikidata.org/wiki/Q557076", "placed at": "the middle of China: Wikidata gives no nearer place", "group": "Convicted", "source": "Wikidata (CC0)"}}, {"type": "Feature", "geometry": {"type": "Point", "coordinates": [-2.1163, 54.4027]}, "properties": {"name": "Stephen Lee", "what it is": "English snooker player", "how it is here": "recorded as convicted of it", "country": "United Kingdom", "Wikipedia": "https://en.wikipedia.org/wiki/Stephen_Lee_(snooker_player)", "Wikidata": "https://www.wikidata.org/wiki/Q713683", "placed at": "the middle of United Kingdom: Wikidata gives no nearer place", "group": "Convicted", "source": "Wikidata (CC0)"}}, {"type": "Feature", "geometry": {"type": "Point", "coordinates": [74.5326, 41.6685]}, "properties": {"name": "Ksenia Palkina", "what it is": "Kyrgyzstani tennis player", "how it is here": "recorded as convicted of it", "country": "Kyrgyzstan", "Wikipedia": "https://en.wikipedia.org/wiki/Ksenia_Palkina", "Wikidata": "https://www.wikidata.org/wiki/Q946098", "placed at": "the middle of Kyrgyzstan: Wikidata gives no nearer place", "group": "Convicted", "source": "Wikidata (CC0)"}}, {"type": "Feature", "geometry": {"type": "Point", "coordinates": [106.3373, 32.4982]}, "properties": {"name": "Li Hang", "what it is": "Chinese snooker player", "how it is here": "recorded as convicted of it", "country": "People's Republic of China", "Wikipedia": "https://en.wikipedia.org/wiki/Li_Hang_(snooker_player)", "Wikidata": "https://www.wikidata.org/wiki/Q976941", "placed at": "the middle of China: Wikidata gives no nearer place", "group": "Convicted", "source": "Wikidata (CC0)"}}, {"type": "Feature", "geometry": {"type": "Point", "coordinates": [4.8004, 50.7854]}, "properties": {"name": "Omar Salman", "what it is": "Belgian tennis player", "how it is here": "recorded as convicted of it", "country": "Belgium", "Wikidata": "https://www.wikidata.org/wiki/Q23678984", "placed at": "the middle of Belgium: Wikidata gives no nearer place", "group": "Convicted", "source": "Wikidata (CC0)"}}, {"type": "Feature", "geometry": {"type": "Point", "coordinates": [106.3373, 32.4982]}, "properties": {"name": "Zhang Jiankang", "what it is": "Chinese snooker player", "how it is here": "recorded as convicted of it", "country": "People's Republic of China", "Wikipedia": "https://en.wikipedia.org/wiki/Zhang_Jiankang", "Wikidata": "https://www.wikidata.org/wiki/Q51880649", "placed at": "the middle of China: Wikidata gives no nearer place", "group": "Convicted", "source": "Wikidata (CC0)"}}, {"type": "Feature", "geometry": {"type": "Point", "coordinates": [11.0769, 44.7325]}, "properties": {"name": "Nicolò Fagioli", "what it is": "Italian association football player", "how it is here": "recorded as convicted of it", "country": "Italy", "Wikipedia": "https://en.wikipedia.org/wiki/Nicol%C3%B2_Fagioli", "Wikidata": "https://www.wikidata.org/wiki/Q56810114", "placed at": "the middle of Italy: Wikidata gives no nearer place", "group": "Convicted", "source": "Wikidata (CC0)"}}, {"type": "Feature", "geometry": {"type": "Point", "coordinates": [106.3373, 32.4982]}, "properties": {"name": "Chang Bingyu", "what it is": "Chinese snooker player", "how it is here": "recorded as convicted of it", "country": "People's Republic of China", "Wikipedia": "https://en.wikipedia.org/wiki/Chang_Bingyu", "Wikidata": "https://www.wikidata.org/wiki/Q58330934", "placed at": "the middle of China: Wikidata gives no nearer place", "group": "Convicted", "source": "Wikidata (CC0)"}}, {"type": "Feature", "geometry": {"type": "Point", "coordinates": [44.6865, 58.2494]}, "properties": {"name": "Daria Mishina", "what it is": "Russian female tennis player", "how it is here": "recorded as convicted of it", "country": "Russia", "Wikipedia": "https://en.wikipedia.org/wiki/Daria_Mishina", "Wikidata": "https://www.wikidata.org/wiki/Q61058445", "placed at": "the middle of Russia: Wikidata gives no nearer place", "group": "Convicted", "source": "Wikidata (CC0)"}}, {"type": "Feature", "geometry": {"type": "Point", "coordinates": [106.3373, 32.4982]}, "properties": {"name": "Bai Langning", "what it is": "Chinese snooker player", "how it is here": "recorded as convicted of it", "country": "People's Republic of China", "Wikipedia": "https://en.wikipedia.org/wiki/Bai_Langning", "Wikidata": "https://www.wikidata.org/wiki/Q63565647", "placed at": "the middle of China: Wikidata gives no nearer place", "group": "Convicted", "source": "Wikidata (CC0)"}}, {"type": "Feature", "geometry": {"type": "Point", "coordinates": [106.3373, 32.4982]}, "properties": {"name": "Zhao Jianbo", "what it is": "Chinese snooker player", "how it is here": "recorded as convicted of it", "country": "People's Republic of China", "Wikipedia": "https://en.wikipedia.org/wiki/Zhao_Jianbo", "Wikidata": "https://www.wikidata.org/wiki/Q96359525", "placed at": "the middle of China: Wikidata gives no nearer place", "group": "Convicted", "source": "Wikidata (CC0)"}}, {"type": "Feature", "geometry": {"type": "Point", "coordinates": [68.5456, 29.3284]}, "properties": {"name": "Salman Butt", "what it is": "Pakistani cricketer", "how it is here": "recorded as taking part in a scandal", "the case": "Pakistan cricket spot-fixing scandal", "year": 2010, "country": "Pakistan", "Wikipedia": "https://en.wikipedia.org/wiki/Salman_Butt", "Wikidata": "https://www.wikidata.org/wiki/Q3273844", "placed at": "the middle of Pakistan: Wikidata gives no nearer place", "group": "Involved in a case", "source": "Wikidata (CC0)"}}, {"type": "Feature", "geometry": {"type": "Point", "coordinates": [68.5456, 29.3284]}, "properties": {"name": "Mohammad Amir", "what it is": "Pakistani cricketer", "how it is here": "recorded as taking part in a scandal", "the case": "Pakistan cricket spot-fixing scandal", "year": 2010, "country": "Pakistan", "Wikipedia": "https://en.wikipedia.org/wiki/Mohammad_Amir", "Wikidata": "https://www.wikidata.org/wiki/Q3202252", "placed at": "the middle of Pakistan: Wikidata gives no nearer place", "group": "Involved in a case", "source": "Wikidata (CC0)"}}, {"type": "Feature", "geometry": {"type": "Point", "coordinates": [68.5456, 29.3284]}, "properties": {"name": "Mohammad Asif", "what it is": "Pakistani cricketer", "how it is here": "recorded as taking part in a scandal", "the case": "Pakistan cricket spot-fixing scandal", "year": 2010, "country": "Pakistan", "Wikipedia": "https://en.wikipedia.org/wiki/Mohammad_Asif_(cricketer)", "Wikidata": "https://www.wikidata.org/wiki/Q3049012", "placed at": "the middle of Pakistan: Wikidata gives no nearer place", "group": "Involved in a case", "source": "Wikidata (CC0)"}}]}