{"type":"FeatureCollection","features":[{"type":"Feature","properties":{"sector":"2.6 Arms, military and security","subsector":"2.6.2 PSMCs","name":"Aegis","address":"2 London Bridge, London, SE1 9RA","description":"Aegis Defence Services is a mercenary firm involved with the NGO, aerospace, and government and diplomatic sectors, as well as the oil, gas and mining industries. According to War on Want (from 2016): “Aegis Defence Services boasts that the company’s ‘largest area of business is Iraq’, and that it ‘has been operating in support of the oil and gas sector for over two years’”. \n\nSome scandals include footage emerging of soldiers apparently firing at civilians in Iraq, and the use of former child soldiers from Sierra Leone.  \n\nOwnership: part of global security conglomerate Gardaworld.","address source":"https://beta.companieshouse.gov.uk/company/04541965","address check date":"Address checked: August 2021","address notes":"NB: official registered office address, but not confirmed as an operational base for the company."},"geometry":{"type":"Point","coordinates":[-0.088587,51.506731]}},{"type":"Feature","properties":{"sector":"2.6 Arms, military and security","subsector":"2.6.1 Arms companies","name":"BAE Systems","address":"4th Floor, Blue Fin Building, 110 Southwark Street, London, SE1 0TA","description":"BAE is a British company and one of the world’s biggest arms manufacturers. Combat aircraft, warships, tanks, armoured vehicles, artillery, missiles, small arms ammunition, cyber & intelligence, and nuclear missile submarines. Major arms supplier to Saudi Arabia, having sold £17.6 billion worth of military equipment to the country during Yemen war, according to Declassified UK. \n\nOwners: PLC. Owned by major investment funds.","address source":"https://www.baesystems.com/en/cybersecurity/careers/our-locations/uk-and-europe/london ","address check date":"Address checked: August 2021","address notes":""},"geometry":{"type":"Point","coordinates":[-0.099877,51.506158]}},{"type":"Feature","properties":{"sector":"2.6 Arms, military and security","subsector":"2.6.1 Arms companies","name":"Boeing","address":"Boeing Defence UK: 25 Victoria Street, London, SW1H 0EX","description":"The world’s second biggest US arms company. Produces the Apache attack helicopter, which has been used in military operations in countries including Israel, Iraq, Afghanistan and Libya.\n\nOwners: US PLC. ","address source":"https://beta.companieshouse.gov.uk/company/01290439 ","address check date":"Address checked: August 2021","address notes":"NB: official registered office address, but not confirmed as an operational base for the company."},"geometry":{"type":"Point","coordinates":[-0.132552,51.498111]}},{"type":"Feature","properties":{"sector":"2.6 Arms, military and security","subsector":"2.6.2 PSMCs","name":"Control Risks","address":"Cottons Centre, Cottons Lane, London, SE1 2QG","description":"Control Risks describes itself as an “international professional services and consulting firm” – others have described it as a mercenary outfit. It has worked securing company oil assets in Iraq, and has also played a role in Libya during the post-Gaddafi plunder of the country’s oil.","address source":"https://www.controlrisks.com/contact-us/office-search/london","address check date":"Address checked: August 2021","address notes":""},"geometry":{"type":"Point","coordinates":[-0.08486,51.506118]}},{"type":"Feature","properties":{"sector":"2.6 Arms, military and security","subsector":"2.6.2 PSMCs","name":"Corps Security","address":"Market House, 85 Cowcross St, London, EC1M 6PF","description":"Formerly known as the Corps of Commissionaires, Corps Security is a British security company that officially reports to Queen Elizabeth II, with a team of about 3,000 security personnel and a dozen offices throughout the U.K. It specialises in “corporate security” – including event protection, electronic surveillance, and consulting.","address source":"https://www.corpssecurity.co.uk/contact/office-locations/ ","address check date":"Address checked: August 2021","address notes":""},"geometry":{"type":"Point","coordinates":[-0.102781,51.520041]}},{"type":"Feature","properties":{"sector":"2.6 Arms, military and security","subsector":"2.6.2 PSMCs","name":"G4S","address":"46 Gillingham Street, London, SW1V 1HU","description":"British company G4S does everything from transporting cash to running private prisons. Just one part of the business is running mercenaries in war-torn countries, particularly in the Middle East and East Africa. The British government has employed G4S mercenaries in countries such as Iraq, Afghanistan, Somalia and Yemen, awarding the company contracts worth tens of millions of pounds, and G4S operates a subsidiary in Sudan. Oil and mining companies are other regular clients. \n\nAccording to War on Want: “G4S, whose clients include Royal Dutch Shell and AngloGold Ashanti, is known to be targeting the natural resources sector.” \n\nSee also Corporate Watch’s 2018 company profile.","address source":"https://www.g4s.com/en-gb/site-tools/contact-us ","address check date":"Address checked: August 2021","address notes":"NB: G4S shares this building with offices of the NHS. Its head office is near Crawley."},"geometry":{"type":"Point","coordinates":[-0.142969,51.493387]}},{"type":"Feature","properties":{"sector":"2.6 Arms, military and security","subsector":"2.6.1 Arms companies","name":"General Dynamics","address":"21 Holborn Viaduct, London, EC1A 2DY","description":"US arms company with four main divisions: aerospace, combat systems, ‘technologies’ and marine systems. \n\nOwners: US-listed PLC.","address source":"https://beta.companieshouse.gov.uk/company/01911653 ","address check date":"Address checked: August 2021","address notes":"NB: official registered office address, but not confirmed as an operational base for the company."},"geometry":{"type":"Point","coordinates":[-0.104542,51.516882]}},{"type":"Feature","properties":{"sector":"2.6 Arms, military and security","subsector":"2.6.2 PSMCs","name":"Hakluyt","address":"34 Upper Brook Street, London, W1K 7QS","description":"Private intelligence company known for hiring ex-MI6 spooks. Said to be highly discrete, but hit headlines back in 2001 when an undercover agent was exposed who had “penetrated environmental groups targeting Shell and BP”. Partners include the former boss of GCHQ, and it has an “international advisory board” of big names from politics and business, including Tata, Rolls Royce and Coca Cola, chaired by a former CEO of Unilever.","address source":"https://www.hakluytandco.com/ ","address check date":"Address checked: August 2021","address notes":""},"geometry":{"type":"Point","coordinates":[-0.156204,51.511046]}},{"type":"Feature","properties":{"sector":"2.6 Arms, military and security","subsector":"2.6.1 Arms companies","name":"L3 Harris","address":"23 King Street, London, SW1Y 6QY","description":"Another major US weapons producer.\n\nOwners: US-listed PLC.","address source":"https://www.l3harris.com/en-gb/united-kingdom","address check date":"Address checked: August 2021","address notes":""},"geometry":{"type":"Point","coordinates":[-0.137683,51.506205]}},{"type":"Feature","properties":{"sector":"2.6 Arms, military and security","subsector":"2.6.1 Arms companies","name":"Leonardo","address":"1 Eagle Place, London, SW1Y 6AF","description":"Italy’s biggest arms manufacturer, and one of the European leaders in destruction. Products include military helicopters, fighter aircraft, drones, missiles, radar and targetting systems, naval guns, artillery and armoured combat vehicles. \n\nOwners: Italian PLC, listed on Milan stock exchange.","address source":"https://www.uk.leonardocompany.com/en/contact-us ","address check date":"Address checked: August 2021","address notes":""},"geometry":{"type":"Point","coordinates":[-0.135345,51.509325]}},{"type":"Feature","properties":{"sector":"2.6 Arms, military and security","subsector":"2.6.2 PSMCs","name":"Mitie (HQ)","address":"The Shard, Level 12, 32 London Bridge Street, Southwark, London, SE1 9SG","description":"The UK’s biggest security company – taking over from G4S, Mitie is another general government outsourcer. It is the UK’s biggest profiteer from running immigration detention centres, and holds the contract to provide ‘escorts’ for deportations.  \n\nSee also Corporate Watch’s 2018 profile.","address source":"https://www.mitie.com/contact-us/","address check date":"Address checked: August 2021","address notes":""},"geometry":{"type":"Point","coordinates":[-0.086409,51.504487]}},{"type":"Feature","properties":{"sector":"2.6 Arms, military and security","subsector":"2.6.1 Arms companies","name":"Northrop Grumman","address":"Clareville House, Oxendon Street, London, SW1Y 4EL","description":"Another massive US arms company. Northrop Grumman manufactures combat aircraft such as the ground-attack A-10 and the B-2 Spirit \"stealth\" bomber. It also produces a wide range of military drones. \n\nOwners: US PLC.","address source":"https://find-and-update.company-information.service.gov.uk/company/03814152/filing-historyhttps://find-and-update.company-information.service.gov.uk/company/03814152/filing-history and https://www.northropgrumman.com/careers/job-search-united-kingdom/","address check date":"Address checked: August 2021","address notes":""},"geometry":{"type":"Point","coordinates":[-0.131578,51.509767]}},{"type":"Feature","properties":{"sector":"2.6 Arms, military and security","subsector":"2.6.1 Arms companies","name":"Rolls Royce","address":"Kings Place, 90 York Way, London, N1 9FX","description":"Produces military aircraft engines, naval engines and cores for nuclear submarines. Currently leading the research on small modular reactors, aka ‘mini nuclear power plants’, which are expected to be fundamental to the next generation of nuclear power in the UK. The company plans to build 16 such plants in the UK. ","address source":"https://www.rolls-royce.com/contact-us/rolls-royce-headquarters.aspx ","address check date":"Address checked: August 2021","address notes":""},"geometry":{"type":"Point","coordinates":[-0.122058,51.534748]}},{"type":"Feature","properties":{"sector":"2.6 Arms, military and security","subsector":"2.6.2 Arms companies","name":"Serco","address":"4th Floor, 100 Victoria Street, London, SW1E 5JL","description":"Serco is a UK-based outsourcing firm that does basically anything governments want to to get done, from locking up migrants to cleaning offices. Security is one of the most lucrative parts of the business. According to the defence section of its website, “We currently service 70+ military contracts with the Military of Defence (MoD). We operate in Maritime, Aviation, Space &Security and Nuclear & Complex Infrastructure.” Serco currently run six adult prisons and provide prisoner transport services. \n\nSee also: Corporate Watch’s 2018 Serco profile.","address source":"https://www.serco.com/about/office-locations ","address check date":"Address checked: August 2021","address notes":""},"geometry":{"type":"Point","coordinates":[-0.141127,51.497]}},{"type":"Feature","properties":{"sector":"2.6 Arms, military and security","subsector":"2.6.1 Arms companies","name":"Thales","address":"Quadrant House, 4 Thomas More Square, Thomas More Street, London, E1W 1YW","description":"France’s other weapons giant. Made over $9 billion of arms sales in 2019. Its arms sectors can be summarised as electronics, military vehicles, missiles, and small arms/ammunition. Thales also plays a major part in border control and migrant surveillance in Calais. \n\nOwners: Paris-listed PLC.","address source":"https://www.thalesgroup.com/en/countries/europe/united-kingdom/about-thales-uk/our-uk-locations ","address check date":"Address checked: August 2021","address notes":""},"geometry":{"type":"Point","coordinates":[-0.067639,51.50818]}}],"_umap_options":{"displayOnLoad":true,"browsable":true,"name":"2021 military","id":1825072,"remoteData":{},"color":"DarkRed"}}