{"type":"FeatureCollection","features":[{"type":"Feature","properties":{"sector":"1.6 Infrastructure","subsector":"1.6.3 UK builders","name":"Amey","address":"10 Furnival Street, London, EC4A 1AB ","description":"Sixth in the list of UK construction companies, Amey is also well known for engineering services and “facilities” management to the energy industry, road maintenance, airports, and more. It also maintains 61 British prisons, and has gone further into the profitable “justice” business with its GEOAmey prisoner transporting joint venture. Also known for cutting down thousands of trees in Sheffield as part of its PFI deal with the council. \n\nOwner: bought by Spanish building company Ferrovial.","address source":"http://tpt.amey.co.uk/contact-us/ ","address check date":"Address checked: August 2021","address notes":""},"geometry":{"type":"Point","coordinates":[-0.110651,51.517171]}},{"type":"Feature","properties":{"sector":"1.6 Infrastructure","subsector":"1.6.3 UK builders","name":"Balfour Beatty","address":"5 Churchill Place, Canary Wharf, London, E14 5HU","description":"Major British building company focusing on big infrastructure. Heavily involved in road building, and one of the main contractors in the UK’s white elephant HS2 rail scheme. Infamous for its record of trade union blacklisting. \n\nAlso responsible for dams in Asia and Africa – was involved in early plans for Turkey’s Ilisu dam, but later pulled out after large scale protests.","address source":"https://www.balfourbeatty.com/contacts/office-locations/uk-and-ireland/balfour-beatty ","address check date":"Address checked: August 2021","address notes":""},"geometry":{"type":"Point","coordinates":[-0.013514,51.504651]}},{"type":"Feature","properties":{"sector":"1.6 Infrastructure","subsector":"1.6.2 Global engineering & construction","name":"Bechtel","address":"Park Royal, 2 Lakeside Drive, London, NW10 7FQ","description":"The USA’s biggest building company, largely focusing on major energy and infrastructure schemes across the globe. It’s hard to know where to start with a list of Bechtel scandals and devastating projects: from massive war profiteering with a $680 million Iraq war contract, through sub-par Nuclear waste facilities, to pushing up water prices in Bolivia. Alongside the daily business of building dams, coal mines, motorways, pipelines, liquefied natural gas plants, nuclear power plants, chemical weapons stores, etc. \n\nBechtel is highly connected in US politics, with a record of executives serving as cabinet ministers.  \n\nThe Bechtel Wikipedia page contains many more links. \n\nOwnership: remains controlled by the Bechtel family. Chairman and CEO Brendan Bechtel is the fifth generation of the family in charge.","address source":"https://www.bechtel.com/about-us/offices/ ","address check date":"Address checked: August 2021","address notes":""},"geometry":{"type":"Point","coordinates":[-0.285126,51.530236]}},{"type":"Feature","properties":{"sector":"1.6 Infrastructure","subsector":"1.6.4 Cement","name":"CRH / Tarmac","address":"Tarmac: Level 4, 40 Strand, London, WC2N 5RW","description":"CRH is a major cement multinational. It is an Irish-registered company, listed on the London Stock exchange. In the UK, it is best known as the owner of Tarmac. CRH has been involved in several alleged corruption controversies in Ireland and Poland.","address source":"https://tarmac.com/location-finder","address check date":"Address checked: August 2021","address notes":""},"geometry":{"type":"Point","coordinates":[-0.123935,51.508981]}},{"type":"Feature","properties":{"sector":"1.6 Infrastructure","subsector":"1.6.3 UK builders","name":"Kier Group","address":"6 Cavendish Place, Marylebone, London, W1G 0QA","description":"Notorious UK construction company. Kier’s portfolio includes its work on Hinkley C nuclear plant, the UK’s new megaprisons, animal testing laboratories, military infrastructure, the HS2 trainline, and motorways. Kier is another of the big UK builders involved in the infamous union-busting blacklist. \n\nSee also Corporate Watch’s profile on Kier.","address source":"https://www.kier.co.uk/contact/our-locations/?area=london&id=3545 ","address check date":"Address checked: August 2021","address notes":""},"geometry":{"type":"Point","coordinates":[-0.143539,51.517572]}},{"type":"Feature","properties":{"sector":"1.6 Infrastructure","subsector":"1.6.1 Energy conglomerates","name":"Koch Industries","address":"Koch Supply and Trading: 4th Floor, 20 Gresham Street, London, EC2V 7JE","description":"The Koch family’s industrial empire includes oil refineries, chemical plants, fertilisers, paper mills, cattle ranches, commodities trading, investment funds … It might be quicker to list earth-wrecking activities they’re not involved in. They employ around 130,000 people, around half of those in the US but with a presence in over 70 countries.  \n\nOwners: Koch family members. Koch Industries, with its many subsidiaries, is one of the world’s biggest privately-owned companies. Charles Koch, and his brother David until his death in August 2019, have vigorously promoted their interests with large-scale funding of an array of right-wing politicians and, above all, think tanks. Main agenda points have been climate change denial and opposition to environmental regulation or development of alternatives to fossil fuels, as well as union-busting and general free marketeering. ","address source":"https://www.ksandt.com/ ","address check date":"Address checked: August 2021","address notes":""},"geometry":{"type":"Point","coordinates":[-0.093995,51.515215]}},{"type":"Feature","properties":{"sector":"1.6 Infrastructure","subsector":"1.6.3 UK builders","name":"Morgan Sindell","address":"Kent House, 14-17 Market Place, London, W1W 8AJ","description":"Major British construction and engineering firm. Its infrastructure division works on nuclear and defence infrastructure, including at the Faslane nuclear submarine base. It also has a sideline in prison building. ","address source":"https://www.morgansindall.com/contact-us/ ","address check date":"Address checked: August 2021","address notes":""},"geometry":{"type":"Point","coordinates":[-0.139882,51.516155]}},{"type":"Feature","properties":{"sector":"1.6 Infrastructure","subsector":"1.6.2 Global engineering & construction","name":"Siemens","address":"Siemens Mobility Limited: 7th Floor, Euston House, 24 Eversholt Street, London, NW1 1AD","description":"Giant German conglomerate best known for industrial electrical engineering and consumer electronics. Siemens is providing signalling for the Carmichael mine: Indian mining company Adani’s plan for the biggest coalmine in Australian history.","address source":"https://new.siemens.com/uk/en/company/about/siemens-uk-locations.html ","address check date":"Address checked: August 2021","address notes":"NB: UK head office is in Frimley, Surrey."},"geometry":{"type":"Point","coordinates":[-0.13199,51.528647]}},{"type":"Feature","properties":{"sector":"1.6 Infrastructure","subsector":"1.6.2 Global engineering & construction","name":"Siemens (“The Crystal”)","address":"The Crystal (Siemens offices and exhibition centre): 1 Siemens Brothers Way, Royal Docks, London, E16 1GB","description":"Giant German conglomerate best known for industrial electrical engineering and consumer electronics. Siemens is providing signalling for the Carmichael mine: Indian mining company Adani’s plan for the biggest coalmine in Australian history.","address source":"https://www.thecrystal.org/ ","address check date":"Address checked: August 2021","address notes":"NB: UK head office is in Frimley, Surrey."},"geometry":{"type":"Point","coordinates":[0.016254,51.50735]}},{"type":"Feature","properties":{"sector":"1.6 Infrastructure","subsector":"1.6.3 UK builders","name":"Sir Robert McAlpine","address":"4th Floor, 63 St Mary's Axe, London, EC3A 8AA","description":"Major UK construction and civil engineering firm which works on oil and gas, nuclear, dams, chemical and mining sectors as well as other high-profile building schemes. The company is also another HS2 contractor. It was the main building company responsible for setting up the “Consulting Association” union-busting blacklist scheme. ","address source":"https://www.srm.com/office-locations/london/ ","address check date":"Address checked: August 2021","address notes":""},"geometry":{"type":"Point","coordinates":[-0.07985,51.515661]}},{"type":"Feature","properties":{"sector":"1.6 Infrastructure","subsector":"1.6.2 Global engineering & construction","name":"Vinci","address":"VINCI Concessions UK: 1 Eversholt Street, London, NW1 2DN","description":"Massive French construction multinational, with numerous brands and subsidiaries, involved in a long list of devastating projects. It makes its biggest profits running much of the French toll-paying motorway system. Planned developer of the Notre-Dame-des-Landes airport in western France, which was scrapped in 2019 after an epic campaign of resistance including the long-running ZAD land occupation. Accused of using forced labour in Qatar, bulldozing migrant camps in Calais, and engaging in corruption and massive environmental destruction in Russia’s Khimki Forest motorway scheme. One of the numerous companies working on the HS2 high speed train line. \n\nSee Corporate Watch company profile (from 2017). Recently, its subsidiary Spiecapag has been involved in the Adani Carmichael coal mine in Australia, which is being vigorously resisted.  \n\nOwners: French PLC. Its biggest owners include the government of Qatar, amongst many other global investment funds. ","address source":"https://www.vinci.com/vinci.nsf/en/locations/pages/region_greater_london.htm ","address check date":"Address checked: August 2021","address notes":""},"geometry":{"type":"Point","coordinates":[-0.132139,51.52803]}},{"type":"Feature","properties":{"sector":"1.6 Infrastructure","subsector":"1.6.2 Global engineering & construction","name":"Vinci (Eurovia) ","address":"Eurovia UK (transport construction subsidiary): 26 Store Street Fitzrovia Lane, London, WC1E 7BT","description":"Massive French construction multinational, with numerous brands and subsidiaries, involved in a long list of devastating projects. It makes its biggest profits running much of the French toll-paying motorway system. Planned developer of the Notre-Dame-des-Landes airport in western France, which was scrapped in 2019 after an epic campaign of resistance including the long-running ZAD land occupation. Accused of using forced labour in Qatar, bulldozing migrant camps in Calais, and engaging in corruption and massive environmental destruction in Russia’s Khimki Forest motorway scheme. One of the numerous companies working on the HS2 high speed train line.   \n\nSee Corporate Watch company profile (from 2017). Recently, its subsidiary Spiecapag has been involved in the Adani Carmichael coal mine in Australia, which is being vigorously resisted.    \n\nOwners: French PLC. Its biggest owners include the government of Qatar, amongst many other global investment funds. ","address source":"https://www.vinci.com/vinci.nsf/en/locations/pages/region_greater_london.htm ","address check date":"Address checked: August 2021","address notes":""},"geometry":{"type":"Point","coordinates":[-0.131503,51.519611]}},{"type":"Feature","properties":{"sector":"1.6 Infrastructure","subsector":"1.6.2 Global engineering & construction","name":"Vinci (Morgan Vinci)","address":"Morgan VINCI Ltd: 77 Newman Street, London, W1T 3EW","description":"Massive French construction multinational, with numerous brands and subsidiaries, involved in a long list of devastating projects. It makes its biggest profits running much of the French toll-paying motorway system. Planned developer of the Notre-Dame-des-Landes airport in western France, which was scrapped in 2019 after an epic campaign of resistance including the long-running ZAD land occupation. Accused of using forced labour in Qatar, bulldozing migrant camps in Calais, and engaging in corruption and massive environmental destruction in Russia’s Khimki Forest motorway scheme. One of the numerous companies working on the HS2 high speed train line.   \n\nSee Corporate Watch company profile (from 2017). Recently, its subsidiary Spiecapag has been involved in the Adani Carmichael coal mine in Australia, which is being vigorously resisted.    \n\nOwners: French PLC. Its biggest owners include the government of Qatar, amongst many other global investment funds. ","address source":"https://www.vinci.com/vinci.nsf/en/locations/pages/region_greater_london.htm ","address check date":"Address checked: August 2021","address notes":""},"geometry":{"type":"Point","coordinates":[-0.135743,51.517461]}},{"type":"Feature","properties":{"sector":"1.6 Infrastructure","subsector":"1.6.2 Global engineering & construction","name":"Vinci (Taylor Woodrow)","address":"Taylor Woodrow (UK construction subsidiary): 286 Euston Road, Euston Tower Level 33, London, NW1A 3DP","description":"Massive French construction multinational, with numerous brands and subsidiaries, involved in a long list of devastating projects. It makes its biggest profits running much of the French toll-paying motorway system. Planned developer of the Notre-Dame-des-Landes airport in western France, which was scrapped in 2019 after an epic campaign of resistance including the long-running ZAD land occupation. Accused of using forced labour in Qatar, bulldozing migrant camps in Calais, and engaging in corruption and massive environmental destruction in Russia’s Khimki Forest motorway scheme. One of the numerous companies working on the HS2 high speed train line.   \n\nSee Corporate Watch company profile (from 2017). Recently, its subsidiary Spiecapag has been involved in the Adani Carmichael coal mine in Australia, which is being vigorously resisted.    \n\nOwners: French PLC. Its biggest owners include the government of Qatar, amongst many other global investment funds. ","address source":"https://www.vinci.com/vinci.nsf/en/locations/pages/region_greater_london.htm ","address check date":"Address checked: August 2021","address notes":""},"geometry":{"type":"Point","coordinates":[-0.139328,51.525532]}}],"_umap_options":{"displayOnLoad":true,"browsable":true,"name":"2021 infrastructure","id":1825068,"remoteData":{},"color":"OrangeRed"}}