{"type":"FeatureCollection","features":[{"type":"Feature","properties":{"sector":"1.7 Agribusiness","subsector":"1.7 Agribusiness","name":"ABF","address":"Weston Centre, 10 Grosvenor Street, London, W1K 4QY","description":"British consumer and agribusiness conglomerate. It owns household brands including Ovaltine, Ryvita, Twinings tea, and many more. Agribusiness division AB Agri supplies animal feed in the UK and China. Its AB Sugar division is one of the world’s biggest sugar empires, including Silver Spoon, Illovo Sugar in southern Africa, Azucarera in Spain, AB Sugar China, and other companies. \n\nAccording to the World Wildlife Fund: “The cultivation and processing of sugar produce environmental impacts through the loss of natural habitats, intensive use of water, heavy use of agro-chemicals, discharge and runoff of polluted effluent and air pollution.” \n\nOn top of all that, ABF also owns the infamous Primark clothing chain, renowned for miserable labour conditions and the death of over 1,000 people in the Rana Plaza factory collapse.  \n\nOwners: 55% owned by Wittington Investments, other shares publicly-traded.","address source":"https://www.abf.co.uk/m/contact-us","address check date":"Address checked: August 2021","address notes":""},"geometry":{"type":"Point","coordinates":[-0.14579,51.51212]}},{"type":"Feature","properties":{"sector":"1.7 Agribusiness","subsector":"1.7 Agribusiness","name":"ADM","address":"ADM Investor Services: 3rd Floor, The Minster Building, 21 Mincing Lane, London, EC3R 7AG","description":"ADM is a major US food processing company dealing in Amazon soya, palm oil and biofuels, among other commodities. Prior to joining ADM, the company’s CEO Juan R Luciano spent 25 years at Dow Chemical, infamous for the Bhopal disaster. He also sits on the board of directors of pharma giant Eli Lilly and palm oil plunderers Wilmar International. \n\nOwners: listed company, owned by big investment funds including Vanguard, as well as State Farm Investment Management Corp.","address source":"http://www.admisi.com/contact","address check date":"Address checked: August 2021","address notes":"NB: the London office belongs to ADMSI, an investment brokerage subsidiary. "},"geometry":{"type":"Point","coordinates":[-0.080974,51.510572]}},{"type":"Feature","properties":{"sector":"1.7 Agribusiness","subsector":"1.7 Agribusiness","name":"Cargill","address":"3rd Floor, 77 Queen Victoria Street, London, EC4V 4AY","description":"The largest privately-held company in the world and by far the biggest supplier of animal feed, Cargill is regarded as one of two companies most closely linked to Brazilian deforestation for its soya destined for the livestock industry. Besides Amazon destruction, it is also involved in UK mega factory farms, is one of the world’s biggest traders in palm oil, and is tied to rainforest destruction in South East Asia, deforestation in West Africa and child slavery. Cargill has more than 60 subsidiaries. \n\nOwners: The Cargill-Macmillan family, one of the wealthiest in the US, reportedly owns over 88% of the company.  ","address source":"http://www.cargill.co.uk/en/london-location","address check date":"Address checked: August 2021","address notes":""},"geometry":{"type":"Point","coordinates":[-0.09494,51.511955]}},{"type":"Feature","properties":{"sector":"1.7 Agribusiness","subsector":"1.7 Agribusiness","name":"Olam International","address":"New Zealand House, 80 Haymarket London, SW1Y 4TE","description":"Singapore-based company and major producer of cash crops, particularly palm oil. Olam is engaged in massive deforestation and has been accused of serious human rights abuses. Allegations include razing an area of pristine forest in Gabon the size of Washington DC for its rubber plantations and driving land grabs and evictions in Laos. \n\nOwners: Olam’s largest shareholders are Temasek Holdings and Mitsubishi Corporation – a Singaporean sovereign wealth fund and a Japanese bank, respectively, both also on this map.","address source":"https://www.olamgroup.com/contactus.html","address check date":"Address checked: August 2021","address notes":""},"geometry":{"type":"Point","coordinates":[-0.131654,51.507829]}},{"type":"Feature","properties":{"sector":"1.7 Agribusiness","subsector":"1.7 Agribusiness","name":"Tata","address":"18 Grosvenor Place, London, SW1X 7HS","description":"Massive Indian multinational conglomerate with over 750,000 employees. It could feature in a number of sections: various divisions own coal mines, power plants, steel mills, hotel chains, one of the word’s biggest IT companies, Jaguar Land Rover cars, and a massive list of household consumer products. Tata Consumer Products, which includes the Tetley and Teapigs brands, is one of the world’s biggest tea and coffee plantation owners. Tata’s iron works, chemical plants, and plantations have been connected to land grabs, police shootings, pollution incidents, workers’ disputes, and more. Tata Steel is the largest steel company in the UK, with a vast steelworks plant in Port Talbot, Wales. \n\nThe company was identified in one study by Sky News as the second biggest CO2-emitting company in the UK.\n\nOwners: Tata family. The majority of shares are owned by the Tata Sons holding company, which in turn is owned by family trusts. The family business goes back to the 1860s, when it was involved in the opium trade. Some Tata subsidiaries have a minority of shares traded in the open market.  ","address source":"http://www.tata.com/contact-us","address check date":"Address checked: August 2021","address notes":""},"geometry":{"type":"Point","coordinates":[-0.149618,51.500319]}},{"type":"Feature","properties":{"sector":"1.7 Agribusiness","subsector":"1.7 Agribusiness","name":"Unilever","address":"Unilever House, 100 Victoria Embankment, London, EC4Y 0DY","description":"Massive Dutch-British consumer goods company which owns numerous household food and cosmetics brands, and has a long record of environmental scandals. Major users of palm oil, connected to rainforest clearances in South East Asia and West Africa, as well as to child labour. Also identified by Break Free from Plastic as one of the world’s top five corporate plastics users.","address source":"https://www.unilever.com/contact/unilever-registered-offices/","address check date":"Address checked: August 2021","address notes":""},"geometry":{"type":"Point","coordinates":[-0.105025,51.511666]}}],"_umap_options":{"displayOnLoad":true,"browsable":true,"name":"2021 agribusiness","id":1825064,"remoteData":{},"color":"DarkGreen"}}