{"type":"FeatureCollection","features":[{"type":"Feature","properties":{"sector":"2.2 Investment Funds","subsector":"2.2.3 Private Equity","name":"3i Group","address":"16 Palace Street, London, SW1E 5JD","description":"One of the few private equity firms whose shares are traded publicly as a PLC. 3i is London based and is a member of the FTSE 100. Its investment focuses include energy and infrastructure.  ","address source":"https://www.3i.com/site-tools/contacts/","address check date":"Address checked: August 2021","address notes":""},"geometry":{"type":"Point","coordinates":[-0.141531,51.498395]}},{"type":"Feature","properties":{"sector":"2.2 Investment Funds","subsector":"2.2.1 Top Institutional Investors","name":"Amundi (Credit Agricole)","address":"77 Coleman Street, London, EC2R 5BJ","description":"Europe’s biggest asset manager, part of the group of the French Credit Agricole bank. Has around $1.8 trillion assets under management.","address source":"https://www.amundi.co.uk/professional/About-Amundi/Amundi-UK","address check date":"Address checked: August 2021","address notes":""},"geometry":{"type":"Point","coordinates":[-0.087889,51.514919]}},{"type":"Feature","properties":{"sector":"2.2 Investment Funds","subsector":"2.2.5 Sector specialist Investors","name":"Andurand Capital","address":"100 Brompton Road, London, SW3 1ER","description":"London-based oil and energy trading hedge fund run by Pierre Andurand. ","address source":"http://www.andurandcapital.com/contact.html ","address check date":"Address checked: August 2021","address notes":""},"geometry":{"type":"Point","coordinates":[-0.164283,51.499506]}},{"type":"Feature","properties":{"sector":"2.2 Investment Funds","subsector":"2.2.5 Sector specialist Investors","name":"Appian Capital","address":"5th Floor, 45 Pall Mall, London, SW1Y 5JG","description":"London-based private equity fund which invests solely in metals and mining.","address source":"https://appiancapitaladvisory.com/contact/ ","address check date":"Address checked: August 2021","address notes":""},"geometry":{"type":"Point","coordinates":[-0.136202,51.506081]}},{"type":"Feature","properties":{"sector":"2.2 Investment Funds","subsector":"2.2.5 Sector specialist Investors","name":"Arkesden Partners","address":"7 Birchin Lane, London, EC3V 9BW","description":"Investment advisory and private equity firm working on oil, mining and other energy deals. ","address source":"https://www.arkesden.com/contact ","address check date":"Address checked: August 2021","address notes":""},"geometry":{"type":"Point","coordinates":[-0.086522,51.512974]}},{"type":"Feature","properties":{"sector":"2.2 Investment Funds","subsector":"2.2.4 Hedge Funds","name":"Autonomy Capital","address":"110 Bishopsgate, Floor 34, London, EC2N 4AY UK","description":"US-based hedge fund that is reportedly a big gambler on European carbon emissions. It is also known as a vulture fund speculating on debts of “emerging countries”. Involved in court case to chase debts from crisis-hit Puerto Rico.  ","address source":"https://www.autonomycapital.com/contact/ ","address check date":"Address checked: August 2021","address notes":""},"geometry":{"type":"Point","coordinates":[-0.081222,51.516198]}},{"type":"Feature","properties":{"sector":"2.2 Investment Funds","subsector":"2.2.1 Top Institutional Investors","name":"Aviva","address":"St Helen's, 1 Undershaft, London, EC3P 3DQ","description":"UK investment manager with over $600 billion assets under management.","address source":"https://www.aviva.com/about-us/registered-address/","address check date":"Address checked: August 2021","address notes":""},"geometry":{"type":"Point","coordinates":[-0.081593,51.514275]}},{"type":"Feature","properties":{"sector":"2.2 Investment Funds","subsector":"2.2.1 Top Institutional Investors","name":"Axa","address":"AXA UK PLC: 20 Gracechurch Street, London, EC3V 0BG","description":"French insurance giant and fund manager. Manages over $1 trillion. ","address source":"https://www.axa.co.uk/about/addresses/ ","address check date":"Address checked: August 2021","address notes":""},"geometry":{"type":"Point","coordinates":[-0.085029,51.512234]}},{"type":"Feature","properties":{"sector":"2.2 Investment Funds","subsector":"2.2.3 Private Equity","name":"Bain Capital","address":"50 Berkeley Street, London, W1J 8HD","description":"Founded by former US vice-president Mitt Romney (with other partners), known for its political links and for buying out and asset-stripping companies. ","address source":"https://www.baincapital.com/locations ","address check date":"Address checked: August 2021","address notes":""},"geometry":{"type":"Point","coordinates":[-0.143444,51.507642]}},{"type":"Feature","properties":{"sector":"2.2 Investment Funds","subsector":"2.2.1 Top Institutional Investors","name":"Bank of New York Mellon Corporation","address":"160 Queen Victoria Street, London, EC4V 4LA","description":"US bank and fund manager overseeing around $2 trillion.","address source":"https://www.bnymellon.com/emea/en/about-us/locations.html","address check date":"Address checked: August 2021","address notes":""},"geometry":{"type":"Point","coordinates":[-0.102453,51.512556]}},{"type":"Feature","properties":{"sector":"2.2 Investment Funds","subsector":"2.2.5 Sector specialist Investors","name":"BB Energy","address":"BB House, 12-14 Ansdell Street, London, W8 5BN","description":"Describes itself as “one of the world's leading independent energy trading companies” and “one of the most active gas, oil, gasoline, bitumen and fuel oil traders in the Mediterranean.”","address source":"http://www.bbenergy.com/ ","address check date":"Address checked: August 2021","address notes":""},"geometry":{"type":"Point","coordinates":[-0.188741,51.49983]}},{"type":"Feature","properties":{"sector":"2.2 Investment Funds","subsector":"2.2.1 Top Institutional Investors","name":"BlackRock Inc","address":"12 Throgmorton Avenue, Drapers Gardens, London, EC2N 2DL","description":"The world’s biggest investment manager, managing over $7 trillion worth of assets (another report in the Financial Times says as much as $9 trillion). Basically, it owns shares in pretty much every major listed company in the world. This makes BlackRock a massively powerful institution that influences every aspect of global capitalism. Based in the US, it is “the world’s biggest backer of fossil fuel companies”, according to the Black Rock’s Big Problem campaign.","address source":"https://www.blackrock.com/corporate/about-us/contacts-locations ","address check date":"Address checked: August 2021","address notes":""},"geometry":{"type":"Point","coordinates":[-0.086859,51.515987]}},{"type":"Feature","properties":{"sector":"2.2 Investment Funds","subsector":"2.2.3 Private Equity","name":"Blackstone Group","address":"40 Berkeley Square, London, W1J 5AL ","description":"The world’s biggest private equity fund, according to PEI international. Headquartered in New York, it owns numerous well and less known companies and hotel chains. (NB: don’t confuse with BlackRock.) CEO Schwarzman was a major backer and adviser of President Trump. Its real estate division is infamous for its role in evictions and gentrification of cities, and has been targeted by resistance from Athens to Barcelona. Its Brazilian firms have been identified as “significantly responsible for the ongoing destruction of the Amazon rainforest”.","address source":"https://www.blackstone.com/the-firm/our-offices ","address check date":"Address checked: August 2021","address notes":""},"geometry":{"type":"Point","coordinates":[-0.146932,51.509706]}},{"type":"Feature","properties":{"sector":"2.2 Investment Funds","subsector":"2.2.4 Hedge Funds","name":"Brevan Howard","address":"55 Baker Street, London, W1U 8EW","description":"One of Europe’s biggest hedge funds. It makes short-term bets on commodities such as oil and metals prices, as well as currencies and more. Officially registered in Jersey and Cayman Islands tax havens. Sponsors financial analysis centre at Imperial College London.  ","address source":"https://www.brevanhoward.com/ ","address check date":"Address checked: August 2021","address notes":""},"geometry":{"type":"Point","coordinates":[-0.15654,51.519185]}},{"type":"Feature","properties":{"sector":"2.2 Investment Funds","subsector":"2.2.1 Top Institutional Investors","name":"Capital Group","address":"40 Grosvenor Place, London, SW1X 7GG","description":"US fund manager overseeing at least $1.7 trillion.","address source":"https://www.capitalgroup.com/about-us/office-locations.html","address check date":"Address checked: August 2021","address notes":""},"geometry":{"type":"Point","coordinates":[-0.147974,51.498597]}},{"type":"Feature","properties":{"sector":"2.2 Investment Funds","subsector":"2.2.3 Private Equity","name":"Carlyle Group","address":"1 St James’s Market, London, SW1Y 4AH","description":"US-based. World’s fourth biggest PE fund, according to PEI international rankings. Perhaps best known for its links to the Bush and Bin Laden families. It is one of the owners of Neptune Energy, a fast-growing oil company active in the North Sea, Africa and South-East Asia.","address source":"https://www.carlyle.com/contact-us/worldwide-offices ","address check date":"Address checked: August 2021","address notes":""},"geometry":{"type":"Point","coordinates":[-0.133418,51.509006]}},{"type":"Feature","properties":{"sector":"2.2 Investment Funds","subsector":"2.2.3 Private Equity","name":"CVC Group","address":"111 Strand, London, WC2R 0AG","description":"The biggest UK-based PE fund, and the world’s third biggest, according to PEI international rankings. Its many investments across Europe, Asia and Americas include the UK’s biggest oil pipeline, and North Sea oil company Neptune. ","address source":"https://www.cvc.com/offices ","address check date":"Address checked: August 2021","address notes":""},"geometry":{"type":"Point","coordinates":[-0.120019,51.510837]}},{"type":"Feature","properties":{"sector":"2.2 Investment Funds","subsector":"2.2.5 Sector specialist Investors","name":"EIG Global Energy Partners","address":"20 St. James’s Street, 7th Floor, London, SW1A 1ES","description":"Specialist fund investing in oil and gas, pipelines, and “alternative energy”. Has invested $37 billion in over 370 energy companies or projects over the years, including the Brazil-Bolivia gas pipeline (GASBOL), coal and oil sands in Canada, biomass in Spain, and numerous oil drillers from Alaska to Africa. ","address source":"https://eigpartners.com/contact-us/","address check date":"Address checked: August 2021","address notes":""},"geometry":{"type":"Point","coordinates":[-0.138827,51.506525]}},{"type":"Feature","properties":{"sector":"2.2 Investment Funds","subsector":"2.2.4 Hedge Funds","name":"Elliott Advisors","address":"116 Park Street, London, W1K 6AF","description":"Infamous as a “vulture fund” which buys up and chases “distressed debt”. In particular, Elliott played a major role in suing the Argentinian and Peruvian governments for bond payments during the Latin American debt crisis. Other recent investments include buying football club AC Milan. \n\nOwned by Republican-backing US billionaire Paul Singer; the London office is run by his son, Gordon. It also owns bookshop chains Waterstones and Barnes and Noble. \n\nSee also Corporate Watch’s investigation into Elliott and Waterstones.","address source":"https://beta.companieshouse.gov.uk/company/02989338; https://register.fca.org.uk/ShPo_FirmDetailsPage?id=001b000000MfUxEAAV","address check date":"Address checked: August 2021","address notes":"NB: official registered office address, but not confirmed as an operational base for the company."},"geometry":{"type":"Point","coordinates":[-0.154895,51.51348]}},{"type":"Feature","properties":{"sector":"2.2 Investment Funds","subsector":"2.2.1 Top Institutional Investors","name":"Fidelity","address":"4 Cannon Street, London, EC4M 5AB","description":"Major US-based global investment manager, with over $3.3 trillion assets under management.","address source":"https://careers.fidelityinternational.com/our-locations/fidelity-uk-and-ireland/","address check date":"Address checked: August 2021","address notes":""},"geometry":{"type":"Point","coordinates":[-0.096915,51.512789]}},{"type":"Feature","properties":{"sector":"2.2 Investment Funds","subsector":"2.2.4 Hedge Funds","name":"GAM","address":"8 Finsbury Circus, London, EC2M 7GB ","description":"Swiss hedge fund mainly involved in gambling on bond markets, also has funds investing in energy companies. ","address source":"https://www.gam.com/en/our-company/contacts-and-locations","address check date":"Address checked: August 2021","address notes":""},"geometry":{"type":"Point","coordinates":[-0.086853,51.51853]}},{"type":"Feature","properties":{"sector":"2.2 Investment Funds","subsector":"2.2.5 Sector specialist Investors","name":"GNRI","address":"4th Floor, 14 Curzon Street, London, W1J 5HN","description":"Private equity firm which invests in oil, gas and mining. Was a former unit of Barclays Bank bought out by its managers in 2015.","address source":"https://gnri.com/ ","address check date":"Address checked: August 2021","address notes":""},"geometry":{"type":"Point","coordinates":[-0.147291,51.506929]}},{"type":"Feature","properties":{"sector":"2.2 Investment Funds","subsector":"2.2.5 Sector specialist Investors","name":"Helios Investment Partners","address":"2nd floor, 12 Charles II Street, London, SW1Y 4QU","description":"London-based private equity firm set up to deal in Africa, including investments in African oil companies. ","address source":"https://www.heliosinvestment.com/contact ","address check date":"Address checked: August 2021","address notes":""},"geometry":{"type":"Point","coordinates":[-0.13282,51.508235]}},{"type":"Feature","properties":{"sector":"2.2 Investment Funds","subsector":"2.2.1 Top Institutional Investors","name":"Insight Investment","address":"160 Queen Victoria Street, London, EC4V 4LA ","description":"UK-based fund manager with around $900 billion assets under management.","address source":"https://www.insightinvestment.com/uk/","address check date":"Address checked: August 2021","address notes":""},"geometry":{"type":"Point","coordinates":[-0.102453,51.512556]}},{"type":"Feature","properties":{"sector":"2.2 Investment Funds","subsector":"2.2.5 Sector specialist Investors","name":"Kerogen Capital","address":"6th Floor, 50 Pall Mall, London, SW1Y 5JH","description":"Private equity investor specialising in oil and gas companies, with bases in Hong Kong and London. Has been a major investor in North Sea oil companies, and in Energean, the UK-Greek-Israeli company drilling wells and building pipelines in the Eastern Mediterranean.","address source":"http://www.kerogencap.com/contact-us/ ","address check date":"Address checked: August 2021","address notes":""},"geometry":{"type":"Point","coordinates":[-0.136878,51.505831]}},{"type":"Feature","properties":{"sector":"2.2 Investment Funds","subsector":"2.2.3 Private Equity","name":"KKR","address":"18 Hanover Square, London, W1S 1JY","description":"US private equity fund, the world’s second biggest according to PEI international rankings. Infamous for its “asset-stripping” company buyouts in the 1980s and 90s. Its investment focuses include oil and gas companies and related infrastructure, and real estate. In December 2019, KKR announced it was buying a 65% stake in the Canadian Coastal GasLink fracked gas pipeline, jointly with Canadian state investment fund AIMCo. The pipeline project is being vigorously resisted by Wetʼsuwetʼen first nations people. Wetʼsuwetʼen Solidarity activists occupied KKR’s London offices in 2020 to protest against the pipeline.","address source":"https://www.kkr.com/our-firm/locations ","address check date":"Address checked: August 2021","address notes":""},"geometry":{"type":"Point","coordinates":[-0.144587,51.51411]}},{"type":"Feature","properties":{"sector":"2.2 Investment Funds","subsector":"2.2.2. SWFs ","name":"Kuwait Investment Authority (KIA)","address":"Wren House, 15 Carter Lane, London, EC4V 5EY","description":"Controls $533 billion of assets. Its London division, called Kuwait Investment Office (KIO), makes investments across Europe and beyond. This, in turn, has a subsidiary infrastructure fund called Wren House (after its HQ). Wren House’s portfolio includes Britain’s biggest port operator ABP, London City Airport, and North Sea Midstream Partners, which controls a “major chunk of North Sea energy infrastructure” in Scotland. ","address source":"https://kia.gov.kw/contact-us/ ","address check date":"Address checked: August 2021","address notes":""},"geometry":{"type":"Point","coordinates":[-0.0988,51.512851]}},{"type":"Feature","properties":{"sector":"2.2 Investment Funds","subsector":"2.2.4 Hedge Funds","name":"Lansdowne Partners","address":"15 Davies Street, London, W1K 3AG","description":"“One of London’s oldest and most secretive hedge funds”, according to the Financial Times. It is perhaps best known for betting on the collapse of Northern Rock during the financial crash, and also has an energy fund speculating on oil and other commodity prices. It recently announced its plan to launch a spinoff company called ‘Clean Energy Transition’ in late 2021.","address source":"https://www.lansdownepartners.com/contact-us/ ","address check date":"Address checked: August 2021","address notes":""},"geometry":{"type":"Point","coordinates":[-0.147755,51.511137]}},{"type":"Feature","properties":{"sector":"2.2 Investment Funds","subsector":"2.2.1 Top Institutional Investors","name":"Legal and General IM","address":"LGIM: One Coleman Street, London, EC2R 5AA","description":"UK insurance company and fund manager. The biggest UK-based investment manager, controlling over $1.2 trillion in assets.","address source":"https://www.lgim.com/uk/ad/contact-us/","address check date":"Address checked: August 2021","address notes":""},"geometry":{"type":"Point","coordinates":[-0.090157,51.51722]}},{"type":"Feature","properties":{"sector":"2.2 Investment Funds","subsector":"2.2.4 Hedge Funds","name":"Man Group","address":"Riverbank House, 2 Swan Lane, London, EC4R 3AD","description":"The third-largest publicly traded hedge fund, and the biggest based in the UK. Its multiple funds gamble on pretty much anything from “natural catastrophe bonds” to real estate. It sponsors an Oxford University research centre and used to sponsor the Man Booker literature prize.","address source":"https://www.man.com/contact ","address check date":"Address checked: August 2021","address notes":""},"geometry":{"type":"Point","coordinates":[-0.08891,51.509412]}},{"type":"Feature","properties":{"sector":"2.2 Investment Funds","subsector":"2.2.5 Sector specialist Investors","name":"Mandara Energy","address":"6 Broad Street Place, London, EC2M 7JH","description":"Specialist energy derivatives trader – i.e., makes bets for clients on oil and other energy prices. Based in London and Singapore.","address source":"http://www.mandaracapital.com/#subpage-3 ","address check date":"Address checked: August 2021","address notes":""},"geometry":{"type":"Point","coordinates":[-0.08441,51.5181]}},{"type":"Feature","properties":{"sector":"2.2 Investment Funds","subsector":"2.2.4 Hedge Funds","name":"Monarch Alternative Capital","address":"1st Floor, 50-52 Welbeck Street, London, W1G 9HL ","description":"US-based vulture fund which specialises in buying and chasing “distressed debt”. Involved in court case to chase debts from crisis-hit Puerto Rico.  \n\nAnother string to its bow is investing in coal: “In February 2017, it became the principal shareholder in Arch Coal, the second largest supplier of coal to power companies in the U.S. Arch Coal has been accused by United Mine Workers of America of conspiring with Peabody Energy in a scheme to default on $1.3 billion in retiree pension and healthcare obligations.”","address source":"http://www.monarchlp.com/contact/","address check date":"Address checked: August 2021","address notes":""},"geometry":{"type":"Point","coordinates":[-0.149588,51.517664]}},{"type":"Feature","properties":{"sector":"2.2 Investment Funds","subsector":"2.2.2. SWFs ","name":"Norges Bank IM / NGPFG","address":"Norges Bank IM: Queensberry House, 3 Old Burlington Street, London, W1S 3AE ","description":"Norway’s massive oil reserve fund, administered by the state-owned Norges Bank Investment Management. The biggest SWF with just under $1.2 trillion in AUM. It acts much like the big investment funds above – similar to BlackRock or Vanguard, it owns shares in almost all the world’s big listed companies. Although, with Norway’s social democratic record, Norges Bank’s investments have long been a contentious issue, and campaigns over the years have succeeded in getting it to divest from many arms manufacturers, coal miners, gold miners, and others. It still invests in many of the companies on this map, however.","address source":"https://www.nbim.no/en/organisation/our-offices/london-office/ ","address check date":"Address checked: August 2021","address notes":""},"geometry":{"type":"Point","coordinates":[-0.140546,51.510704]}},{"type":"Feature","properties":{"sector":"2.2 Investment Funds","subsector":"2.2.1 Top Institutional Investors","name":"Northern Trust Corporation, Inc","address":"50 Bank Street, Canary Wharf, London, E14 5NT","description":"US fund manager overseeing over $1.2 trillion. ","address source":"https://locations.northerntrust.com/gb/london/50-bank-street ","address check date":"Address checked: August 2021","address notes":""},"geometry":{"type":"Point","coordinates":[-0.017696,51.50236]}},{"type":"Feature","properties":{"sector":"2.2 Investment Funds","subsector":"2.2.5 Sector specialist Investors","name":"Northlander Commodities","address":"Shearwater House, 21 The Green, Richmond, London TW9 1PX","description":"A “UK fund with strong ties to the US”, specialised in energy trading. Reported to have “made as much as $125 million” by speculating on global heating through trading carbon emission credits.","address source":"http://www.northlander-advisors.com/ ","address check date":"Address checked: August 2021","address notes":""},"geometry":{"type":"Point","coordinates":[-0.305814,51.460688]}},{"type":"Feature","properties":{"sector":"2.2 Investment Funds","subsector":"2.2.3 Private Equity","name":"Oaktree","address":"Verde, 10 Bressenden Place, London, SW1E 5DH","description":"Major global private equity and investment fund, notorious as one of the biggest “distressed debt” or “vulture” funds – buying up the assets of crisis-hit countries and companies, then chasing them for repayment. It was a major profiteer from the European debt crisis, and recently involved in court cases to chase the debt of Puerto Rico. It also runs a $2.7 billion energy fund investing in oil tankers, pipeline infrastructure and more.","address source":"https://www.oaktreecapital.com/contact-us ","address check date":"Address checked: August 2021","address notes":""},"geometry":{"type":"Point","coordinates":[-0.142108,51.497951]}},{"type":"Feature","properties":{"sector":"2.2 Investment Funds","subsector":"2.2.5 Sector specialist Investors","name":"Orion Resource Partners","address":"33 Welbeck St, London, W1G 8EX","description":"Specialist metals and mining investment fund. Was previously part of Red Kite, spun off under its chief Oskar Lewinowski. Has invested in numerous mining companies including Dalradian. \n\nSee also Corporate Watch’s investigation into Dalradian.","address source":"https://www.orionresourcepartners.com/orion-mine-finance ","address check date":"Address checked: August 2021","address notes":""},"geometry":{"type":"Point","coordinates":[-0.149655,51.518685]}},{"type":"Feature","properties":{"sector":"2.2 Investment Funds","subsector":"2.2.5 Sector specialist Investors","name":"OTC Europe","address":"5th floor, 10 Finsbury Square, London, EC2A 1AF","description":"Trading firm “specializing in over-the-counter energy physical and financial futures and options, including crude oil, gas oil, fuel, freight, and middle distillates”.","address source":"http://www.otcgh.com/portfolio-of-companies/otc-europe/ ","address check date":"Address checked: August 2021","address notes":""},"geometry":{"type":"Point","coordinates":[-0.087475,51.521236]}},{"type":"Feature","properties":{"sector":"2.2 Investment Funds","subsector":"2.2.1 Top Institutional Investors","name":"Pimco (Allianz)","address":"Pimco: 11 Baker Street, London, W1U 3AH","description":"Allianz is a giant German insurance and financial services company, which also now owns Pimco – a massive global investment fund specialising in bonds. Pimco alone controls $1.9 trillion assets under management, the bulk of the $2.5 trillion Allianz manages overall. ","address source":"https://www.pimco.co.uk/en-gb/our-firm/offices/europe/london","address check date":"Address checked: August 2021","address notes":""},"geometry":{"type":"Point","coordinates":[-0.155671,51.517126]}},{"type":"Feature","properties":{"sector":"2.2 Investment Funds","subsector":"2.2.4 Hedge Funds","name":"Point 72","address":"8 St James’s Square, London, SW1Y 4JU","description":"Global hedge fund of US billionaire Steven Cohen. Point72 is the successor to Cohen’s previous business SAC Capital Advisors, which closed down after being hit by a $1.8 billion fine for insider trading.  ","address source":"https://www.point72.com/contact-us/ ","address check date":"Address checked: August 2021","address notes":""},"geometry":{"type":"Point","coordinates":[-0.135823,51.508084]}},{"type":"Feature","properties":{"sector":"2.2 Investment Funds","subsector":"2.2.1 Top Institutional Investors","name":"Prudential","address":"Grand Buildings, 1-3 Strand, Trafalgar Square, London, WC2N 5HR","description":"US fund manager – not to be confused with the UK’s Prudential PLC (which is also on this map). Manages $1.6 trillion. ","address source":"https://www.prudential.com/links/about/worldwide-locations/uk","address check date":"Address checked: August 2021","address notes":""},"geometry":{"type":"Point","coordinates":[-0.126631,51.50777]}},{"type":"Feature","properties":{"sector":"2.2 Investment Funds","subsector":"2.2.1 Top Institutional Investors","name":"Prudential PLC","address":"1 Angel Court, London, EC2R 7AG","description":"UK insurer and fund manager, dating back to 1848 (NB: don’t confuse with the bigger Prudential from the US).","address source":"https://www.prudentialplc.com/contacts/prudential-plc","address check date":"Address checked: August 2021","address notes":""},"geometry":{"type":"Point","coordinates":[-0.087312,51.51531]}},{"type":"Feature","properties":{"sector":"2.2 Investment Funds","subsector":"2.2.2. SWFs ","name":"Qatar Investment Authority (QIA)","address":"Qatari Diar: 16 Grosvenor Street, London, W1K 4QF","description":"QIA is a major investor in many of the companies on our primary list. It is one of the biggest investors in mining giant Glencore, Russian oil and gas megacorp Rosneft, oil supermajor Total, French motorways and infrastructure giant Vinci, and many more. It also has large holdings in a number of global banks, notably Barclays. QIA has over $40 billion invested in the UK and plays a particularly important role for us as a major property owner in London. \n\nIt owns 20% of Heathrow Airport, and a majority stake in the Canary Wharf Development Company – London’s biggest landlord, which owns the effectively privatised financial district. It also owns an 8% stake in the London Stock Exchange and is bidding to up that share to 31%. Plus it holds major stakes in Sainsburys and International Airlines Group, which owns BA and many other airlines. Some of its property is held through a subsidiary called Qatari Diar, a real estate investment fund which has bought further swathes of London from the Shard to the former Olympic Village. ","address source":"http://www.qataridiar.com/english/pages/contact-us.aspx ","address check date":"Address checked: August 2021","address notes":""},"geometry":{"type":"Point","coordinates":[-0.14633,51.512111]}},{"type":"Feature","properties":{"sector":"2.2 Investment Funds","subsector":"2.2.5 Sector specialist Investors","name":"Red Kite Capital","address":"2 Queen Anne's Gate Buildings, Dartmouth Street, London, England, SW1H 9BP","description":"Specialised metal and mining investment fund run by former Conservative party treasurer, and evangelical Christian, Lord Michael Farmer – called “Mr Copper” for his exalted position in the copper trading business. Its RK Mine Finance fund has lent money to numerous metals and mining companies. Also in the business is Farmer’s son, George, who has headed the UK branch of US right wing propaganda organisation Turning Point. ","address source":"https://find-and-update.company-information.service.gov.uk/company/OC418074","address check date":"Address checked: August 2021","address notes":"NB: Registered address. This is a current official company address; but it is not confirmed that it is an operational site rather than just a “letterbox”."},"geometry":{"type":"Point","coordinates":[-0.08739,51.514526]}},{"type":"Feature","properties":{"sector":"2.2 Investment Funds","subsector":"2.2.5 Sector specialist Investors","name":"Riverstone","address":"3 St James’s Square, London, SW1Y 4JU","description":"Private equity firm focused on energy companies, with over $40 billion of investments in companies worldwide. Investments have included coal, oil drilling, biofuels, and much more. Invests in UK fracking firm Cuadrilla.","address source":"https://www.riverstonellc.com/#!contact/london-office ","address check date":"Address checked: August 2021","address notes":""},"geometry":{"type":"Point","coordinates":[-0.134625,51.507914]}},{"type":"Feature","properties":{"sector":"2.2 Investment Funds","subsector":"2.2.4 Hedge Funds","name":"Sculptor Capital","address":"40 Argyll Street, 2nd Floor, London, W1F 7EB","description":"Formerly called Och-Ziff, Sculptor is a global hedge fund founded by US billionaire Daniel Och. It is notorious for a 2016 corruption scandal where Och and his fund were accused by the US courts of paying over $100 million in bribes to secure natural resources deals in Libya, Nigeria, Guinea and the Democratic Republic of Congo. Among the companies it backed was New Age (African Global Energy), also on this map.","address source":"https://www.sculptor.com/about-sculptor/offices/london ","address check date":"Address checked: August 2021","address notes":""},"geometry":{"type":"Point","coordinates":[-0.140673,51.514365]}},{"type":"Feature","properties":{"sector":"2.2 Investment Funds","subsector":"2.2.1 Top Institutional Investors","name":"Standard Life Aberdeen","address":"Bow Bells House, 1 Bread Street, London, EC4M 9HH","description":"UK fund manager, has over $600 billion assets under management.","address source":"https://www.aberdeenstandardcapital.com/en/about-us/our-offices","address check date":"Address checked: August 2021","address notes":""},"geometry":{"type":"Point","coordinates":[-0.094583,51.513406]}},{"type":"Feature","properties":{"sector":"2.2 Investment Funds","subsector":"2.2.1 Top Institutional Investors","name":"State Street Corporation","address":"20 Churchill Pl, Canary Wharf, London, E14 5HJ ","description":"US bank and one of the world’s biggest investment managers, with over $3 trillion assets managed.","address source":"https://www.ssga.com/us/en/institutional/ic/about-us/who-we-are/our-locations","address check date":"Address checked: August 2021","address notes":""},"geometry":{"type":"Point","coordinates":[-0.013904,51.503778]}},{"type":"Feature","properties":{"sector":"2.2 Investment Funds","subsector":"2.2.2. SWFs ","name":"Temasek Holdings","address":"23 King Street, London, SW1Y 6QY","description":"Singaporean SWF with $417 billion to spend. It has its European base in London. Temasek’s portfolio includes worldwide investments in oil and other energy companies, agribusiness and life sciences, industrials and transport, real estate, and more. It holds a majority share in Olam, the multinational agribusiness and palm oil producer accused of significant deforestation (see: Agribusiness).","address source":"https://www.temasek.com.sg/en/contact-us ","address check date":"Address checked: August 2021","address notes":""},"geometry":{"type":"Point","coordinates":[-0.13754,51.506292]}},{"type":"Feature","properties":{"sector":"2.2 Investment Funds","subsector":"2.2.1 Top Institutional Investors","name":"Vanguard Group","address":"25 Walbrook, London, EC4N 8AF","description":"The second-biggest global investor, coming close to BlackRock with over $6 trillion managed – or over $7 trillion, according to the Financial Times. Largely an “index” investor that allocates funds to every major company on the world’s exchanges – including, of course, many of the biggest polluters.","address source":"https://www.institutional.vanguard.co.uk/portal/site/institutional/uk/en/contact-us ","address check date":"Address checked: August 2021","address notes":""},"geometry":{"type":"Point","coordinates":[-0.09043,51.511891]}},{"type":"Feature","properties":{"sector":"2.2 Investment Funds","subsector":"2.2.3 Private Equity","name":"Warburg Pincus","address":"Almack House, 28 King Street, London, SW1Y 6QW","description":"US based. One of the top ten global PE funds, according to PEI international rankings.","address source":"https://www.warburgpincus.com/london/","address check date":"Address checked: August 2021","address notes":""},"geometry":{"type":"Point","coordinates":[-0.137238,51.506341]}},{"type":"Feature","properties":{"sector":"2.2 Investment Funds","subsector":"2.2.4 Hedge Funds","name":"Winton Capital","address":"Grove House, 27 Hammersmith Grove, London, W6 0NE","description":"One of the biggest London-based hedge funds, a “quant fund” which uses maths-heavy data analysis and computer algorithms to speculate on commodities across the world. The associated David and Claudia Harding Foundation has given £100 million to Cambridge University.","address source":"https://www.winton.com/contact-us ","address check date":"Address checked: August 2021","address notes":""},"geometry":{"type":"Point","coordinates":[-0.226679,51.494838]}}],"_umap_options":{"displayOnLoad":true,"browsable":true,"name":"2021 investors","id":1825070,"remoteData":{},"color":"DarkOrchid"}}