{"type":"FeatureCollection","features":[{"type":"Feature","properties":{"sector":"1.4 other energy","subsector":"1.4 other energy","name":"Active Energy","address":"27-28 Eastcastle Street, London, W1W 8DH","description":"Pollutant British biomass company, which uses ‘low-value forestry, and agricultural residues and energy crops’. The company has US production sites in North Carolina and Maine.\n\nOwnership: PLC, listed on LSE AIM exchange. Major shareholders (March 2021): Gravendonck Private Foundation (24.5%); Lombard Odier Asset Management (12.3%); Premier Fund Managers (10.2%); Hargreaves Lansdown Stockbrokers (7.2%); AXA Investment Managers UK (4.6%).","address source":"https://www.aegplc.com/contacts/contact-details/","address check date":"Address checked: June 2021","address notes":""},"geometry":{"type":"Point","coordinates":[-0.138475,51.516677]}},{"type":"Feature","properties":{"sector":"1.4 other energy","subsector":"1.4 other energy","name":"Drax","address":"3rd Floor, Alder Castle, 10 Noble Street, London, EC2V 7JX ","description":"Drax in North Yorkshire was the last big coal-fired power station built in the UK, completed in 1986, and privatised in the 1990s. As opinion turned against coal, Drax Group moved to burning wood – mostly shipped in from the forests of North America. According to a Biofuelwatch publication in 2019, Drax Power Station was the biggest burner of wood for electricity in the world and the UK’s single largest carbon emitter. \n\nDrax has a busy corporate spin operation arguing that it can use Carbon, Capture and Storage (CCS) technology to become “carbon negative” by 2030. This includes its “Biofuel Energy CCS” (BECCS) technology, being developed with a company spun off by Leeds University’s School of Chemistry.\n\nOwners: PLC, listed on the London Stock Exchange. Current major shareholders: Invesco Limited (9%); Schroders PLC (10%); Orbis Holdings Limited (5%); BlackRock (6%).","address source":"https://www.ofgem.gov.uk/ofgem-publications/142569 \nhttps://www.telegraph.co.uk/news/2019/07/30/eco-activists-barricade-london-office-fossil-fuel-company-discover/","address check date":"Address checked: June 2021","address notes":"NB: this London address was confirmed as of July 2019 only. Drax’s registered address is at the Drax power station in Yorkshire."},"geometry":{"type":"Point","coordinates":[-0.096367,51.516735]}},{"type":"Feature","properties":{"sector":"1.4 other energy","subsector":"1.4 other energy","name":"E.ON ","address":"E.ON Citigen CHP plant, 47-53 Charterhouse Street, London, EC1M 6PB ","description":"German-based international energy company, which is one of the “Big Six” UK energy suppliers. In 2016, it split off a new company, Uniper (also on this map) to take care of its fossil fuels generation, leaving E.ON to focus mainly on distribution and supply, as well as nuclear and renewable energy. E.ON’s nuclear subsidiary PreussenElektra owns and operates nuclear power plants in Germany. E.ON is also a 50% shareholder in Enerjisa, owner of the Tufanbeyli coal fired power station in Turkey.   \n\nOwnership: PLC. The bulk of shareholders are “institutional investors” such as large investment funds. Fellow German energy giant RWE, which owns a share of around 15% (as of June 2021). ","address source":"http://interengineeringlgbt.com/event/site-tour-e-citigen-combined-heat-power/; https://webcache.googleusercontent.com/search?q=cache:k6IWx-v385wJ:https://jobs.eon.com/uk/job/London-Business-Administrator/582664601/ https://www.eonenergy.com/business/news-and-insights/going-greener/citigen-district-energy.html","address check date":"Address checked: June 2021","address notes":"NB: E.ON’s UK head office is in Coventry – the address above is the site of its “hidden power station” providing “combined heat and power” to the Barbican and offices in the City of London. It is also home for E.ON’s “national district heating control centre”."},"geometry":{"type":"Point","coordinates":[-0.104181,51.519276]}},{"type":"Feature","properties":{"sector":"1.4 other energy","subsector":"1.4 other energy","name":"EDF","address":"EDF Trading (Global headquarters): 3rd Floor, Cardinal Place, 80 Victoria Street, London, SW1E 5JL\n","description":"EDF is a French energy and electricity multinational, which is Europe’s largest nuclear power generator. In the UK, its eight UK nuclear power stations generate around 20% of the country’s electricity. A new plant is in the process of being built near its existing station in Hinkley, Somerset. The company has also submitted an application to have a plant built at its Sizewell site in Suffolk. Its many other schemes include devastating dam projects that have met resistance from Brazil to Laos.\n\n Shareholders: 84% owned by the French government.","address source":"https://www.edftrading.com/contact/our-offices","address check date":"Address checked: June 2021","address notes":""},"geometry":{"type":"Point","coordinates":[-0.139567,51.497087]}},{"type":"Feature","properties":{"sector":"1.4 other energy","subsector":"1.4 other energy","name":"Enel","address":"Enel X, 360-364 City Road, London, EC1V 2PY","description":"Major Italian energy multinational with interests across Europe and Latin America, active in both fossil fuel and “renewable” generation. It is also the majority owner of Endesa, one of the main electricity companies in Spain, which operates almost half of Spain’s nuclear power plants.","address source":"https://evcharging.enelx.com/eu/support-eu/contact","address check date":"Address checked: June 2021","address notes":"NB: This office belongs to its smaller UK business Enel X, which provides “energy solutions” to businesses and “smart city” technology projects. "},"geometry":{"type":"Point","coordinates":[-0.102845,51.530822]}},{"type":"Feature","properties":{"sector":"1.4 other energy","subsector":"1.4 other energy","name":"Estover","address":"Central Working, Eccleston Yards, Eccleston Place, London, SW1W 9NF","description":"Runs biomass power stations in Northumberland and Scotland, which have been met with local resistance.","address source":"http://www.estover.co.uk/","address check date":"Address checked: June 2021","address notes":""},"geometry":{"type":"Point","coordinates":[-0.148391,51.493816]}},{"type":"Feature","properties":{"sector":"1.4 other energy","subsector":"1.4 other energy","name":"MRE","address":"33 Holborn, London, EC1N 2HT ","description":"MRE runs five biomass power stations located at Thetford, Ely, Glanford, Eye and Westfield, which generate electricity from the combustion of poultry litter, straw, meat & bone meal, horse bedding and – like Drax – forestry wood chips.","address source":"https://beta.companieshouse.gov.uk/company/09194088","address check date":"Address checked: June 2021","address notes":"NB: Registered address. This is a current official company address; but it is not confirmed that it is an operational site rather than just a “letterbox”. MRE’s main base is in Suffolk."},"geometry":{"type":"Point","coordinates":[-0.108244,51.517587]}},{"type":"Feature","properties":{"sector":"1.4 other energy","subsector":"1.4 other energy","name":"Statkraft","address":"22 Bishopsgate, London, EC2N 4BQ","description":"Norway-based Statkraft is one of Europe’s largest renewable energy companies, and calls itself Europe’s biggest hydropower electricity producer. It has wind farms and hydropower plants in the UK and globally. But not everyone welcomes Stakraft’s dam building schemes. In Chile, indigenous Mapuche people are resisting the construction of several hydropower plants in their territory, including on sacred sites. \n\nShareholders: the parent company is owned by the Norwegian Ministry of trade.","address source":"https://www.statkraft.com/energy-sources/Power-plants/UK/","address check date":"Address checked: June 2021","address notes":""},"geometry":{"type":"Point","coordinates":[-0.08921,51.516331]}},{"type":"Feature","properties":{"sector":"1.4 other energy","subsector":"1.4 other energy","name":"Vattenfall","address":"5th Floor, 70 St Mary Axe, EC3A 8BE","description":"Swedish state-owned energy company which operates nuclear reactors in Sweden and Germany. Suing the German government over its decision to shut down nuclear plants following the Fukushima disaster, with state defence costs currently exceeding €20m and compensation anticipated to be in the region of €1bn. Also burns gas, coal, and biomass. Although its publicity focuses on wind and water, nuclear and fossil fuels remain its main energy sources. \n\nShareholders: Swedish government 100%","address source":"https://group.vattenfall.com/uk/who-we-are/contact-us","address check date":"Address checked: June 2021","address notes":""},"geometry":{"type":"Point","coordinates":[-0.079429,51.515389]}}],"_umap_options":{"displayOnLoad":true,"browsable":true,"name":"2021 other energy","id":1825067,"remoteData":{},"color":"LimeGreen"}}