{"type":"FeatureCollection","features":[{"type":"Feature","properties":{"sector":"1.5 mining","subsector":"1.5 mining","name":"Anglo American","address":"6th Floor, 33 Holborn, London, EC1N 2HT ","description":"UK and South African multinational that is the world’s largest producer of platinum and a major producer of diamonds, copper, nickel, iron ore, metallurgical and thermal coal. Anglo American has violated indigenous land rights across the globe and polluted the water, agricultural land and air of many communities.\n\nIt is co-owner (with Glencore and BHP) of the Cerrejon mine in Colombia, the largest open-pit mine in South America. Local indigenous and other communities were forcibly evicted to make way for the mine, and pollution and dust  has caused contamination on a massive scale. The mine was also the site of a major, 91-day strike in 2020, when the company tried to lay off 25% of the workforce (1250 people). \n\nIn Brazil, it is facing strong opposition from local communities over its plan to expand a large tailings dam, the collapse of which would have horrific consequences. In the state of Chile, residents of El Melón are amongst those fighting its attacks on their land and water sources. Also owns De Beers diamond company.","address source":"https://www.angloamerican.com/sustainability/contacts ","address check date":"Address checked: August 2021","address notes":""},"geometry":{"type":"Point","coordinates":[-0.106343,51.518568]}},{"type":"Feature","properties":{"sector":"1.5 mining","subsector":"1.5 mining","name":"Antofagasta","address":"19th Floor, 22 Bishopsgate, London, EC2N 4BQ","description":"British copper miner working primarily in Chile. Operates the Los Pelambres copper mine in north central Chile, which stores its tailings waste in the largest tailings dam in Latin America. It is located above the small town of Caimanes where residents are struggling with water shortages as a result of the dam built upstream. \n\nThe company has been charged with numerous violations of its environmental permits and is responsible for many toxic spills in the Coquimbo region, including one where 13,000 litres of copper concentrate were dumped directly into the Choapa River. ","address source":"https://www.antofagasta.co.uk/contact/","address check date":"Address checked: August 2021","address notes":"NB: Registered address. This is a current official company address; but it is not confirmed that it is an operational site rather than just a “letterbox”."},"geometry":{"type":"Point","coordinates":[-0.150026,51.509837]}},{"type":"Feature","properties":{"sector":"1.5 mining","subsector":"1.5 mining","name":"ArcelorMittal","address":"7th Floor, Berkeley Square House, Berkeley Square, London, W1J 6DA  ","description":"The world's largest steel producer, also has iron ore and coal ore mining operations. Facing court cases over polluting activities in Italy, Bosnia and Ukraine, and were recently fined in South Africa for pollution levels that exceeded those permitted by their license. Chairman and CEO is the billionaire Lakshmi Mittal. \n\nOwners: Lakshmi Mittal and his wife Usha own over 35% of the shares. Other shares are publicly traded, with many held by the usual global investment funds. ","address source":"https://corporate.arcelormittal.com/locations","address check date":"Address checked: August 2021","address notes":""},"geometry":{"type":"Point","coordinates":[-0.144475,51.509544]}},{"type":"Feature","properties":{"sector":"1.5 mining","subsector":"1.5 mining","name":"Barrick Gold","address":"1st Floor, 2 Savoy Court, Strand, London, WC2R 0EZ","description":"Canadian company Barrick Gold is the second-largest gold mining firm in the world. It has faced allegations of rape, murder, forced evictions, and other violent abuse. Its polluting history includes a massive million litres of cyanide solution spilled into five rivers in Argentina, and subsequent cyanide spills  because of a failure to put improvements in place. \n\nAcacia Mining, a subsidiary of Barrick Gold, also has a history of violent abuses and was recently fined for pollution at a Tanzanian mine. \n\nOwnership: PLC (New York listing), largely owned by the big global investment funds.","address source":"https://www.barrick.com/English/about/contact-us/default.aspx ","address check date":"Address checked: August 2021","address notes":""},"geometry":{"type":"Point","coordinates":[-0.120976,51.510509]}},{"type":"Feature","properties":{"sector":"1.5 mining","subsector":"1.5 mining","name":"BHP Group","address":"Nova South, 160 Victoria Street, London, SW1E 5LB","description":"BHP is one of the world’s largest mining companies, with 30 operations in 13 countries. It is among the top 20 fossil fuel producers worldwide. It is the joint owner of the Cerrejon coal mine (see Anglo American), and was responsible, along with Vale, for the massive Samarco tailings dam collapse in 2015, which spilt 45 million cubic metres of mining waste into Brazil’s Rio Doce and its tributaries and killed 19 people. \n\nThrough the Resolution Copper project, Rio Tinto (below) and BHP has sought unsuccessfully to develop a copper mine in the Tonto National Forest, Arizona, over the past 26 years. If the project goes ahead, it would destroy 3,000 hectares of public land - including sacred indigenous land - harm endangered species, and threaten massive water loss and contamination. It has been strongly opposed by indigenous groups and was recently put on hold by the Biden government. ","address source":"https://www.bhp.com/contact-us/ ","address check date":"Address checked: August 2021","address notes":""},"geometry":{"type":"Point","coordinates":[-0.143423,51.496868]}},{"type":"Feature","properties":{"sector":"1.5 mining","subsector":"1.5 mining","name":"Fresnillo","address":"Investor Relations office: 2nd Floor, 21 Upper Brook Street, London, W1K 7PY","description":"Largest silver ore miner in the world. The company operates eight silver and gold mines in Mexico, six of which have documented cases of serious violence or environmental impacts associated with them. \n\nFor example, at La Parreña, the company is accused of contaminating a river by dumping toxic waste (copper sulphate) into the Milpillas stream which provides water for 1,900 hectares of agricultural production. ","address source":"http://www.fresnilloplc.com/contacts/corporate-offices/","address check date":"Address checked: August 2021","address notes":""},"geometry":{"type":"Point","coordinates":[-0.155881,51.511375]}},{"type":"Feature","properties":{"sector":"1.5 mining","subsector":"1.5 mining","name":"GCM","address":"3 Bunhill Row, London, EC1Y 8YZ ","description":"London-based company behind the Phulbari open-pit coal mining project and two associated coal power plants in Bangladesh. The Phulbari mine would lead to the displacement of up to 230,000 people as well as massive environmental pollution. It is currently halted as a result of strong and sustained resistance by local people, with active international solidarity in London and elsewhere, in the face of murderous repression.\n\nBut GCM, formerly known as Asia Energy, is still committed to making the project happen and recently released a statement assuring investors of the project’s viability.","address source":"http://www.gcmplc.com/shareholders/contacts ","address check date":"Address checked: August 2021","address notes":""},"geometry":{"type":"Point","coordinates":[-0.090382,51.522121]}},{"type":"Feature","properties":{"sector":"1.5 mining","subsector":"1.5 mining","name":"Glencore","address":"18 Hanover Square, London, W1S 1JY","description":"Mining and commodities trading company, the world’s largest mining company by revenue. It is one of the world’s largest producers of zinc, copper and other metals, and also a major global coal miner. The company was formed from the merger of Glencore and XStrata in 2013: both have a terrible history of environmental fines, fatalities, health problems, dumping toxic assets, contamination of water, air, land. \n\nGlencore is part-owner of Cerrejon, a huge open-pit coal mine in Colombia (see Anglo American & BHP).","address source":"https://www.glencore.com/contact-us ","address check date":"Address checked: August 2021","address notes":"NB: will reportedly move to 18 Hanover Square, London W1S 1HD later in the second half of 2021."},"geometry":{"type":"Point","coordinates":[-0.14448,51.513935]}},{"type":"Feature","properties":{"sector":"1.5 mining","subsector":"1.5 mining","name":"Hochschild Mining","address":"17 Cavendish Square, London, W1G 0PH","description":"Several local communities oppose mining exploration near the Inmaculada gold and silver mine in Ayacucho department in southern Peru, owned and managed by Hochschild Mining. Locals have demanded the withdrawal of the company whose operations threaten to contaminate the waters of the Huancute, Patarí and other rivers. ","address source":"http://www.hochschildmining.com/en/site_services/contact_us ","address check date":"Address checked: August 2021","address notes":""},"geometry":{"type":"Point","coordinates":[-0.146186,51.516665]}},{"type":"Feature","properties":{"sector":"1.5 mining","subsector":"1.5 mining","name":"Rio Tinto","address":"6 St James's Square, London, SW1Y 4AD","description":"Rio Tinto is a huge multinational metals and mining corporation. It is a world leader in the production of aluminium, iron ore, copper, uranium, coal, and diamonds. According to the Carbon Majors Database it was responsible for 0.75% of the world’s carbon emissions between 1988 and 2015. \n\nIts Oyu Tolgoi copper and gold mine under development in Mongolia uses vast quantities of water in a desert region and poses a threat to pastoralist communities. In the USA, hundreds of premature deaths are blamed on air pollution from the Bingham Canyon copper mine: the single largest open pit mining operation and the deepest excavation of its kind in the world. \n\nIt is preparing to start lithium mining in Serbia’s Jadar valley, despite this being strongly contested by locals. With BHP, Rio has been seeking to start a giant copper mine near the town of Superior, Arizona. To top it all, in 2020 Rio Tinto blew up a 46,000-year-old sacred aboriginal site in Australia’s Juukan Gorge to expand its iron ore mine.","address source":"https://www.riotinto.com/en/footer/contact","address check date":"Address checked: August 2021","address notes":""},"geometry":{"type":"Point","coordinates":[-0.135406,51.508216]}},{"type":"Feature","properties":{"sector":"1.5 mining","subsector":"1.5 mining","name":"RWE","address":"60 Threadneedle Street, London, EC2R 8HP","description":"RWE is a major German energy company, notorious as Western Europe’s biggest coal burner. It owns three enormous open cast lignite (coal) mines in the Rhineland, Germany. Its devastation of the Hambach forest near Cologne for one of these continues to meet fierce resistance. It runs several coal-fired power stations in Germany and is currently suing the Dutch government for the closure of its Eemshaven coal plant as part of the country’s coal phase-out plans. \n\nIt is the company responsible for the largest quantity of CO2 emissions in the UK and generates over 12% of the country’s electricity. Although their last coal plant in the UK closed down in 2020, it currently runs ten gas-fired power stations here as well as a biomass plant in Markinch, Scotland. RWE also runs 14 ‘run-of-the-river’ stations – effectively small dams – mostly in Scotland. RWE owns 17% of E.ON. \n\nMajor shareholders: BlackRock","address source":"https://www.group.rwe/en/the-group/countries-and-locations/london","address check date":"Address checked: August 2021","address notes":""},"geometry":{"type":"Point","coordinates":[-0.086669,51.514295]}},{"type":"Feature","properties":{"sector":"1.5 mining","subsector":"1.5 mining","name":"Uniper","address":"42-44 Grosvenor Gardens, London, SW1W 0EB","description":"Back in 2016, when E.ON sought to clean up its image, it created a new company for its fossil fuel operations, while it went on to rebrand itself as a green energy supplier. The fossil fuel company was Uniper. In the UK, Uniper runs seven power stations, primarily gas, although it also manages Ratcliffe-on-Soar coal-fired power station and a few other coal power stations around the world. It has ranked third in a list of carbon dioxide-emitting companies in the UK.  \n\nOwnership: the majority owner is now Finnish energy company Fortum Oyj, which is majority owned by the government of Finland. About a quarter of Uniper’s shares are traded on the German stock market and owned mainly by investment funds. ","address source":"https://www.uniper.energy/company/locations/united-kingdom","address check date":"Address checked: August 2021","address notes":""},"geometry":{"type":"Point","coordinates":[-0.14625,51.496543]}},{"type":"Feature","properties":{"sector":"1.5 mining","subsector":"1.5 mining","name":"Vale","address":"Vale Europe Ltd: Suite 1, 3rd Floor 11-12 St. James’s Square, London, SW1Y 4LB","description":"Brazilian mining giant Vale is the world’s largest producer of iron ore and nickel. It also produces manganese, ferroalloys, copper, bauxite, potash, kaolin, and cobalt, and operates nine hydroelectricity plants. \n\nVale has had two catastrophic tailings dam failures in Brazil: the first was the Samarco dam (with co-owners BHP Billiton), in 2015:  19 people were killed, whole villages were buried and thousands of people left homeless. The second was when the tailings dam at Brumadinho collapsed, killing at least 65 people.\n\nVale also owns approximately 5% of Brazil’s highly-controversial Belo Monte hydroelectric dam, one of the world’s largest, to provide electricity for its mining operations. The dam is a massive geoengineering project on the Xingu River of Pará state, which has led to the drying of the river bed at terrible cost to aquatic creatures and local indigenous people.\n\nOwnership: PLC listed on Sao Paulo, New York and other exchanges, largely owned by the big global investment funds.","address source":"https://beta.companieshouse.gov.uk/company/00137114","address check date":"Address checked: August 2021","address notes":"NB: official registered office address, but not confirmed as an operational base for the company."},"geometry":{"type":"Point","coordinates":[-0.136622,51.507779]}},{"type":"Feature","properties":{"sector":"1.5 mining","subsector":"1.5 mining","name":"Vedanta","address":"30 Berkeley Square, Mayfair, London, W1J 6EX","description":"Global diversified metals and mining company whose main products are copper, zinc, aluminium, lead and iron ore. Vedanta’s plans for an open-pit bauxite mine in the Niyamgiri Hills in Orissa, India, threatens the Dongria Kondh community, who have resisted with a ten year struggle. Court rulings and government decisions not to go ahead with the mine have held off the project; however community members are still being harassed and pretexts found for potential mass eviction in what they believe is an attempt to push the mine through. \n\nIn Zambia, thousands of victims of pollution from a copper mining subsidiary of Vedanta have been seeking justice for over 15 years.\n\nOwners: Majority owner is Chair and CEO Anil Agarwal. Around a third of Vedanta shares were formerly traded on the London Stock Exchange until 2018, when Agarwal bought them back and delisted the company.","address source":"https://www.vedantaresources.com/pages/reachus.aspx ","address check date":"Address checked: August 2021","address notes":""},"geometry":{"type":"Point","coordinates":[-0.146934,51.510439]}}],"_umap_options":{"displayOnLoad":true,"browsable":true,"name":"2021 mining","id":1825073,"remoteData":{},"color":"Orange"}}