{"type":"FeatureCollection","features":[{"type":"Feature","properties":{"sector":"2.1 Banks","subsector":"2.1.1 China’s Big 4","name":"Agricultural Bank of China","address":"7/F, 1 Bartholomew Lane, London, EC2N 2AX","description":"One of the world’s biggest banks and the fourth biggest funder of coal-fired power. \n\nOwners: largely owned by the Chinese government (including 40% through state-owned Central Huijin Investment company). Shares listed on Hong Kong and Shanghai stock exchanges.","address source":"http://www.uk.abchina.com/en/contact_us/ ","address check date":"Address checked: August 2021","address notes":""},"geometry":{"type":"Point","coordinates":[-0.087343,51.514451]}},{"type":"Feature","properties":{"sector":"2.1 Banks","subsector":"2.1.2 Global Investment Banks","name":"Bank of America","address":"Financial Centre, 2 King Edward Street, London, EC1A 1HQ","description":"Another massive US multinational, also a major fund manager. Comes fourth in the overall fossil fuel funders list, and third on fracking and offshore exploration. Provided half a billion dollars in credit to Minerva foods, implicated in severe Amazon desforestation. Has funded Adani, RWE, Wilmar, and many more earth wreckers.","address source":"https://www.bofaml.com/content/boaml/en_us/locations.html/#/EuropeMiddleEastAfrica ","address check date":"Address checked: August 2021","address notes":""},"geometry":{"type":"Point","coordinates":[-0.100208,51.51623]}},{"type":"Feature","properties":{"sector":"2.1 Banks","subsector":"2.1.1 China’s Big 4","name":"Bank of China","address":"2 Lothbury, London, EC2R 7DB","description":"One of the world’s biggest banks. The third biggest funder of coal mining, and the world’s biggest funder of coal power. \n\nOwners: majority owned by Chinese government (including 64% through state-owned Central Huijin Investment company). Shares listed on Hong Kong and Shanghai stock exchanges.","address source":"https://www.bankofchina.com/uk/aboutus/ab3/201110/t20111003_1578162.html ","address check date":"Address checked: August 2021","address notes":""},"geometry":{"type":"Point","coordinates":[-0.090432,51.514804]}},{"type":"Feature","properties":{"sector":"2.1 Banks","subsector":"2.1.1 China’s Big 4","name":"Bank of China (Chinatown branch)","address":"Chinatown branch: 107 Shaftesbury Avenue, London, W1D 5DA","description":"One of the world’s biggest banks. The third biggest funder of coal mining, and the world’s biggest funder of coal power.   Owners: majority owned by Chinese government (including 64% through state-owned Central Huijin Investment company). Shares listed on Hong Kong and Shanghai stock exchanges.","address source":"https://www.bankofchina.com/uk/aboutus/ab3/201110/t20111003_1578162.html ","address check date":"Address checked: August 2021","address notes":""},"geometry":{"type":"Point","coordinates":[-0.130266,51.512846]}},{"type":"Feature","properties":{"sector":"2.1 Banks","subsector":"2.1.2 Global Investment Banks","name":"Bank of Montreal","address":"95 Queen Victoria Street, London, EC4V 4HG","description":"Second-biggest funders of the fiercely resisted Enbridge Line 3 tar sands pipeline, arranging at least $10bn in fossil financing for the company. Also funding Canada's Coastal GasLink fracked gas pipeline, and previously financed the (now scrapped) Keystone XL pipeli","address source":"https://www.canadainternational.gc.ca/united_kingdom-royaume_uni/consular_services_consulaires/banks-banques.aspx?lang=eng","address check date":"Address checked: August 2021","address notes":""},"geometry":{"type":"Point","coordinates":[-0.0965,51.511651]}},{"type":"Feature","properties":{"sector":"2.1 Banks","subsector":"2.1.2 Global Investment Banks","name":"Barclays ","address":"5 The North Colonnade, Canary Wharf London, E14 4BB","description":"Second biggest UK-based bank, and the number one European investor in fossil fuels, injecting $145 billion into the industry over the past five years. One of the biggest ten global investment banks by fee revenue. Barclays was a big investor in fracking, before the government’s U-turn on the practice lost the bank more than £90 million in investments. \n\nHas financed Olam, responsible for deforesting approximately 20,000 hectares of forest inside its Gabonese oil palm plantations since March 2012. Also financing the Cerrejon coal mine to the tune of $3.5bn, and the proposed Enbridge Line 3 tar sands pipeline, to run from Alberta to Minnesota.","address source":"https://www.investmentbank.barclays.com/contact-us/gb.html ","address check date":"Address checked: August 2021","address notes":""},"geometry":{"type":"Point","coordinates":[-0.021444,51.505726]}},{"type":"Feature","properties":{"sector":"2.1 Banks","subsector":"2.1.2 Global Investment Banks","name":"BNP Paribas","address":"10 Harewood Avenue, London, NW1 6AA","description":"The biggest French bank, and currently the world's 7th largest by total assets. Of the top fossil fuel bankers, BNP Paribas had by far the biggest growth in fossil fuel financing over the past five years, from $16.9bn in 2016, to $40.8bn in 2020. Also a major investment fund manager. ","address source":"https://www.bnpparibas.co.uk/en/contact/bnp-paribas-securities-services/","address check date":"Address checked: August 2021","address notes":""},"geometry":{"type":"Point","coordinates":[-0.16385,51.523152]}},{"type":"Feature","properties":{"sector":"2.1 Banks","subsector":"2.1.1 China’s Big 4","name":"China Construction Bank","address":"111 Old Broad Street, London, EC2N 1AP","description":"One of the world’s biggest banks and the second biggest financer of coal mining. Active in deals across Asia, Africa and beyond, including many environmentally-destructive infrastructure projects. \n\nOwners: majority owned by the Chinese government (including through state-owned Central Huijin Investment company). Shares listed on Hong Kong and Shanghai stock exchanges.","address source":"http://www.uk.ccb.com/london/en/index.html ","address check date":"Address checked: August 2021","address notes":""},"geometry":{"type":"Point","coordinates":[-0.084704,51.515293]}},{"type":"Feature","properties":{"sector":"2.1 Banks","subsector":"2.1.2 Global Investment Banks","name":"Citigroup","address":"Citigroup Centre, 33 Canada Square, Canary Wharf, London, E14 5LB","description":"One of the world’s top investment banks, and the second-largest investor in fossil fuels over the last five years. Citi is the third biggest funder of fracking and second-biggest funder of LNG. Besides oil and gas investment, it is the main non-Chinese funder of the global coal industry. \n\nIt is a funder of Enbridge Line 3 pipeline and other pipeline projects. It lends money and underwrites bonds for numerous companies on this list, including the likes of RWE, Saudi Aramco, or Vale. ","address source":"https://www.citigroup.com/citi/about/countries-and-jurisdictions/united-kingdom.html","address check date":"Address checked: August 2021","address notes":""},"geometry":{"type":"Point","coordinates":[-0.018057,51.504021]}},{"type":"Feature","properties":{"sector":"2.1 Banks","subsector":"2.1.2 Global Investment Banks","name":"Credit Suisse","address":"1 Cabot Square, Canary Wharf, London, E14 4QJ","description":"Major Swiss bank, one of the top ten global investment banks by revenue. Major investor in coal mining, and provided $82 billion to the fossil fuel industries in 2016-20. Linked to financing Halcyon Agri, whose operations have been described as the “the most devastating new forest clearance for industrial agriculture in the Congo basin.”","address source":"https://www.credit-suisse.com/us/en/investment-banking/contact-us.html","address check date":"Address checked: August 2021","address notes":""},"geometry":{"type":"Point","coordinates":[-0.023598,51.505869]}},{"type":"Feature","properties":{"sector":"2.1 Banks","subsector":"2.1.2 Global Investment Banks","name":"Deutsche Bank","address":"1 Great Winchester Street, London, EC2N 2DB","description":"Germany’s biggest bank, and one of the biggest ten global investment banks by revenue. Also a major fund manager. The biggest non-Chinese investor in coal mining after Credit Suisse. Invested $74.6 billion dollars in fossil fuels from 2016-20, and is currently funding Enbridge Line 3 tar sands pipeline. Implicated in deforestation in Brazil through its $11 million shareholding in JBS.  \n\nDeutsche Bank has been involved in multiple money-laundering, tax evasion and fraud scandals: its $10 billion Russian mafia money laundry, for which it was fined by US authorities in 2017, is just one of the best known cases to come to light. Was a longstanding financial backer of Donald Trump, and one of the main banks responsible for the CDO bubble that initiated the 2008 financial crash. Going further back, Deutsche was a major profiteer from the Third Reich, including its “aryanisation” and slave labour programmes, and helped fund the construction of Auschwitz. ","address source":"https://www.db.com/unitedkingdom/","address check date":"Address checked: August 2021","address notes":""},"geometry":{"type":"Point","coordinates":[-0.08475,51.51627]}},{"type":"Feature","properties":{"sector":"2.1 Banks","subsector":"2.1.3 Multilaterals","name":"EBRD","address":"One Exchange Square, London, EC2A 2JN","description":"Headquartered in London, the EBRD was set up in 1991 by an alliance of governments and institutions with a specific aim: the rapid large-scale privatisation of Eastern Europe after the fall of the Soviet bloc. This achieved, it became a major infrastructure financier, still mainly focusing on the less-developed east. In the last six years the bank has presented itself as leading transition to the “green economy”, with over 40% of its investments dedicated to this. In one of these “green” schemes, the EBRD has become the main funder pushing an enormous programme of hydropower dam-building across the Balkans, financing over 61 dams in the region. As resistance grows, this is set to become a major battle for the European ecological future. ","address source":"https://www.ebrd.com/corporate-information/london-headquarters.html ","address check date":"Address checked: August 2021","address notes":"NB: will move to new HQ in Canary Wharf in 2022"},"geometry":{"type":"Point","coordinates":[-0.079558,51.51956]}},{"type":"Feature","properties":{"sector":"2.1 Banks","subsector":"2.1.3 Multilaterals","name":"EIB","address":"125 Old Broad Street, London, EC2N 1AR","description":"The lending arm of the EU, its shareholders are the member states. It has been a major funder of energy infrastructure projects such as the Trans Adriatic Pipeline and the Balkan dams network. Now says it will end fossil fuel funding by 2022, to focus on a $1 trillion climate “transition” programme. This is will include conversion of coal plants to new fuels such as biomass. The HQ is in Luxembourg.","address source":"https://www.eib.org/en/infocentre/contact/offices/ue/united-kingdom.htm ","address check date":"Address checked: August 2021","address notes":""},"geometry":{"type":"Point","coordinates":[-0.086195,51.514525]}},{"type":"Feature","properties":{"sector":"2.1 Banks","subsector":"2.1.4 Smaller specialist banks","name":"Erste Group","address":"24th Floor, 110 Bishopsgate, London, EC2N 4AY","description":"Austrian bank active in central and eastern Europe. It has been identified by Bankwatch as one of the two main commercial banks (alongside the multilateral EBRD) financing devastating Balkan rivers dam projects.  ","address source":"https://register.fca.org.uk/s/firm?id=001b000000MfFC8AAN ;  https://www.erstegroup.com/content/dam/at/eh/www_erstegroup_com/en/Corporates/london-branch-privacy-notice.pdf https://www.erstegroup.com/content/dam/at/eh/www_erstegroup_com/en/Corporates/london-branch-privacy-notice.pdf","address check date":"Address checked: August 2021","address notes":"NB: official registered office address, but not confirmed as an operational base for the company."},"geometry":{"type":"Point","coordinates":[-0.081222,51.516198]}},{"type":"Feature","properties":{"sector":"2.1 Banks","subsector":"2.1.4 Smaller specialist banks","name":"Garanti Bank (BBVA)","address":"BBVA UK: 44th floor, 1 Canada Square, Canary Wharf, London, E14 5AA","description":"BBVA is one of Spain’s biggest banks, which also has a major presence in Latin America. It also owns 49.85% of Turkey’s BBVA Garanti Bank. This is one of three main banks which financed the immensely destructive Ilisu dam project, which flooded the ancient city of Hasnkeyf, displacing tens of thousands of mainly Kurdish people, and diverting key water supplies to Iraq and Syria.","address source":"https://www.bbvauk.com/meta/branches-and-atm/ ","address check date":"Address checked: August 2021","address notes":""},"geometry":{"type":"Point","coordinates":[-0.019377,51.504792]}},{"type":"Feature","properties":{"sector":"2.1 Banks","subsector":"2.1.2 Global Investment Banks","name":"Goldman Sachs","address":"Plumtree Court, 25 Shoe Lane, London, EC4A 4AU","description":"Extremely powerful investment bank known for the global politicians who have been on its payroll, its role in the 2008 “sub-prime” crash, and a multitude of further scandals. Fifteenth-biggest funder of fossil fuels, pouring over $100 billion into the industry in the past five years. Significantly linked to Amazon deforestation through its investments in beef producers JBS and Marfrig. ","address source":"https://www.goldmansachs.com/our-firm/locations.html ","address check date":"Address checked: August 2021","address notes":""},"geometry":{"type":"Point","coordinates":[-0.1063,51.516452]}},{"type":"Feature","properties":{"sector":"2.1 Banks","subsector":"2.1.4 Smaller specialist banks","name":"Halkbank","address":"Floor 1, 48 Dover Street, London, W1S 4FF","description":"Halkbank is a Turkish state-owned bank, the third largest bank in Turkey. It is one of the three main banks financing the immensely destructive, now completed, Ilisu dam project. The dam flooded the ancient city of Hasnkeyf, displacing tens of thousands of mainly Kurdish people, and diverting key water supplies to Iraq and Syria. ","address source":"https://www.halkbank.com.tr/en/international-banking/Global-Presence1.html","address check date":"Address checked: August 2021","address notes":""},"geometry":{"type":"Point","coordinates":[-0.141675,51.50775]}},{"type":"Feature","properties":{"sector":"2.1 Banks","subsector":"2.1.2 Global Investment Banks","name":"HSBC","address":"8 Canada Square, Canary Wharf, London, E14 5HQ ","description":"The biggest UK-based bank, and number eight worldwide by total assets. Also one of UK’s biggest investment fund managers. Thirteenth in the list of massive global fossil fuel funders. Fifth-biggest financier of offshore oil and gas exploration. Frack Off names it as one of the fracking “bad guys” for lending £63 million to Dart Energy, of whom it has been a shareholder, and providing banking scould between 2005 and 2014. It is accused by Greenpeace of funding massive deforestation of the Indonesian rainforest for palm oil production. \n\nIn other news, HSBC has been repeatedly caught involved in large scale money-laundering schemes: to name one example, it was fined $1.9 billion (or “about five weeks’ profits”) by US authorities in 2012 for laundering blood money for Mexican drug cartels. This business line can be traced right back to the bank’s historical links with the 19th century British opium trade. ","address source":"https://www.hsbc.com/who-we-are/contact-us?countryid=GB&tab=Offices","address check date":"Address checked: August 2021","address notes":""},"geometry":{"type":"Point","coordinates":[-0.017574,51.505457]}},{"type":"Feature","properties":{"sector":"2.1 Banks","subsector":"2.1.1 China’s Big 4","name":"ICBC","address":"ICBC (London), City Branch: 81 King William Street, London, EC4N 7BG","description":"By one metric, the biggest bank in the world, holding assets of over $4 trillion, mostly thanks to its key role in China’s huge economy. It is the second largest funder of coal-fired power generation. Involved in funding the massive Gilgel Gibe III dam in Ethiopia, “Africa’s most destructive dam”. Rapidly expanding its reach beyond China, ICBC now lends to coal mining projects in Turkey, Vietnam and Kenya, and even to pipeline projects in North America.  Owners: Roughly 70% owned by the Chinese government via Ministry of Finance and Central Huijin Investment company. 25% of shares are traded publicly on the Hong Kong and Shanghai stock exchanges.","address source":"https://www.icbc.com.cn/ICBC/EN/PersonalFinance/CrossborderFinancialServices/OverseasFinancialService/ICBCLondon/","address check date":"Address checked: August 2021","address notes":""},"geometry":{"type":"Point","coordinates":[-0.08661,51.510844]}},{"type":"Feature","properties":{"sector":"2.1 Banks","subsector":"2.1.1 China’s Big 4","name":"ICBC (Chinatown Branch)","address":"Chinatown Branch: 81-85 Shaftesbury Avenue, London, W1D 5DX","description":"By one metric, the biggest bank in the world, holding assets of over $4 trillion, mostly thanks to its key role in China’s huge economy. It is the second largest funder of coal-fired power generation. Involved in funding the massive Gilgel Gibe III dam in Ethiopia, “Africa’s most destructive dam”. Rapidly expanding its reach beyond China, ICBC now lends to coal mining projects in Turkey, Vietnam and Kenya, and even to pipeline projects in North America.\n\nOwners: Roughly 70% owned by the Chinese government via Ministry of Finance and Central Huijin Investment company. 25% of shares are traded publicly on the Hong Kong and Shanghai stock exchanges.","address source":"https://www.icbc.com.cn/ICBC/EN/PersonalFinance/CrossborderFinancialServices/OverseasFinancialService/ICBCLondon/","address check date":"Address checked: August 2021","address notes":""},"geometry":{"type":"Point","coordinates":[-0.131173,51.512543]}},{"type":"Feature","properties":{"sector":"2.1 Banks","subsector":"2.1.2 Global Investment Banks","name":"JPMorgan Chase","address":"25 Bank Street, Canary Wharf, London, E14 5JP","description":"Currently the top US bank, and sixth largest worldwide. It has also also been the world’s biggest funder of fossil fuels five years in a row, lending $317 billion to fossil fuel industries between 2016 and 2020. It is the leading financier of Arctic oil and gas exploration, second-biggest funder of offshore oil and gas as well as fracking worldwide. Besides lending money and arranging deals as an investment bank, JP Morgan is also a major fund manager and shareholder.","address source":"https://www.jpmorgan.com/country/US/EN/jpmorgan/disclosures/uk_entities_jul2012","address check date":"Address checked: August 2021","address notes":""},"geometry":{"type":"Point","coordinates":[-0.020863,51.502849]}},{"type":"Feature","properties":{"sector":"2.1 Banks","subsector":"2.1.4 Smaller specialist banks","name":"Lambert Energy Advisory","address":"4th Floor, 17 Hill Street, London, W1J 5LJ ","description":"Small investment bank which works on oil and gas deals. Described in the financial press as a “publicity shy London boutique” – it doesn’t have a website. The financial media present CEO Richard Lambert as a svengali figure making major behind-the-scenes deals – for example, arranging a £10 billion share deal between BP and Rosneft. He has particular Russian connections, having cut his teeth in the great Russian privatisation sell-offs of the 1990s.","address source":"https://beta.companieshouse.gov.uk/company/03838151 ","address check date":"Address checked: August 2021","address notes":"NB: official registered office address, but not confirmed as an operational base for the company."},"geometry":{"type":"Point","coordinates":[-0.147955,51.508704]}},{"type":"Feature","properties":{"sector":"2.1 Banks","subsector":"2.1.4 Smaller specialist banks","name":"Macquarie Group ","address":"Ropemaker Place, 28 Ropemaker Street, London, EC2Y 9HD","description":"Australian bank, the country’s largest investment bank. Specialises in infrastructure finance and is known for financing metals, bulk commodities (coal, iron ore, industrial minerals and uranium) and upstream oil and gas. Perhaps most notorious in the UK as the owner of Thames Water, which it saddled with an extra £2 billion of debt before selling on. Thames Water was fined £20 million for raw sewage dumps at six different sites in 2012-14 during Macquarie's tenure.","address source":"https://www.macquarie.com/uk/about/office-locations","address check date":"Address checked: August 2021","address notes":""},"geometry":{"type":"Point","coordinates":[-0.089669,51.520004]}},{"type":"Feature","properties":{"sector":"2.1 Banks","subsector":"2.1.2 Global Investment Banks","name":"Mitsubishi UFJ Financial Group","address":"Ropemaker Place, 25 Ropemaker Street, London, EC2Y 9AN","description":"The world’s fifth largest bank, after the Chinese big four, and the biggest in Japan, with $3.5 trillion of assets to its name at the start of 2021. Sixth biggest global investors in fossil fuels over the last 5 years, and sixth largest funders of fracking.","address source":"https://www.bk.mufg.jp/global/globalnetwork/emea/london.html","address check date":"Address checked: August 2021","address notes":""},"geometry":{"type":"Point","coordinates":[-0.089236,51.519926]}},{"type":"Feature","properties":{"sector":"2.1 Banks","subsector":"2.1.2 Global Investment Banks","name":"Mizuho ","address":"Mizuho House, 30 Old Bailey, London, EC4M 7AU","description":"Major Japanese multinational investment bank, which comes number eight in the ratings for banks funding fossil fuels.","address source":"https://www.mizuhogroup.com/emea/our-locations","address check date":"Address checked: August 2021","address notes":""},"geometry":{"type":"Point","coordinates":[-0.102731,51.515118]}},{"type":"Feature","properties":{"sector":"2.1 Banks","subsector":"2.1.2 Global Investment Banks","name":"Morgan Stanley","address":"25 Cabot Square, Canary Wharf London, E14 4QA","description":"One of biggest ten global investment banks by revenue, and number 12 in the list of top fossil fuel funders. It is the top investor in LNG and one of the biggest investors in ultra deepwater oil and gas companies. Also a top global fund manager with $1.4 trillion assets under management. ","address source":"https://www.morganstanley.com/about-us/global-offices/europe-middle-east-africa/united-kingdom","address check date":"Address checked: August 2021","address notes":""},"geometry":{"type":"Point","coordinates":[-0.024033,51.504803]}},{"type":"Feature","properties":{"sector":"2.1 Banks","subsector":"2.1.4 Smaller specialist banks","name":"Natrium Capital","address":"10 Bloomsbury Way, London, WC1A 2SL ","description":"Boutique investment advisor, specialised in arranging M&A deals for chemicals and biotech companies.","address source":"https://www.natriumcapital.com/contact/location/ ","address check date":"Address checked: August 2021","address notes":""},"geometry":{"type":"Point","coordinates":[-0.123912,51.517451]}},{"type":"Feature","properties":{"sector":"2.1 Banks","subsector":"2.1.2 Global Investment Banks","name":"Natwest Group (RBS)","address":"250 Bishopsgate, Spitalfields, London, EC2M 4AA","description":"Third-biggest UK bank – the group includes subsidiaries Nat West, Royal Bank of Scotland (RBS), Ulster Bank, and banker-to-the-queen, Coutts. Back in 2007, as RBS, it openly marketed itself as the “oil and gas bank”, and was a major funder of climate change. Despite more recent statements about ‘net zero carbon’, Natwest funelled $13.4 billion into fossil fuels from 2016-20. \n\nOwnership: bailed out by the UK government after the 2008 crash which became the main owner. The government has been selling its shares in batches, but is still currently the main owner with 60%. ","address source":"https://www.investors.rbs.com/multimedia-library/image-library/our-buildings.aspx","address check date":"Address checked: August 2021","address notes":"NB: group HQ is in Edinburgh."},"geometry":{"type":"Point","coordinates":[-0.078535,51.519265]}},{"type":"Feature","properties":{"sector":"2.1 Banks","subsector":"2.1.4 Smaller specialist banks","name":"RFC Ambrian","address":"Octagon Point, 5 Cheapside, London, EC2V 6AA","description":"Boutique energy bank which describes itself as the “global leading independent adviser and investor in the natural resources market, with a particular emphasis on metals and mining, oil & gas sectors and emerging technologies.”  ","address source":"https://www.rfcambrian.com/index.php/contact/","address check date":"Address checked: August 2021","address notes":""},"geometry":{"type":"Point","coordinates":[-0.097377,51.514656]}},{"type":"Feature","properties":{"sector":"2.1 Banks","subsector":"2.1.2 Global Investment Banks","name":"Royal Bank of Canada ","address":"RBC Europe Limited: 100 Bishopsgate, London, EC2N 4AA","description":"Canada’s biggest bank, and one of biggest ten global investment banks by revenue. RBC is the second biggest funder of Canadian tar sands exploitation. Also funds contested pipelines in Canada and the US, as well as illegal settlement activity in the Palestinian occupied territories.","address source":"https://www.rbccm.com/en/offices/europe.page","address check date":"Address checked: August 2021","address notes":""},"geometry":{"type":"Point","coordinates":[-0.081618,51.51591]}},{"type":"Feature","properties":{"sector":"2.1 Banks","subsector":"2.1.2 Global Investment Banks","name":"Scotiabank","address":"6th Floor, 201 Bishopsgate, London, EC2M 3NS","description":"Multinational which has been described as Canada’s most ‘international bank’ due to its overseas acquisitions. Though not one of the world’s very top banks, it punches well above its weight in terms of earth-wrecking: coming number eleven in the list of fossil fuel industry funders. In particular, it injected $8.6 billion to the tar sands industry from 2016-20. Third biggest funder of Enbridge Line 3 tar sands pipeline. \n\nOwners: PLC.","address source":"https://www.scotiabank.com/global/en/country/united-kingdom.html ","address check date":"Address checked: August 2021","address notes":""},"geometry":{"type":"Point","coordinates":[-0.079266,51.521038]}},{"type":"Feature","properties":{"sector":"2.1 Banks","subsector":"2.1.2 Global Investment Banks","name":"Société Générale","address":"1 Bank Street, Canary Wharf, E14 4SG","description":"French multinational investment bank. Provided over $6 billion to the world’s LNG industry from 2016-20. ","address source":"https://www.societegenerale.co.uk/en/one-bank-street/","address check date":"Address checked: August 2021","address notes":""},"geometry":{"type":"Point","coordinates":[-0.024818,51.503991]}},{"type":"Feature","properties":{"sector":"2.1 Banks","subsector":"2.1.2 Global Investment Banks","name":"Standard Chartered","address":"1 Basinghall Avenue, London, EC2V 5DD","description":"London-based international investment bank: though based in the UK, it only works on deals outside the country. Invested $31.4 billion in fossil fuels from 2016-18.","address source":"https://www.sc.com/en/our-locations/#globalhq","address check date":"Address checked: August 2021","address notes":""},"geometry":{"type":"Point","coordinates":[-0.090671,51.516846]}},{"type":"Feature","properties":{"sector":"2.1 Banks","subsector":"2.1.2 Global Investment Banks","name":"Toronto Dominion","address":"60 Threadneedle Street London, EC2R 8AP","description":"Canadian multinational investment bank. It is number nine on the list of fossil fuel funders, and is the number one funder of tar sands, with $24.2 billion worth of investments from 2016-2020. The bank is the top funder of Enbridge’s Line 3 tar sands pipeline, providing Enbridge with at least $13 billion in fossil fuel funding.","address source":"https://www.tdsecurities.com/ca/en/our-offices","address check date":"Address checked: August 2021","address notes":""},"geometry":{"type":"Point","coordinates":[-0.086743,51.514325]}},{"type":"Feature","properties":{"sector":"2.1 Banks","subsector":"2.1.2 Global Investment Banks","name":"UBS","address":"5 Broadgate, London, EC2M 2QS","description":"The biggest Swiss bank, one of biggest ten global investment banks by revenue. Also one of the world’s top investment fund managers – with $3.5 trillion of assets managed as of August 2020. Provided the fossil fuel companies with some $36 billion in 2016-20.","address source":"https://www.ubs.com/uk/en/wealth-management/about-us.html","address check date":"Address checked: August 2021","address notes":""},"geometry":{"type":"Point","coordinates":[-0.082801,51.519304]}},{"type":"Feature","properties":{"sector":"2.1 Banks","subsector":"2.1.4 Smaller specialist banks","name":"Unicredit","address":"Moor House, 120 London, Wall, London, EC2Y 5ET","description":"Unicredit is an Italian corporate and investment bank active across Europe. It has been identified by Bankwatch as one of the two main commercial banks (alongside the multilateral EBRD) financing devastating Balkan rivers dam projects.","address source":"https://www.unicreditgroup.eu/en/worldwide/our-worldwide-presence/europe/united-kingdom/unicredit-bank-ag---branch.html ","address check date":"Address checked: August 2021","address notes":""},"geometry":{"type":"Point","coordinates":[-0.089567,51.517866]}},{"type":"Feature","properties":{"sector":"2.1 Banks","subsector":"2.1.3 Multilaterals","name":"World Bank","address":"Millbank Tower, 12th Floor, 21-24 Millbank, London, SW1P 4QP","description":"Based in Washington, this is the UK country office. Despite official statements, the WB continues to fund fossil fuel infrastructure.","address source":"https://www.worldbank.org/en/country/unitedkingdom ","address check date":"Address checked: August 2021","address notes":""},"geometry":{"type":"Point","coordinates":[-0.125817,51.492119]}}],"_umap_options":{"displayOnLoad":true,"browsable":true,"name":"2021 banks","id":1825065,"remoteData":{}}}