{"type":"FeatureCollection","features":[{"type":"Feature","properties":{"sector":"3.4 Think Tanks","subsector":"3.4 Think Tanks","name":"Adam Smith Institute","address":"23 Great Smith Street, London, SW1P 3DJ","description":"Another major (self-proclaimed) neoliberal think tank co-founded by Anthony Fisher. Its policy proposals have been taken up by governments since Thatcher. It has also railed against renewables and greenbelts. Reveals very little about its funding.","address source":"http://www.adamsmith.org/","address check date":"Address checked: August 2021","address notes":""},"geometry":{"type":"Point","coordinates":[-0.129806,51.498091]}},{"type":"Feature","properties":{"sector":"3.3 Trade Associations","subsector":"3.3 Trade Associations","name":"Anaerobic Digestion and Bioresources Association","address":"Third Floor, Riverside Building, County Hall, Westminster Bridge Road, London, SE1 7PB","description":"The ADBA was established in 2009 to lobby for the removal of barriers to the anaerobic digestion and biogas industry in the UK, and soon widened its remit to include all emergent biofuels. It has over 400 members from across the industry. ","address source":"http://adbioresources.org/contact ","address check date":"Address checked: August 2021","address notes":""},"geometry":{"type":"Point","coordinates":[-0.119455,51.501415]}},{"type":"Feature","properties":{"sector":"3.6 Greenwash specialist services","subsector":"3.6 Greenwash specialist services","name":"B Team","address":"20 Farringdon Street, London, EC4A 4EN","description":"Corporate spin initiative co-founded by Richard Branson, seeking to give capitalism a friendly face. It brings together “leaders” from the likes of Allianz, Dow Chemicals, Engie, Tata and the World Wildlife Fund to push the message that business can lead the way to “a just transition to net-zero emissions by 2050”.","address source":"https://bteam.org/contact","address check date":"Address checked: August 2021","address notes":""},"geometry":{"type":"Point","coordinates":[-0.082738,51.502294]}},{"type":"Feature","properties":{"sector":"3.2 Media","subsector":"3.2.2. Broadcast media","name":"BBC","address":"Broadcasting House: Portland Place, London W1A 1AA","description":"The official broadcaster of the UK mainstream. BBC bosses have said they will no longer give climate change deniers the prominence they once did, but the corporation continues to uncritically report the activities and impact of the companies on this map through much of its news coverage. ","address source":"http://www.bbc.co.uk/news/mobile/uk-england-london-12281672","address check date":"Address checked: August 2021","address notes":""},"geometry":{"type":"Point","coordinates":[-0.143513,51.518383]}},{"type":"Feature","properties":{"sector":"3.3 Trade Associations","subsector":"3.3 Trade Associations","name":"British Meat Processors Association","address":"17 Clerkenwell Green, London, EC1R 0DP","description":"Representatives of the UK meat industry. ","address source":"https://britishmeatindustry.org/about/contact-us/ ","address check date":"Address checked: August 2021","address notes":""},"geometry":{"type":"Point","coordinates":[-0.105178,51.522703]}},{"type":"Feature","properties":{"sector":"3.3 Trade Associations","subsector":"3.3 Trade Associations","name":"Carbon Capture and Storage Association (CCSA)","address":"6th Floor, 10 Dean Farrar Street, London, SW1H 0DX","description":"Promotes the use of techno-fix Carbon Capture and Storage (CCS) technologies. Its members include BP, Shell, Total, Wood and other companies on our map.","address source":"https://www.ccsassociation.org/about-us/who-we-are/","address check date":"Address checked: August 2021","address notes":""},"geometry":{"type":"Point","coordinates":[-0.131809,51.499096]}},{"type":"Feature","properties":{"sector":"3.3 Trade Associations","subsector":"3.3 Trade Associations","name":"CBI","address":"Cannon Place, 78 Cannon Street, London, EC4N 6HN ","description":"The biggest lobbyists for business in Britain, calling itself “the voice for business”. The CBI has 190,000 company members and employs “100+ economic and policy specialists, the largest policy unit outside Whitehall”. It also organises hundreds of networking events across the country each year.","address source":"http://www.cbi.org.uk/help/contact-us/ ","address check date":"Address checked: August 2021","address notes":""},"geometry":{"type":"Point","coordinates":[-0.090057,51.511256]}},{"type":"Feature","properties":{"sector":"3.4 Think Tanks","subsector":"3.4 Think Tanks","name":"Centre for Policy Studies","address":"57 Tufton Street, London, SW1P 3QL","description":"Pro-free market, Tory-supporting think tank co-founded by Margaret Thatcher. Climate change sceptics and vocal advocates of fracking.","address source":"http://www.cps.org.uk/about/contact-us/ ","address check date":"Address checked: August 2021","address notes":""},"geometry":{"type":"Point","coordinates":[-0.128147,51.49622]}},{"type":"Feature","properties":{"sector":"3.4 Think Tanks","subsector":"3.4 Think Tanks","name":"Chatham House","address":"10 St James's Square, London, SW1Y 4LE","description":"Venerable British institution dating back to 1920. Calls itself “independent”, meaning the middle ground of the establishment elite – two of its three presidents are former Conservative PM John Major, and former Labour treasurer Alastair Darling. Famous for off-the-record briefings held under unattributable “Chatham House Rules”. Hosts more than 300 events a year. Promotes green capitalism and business-led “transition”, and organises events starring earth-wrecking company bosses and greenwashing academics. Some of its biggest funding comes from oil majors: Chevron and Shell each gave over £250,000 last year; and ExxonMobil, BP, Glencore over £100,000 apiece.  ","address source":"https://www.chathamhouse.org/about/contact","address check date":"Address checked: August 2021","address notes":""},"geometry":{"type":"Point","coordinates":[-0.136102,51.507654]}},{"type":"Feature","properties":{"sector":"3.3 Trade Associations","subsector":"3.3 Trade Associations","name":"Chemicals Industry Association","address":"Kings Building, Smith Square, London, SW1P 3JJ","description":"The CIA represents UK chemicals and pharmaceutical companies at a national and international level, including manufacturers and importers/exporters.","address source":"https://www.cia.org.uk/ ","address check date":"Address checked: August 2021","address notes":""},"geometry":{"type":"Point","coordinates":[-0.126235,51.495826]}},{"type":"Feature","properties":{"sector":"3.4 Think Tanks","subsector":"3.4 Think Tanks","name":"Civitas","address":"55 Tufton Street, London, SW1P 3QL","description":"Centre-right, pro-business think tank that has promoted nuclear, coal and fracking. Civitas also produce educational materials and runs supplementary schools for young children. Director David Green built his career at the IEA before moving to Civitas. Civitas has received funding from Murdoch's News International group.","address source":"http://www.civitas.org.uk/contact-us/ ","address check date":"Address checked: August 2021","address notes":"NB: one of a number of right-wing thinktanks which share the same building owned by defence industry businessman Richard Smith. See report on 55 Tufton Street by DesmogUK.  "},"geometry":{"type":"Point","coordinates":[-0.128134,51.496306]}},{"type":"Feature","properties":{"sector":"3.3 Trade Associations","subsector":"3.3 Trade Associations","name":"Climate Markets and Investment Association","address":"100 New Bridge Street, London, EC4V 6JA","description":"The CMIA’s mission is to shift private and public investment towards markets that meet the long-term, gradualist objectives of the Paris Agreement, inadequate to tackling climate change. It has Active Private Sector Observer (APSO) status over some of the largest and most influential global climate funds, usually funded by governments to finance “climate mitigation and adaptation activities” in emerging markets. ","address source":"https://www.cmia.net/contact/ ","address check date":"Address checked: August 2021","address notes":""},"geometry":{"type":"Point","coordinates":[-0.10377,51.513407]}},{"type":"Feature","properties":{"sector":"3.2 Media","subsector":"3.2.3 Press","name":"Daily Express","address":"1 Canada Square, Canary Wharf, London E14 5AP ","description":"Right-wing, migrant-bashing and climate change-denying rag. Reach PLC (formerly Trinity Mirror), bought the Express from longtime owner Richard Desmond in 2018, without changing the paper's winning formula. Reach is a publisher of national papers including the Mirror and the Daily Star, and over 110 regional papers. ","address source":"https://www.express.co.uk/about-us/amp#contact-us","address check date":"Address checked: August 2021","address notes":""},"geometry":{"type":"Point","coordinates":[-0.01949,51.504962]}},{"type":"Feature","properties":{"sector":"3.2 Media","subsector":"3.2.3 Press","name":"Daily Mail & General Trust","address":"Northcliffe House, 2 Derry Street, London W8 5TT","description":"HQ of the Daily Mail, the Metro and the 'i', and their online outlets. The Metro, a free tabloid, is now regarded as the UK's most widely-read paper. The parent company DMGT is listed on the London Stock Exchange, but a majority stake is retained by hereditary owner and chairman Lord Rothermere. The Mail in particularl gives space to the rants and fantasies of climate change deniers. ","address source":"https://www.dmgt.com/about-us/locations-and-contacts","address check date":"Address checked: August 2021","address notes":""},"geometry":{"type":"Point","coordinates":[-0.191141,51.501382]}},{"type":"Feature","properties":{"sector":"3.5 PR","subsector":"3.5 PR","name":"Edelman","address":"Southside, 105 Victoria St, London, SW1E 6QT","description":"UK branch of the most profitable PR company in the world. Big promoters of fracking, Edelman has also worked with TransCanada on the (now cancelled) Keystone XL pipeline and organisations resisting action on climate change. It was at the centre of controversy in 2014-15 arising from this business line, and lost executives and significant clients as a result.\n\nIn 2015, Edelman said it was abandoning all work for coal companies, climate change denial lobbyists and front groups. But it still does plenty for oil companies. Has recently been supporting Connecterra, a tech start up which would use electronic tags for dairy cows to increase productivity. Other clients include the European Gas Forum, Shell and Unilever. \n\nSee also: Corporate Watch’s 2012 profile.","address source":"https://www.edelman.co.uk/contact ","address check date":"Address checked: August 2021","address notes":""},"geometry":{"type":"Point","coordinates":[-0.136942,51.497057]}},{"type":"Feature","properties":{"sector":"3.3 Trade Associations","subsector":"3.3 Trade Associations","name":"Energy Institute","address":"61 New Cavendish Street, London, W1G 7AR","description":"Formed by the merger of the Institute of Petroleum and Institute of Energy in 2003, the Energy Institute is a membership association for around 20,000 engineers and other professionals representing 200 companies working in the fossil fuel and renewable energy industries. ","address source":"https://www.energyinst.org/ ","address check date":"Address checked: August 2021","address notes":""},"geometry":{"type":"Point","coordinates":[-0.146268,51.5196]}},{"type":"Feature","properties":{"sector":"3.3 Trade Associations","subsector":"3.3 Trade Associations","name":"Energy Network Association","address":"4 More London, Riverside, London, SE1 2AU","description":"Formed in 2003, the Energy Networks Association represents the UK and Ireland’s transmission and distribution network operators in gas and electricity. Its members include the National Grid.","address source":"http://www.energynetworks.org/info/find-us/contact-us.html ","address check date":"Address checked: August 2021","address notes":""},"geometry":{"type":"Point","coordinates":[-0.080397,51.504314]}},{"type":"Feature","properties":{"sector":"3.3 Trade Associations","subsector":"3.3 Trade Associations","name":"Energy UK","address":"1st Floor, 26 Finsbury Square, London, EC2A 1DS","description":"A trade association for over 100 suppliers, generators and “stakeholders” across the UK energy industry. Members include Drax, EDF, RWE, Shell and many other companies on our map.","address source":"https://www.energy-uk.org.uk/contact-us.html ","address check date":"Address checked: August 2021","address notes":""},"geometry":{"type":"Point","coordinates":[-0.085153,51.521519]}},{"type":"Feature","properties":{"sector":"3.6 Greenwash specialist services","subsector":"3.6 Greenwash specialist services","name":"Environmental Defense Fund","address":"Third Floor, 41 Eastcheap, London, EC3M 1DT","description":"US charity with big business and government connections. Works on “partnership” schemes in which corporates help “solve” environmental problems and so present themselves as sustainability heroes: e.g., sending a project team to work with McDonalds and reduce its plastic waste. Has promoted the gas industry as a “transition fuel” away from coal.","address source":"https://www.edf.org/offices/europe ","address check date":"Address checked: August 2021","address notes":""},"geometry":{"type":"Point","coordinates":[-0.083322,51.510722]}},{"type":"Feature","properties":{"sector":"3.4 Think Tanks","subsector":"3.4 Think Tanks","name":"European Foundation","address":"55 Tufton Street, London, SW1P 3QL","description":"Eurosceptics and climate change deniers, strongly oppose action against climate change and consider it a ‘bandwagon’. Now appears to be a one man show of Bill Cash, Tory MP for Stone.","address source":"https://europeanfoundation.org/about ","address check date":"Address checked: August 2021","address notes":"NB: one of a number of right-wing thinktanks which share the same building owned by defence industry businessman Richard Smith. See report on 55 Tufton Street by DesmogUK.  "},"geometry":{"type":"Point","coordinates":[-0.128134,51.496306]}},{"type":"Feature","properties":{"sector":"3.2 Media","subsector":"3.2.3 Press","name":"Evening Standard","address":"ESI Media: 2 Derry Street, London W8 5TT","description":"London free newspaper edited by former chancellor George Osborne. It is majority-owned by Russian oligarch’s son and socialite Evgeny Lebedev, whose family made their fortune from investments and natural gas, among other things. A minority share is owned by DMGT (also on this map), and it has offices in the Daily Mail building.","address source":"https://www.standard.co.uk/service/contact-evening-standard-7185764.html ","address check date":"Address checked: August 2021","address notes":""},"geometry":{"type":"Point","coordinates":[-0.191059,51.50131]}},{"type":"Feature","properties":{"sector":"3.2 Media","subsector":"3.2.1 Social Media platforms","name":"Facebook","address":"1 Rathbone Square, Fitzrovia, London, W1T 1FB","description":"Data-harvesting giants. ","address source":"https://www.facebook.com/facebooklondon/ ","address check date":"Address checked: August 2021","address notes":""},"geometry":{"type":"Point","coordinates":[-0.134113,51.516805]}},{"type":"Feature","properties":{"sector":"3.3 Trade Associations","subsector":"3.3 Trade Associations","name":"Global Carbon Capture and Storage Institute","address":"Evergreen House North, Grafton Place, London, NW1 2DX","description":"The Global CCS Institute describes itself as the world’s leading international think tank whose aim is to promote techno-fix Carbon Capture and Storage (CCUS). Members including BP, BHP, Exxon Mobil, Shell and other massive emitters.  ","address source":"https://www.globalccsinstitute.com/contact/ ","address check date":"Address checked: August 2021","address notes":""},"geometry":{"type":"Point","coordinates":[-0.130313,51.52823]}},{"type":"Feature","properties":{"sector":"3.4 Think Tanks","subsector":"3.4 Think Tanks","name":"Global Warming Policy Foundation","address":"55 Tufton Street, London, SW1P 3QL","description":"Climate change denial lobby group founded by former Conservative chancellor Nigel Lawson. The GWPF actively fights against efforts to mitigate climate change, as well as advocating for the fracking industry, pushing back against recycling, and claiming that ‘polar bears are thriving’. One of the GWPF’s leading advisers was exposed in an undercover sting for offering to write an academic paper casting doubt on climate change on behalf of an oil company, and promoting CO2 as a ‘benefit, not a pollutant’. GWPF is chaired by Terence Mordaunt, Tory donor, and owner of Bristol docks.","address source":"http://www.thegwpf.org/contact-2/ ","address check date":"Address checked: August 2021","address notes":"NB: one of a number of right-wing thinktanks which share the same building owned by defence industry businessman Richard Smith. See report on 55 Tufton Street by DesmogUK.  "},"geometry":{"type":"Point","coordinates":[-0.128134,51.496306]}},{"type":"Feature","properties":{"sector":"3.2 Media","subsector":"3.2.1 Social Media platforms","name":"Google","address":"1-13 St Giles High St, London, WC2H 8AG","description":"They know everything about you and soon they will own the world. ","address source":"https://about.google/intl/en-GB/locations/?region=europe","address check date":"Address checked: August 2021","address notes":"NB: due to relocate to new King’s Cross “lowscraper” campus in next few years."},"geometry":{"type":"Point","coordinates":[-0.127249,51.516152]}},{"type":"Feature","properties":{"sector":"3.5 PR","subsector":"3.5 PR","name":"Hanover Communications","address":"Riverside House, 2A Southwark Bridge Road, London, SE1 9HA","description":"Specialises in public relations for major pharmaceuticals. Other clients include Tata Steel, RWE, Shell, Microsoft and Goldman Sachs. Have worked for fracking companies Cuadrilla resources and Tamboran. Numerous directors kicked off their careers in the Tory party.","address source":"https://www.hanovercomms.com/about-us/hanover-london/ ","address check date":"Address checked: August 2021","address notes":""},"geometry":{"type":"Point","coordinates":[-0.094838,51.507847]}},{"type":"Feature","properties":{"sector":"3.1 Universities","subsector":"3.1 Universities","name":"Imperial College","address":"Exhibition Road, London, SW7 2AZ","description":"Imperial College is London’s prestigious university institution specialising in science and engineering. Imperial is making some serious contributions to greenwashing including dedicated research units promoting “Clean fossil and bioenergy” and Carbon Capture and Storage (CCS) technologies. The latter works closely with the oil industry and the Global CCS Institute think tank, which is linked to directly from Imperial’s website.","address source":"https://www.imperial.ac.uk/visit/campuses/south-kensington/ ","address check date":"Address checked: August 2021","address notes":""},"geometry":{"type":"Point","coordinates":[-0.17486,51.4988]}},{"type":"Feature","properties":{"sector":"3.3 Trade Associations","subsector":"3.3 Trade Associations","name":"Institute of Directors","address":"116 Pall Mall, London, SW1Y 5ED ","description":"A 325,000+ membership organisation for company bosses established in 1903. The IoD provides training and advice to its members, and organises networking opportunities. It has published reports sponsored by Cuadrilla. ","address source":"http://www.iod.com/about/contact-us ","address check date":"Address checked: August 2021","address notes":""},"geometry":{"type":"Point","coordinates":[-0.131665,51.5072]}},{"type":"Feature","properties":{"sector":"3.4 Think Tanks","subsector":"3.4 Think Tanks","name":"Institute of Economic Affairs","address":"2 Lord North Street (entrance on Great Peter Street), London, SW1P 3LB","description":"A highly influential, hardcore free market think tank that has spent decades attempting to undermine consensus on climate change. One of a number of think tanks set up by Anthony Fisher, old Etonian battery chicken farm millionaire and right-wing think tank impresario par excellence. Receives funding from corporations including BP.","address source":"https://iea.org.uk/contact-us","address check date":"Address checked: August 2021","address notes":""},"geometry":{"type":"Point","coordinates":[-0.127034,51.496834]}},{"type":"Feature","properties":{"sector":"3.3 Trade Associations","subsector":"3.3 Trade Associations","name":"International Council of Mining and Metals","address":"35/38 Portman Square, London, W1H 6LR","description":"The ICMM supports extractivist capitalism and pays lip service to environmental concerns. It has a membership of 28 international mining and minerals giants, including BHP, Glencore, Lonmin, RioTinto and others high up on our map.","address source":"https://www.icmm.com/en-gb/footer/contact-us ","address check date":"Address checked: August 2021","address notes":""},"geometry":{"type":"Point","coordinates":[-0.156092,51.514789]}},{"type":"Feature","properties":{"sector":"3.2 Media","subsector":"3.2.2. Broadcast media","name":"ITV","address":"2 Waterhouse Square, 138 - 142 Holborn, London EC1N 2AE","description":"Free-to-view TV network. One of the very few major UK media companies that is owned by a publicly-traded company, ITV PLC.","address source":"https://www.itvstudios.com/contact ","address check date":"Address checked: August 2021","address notes":""},"geometry":{"type":"Point","coordinates":[-0.109874,51.518855]}},{"type":"Feature","properties":{"sector":"3.1 Universities","subsector":"3.1 Universities","name":"Kings College","address":"Strand, London WC2R 2LS","description":"King’s College’s Thomas Young Centre – an alliance with UCL, Imperial and Queen Mary’s Colleges – is an engineering research centre working on computer simulations in collaboration with companies including BP and Rio Tinto. The £6 million Rio Tinto partnership studies rock fragmentation techniques to develop “the mine of the future”.","address source":"https://www.kcl.ac.uk/ ","address check date":"Address checked: August 2021","address notes":""},"geometry":{"type":"Point","coordinates":[-0.116145,51.511504]}},{"type":"Feature","properties":{"sector":"3.5 PR","subsector":"3.5 PR","name":"Lexington Communications","address":"The Connection, 198 High Holborn, London, WC1V 7BD","description":"PR, lobbying, and ‘political intelligence’ firm. Has provided PR for the fracking industry, companies producing GM crops, and pro-biotech front groups. ","address source":"http://lexcomm.co.uk/about ","address check date":"Address checked: August 2021","address notes":""},"geometry":{"type":"Point","coordinates":[-0.122487,51.517142]}},{"type":"Feature","properties":{"sector":"3.3 Trade Associations","subsector":"3.3 Trade Associations","name":"London Energy Brokers’ Association","address":"Warnford Court, 29 Throgmorton Street, London, EC2N 2AT","description":"LEBA represents broking firms active in the energy industry, and provides support to the industry generally in the areas of regulation and legislation.","address source":"https://www.leba.org.uk/contact/ ","address check date":"Address checked: August 2021","address notes":""},"geometry":{"type":"Point","coordinates":[-0.086786,51.514995]}},{"type":"Feature","properties":{"sector":"3.1 Universities","subsector":"3.1 Universities","name":"LSE","address":"Houghton Street, London WC2A 2AE","description":"LSE’s main green capitalism initiative is the Grantham Research Institute on Climate Change and the Environment, which works on areas such as carbon pricing, transition economics and “green growth”. Sponsors include dam-builder Statkraft. (This is the twin of the science-focused Grantham Institute at Imperial College; both are funded by investment fund manager Jeremy Grantham). LSE’s other corporate “global partners” are major banks, investment funds, and the Big 4 accountancy firms.  ","address source":"https://www.lse.ac.uk/lse-information/Campus-Map ","address check date":"Address checked: August 2021","address notes":""},"geometry":{"type":"Point","coordinates":[-0.1167,51.514]}},{"type":"Feature","properties":{"sector":"3.1 Universities","subsector":"3.1 Universities","name":"LSE (GRI) ","address":"Floor 11, Pethick-Lawrence House (Formerly Tower 3), Clement’s Inn, London WC2A 2AZ","description":"LSE’s main green capitalism initiative is the Grantham Research Institute on Climate Change and the Environment, which works on areas such as carbon pricing, transition economics and “green growth”. Sponsors include dam-builder Statkraft. (This is the twin of the science-focused Grantham Institute at Imperial College; both are funded by investment fund manager Jeremy Grantham). LSE’s other corporate “global partners” are major banks, investment funds, and the Big 4 accountancy firms.  ","address source":"https://www.lse.ac.uk/lse-information/Campus-Map","address check date":"Address checked: August 2021","address notes":""},"geometry":{"type":"Point","coordinates":[-0.115252,51.513787]}},{"type":"Feature","properties":{"sector":"3.3 Trade Associations","subsector":"3.3 Trade Associations","name":"National Farmers Union","address":"18 Smith Square, London, SW1P 3HZ","description":"Lobbyists for big agriculture in the UK, and long-time enemies of wildlife. Recently campaigned successfully for a reversal on the UK ban on neonicotinoids, insecticides known to be serious environmental toxins and associated in particular with the dramatic decline in bee populations. Opponents of reforestation or reductions in beef production, and promoters of biofuels and carbon capture storage. \n\nAlso vociferous lobbyists for the badger cull, which has resulted in the killing of over 140,000 badgers since 2013 under the pretext of protecting cattle from Bovine TB.","address source":"https://www.nfuonline.com/about-us/our-offices/external-affairs-westminster/ ","address check date":"Address checked: August 2021","address notes":""},"geometry":{"type":"Point","coordinates":[-0.126407,51.495853]}},{"type":"Feature","properties":{"sector":"3.6 Greenwash specialist services","subsector":"3.6 Greenwash specialist services","name":"Natural Capital Partners","address":"25 Moorgate, London, EC2R 6AY","description":"Carbon offsetting fixer. Helps polluting companies get “CarbonNeutral® certification” and hooks them up with emission offset schemes – e.g, planting trees, or “renewable energy certificates (RECs)” – so they can meet their sustainability targets.  ","address source":"https://www.naturalcapitalpartners.com/contact-us ","address check date":"Address checked: August 2021","address notes":""},"geometry":{"type":"Point","coordinates":[-0.089635,51.515891]}},{"type":"Feature","properties":{"sector":"3.5 PR","subsector":"3.5 PR","name":"New Century Media","address":"85 Buckingham Gate, London, SW1E 6PD","description":"Advisors to heads of state and CEOs, this PR firm has prided itself on helping manage “domestic and international issues, including employee fatalities, major litigations, activism and protests, corporate turnarounds, bankruptcies, natural disasters, and high-profile investigations\". \n\nAs well as crisis management, they’re also electioneering consultants. New Century Media donated a third of its profits to the Conservative party ahead of the 2010 UK general election and has been described in the media as ‘pro-Russia lobbyists’. Corporate clients include BP & British Airways.","address source":"http://www.newcenturymedia.co.uk/contact-us/ ","address check date":"Address checked: August 2021","address notes":""},"geometry":{"type":"Point","coordinates":[-0.138228,51.499303]}},{"type":"Feature","properties":{"sector":"3.5 PR","subsector":"3.5 PR","name":"Newgate Communications","address":"Sky Light City Tower, 50 Basinghall Street, London, EC2V 5DE","description":"PR firm for energy companies, described by Spinwatch as a “longstanding fracking industry lobbyist”. ","address source":"https://www.newgatecomms.com/contact-us ","address check date":"Address checked: August 2021","address notes":""},"geometry":{"type":"Point","coordinates":[-0.091198,51.517004]}},{"type":"Feature","properties":{"sector":"3.2 Media","subsector":"3.2.3 Press","name":"News UK","address":"1 London Bridge Street, London SE1 9GF","description":"The “baby shard” building next to London Bridge station houses the UK division of Rupert Murdoch’s global News Corp media empire, including the offices of The Sun and The Times. Murdoch’s Fox Corporation TV network are notorious climate change deniers.","address source":"http://www.news.co.uk/contact-us/","address check date":"Address checked: August 2021","address notes":""},"geometry":{"type":"Point","coordinates":[-0.087255,51.505122]}},{"type":"Feature","properties":{"sector":"3.3 Trade Associations","subsector":"3.3 Trade Associations","name":"Nuclear Industry Association","address":"5th Floor, Tower House, 10 Southampton Street, London, WC2E 7HA","description":"The NIA is the trade association for the UK's civil nuclear industry, representing over 250 companies across the supply chain. The chief executive, Tom Greatrex, argues for the expansion of the UK nuclear industry through a new and cheaper investment mechanism. ","address source":"https://www.niauk.org/contact/ ","address check date":"Address checked: August 2021","address notes":""},"geometry":{"type":"Point","coordinates":[-0.12198,51.511172]}},{"type":"Feature","properties":{"sector":"3.6 Greenwash specialist services","subsector":"3.6 Greenwash specialist services","name":"Oil and Gas Climate Initiative","address":"Suite 1, 3rd Floor 11-12 St. James’s Square, London, SW1Y 4LB","description":"Greenwash initiative set up by the world’s biggest oil and gas companies – both the nationals, such as Saudi Aramco, and the private sector supermajors. It includes both a lobbying policy wing and a $1+ billion fund to invest in “innovative startups to lower the carbon footprints of the energy and industrial sectors”. One of its main objectives is to “jumpstart” the Carbon Capture and Storage (CCS) industry. ","address source":"https://beta.companieshouse.gov.uk/company/OC415130 ","address check date":"Address checked: August 2021","address notes":"NB: official registered office address, but not confirmed as an operational base for the company."},"geometry":{"type":"Point","coordinates":[-0.136256,51.507587]}},{"type":"Feature","properties":{"sector":"3.3 Trade Associations","subsector":"3.3 Trade Associations","name":"Oil and Gas UK","address":"1st floor, Paternoster House, 65 St Paul's Churchyard, London, EC4M 8AB","description":"While the UKPIA represents the UK downstream oil sector, OGUK represents the offshore (or upstream) oil and gas industry. Its membership comprises around 400 organisations, from fossil fuel giants like Shell and BP to auditors such as Deloitte, and other companies supporting the fossil fuel economy.","address source":"https://oilandgasuk.co.uk/about-us/contactus/ ","address check date":"Address checked: August 2021","address notes":""},"geometry":{"type":"Point","coordinates":[-0.097747,51.514504]}},{"type":"Feature","properties":{"sector":"3.5 PR","subsector":"3.5 PR","name":"Omnicom Group Inc","address":"Bankside 3, 90-100 Southwark Street, London, SE1 0SW","description":"Holding company and enormous global PR conglomerate. Owns a list of PR fims including Ketchum, Portland and Fleishman Hillard.","address source":"https://www.omnicomgroup.com/contact-us/ ","address check date":"Address checked: August 2021","address notes":""},"geometry":{"type":"Point","coordinates":[-0.099079,51.505921]}},{"type":"Feature","properties":{"sector":"3.4 Think Tanks","subsector":"3.4 Think Tanks","name":"Policy Exchange","address":"8-10 Great George Street, London, SW1P 3AE","description":"Influential conservative think tank whose ideas have been implemented by successive governments. Advocate market ‘solutions’ and technofixes to climate change, including nuclear.","address source":"https://policyexchange.org.uk/contact-us","address check date":"Address checked: August 2021","address notes":""},"geometry":{"type":"Point","coordinates":[-0.128474,51.501073]}},{"type":"Feature","properties":{"sector":"3.5 PR","subsector":"3.5 PR","name":"Portland Communications","address":"Bankside 2, 90-100 Southwark St, London, SE1 0SW","description":"Established by former Blair adviser Tim Allan, Portland also employs former top Labour spin doctor and warmonger Alistair Campbell. Portland provided PR to the Heathrow third runway campaign. Other clients include the governments of Qatar, Russia, Rwanda, and Kazakhstan. Portland is one of the many PR companies owned by Omicom.  ","address source":"https://portland-communications.com/offices/london/ ","address check date":"Address checked: August 2021","address notes":""},"geometry":{"type":"Point","coordinates":[-0.098895,51.505788]}},{"type":"Feature","properties":{"sector":"3.5 PR","subsector":"3.5 PR","name":"Public Relations and Communication Association","address":"82 Great Suffolk Street, London, SE1 0BE","description":"The PRCA is the world’s largest PR professional body, representing well over 35,000 propagandists. ","address source":"https://www.prca.org.uk/contact-us ","address check date":"Address checked: August 2021","address notes":""},"geometry":{"type":"Point","coordinates":[-0.100987,51.501925]}},{"type":"Feature","properties":{"sector":"3.3 Trade Associations","subsector":"3.3 Trade Associations","name":"Renewable Energy Association","address":"Brettenham House, 2-19 Lancaster Place, London WC2E 7EN","description":"Represents companies across the renewable energy industry including the biogas, biomass and hydropower industries – and massive carbon emitters such as Drax and RWE. Its members' directory has useful information on the different companies active in the sector.","address source":"https://www.r-e-a.net/about-us/contact-us/ ","address check date":"Address checked: August 2021","address notes":""},"geometry":{"type":"Point","coordinates":[-0.119221,51.510713]}},{"type":"Feature","properties":{"sector":"3.1 Universities","subsector":"3.1 Universities","name":"SOAS","address":"Thornhaugh Street, Russell Square London WC1H 0XG","description":"Houses the Brunei Art Gallery, endowed by the Sultan of Brunei, one of the planet’s biggest oil profiteers.","address source":"https://www.soas.ac.uk/about/contacts/ ","address check date":"Address checked: August 2021","address notes":""},"geometry":{"type":"Point","coordinates":[-0.128688,51.521876]}},{"type":"Feature","properties":{"sector":"3.3 Trade Associations","subsector":"3.3 Trade Associations","name":"Society of International Gas Tankers and Terminal Operators","address":"42 New Broad Street, London, EC2M 1JD","description":"Has over 180 members representing the liquefied natural gas (LNG) industry. Along with shipping and logistics companies, its members include fossil fuel giants BP, Exxon Mobil, Shell and Total.","address source":"https://www.sigtto.org/contact/ ","address check date":"Address checked: August 2021","address notes":""},"geometry":{"type":"Point","coordinates":[-0.084343,51.517073]}},{"type":"Feature","properties":{"sector":"3.4 Think Tanks","subsector":"3.4 Think Tanks","name":"Spiked","address":"c/o WeWork 8 Devonshire Square London EC2M 4PL","description":"Climate change deniers & Greta Thunberg trolls. Once “Living Marxism”, before moving with the zeitgeist to dump Trotskyism and become plain pro-establishment provocateurs. Have received significant sums of cash from alt-right-backing billionaires the Koch brothers. ","address source":"https://www.spiked-online.com/","address check date":"Address checked: August 2021","address notes":""},"geometry":{"type":"Point","coordinates":[-0.07797,51.516905]}},{"type":"Feature","properties":{"sector":"3.5 PR","subsector":"3.5 PR","name":"St Brides Partners","address":"18th Floor, 100 Bishopsgate, London, EC2N 4AG","description":"PR Agency that has promoted fracking and oil companies. Has faced protests from anti-fracking campaigners in wedding dresses.","address source":"http://www.stbridespartners.co.uk/home/ ","address check date":"Address checked: August 2021","address notes":"NB: Registered address. This is a current official company address; but it is not confirmed that it is an operational site rather than just a “letterbox”."},"geometry":{"type":"Point","coordinates":[-0.081342,51.515806]}},{"type":"Feature","properties":{"sector":"3.5 PR","subsector":"3.5 PR","name":"Teneo","address":"6 More London Place, London SE1 2DA","description":"Global PR and “strategic” consultancy firm with an advisory board of US and UK politicians and other high-flyers: e.g., William Hague, Amber Rudd, Senator George Mitchell. Clients have included Dow Chemicals, BHP, and various oil companies. It has several offices in the Middle East, and in 2019 was hired to run the PR campaign for Saudi Arabia’s planned megacity of Neom.","address source":"https://www.teneo.com/office-region/europe/ ","address check date":"Address checked: August 2021","address notes":""},"geometry":{"type":"Point","coordinates":[-0.083164,51.505024]}},{"type":"Feature","properties":{"sector":"3.6 Greenwash specialist services","subsector":"3.6 Greenwash specialist services","name":"The Climate Group","address":"Adam House, 7-10 Adam Street, London WC2N 6AA","description":"An “international non-profit” that promotes greenwashing initiatives it calls “business actions”. Its RE100 list is the ultimate greenwash badge, with leading companies who “commit to using 100% renewable fuels” – by 2050. The corporates in this scheme turn out to include many names on our list. For example, banks and investment managers like AEG, Allianz, Barclays, Goldman Sachs, and Wells Fargo (to name just a few), and ludicrously, world-class polluters like Tata and Heathrow Airport, and the biggest fossil-fuel financer of all, JPMorgan Chase. Also runs the EV100, a list of companies who have committed to making all their vehicles electric (or provide EV charging stations to staff).","address source":"https://www.theclimategroup.org/contact-us","address check date":"Address checked: August 2021","address notes":""},"geometry":{"type":"Point","coordinates":[-0.121921,51.509666]}},{"type":"Feature","properties":{"sector":"3.3 Trade Associations","subsector":"3.3 Trade Associations","name":"The Geological Society","address":"Burlington House, Piccadilly, London, W1J 0BG","description":"Huge membership organisation of geologists, and promoters of fossil fuels. Specialist divisions, such as the Mineral Deposits Studies Group, Engineering Group and Petroleum Group (now rebranded as the Energy Group), help unsustainable development go ahead with the rubber stamp of a respected body of scientists.","address source":"https://www.geolsoc.org.uk/about","address check date":"Address checked: August 2021","address notes":""},"geometry":{"type":"Point","coordinates":[-0.139756,51.509322]}},{"type":"Feature","properties":{"sector":"3.2 Media","subsector":"3.2.3 Press","name":"The Spectator","address":"22 Old Queen St, Westminster, London SW1H 9HP","description":"Conservative mag once edited by Boris Johnson. Another publication owned by Frederick Barclay, who also own the Telegraph. Has been accused of providing “a ready platform for proponents of climate change denial”.  ","address source":"http://www.spectator.co.uk/about/ ","address check date":"Address checked: August 2021","address notes":""},"geometry":{"type":"Point","coordinates":[-0.130707,51.500943]}},{"type":"Feature","properties":{"sector":"3.2 Media","subsector":"3.2.3 Press","name":"The Telegraph","address":"111 Buckingham Palace Road, London SW1W 0DT ","description":"The Torygraph. Owned by Frederick Barclay. Has been regularly criticised for featuring climate deniers in its pages. ","address source":"https://corporate.telegraph.co.uk/contact-us ","address check date":"Address checked: August 2021","address notes":""},"geometry":{"type":"Point","coordinates":[-0.145677,51.495232]}},{"type":"Feature","properties":{"sector":"3.3 Trade Associations","subsector":"3.3 Trade Associations","name":"TheCityUK","address":"Fitzwilliam House, 10 St Mary Axe, London, EC3A 8BF","description":"Campaigning body for London (and other UK) banks and investment funds – “Britain’s most powerful financial lobby group”. Its chair is also chairman of HSBC. Seeks to influence policy at national and international levels. Also holds many networking events. ","address source":"http://www.thecityuk.com/contact/ ","address check date":"Address checked: August 2021","address notes":""},"geometry":{"type":"Point","coordinates":[-0.081083,51.514064]}},{"type":"Feature","properties":{"sector":"3.1 Universities","subsector":"3.1 Universities","name":"UCL","address":"Gower Street, London WC1E 6BT","description":"The UCL Institute for Sustainable Resources, funded by major earth killers including BHP Billiton, Rio Tinto, Tata Steel, HSBC and KPMG is a major source of greenwashing. BHP Billiton’s contribution of at least $5 million caused particular controversy. ","address source":"https://www.ucl.ac.uk/maps ","address check date":"Address checked: August 2021","address notes":""},"geometry":{"type":"Point","coordinates":[-0.1341,51.5246]}},{"type":"Feature","properties":{"sector":"3.1 Universities","subsector":"3.1 Universities","name":"UCL (ISR)","address":"ISR, Bartlett Faculty of the Built Environment: 22 Gordon St, Bloomsbury, London WC1H 0QB","description":"The UCL Institute for Sustainable Resources, funded by major earth killers including BHP Billiton, Rio Tinto, Tata Steel, HSBC and KPMG is a major source of greenwashing. BHP Billiton’s contribution of at least $5 million caused particular controversy. ","address source":"https://www.ucl.ac.uk/maps","address check date":"Address checked: August 2021","address notes":""},"geometry":{"type":"Point","coordinates":[-0.132871,51.525744]}},{"type":"Feature","properties":{"sector":"3.3 Trade Associations","subsector":"3.3 Trade Associations","name":"UK Petroleum Industry Association","address":"37-39 High Holborn, London, WC1V 6AA","description":"The UKPIA represents and advises the UK downstream oil sector: the eight oil refining and marketing companies that operate the six major oil refineries in the UK. These include fossil fuel giants BP, Exxon Mobil, Shell and Total. ","address source":"https://www.ukpia.com/site-tools/contact-us/ ","address check date":"Address checked: August 2021","address notes":""},"geometry":{"type":"Point","coordinates":[-0.113858,51.518407]}},{"type":"Feature","properties":{"sector":"3.5 PR","subsector":"3.5 PR","name":"Vigo Communications","address":"Sackville House, 40 Piccadilly, London, W1J 0DR","description":"Public relations for oil and gas exploration and production, oil field services, mining and fracking, as well as other sectors.","address source":"http://vigocomms.com/contact-us/ ","address check date":"Address checked: August 2021","address notes":""},"geometry":{"type":"Point","coordinates":[-0.137651,51.509076]}},{"type":"Feature","properties":{"sector":"3.5 PR","subsector":"3.5 PR","name":"Weber Shandwick","address":"135 Bishopsgate, London, EC2M 3TP","description":"Professional greenwashers who have worked to rebrand McDonalds and provided PR to fracking companies Rathlin Energy and Tamboran Resources. Had close ties to the last Labour government, and sought work from the dictatorship of Bahrain. ","address source":"https://webershandwick.co.uk/contact/ ","address check date":"Address checked: August 2021","address notes":""},"geometry":{"type":"Point","coordinates":[-0.080203,51.518752]}},{"type":"Feature","properties":{"sector":"3.3 Trade Associations","subsector":"3.3 Trade Associations","name":"World Coal Association","address":"5th Floor Heddon House, 149-151 Regent Street, London, W1B 4JD","description":"Lobbying and membership association for the global coal industry. Purports to address environmental concerns by advocating for “high efficiency, low emission” (HELE) coal and carbon capture and storage (CCS) technologies. Its members include Glencore and other mining giants. ","address source":"https://www.ctc-n.org/network/network-members/world-coal-association ","address check date":"Address checked: August 2021","address notes":""},"geometry":{"type":"Point","coordinates":[-0.139507,51.511462]}},{"type":"Feature","properties":{"sector":"3.3 Trade Associations","subsector":"3.3 Trade Associations","name":"World Nuclear Association","address":"Tower House, 10 Southampton Street, London, WC2E 7HA","description":"Based in the same building as the UK’s Nuclear Industry Association, the WNA is an international organisation with over 170 members, promoting nuclear power and the companies that provide it.","address source":"https://www.world-nuclear.org/our-association/who-we-are/contact-us.aspx","address check date":"Address checked: August 2021","address notes":""},"geometry":{"type":"Point","coordinates":[-0.121937,51.511092]}},{"type":"Feature","properties":{"sector":"3.5 PR","subsector":"3.5 PR","name":"WPP PLC","address":"Sea Containers House, 18 Upper Ground, London, SE1 9GL","description":"WPP has been described as the world’s biggest advertising & PR company. Clients include Shell, Unilever, Burger King and Coca-Cola. ","address source":"https://www.wpp.com/contacts ","address check date":"Address checked: August 2021","address notes":""},"geometry":{"type":"Point","coordinates":[-0.106691,51.508378]}}],"_umap_options":{"displayOnLoad":true,"browsable":true,"name":"2021 ideology","id":1825137,"remoteData":{},"color":"Violet"}}