{"type":"FeatureCollection","features":[{"type":"Feature","properties":{"sector":"1.2 smaller oil and fracking","subsector":"1.2.1 Smaller Oil and Gas","name":"Afentra","address":"High Holborn House, 52-54 High Holborn, WC1V 6RL","description":"Company made of former Tullow execs currently exploiting oil in Somaliland. Rebranded from its former incarnation, Sterling Energy, taking on its current name AfEnTra (African Energy Transition) in 2021. World class greenwashers, still totally committed to oil exploitation in Africa despite the name. In one video, CEO Paul McDade shamelessly describes how the ‘African energy transition’ actually means smaller companies exploiting the opportunities left behind by oil majors pulling out.\n\nShareholders: listed on the London Stock Exchange AIM market. Oil investor Richard Griffiths is one of the main investors.","address source":"https://afentraplc.com/contact/","address check date":"Address checked: August 2021","address notes":""},"geometry":{"type":"Point","coordinates":[-0.115111,51.518415]}},{"type":"Feature","properties":{"sector":"1.3 oil services & shipping","subsector":"1.3.2 LNG","name":"Angola LNG","address":"5 Hanover Square, London, W1S 1HE","description":"The Angola LNG project is one of the largest ever single investments in the Angolan oil and gas industry. It is a partnership between Sonangol, Chevron, BP, Eni and Total to develop Liquefied Natural Gas.","address source":"https://www.angolalng.com/en/contact-us/ ","address check date":"Address checked: August 2021","address notes":""},"geometry":{"type":"Point","coordinates":[-0.142819,51.513921]}},{"type":"Feature","properties":{"sector":"1.2 smaller oil and fracking","subsector":"1.2.2. Frackers","name":"Angus Energy","address":"Building 3, Chiswick Park, 566 Chiswick High Street, London, W4 5YA ","description":"Angus Energy is a onshore oil and gas company which owns and operates two conventional production fields in Brockham and Lidsey, Southern England. It has a 25% stake in the Balcombe oil field, along with Cuadrilla, and is the operator there. \n\nOwners: PLC. Major shareholders as of August 2021: G.P (Jersey) Limited (10.4%) Knowe Properties Limited (6.5%); Spreadex Ltd, (4.2%) and JDA Consulting Limited (3.2%)","address source":"http://www.angusenergy.co.uk/contact/","address check date":"Address checked: August 2021","address notes":""},"geometry":{"type":"Point","coordinates":[-0.275971,51.494659]}},{"type":"Feature","properties":{"sector":"1.1 Oil majors","subsector":"1.1.2 Oil Multinationals","name":"BP","address":"Global HQ: 1 St James's Square, London, SW1Y 4PD \nSupply and Trading (IST) office: 20 Canada Square, Canary Wharf,\n London, E14 5NJ","description":"Oil and gas multinational headquartered in London. Has a bloody history of colonial exploitation, environmental devastation and violence, from its foundations in the Anglo-Iranian Oil Company to the world’s largest oil spill, Deepwater Horizon in 2010. BP contributed 1.53% of global carbon emissions in 1988-2015, according to Carbon Majors Database. \n\nIn recent years the company has cynically tried to rebrand itself as a “green” energy company developing renewable sources – while in reality, 96% of its expenditure in 2019 was on fossil fuels. It plans to spend £41 billion on new oil exploration in the next decade, including projects in the Canadian “tar sands”, the Arctic National Wildlife Reserve, and the Amazon rainforest.","address source":"https://www.bp.com/en_gb/united-kingdom/home/where-we-operate/london.html","address check date":"Address checked: August 2021","address notes":""},"geometry":{"type":"Point","coordinates":[-0.134197,51.507825]}},{"type":"Feature","properties":{"sector":"1.2 smaller oil and fracking","subsector":"1.2.1 Smaller Oil and Gas","name":"Cairn Energy","address":"4th Floor, Wellington House, 125 Strand, London, WC2R 0AP","description":"UK oil and gas company that hit major reserves of black gold in Rajasthan in the mid-nineties. Was embroiled in one of India’s longest-running corporate tax disputes, which it won, resulting in a court requiring $1.2 billion in state payments to Cairn. Now operates in the UK and around the world. \n\nListed on the London Stock Exchange.","address source":"https://www.cairnenergy.com/contacts/","address check date":"Address checked: August 2021","address notes":"NB: The company’s head office is in Edinburgh"},"geometry":{"type":"Point","coordinates":[-0.119344,51.511056]}},{"type":"Feature","properties":{"sector":"1.3 oil services & shipping","subsector":"1.3.2 LNG","name":"Cheniere LNG","address":"3rd Floor, The Zig Zag Building, 70 Victoria Street, London, SW1E 6SQ","description":"International energy company which is the leading producer of Liquefied Natural Gas in the US. ","address source":"https://www.cheniere.com/contact-us/ ","address check date":"Address checked: August 2021","address notes":""},"geometry":{"type":"Point","coordinates":[-0.13865,51.497295]}},{"type":"Feature","properties":{"sector":"1.1 Oil majors","subsector":"1.1.2 Oil Multinationals","name":"Chevron","address":"1 Westferry Circus, Canary Wharf, London, E14 4HA","description":"The US’s largest oil company, (by market value, after overtaking Exxon in 2020). Responsible for 1.3% of global carbon emissions in 1988-2015, according to Carbon Majors Database. Also responsible for a long list of oil spills, human rights atrocities, and much more. \n\nOwners: PLC listed on the New York Stock Exchange (NYSE). The majority of shares are owned by the big investment funds –  BlackRock, Vanguard, and so on. ","address source":"https://group.canarywharf.com/office-occupier/chevron-uk/ ","address check date":"Address checked: August 2021","address notes":""},"geometry":{"type":"Point","coordinates":[-0.026634,51.506545]}},{"type":"Feature","properties":{"sector":"1.1 Oil majors","subsector":"1.1.1 National Oil Companies","name":"CNPC (PetroChina)","address":"Petrochina International (London) Co. Ltd.: The Adelphi, 1-11 John Adam Street, London, United Kingdom, WC2N 6HT ","description":"CNPC is the Chinese state oil company, responsible for 1.56% of global carbon emissions in 1988-2015, according to Carbon Majors Database. Its 2010 Dalian oil spill caused an oil slick stretching over at least 183 square kilometres off North East China. \n\nOwners: the government of China. CNPC also has a publicly listed subsidiary, called Petro China, whose shareholders are a mixture of Chinese banks and funds, along with various other big global investment funds.","address source":"https://find-and-update.company-information.service.gov.uk/company/04410974 also: https://www.petroineos.com/wp-content/uploads/2019/05/30371_PCIL_Corporate_Brochure_A4_v4a.pdf","address check date":"Address checked: August 2021","address notes":""},"geometry":{"type":"Point","coordinates":[-0.122248,51.509117]}},{"type":"Feature","properties":{"sector":"1.1 Oil majors","subsector":"1.1.2 Oil Multinationals","name":"Conoco Philips","address":"20th floor, 1 Angel Court, London, EC2R 7HJ ","description":"American multinational energy corporation, created through the merger of Conoco and Phillips Petroleum Company in 2002. While maintaining a lower profile than some others, it has grown into one of the big three US oil companies, and has been responsible for 0.91% of global carbon emissions in 1988-2015, according to the Carbon Majors Database.\n\n\nAlong with environmental degradation the company has a poor safety record in Texas, with more than two dozen workers killed in accidents and many others injured. \n\nOwners: US PLC, owned by major investment funds.","address source":"https://www.conocophillips.co.uk/ ","address check date":"Address checked: August 2021","address notes":""},"geometry":{"type":"Point","coordinates":[-0.087375,51.515259]}},{"type":"Feature","properties":{"sector":"1.2 smaller oil and fracking","subsector":"1.2.2. Frackers","name":"Deltic Energy (formerly Cluff Natural Resources)","address":"1st Floor, 150 Waterloo Road, London, SE1 8SB","description":"Has shares in a number of oil exploration licenses in the North Sea. Was one of the UK’s most visible companies pushing for Underground Coal Gasification (UCG) companies, although currently says it is focusing back on North Sea oil. Formerly known as Cluff Natural Resources , the company was founded by multi-millionaire Algy Cluff, who made his fortune in gold-mining in Africa and North Sea Oil. \n\nOwners: PLC, listed on the LSE AIM exchange. Major shareholders as of May 2021: Tory donor Michael Spencer’s IPGL (16.8%); Richard Sneller (10.2%); Hargreaves Lansdown (9.9%); Canaccord Genuity (7.7%).","address source":"https://www.cluffnaturalresources.com/contact-us/","address check date":"Address checked: August 2021","address notes":"NB: Registered address. This is a current official company address; but it is not confirmed that it is an operational site rather than just a “letterbox”."},"geometry":{"type":"Point","coordinates":[-0.11052,51.502521]}},{"type":"Feature","properties":{"sector":"1.2 smaller oil and fracking","subsector":"1.2.1 Smaller Oil and Gas","name":"Energean","address":"3rd floor, Accurist House, 44 Baker Street, London, W1U 7AL","description":"Greek-Israeli-UK oil and gas company racing to turn the Mediterranean into an oil field. This company has grown fast in just a few years, thanks to capital injections from private equity investors and a warm relationship with the Israeli government. One of its projects is the first Israel-Cyprus gas pipeline. See our Corporate Watch profile. \n\nOwners: major shareholders include “vulture fund” Third Point with almost 10%; and Israel’s Bank Hapoalim, alongside the company’s founding partners. It also recently sold shares on the London, Stock Exchange, attracting the usual global investment funds such as BlackRock and Vanguard.","address source":"https://www.energean.com/contact-us/","address check date":"Address checked: August 2021","address notes":""},"geometry":{"type":"Point","coordinates":[-0.155555,51.518564]}},{"type":"Feature","properties":{"sector":"1.1 Oil majors","subsector":"1.1.2 Oil Multinationals","name":"Eni","address":"Eni House: 10 Ebury Bridge Road, London, SW1W 8PZ","description":"Italian multinational oil and gas “supermajor”, active worldwide. Along with Shell, it is one of the main multinationals involved in the Niger Delta – “one of the world’s most polluted regions”. Shell and Eni were recently cleared of corruption charges in Italy over an alleged $1.3 billion bribery deal with a former Nigerian oil minister. Campaigners have dismissed the ruling as “a stain on Italy”. \n\nOwners: 30% owned by the government of Italy. The remaining shares are publicly traded and owned by major global investors. ","address source":"https://www.eni.com/en-IT/eni-worldwide/eurasia/united-kingdom.html ","address check date":"Address checked: August 2021","address notes":""},"geometry":{"type":"Point","coordinates":[-0.150111,51.490627]}},{"type":"Feature","properties":{"sector":"1.1 Oil majors","subsector":"1.1.2 Oil Multinationals","name":"Eni (trading & shipping)","address":"Eni Trading & Shipping: 123 Buckingham Palace Road, London, SW1W 9SL","description":"Italian multinational oil and gas “supermajor”, active worldwide. Along with Shell, it is one of the main multinationals involved in the Niger Delta – “one of the world’s most polluted regions”. Shell and Eni were recently cleared of corruption charges in Italy over an alleged $1.3 billion bribery deal with a former Nigerian oil minister. Campaigners have dismissed the ruling as “a stain on Italy”.  \n\nOwners: 30% owned by the government of Italy. The remaining shares are publicly traded and owned by major global investors. ","address source":"https://www.eni.com/enipedia/en_IT/international-presence/europe/enis-activities-in-the-united-kingdom.page","address check date":"Address checked: August 2021","address notes":""},"geometry":{"type":"Point","coordinates":[-0.147162,51.492721]}},{"type":"Feature","properties":{"sector":"1.1 Oil majors","subsector":"1.1.2 Oil Multinationals","name":"Eni: Karachaganak Project Development Ltd., Upstream And Technical Services:","address":"1 St. Paul's Churchyard, London, EC4 8SH","description":"Italian multinational oil and gas “supermajor”, active worldwide. Along with Shell, it is one of the main multinationals involved in the Niger Delta – “one of the world’s most polluted regions”. Shell and Eni were recently cleared of corruption charges in Italy over an alleged $1.3 billion bribery deal with a former Nigerian oil minister. Campaigners have dismissed the ruling as “a stain on Italy”.   \n\nOwners: 30% owned by the government of Italy. The remaining shares are publicly traded and owned by major global investors. ","address source":"https://www.eni.com/enipedia/en_IT/international-presence/europe/enis-activities-in-the-united-kingdom.page","address check date":"Address checked: August 2021","address notes":""},"geometry":{"type":"Point","coordinates":[-0.100652,51.513523]}},{"type":"Feature","properties":{"sector":"1.3 oil services & shipping","subsector":"1.3.3 Shipping and pipelines","name":"Euronav","address":"1st Floor, 99 Kings Road, London, SW3 4PA","description":"An Antwerp-based company, listed on the New York stock exchange, which operates the one of the world’s biggest oil tanker fleets (along with China’s COSCO, which has a UK base in Felixstowe, Suffolk). ","address source":"https://www.euronav.com/en/contact/ ","address check date":"Address checked: August 2021","address notes":""},"geometry":{"type":"Point","coordinates":[-0.165096,51.488758]}},{"type":"Feature","properties":{"sector":"1.2 smaller oil and fracking","subsector":"1.2.2. Frackers","name":"Europa Oil & Gas","address":"6 Porter Street, London, W1U 6DD","description":"Exploration and production company focused on very high impact exploration in the Atlantic off the coast of Ireland, supported by revenue from oil production in onshore UK. They hold two Underground Coal Gasification licenses around the Humber Estuary.\n\nOwners: PLC, listed on the LSE AIM exchange. Many of its main shareholders’ identities are hidden behind nominee accounts.","address source":"http://www.europaoil.com/contacts.aspx ","address check date":"Address checked: August 2021","address notes":""},"geometry":{"type":"Point","coordinates":[-0.156918,51.521652]}},{"type":"Feature","properties":{"sector":"1.1 Oil majors","subsector":"1.1.1 National Oil Companies","name":"Gazprom","address":"20 Triton Street, London, NW1 3BF","description":"Massive Russian gas company, the world’s biggest natural gas producer. Responsible for an estimated 3.9% of all global carbon emissions in 1988-2015, according to Carbon Majors Database. Gazprom is a leading player in drilling new oil and gas fields opened by retreating ice in the Arctic. \n\nOwnership: majority owned by the Russian government. A minority of shares are traded on the London, Frankfurt and Moscow stock exchanges. Shareholders include BlackRock, Vanguard, and other big investment funds.","address source":"http://www.gazprom-mt.com/HowToFindUs/Pages/default.aspx","address check date":"Address checked: August 2021","address notes":""},"geometry":{"type":"Point","coordinates":[-0.142889,51.524774]}},{"type":"Feature","properties":{"sector":"1.2 smaller oil and fracking","subsector":"1.2.1 Smaller Oil and Gas","name":"Harbour Oil (formerly Premier Oil)","address":"23 Lower Belgrave Street, London, SW1W 0NR","description":"Long-running British oil “independent” with licenses in the North Sea and Falkland Islands, as well as Mexico and more. A listed company and member of the FTSE 250 index. Formerly known as Premier Oil. ","address source":"https://www.harbourenergy.com/contact-us/","address check date":"Address checked: August 2021","address notes":""},"geometry":{"type":"Point","coordinates":[-0.147077,51.496042]}},{"type":"Feature","properties":{"sector":"1.3 oil services & shipping","subsector":"1.3.3 Shipping and pipelines","name":"Interconnector (Fluxys and Snam)","address":"4th Floor, Burdett House, 15-16 Buckingham Street, London WC2N 6DU","description":"Interconnector is the company that operates the undersea gas pipeline between Belgium and the UK. It is jointly owned by two of Europe’s main gas infrastructure companies: Belgium’s Fluxys and Italy’s Snam. These are two of the four main companies identified by the European Network of Corporate Observatories (ENCO) as developing new gas pipeline infrastructure across Europe, including big environmentally destructive schemes piping gas across Southern and Eastern Europe; and also in lobbying heavily to entrench Europe’s reliance on gas. \n\nOwners: Fluxys is 78% owned by Publigas, a Belgian public sector inter-municipal holding company. The chairman is the former mayor of Ghent. Snam is a PLC with a major holding from the Italian state, other owners are large investment funds including BlackRock.","address source":"https://www.fluxys.com/en/company/interconnector-uk","address check date":"Address checked: August 2021","address notes":""},"geometry":{"type":"Point","coordinates":[-0.122968,51.508509]}},{"type":"Feature","properties":{"sector":"1.1 Oil majors","subsector":"1.1.1 National Oil Companies","name":"Kuwait Petroleum","address":"KPC House, 54 Pall Mall, London, SW1J 5JH","description":"Kuwait's state-owned national oil company. Responsible for 1% of global carbon emissions in 1988-2015, according to Carbon Majors Database. The company has plans to increase oil production by 7.3% between 2018-30.   ","address source":"https://www.kpc.com.kw/Pages/European-Regional-Office.aspx","address check date":"Address checked: August 2021","address notes":""},"geometry":{"type":"Point","coordinates":[-0.137131,51.505662]}},{"type":"Feature","properties":{"sector":"1.3 oil services & shipping","subsector":"1.3.1 Oilfield services","name":"Lloyd’s Register","address":"71 Fenchurch Street, London, EC3M 4BS","description":"LR is a global engineering, business and technical services provider to the fossil fuel and energy industry. (NB not to be confused with Lloyds of London insurance, also on this map.)","address source":"https://www.lr.org/en-us/contact-us/?region=GBR#office-locations ","address check date":"Address checked: August 2021","address notes":""},"geometry":{"type":"Point","coordinates":[-0.078567,51.512073]}},{"type":"Feature","properties":{"sector":"1.1 Oil majors","subsector":"1.1.2 Oil Multinationals","name":"Lukoil","address":"25 Canada Square, London, E14 5LB ","description":"Russian oil and gas multinational headquartered in Moscow, and Russia’s second biggest company after Gazprom.  \n\nOwners: around 40% of shares are owned by its top managers. Other shares are traded on multiple stock exchanges, and owned by global investment funds. ","address source":"http://www.lukoil.com/InvestorAndShareholderCenter/Contacts ","address check date":"Address checked: August 2021","address notes":""},"geometry":{"type":"Point","coordinates":[-0.017887,51.504007]}},{"type":"Feature","properties":{"sector":"1.3 oil services & shipping","subsector":"1.3.3 Shipping and pipelines","name":"Maran","address":"Manning House, 22 Carlisle Place, London, SW1P 1JA","description":"One of the world’s top ten oil and liquefied gas tanker fleets, part of the empire of Greece’s biggest shipping company, the Angelicoussis Group. The Group is also the world’s largest privately-held shipping company.","address source":"http://maranuk.co.uk/contact-us.html ","address check date":"Address checked: August 2021","address notes":""},"geometry":{"type":"Point","coordinates":[-0.140043,51.494275]}},{"type":"Feature","properties":{"sector":"1.3 oil services & shipping","subsector":"1.3.3 Shipping and pipelines","name":"MSC","address":"4 Thomas More Square, Thomas More Street, London, E1W 1YW","description":"The Swiss-headquartered MSC is the world's second-largest shipping line in terms of container vessel capacity. \n\nFor more info, see Corporate Watch’s profile on MSC.","address source":"https://www.msc.com/gbr/contact-us/msc-london?lang=en-gb ","address check date":"Address checked: August 2021","address notes":""},"geometry":{"type":"Point","coordinates":[-0.067543,51.507722]}},{"type":"Feature","properties":{"sector":"1.2 smaller oil and fracking","subsector":"1.2.1 Smaller Oil and Gas","name":"Neptune Energy","address":"Nova North, 11 Bressenden Place, London, SW1E 5BY","description":"British “independent” oil and gas company drilling in the North Sea, North Africa and Asia. Set up in 2015 with backing from private equity investors, it has since grown fast by buying up several other companies.\n\nOwners: single biggest shareholder is China Investment Corporation (CIC), followed by private equity funds Carlyle Group and CVC Capital.","address source":"https://www.neptuneenergy.com/contact-us/ ","address check date":"Address checked: August 2021","address notes":""},"geometry":{"type":"Point","coordinates":[-0.143026,51.497509]}},{"type":"Feature","properties":{"sector":"1.2 smaller oil and fracking","subsector":"1.2.1 Smaller Oil and Gas","name":"New Age African Energy","address":"8 Lancelot Place, London, SW7 1DR","description":"Jersey-registered oil and gas company working across Africa. Was backed by hedge fund Sculptor Capital/Och-Ziff, notorious for a 2016 corruption scandal where Och and his fund were accused by the US courts of paying over $100 million in bribes to secure natural resources deals in Libya, Nigeria, Guinea and the Democratic Republic of Congo.\n\nCameroonian separatists have made corruption allegations in connection with an LNG contract awarded to New Age by the Cameroonian state. \n\nShareholders include Kerogen Capital and other private investors.","address source":"https://www.newafricanglobalenergy.com/contact/","address check date":"Address checked: August 2021","address notes":""},"geometry":{"type":"Point","coordinates":[-0.163448,51.500423]}},{"type":"Feature","properties":{"sector":"1.3 oil services & shipping","subsector":"1.3.2 LNG","name":"Nigeria LNG","address":"Heron House, 10 Dean Farrar Street, London, SW1H ODX ","description":"Main Nigerian liquefied natural gas-producing company with a plant on Bonny Island, Nigeria. \n\nIt is owned by a consortium of the Nigerian National Petroleum Company (49%) and several oil majors: Shell (25.6%), Total (15%) and ENI (10.4%).","address source":"https://www.nigerialng.com/Pages/locations.aspx ","address check date":"Address checked: August 2021","address notes":""},"geometry":{"type":"Point","coordinates":[-0.131819,51.499212]}},{"type":"Feature","properties":{"sector":"1.1 Oil majors","subsector":"1.1.1 National Oil Companies","name":"Nigerian NPC","address":"159 Hammersmith Road, London, W6 8BS","description":"The Nigerian government oil company. The Niger Delta basin is the site of Africa’s biggest oil and gas fields, which account for the majority of Nigeria’s export income. The Nigerian oil industry is run by joint ventures between NNPC and the “supermajor” multinationals – above all, Shell. \n\nIn contrast to the wealth being sucked from the ground, the people of the Niger Delta live with massive environmental damage from oil spills and gas flaring, extreme poverty, and vicious repression in a zone militarised by the state and multinationals to protect oil profits. ","address source":"https://www.nnpcgroup.com/CorporateServices/Pages/LondonOffice.aspx","address check date":"Address checked: August 2021","address notes":""},"geometry":{"type":"Point","coordinates":[-0.216809,51.493177]}},{"type":"Feature","properties":{"sector":"1.1 Oil majors","subsector":"1.1.1 National Oil Companies","name":"NIOC","address":"NIOC House, 6th Floor, 4 Victoria Street, London, SW1H 0NE","description":"Iran controls the world’s second biggest oil fields after Saudi Arabia. These contributed 2.28% of global carbon emissions in 1988-2015, according to Carbon Majors Database. In 2018 the collision of an Iranian oil tanker in the East China Sea was one of the worst oil shipping disasters in decades, killing all 32 crew members and causing three huge oil spills.   \n\nOwnership: Iranian government. Iran’s oil was formerly owned by the Anglo-Iranian Oil Company, the ancestor of today’s BP, before nationalisation in 1954.","address source":"http://www.iocukltd.co.uk/contact.php","address check date":"Address checked: August 2021","address notes":""},"geometry":{"type":"Point","coordinates":[-0.13085,51.499209]}},{"type":"Feature","properties":{"sector":"1.1 Oil majors","subsector":"1.1.1 National Oil Companies","name":"PDVSA","address":"7 Old Park Lane, London, W1K 1QR","description":"Venezuelan state-owned oil and natural gas company, responsible for 1.23% of global carbon emissions in 1988-2015, according to Carbon Majors Database. Venezuela has the largest proven oil reserves in the world, although these are largely untapped. A substantial portion are tar sands in the Orinoco Basin (similar in size to those of Canada) whose extraction is overseen by PDVSA in partnership with international oil firms. Severe safety concerns have been raised about PDVSA’s working practices, in particular after a 2012 refinery explosion left 42 people dead and destroyed 1,600 homes.  ","address source":"http://www.pdvsa.com/index.php?option=com_content&view=article&id=6581&Itemid=898&lang=en","address check date":"Address checked: August 2021","address notes":""},"geometry":{"type":"Point","coordinates":[-0.149111,51.504449]}},{"type":"Feature","properties":{"sector":"1.2 smaller oil and fracking","subsector":"1.2.1 Smaller Oil and Gas","name":"Perenco","address":"8 Hanover Square, London, W1S 1HQ","description":"Anglo-French oil and gas company with headquarters in London and Paris, calling itself “the leading independent oil and gas company in Europe”. \n\nIt has exploration and production activities in 16 countries around the globe, particularly in Africa but also in Turkey, Vietnam, Australia, South America, and the UK. Has been accused of human rights violations in the Democratic Republic of Congo in Muanda, described as the ‘poorest oil city in the world’.","address source":"https://www.perenco.com/contact","address check date":"Address checked: August 2021","address notes":""},"geometry":{"type":"Point","coordinates":[-0.143116,51.514188]}},{"type":"Feature","properties":{"sector":"1.2 smaller oil and fracking","subsector":"1.2.1 Smaller Oil and Gas","name":"Petronor","address":"48 Dover Street, London, W1S 4FF","description":"Oil and gas exploration company with multiple licenses offshore of West Africa. In 2019 it acquired African Petroleum, a company embroiled in numerous disputes with West African states over rights to oil reserves. \n\nListed on the Oslo stock exchange.","address source":"https://petronorep.com/contact-us/","address check date":"Address checked: August 2021","address notes":""},"geometry":{"type":"Point","coordinates":[-0.141639,51.507898]}},{"type":"Feature","properties":{"sector":"1.2 smaller oil and fracking","subsector":"1.2.1 Smaller Oil and Gas","name":"Pharos Energy","address":"Eastcastle House, 27/28 Eastcastle Street, London, W1W 8DH","description":"Formerly known as SOCO, the company changed its name after gaining notoriety for its efforts to drill for oil in Virunga, Africa’s oldest national park and one of two last refuges of the world’s 1,000 remaining mountain gorillas. It eventually abandoned its plans after succumbing to significant international pressure. \n\nNow active in Egypt, Israel and Vietnam. CEO and founder is Ed Story, also a Non-Executive Director of mining company Vedanta. Listed on the London Stock Exchange","address source":"https://www.pharos.energy/contact/","address check date":"Address checked: August 2021","address notes":""},"geometry":{"type":"Point","coordinates":[-0.138483,51.51665]}},{"type":"Feature","properties":{"sector":"1.2 smaller oil and fracking","subsector":"1.2.2. Frackers","name":"Rathlin Energy","address":"Suite 1, 3rd Floor, 11-12 St. James’s Square, London, SW1Y 4LB ","description":"Rathlin Energy is exploring for oil and gas onshore in the East Riding area of Yorkshire. ","address source":"https://beta.companieshouse.gov.uk/company/06478035","address check date":"Address checked: August 2021","address notes":"NB: Registered address. This is a current official company address; but it is not confirmed that it is an operational site rather than just a “letterbox”."},"geometry":{"type":"Point","coordinates":[-0.147575,51.517156]}},{"type":"Feature","properties":{"sector":"1.1 Oil majors","subsector":"1.1.1 National Oil Companies","name":"Rosneft","address":"Rosneft Marine UK : Office 461, 1 Kingdom Street, Paddington Central, London, W2 6BD","description":"Russian oil giant, active worldwide but particularly in Siberia, the Arctic, and former Soviet territories around the Black Sea. Chairman of the board is former German chancellor Gerhard Schroeder.  \n\nOwners: 50% owned by the Russian government, the other 50% publicly traded. BP owns around 20% of the public shares, and QH Oil Investments – a Qatari state company – just under 19%. ","address source":"http://www.rosneftmarine.com/locations/ ","address check date":"Address checked: August 2021","address notes":""},"geometry":{"type":"Point","coordinates":[-0.181691,51.519075]}},{"type":"Feature","properties":{"sector":"1.1 Oil majors","subsector":"1.1.1 National Oil Companies","name":"Saudi Aramco","address":"Aramco Overseas Company: 10 Portman Square, Marylebone, London, W1H 6AZ","description":"Saudi Arabia’s national oil company, and the world’s biggest. It is also the world’s largest single greenhouse gas emitter – responsible for 4.5% of all the world’s carbon emissions between 1988 and 2015, according to Carbon Majors Database. In 2019, the company was found to be ‘understating’ its emissions by up to 50%. A minority of its shares were recently listed on the country’s local stock exchange but it remains majority owned by the tyrannical Saudi state. \n\nOwners: majority-owned by Saudi Arabia. Some shares are traded on the Saudi stock exchange. ","address source":"https://europe.aramco.com/en/info/contact-us ","address check date":"Address checked: August 2021","address notes":""},"geometry":{"type":"Point","coordinates":[-0.154738,51.516528]}},{"type":"Feature","properties":{"sector":"1.2 smaller oil and fracking","subsector":"1.2.1 Smaller Oil and Gas","name":"Seplat Petroleum","address":"4th Floor, 50 Pall Mall, London, SW1Y 5JH","description":"Nigerian oil company focused on drilling in the Niger delta – the scene of horrendous pollution from oil spills and gas flaring, extreme poverty, and vicious repression. Bought Eland Oil and Gas, another Nigerian-focused company.","address source":"https://seplatpetroleum.com/contact/ ","address check date":"Address checked: August 2021","address notes":""},"geometry":{"type":"Point","coordinates":[-0.136685,51.505884]}},{"type":"Feature","properties":{"sector":"1.2 smaller oil and fracking","subsector":"1.2.1 Smaller Oil and Gas","name":"Serica","address":"48 George Street, London, W1U 7DY","description":"British North Sea-focused oil and gas company. Has also drilled for oil in Morocco, Namibia, Ireland, Indonesia and Vietnam.\n\nShareholders: Listed on the London Stock Exchange. Axa is the largest investor, with a 13% shareholding.","address source":"https://www.serica-energy.com/contact","address check date":"Address checked: August 2021","address notes":""},"geometry":{"type":"Point","coordinates":[-0.154468,51.517949]}},{"type":"Feature","properties":{"sector":"1.1 Oil majors","subsector":"1.1.2 Oil Multinationals","name":"Shell","address":"Shell Centre, London, SE1 7NA ","description":"British-Dutch multinational oil and gas company, headquartered in the Netherlands and incorporated in the United Kingdom. Accountable for 1.67% of global carbon emissions in 1988-2015, according to Carbon Majors Database. Shell has no shortage of controversies; in particular it has been linked to the execution of the “Ogoni Nine”, including Ken Saro-Wiwa, as well as other horrific atrocities in the Niger Delta, where it is the main multinational oil exploiter. Shell, with Italian oil company Eni, was recently acquitted in an Italian court of corruption charges for an alleged $1.3 billion bribery deal with a former Nigerian oil minister, in what campaigners describe as a “dismal judgment that reflects the dismal state of anti-corruption legislation in Italy”. Shell own a 40% stake in LNG Canada, a massive LNG terminal under construction in British Columbia on which the fiercely-resisted Coastal GasLink fracked gas pipeline depends. \n\nIn May 2016 an estimated 2,100 barrels of oil, nearly 90,000 gallons, spilled into the Gulf of Mexico – leaked from an undersea pipeline system operated off the Louisiana coast.  \n\nOwners: PLC listed on the London, Stock Exchange (LSE). The majority of shares are owned by big investment funds.","address source":"https://www.shell.co.uk/about-us/contact-us.html ","address check date":"Address checked: August 2021","address notes":""},"geometry":{"type":"Point","coordinates":[-0.116773,51.50385]}},{"type":"Feature","properties":{"sector":"1.1 Oil majors","subsector":"1.1.1 National Oil Companies","name":"Socar ","address":"2 St. James's Market, London, SW1Y 4AH ","description":"The state-owned petrochemical company of the oil and gas-rich central Asian state of Azerbaijan. Azeri gas is becoming a major geopolitical commodity as European governments build costly and environmentally devastating pipelines from the country to try and escape dependence on Russia’s Gazprom.","address source":"https://www.socartrading.com/contact ","address check date":"Address checked: August 2021","address notes":""},"geometry":{"type":"Point","coordinates":[-0.133351,51.509258]}},{"type":"Feature","properties":{"sector":"1.1 Oil majors","subsector":"1.1.1 National Oil Companies","name":"Sonatrach","address":"Sonatrach Gas Marketing: 5th Floor, Panton House, London, \n25/26 Haymarket, SW1Y 4EN ","description":"National state-owned oil company of Algeria. It is the largest company in Africa and is planning overseas expansion. Responsible for 1% of global carbon emissions 1988-2015, according to Carbon Majors Database. In July 2019, the company suffered its worst accident in 15 years when a huge liquefied natural gas complex exploded. ","address source":"https://www.sonatrach-uk.com/contact-us/","address check date":"Address checked: August 2021","address notes":""},"geometry":{"type":"Point","coordinates":[-0.132266,51.509449]}},{"type":"Feature","properties":{"sector":"1.3 oil services & shipping","subsector":"1.3.1 Oilfield services","name":"TechnipFMC","address":"1 St. Paul's Churchyard, London, EC4M 8AP","description":"Major oil and gas services contractor, which provides everything from platforms to pipelines and refineries. Its head offices are in Houston and London. Has paid out over $500 million in various bribery cases involving Nigeria, Brazil, Equatorial Guinea and Ghana.  \n\nOwners: listed on Paris and New York exchanges. The French government has a small (under 10%) holding.","address source":"https://www.technipfmc.com/en/contact/ ","address check date":"Address checked: August 2021","address notes":""},"geometry":{"type":"Point","coordinates":[-0.100514,51.513504]}},{"type":"Feature","properties":{"sector":"1.3 oil services & shipping","subsector":"1.3.3 Shipping and pipelines","name":"Teekay Shipping","address":"Thomas House, 4th Floor, 84 Eccleston Square, London, SW1V 1PX","description":"One of the world’s biggest shipping companies, specialising in oil and liquefied gas tankers. ","address source":"https://www.teekay.com/offices/europe/london/ ","address check date":"Address checked: August 2021","address notes":""},"geometry":{"type":"Point","coordinates":[-0.143586,51.493548]}},{"type":"Feature","properties":{"sector":"1.1 Oil majors","subsector":"1.1.2 Oil Multinationals","name":"Total","address":"10 Upper Bank Street, Canary Wharf, London, E14 5BF ","description":"French multinational oil and gas company, one of the six biggest “supermajor” oil companies. Responsible for 0.95% of global carbon emissions in 1988-2015, according to Carbon Majors Database. Responsible for one of France’s worst environmental disasters, the 1999 sinking of the tanker Erika and the subsequent oil spill off the Bay of Biscay.\n\nPlanning to drill hundreds of oil wells and a huge oil pipeline in Uganda’s Murchinson Falls National Park, a refuge for diminishing numbers of wild animals, including the world’s most endangered giraffes. Local people are being displaced and the project risks contamination of the river Nile. NGOs are challenging Total’s plans in the French courts.  \n\nOwners: PLC, main shareholders are big global investment funds.","address source":"https://www.total.uk/our-activities-in-the-UK ","address check date":"Address checked: August 2021","address notes":""},"geometry":{"type":"Point","coordinates":[-0.016758,51.502719]}},{"type":"Feature","properties":{"sector":"1.1 Oil majors","subsector":"1.1.2 Oil Multinationals","name":"Total: Marketing and Services Office","address":"183 Eversholt Street, London, NW1 1BU","description":"French multinational oil and gas company, one of the six biggest “supermajor” oil companies. Responsible for 0.95% of global carbon emissions in 1988-2015, according to Carbon Majors Database. Responsible for one of France’s worst environmental disasters, the 1999 sinking of the tanker Erika and the subsequent oil spill off the Bay of Biscay. \n\nPlanning to drill hundreds of oil wells and a huge oil pipeline in Uganda’s Murchinson Falls National Park, a refuge for diminishing numbers of wild animals, including the world’s most endangered giraffes. Local people are being displaced and the project risks contamination of the river Nile. NGOs are challenging Total’s plans in the French courts.  \n\nOwners: PLC, main shareholders are big global investment funds. ","address source":"https://www.total.uk/our-activities-in-the-UK","address check date":"Address checked: August 2021","address notes":""},"geometry":{"type":"Point","coordinates":[-0.135707,51.531621]}},{"type":"Feature","properties":{"sector":"1.2 smaller oil and fracking","subsector":"1.2.1 Smaller Oil and Gas","name":"Tullow","address":"9 Chiswick Park, 566 Chiswick High Road, London, W4 5XT","description":"London based oil company, founded in Ireland but now calling itself “Africa’s leading independent oil company”, pursuing exploration licenses in multiple countries in West and East Africa, as well as South America. Supported by the UK government through its January 2020 “UK-Africa Investment Summit”, which focused heavily on UK companies exploiting African oil and gas.\n\nAlong with Total, is planning to drill for oil in Uganda’s Murchinson Falls National Park, a refuge for diminishing numbers of wild animals, including the world’s most endangered giraffes. The plans are displacing local people and threaten to contaminate the river Nile.","address source":"https://www.tullowoil.com/contact ","address check date":"Address checked: August 2021","address notes":""},"geometry":{"type":"Point","coordinates":[-0.273574,51.495114]}},{"type":"Feature","properties":{"sector":"1.2 smaller oil and fracking","subsector":"1.2.2. Frackers","name":"UK Oil and Gas Investments (UKOG)","address":"The Broadgate Tower, 8th Floor, 20 Primrose Street, London, EC2A 2EW","description":"British oil company mainly active onshore in the Weald Basin in southern England. It currently has eight licenses, including two now producing oil and others being explored or developed. Its subsidiaries include Horse Hill Developments, a company formed to drill on the site of the Horse Hill well where the company took out an interim injunction in 2018 to ban protests. Surrey County Council’s decision to grant planning permission for drilling and production is currently being challenged at the Court of Appeal by a climate change campaigner.  \n\n2020 saw the company branch out overseas, having been given consent by Turkey to carry out drilling in parts of the country’s Kurdish region.\n\nOwners: UKOG is a PLC, listed on London’s AIM “alternative investment market” for smaller companies. Many of its biggest investors’ identities are hidden behind nominee accounts. ","address source":"https://www.ukogplc.com/page.php?pID=7 ","address check date":"Address checked: August 2021","address notes":""},"geometry":{"type":"Point","coordinates":[-0.080302,51.520742]}},{"type":"Feature","properties":{"sector":"1.2 smaller oil and fracking","subsector":"1.2.1 Smaller Oil and Gas","name":"Victoria Oil and Gas","address":"Scott House, Suite 1 The Concourse, Waterloo Station, London, SE1 7LY","description":"London-based company that has gas drilling contracts, and a gas pipeline, in Cameroon. It is also exploring for gas in Russia.","address source":"https://www.victoriaoilandgas.com/contact-us/ ","address check date":"Address checked: August 2021","address notes":""},"geometry":{"type":"Point","coordinates":[-0.113976,51.503839]}},{"type":"Feature","properties":{"sector":"1.3 oil services & shipping","subsector":"1.3.1 Oilfield services","name":"Wood Group","address":"23rd Floor, 25 Canada Square, Canary Wharf, London, E14 5LQ","description":"Wood provides engineering, project management, consultancy, production and maintenance services to the energy industry globally, including companies such as BP, Exxon Mobil, Shell and EDF. Wood also serves the mining, chemicals, manufacturing and life sciences industries, and has been involved in the Canada’s tar sands industry and the corporate carve up of Iraq’s oil.","address source":"https://www.woodplc.com/company/where-we-operate ","address check date":"Address checked: August 2021","address notes":""},"geometry":{"type":"Point","coordinates":[-0.017985,51.504015]}}],"_umap_options":{"displayOnLoad":true,"browsable":true,"name":"2021 oil","remoteData":{},"color":"Black","id":1825074}}