{"type":"FeatureCollection","features":[{"type":"Feature","properties":{"sector":"2.5 Law firms","subsector":"2.5 Law firms","name":"Allen and Overy","address":"One Bishops Square, London, E1 6AD","description":"Major international corporate law firm whose clients include oil and gas companies. Worked on Sizewell C nuclear plant, the Trans Adriatic gas Pipeline (‘TAP’) and the Turkmenistan, Afghanistan, Pakistan & India gas pipeline (TAPI).","address source":"http://www.allenovery.com/en-gb/global/global_coverage/europe/united-kingdom ","address check date":"Address checked: August 2021","address notes":""},"geometry":{"type":"Point","coordinates":[-0.077349,51.519422]}},{"type":"Feature","properties":{"sector":"2.5 Law firms","subsector":"2.5 Law firms","name":"Baker Botts","address":"Level 30, 20 Fenchurch Street, London, EC3M 3BY","description":"Major US firm with a UK branch. Prides itself in its work with the energy sector, including oil & gas, hydro power, LNG and unconventional fossil fuels. Clients have included BP, Gazprom, Petrogas and Qatar Petroleum. ","address source":"https://www.bakerbotts.com/geographies/london","address check date":"Address checked: August 2021","address notes":""},"geometry":{"type":"Point","coordinates":[-0.083485,51.51144]}},{"type":"Feature","properties":{"sector":"2.5 Law firms","subsector":"2.5 Law firms","name":"Clifford Chance","address":"10 Upper Bank Street, London, E14 5JJ","description":"Another corporate law firm, whose long list of clients include Shell, Total, Engie, Equinor, Kuwait National Petroleum, Soco International, Sinopec, SOCAR, Trans Adriatic Pipeline, Offshore Drilling Holding S.A., Nord Stream and Chrysaor.","address source":"https://www.cliffordchance.com/people_and_places/offices/london.html ","address check date":"Address checked: August 2021","address notes":""},"geometry":{"type":"Point","coordinates":[-0.016898,51.502734]}},{"type":"Feature","properties":{"sector":"2.5 Law firms","subsector":"2.5 Law firms","name":"DeBrauw, Blackstone & Westbroek","address":"125 Old Broad Street, 17th Floor, London EC2N 1AR","description":"Dutch multinational law firm representing energy and life science industries, among others. Defends companies against mass claims. Frequently defends Shell, most recently unsuccessfully representing the company in a landmark ruling that it had to cut its emissions in accordance with the Paris Climate Accords.","address source":"https://www.debrauw.com/office/london","address check date":"Address checked: August 2021","address notes":""},"geometry":{"type":"Point","coordinates":[-0.086041,51.514734]}},{"type":"Feature","properties":{"sector":"2.5 Law firms","subsector":"2.5 Law firms","name":"Dentons","address":"1 Fleet Place, London, EC4M 7RA","description":"Described as the largest law firm in the world thanks to the 12,000 lawyers it employs globally. Dentons advised on the Enbridge Northern Gateway Pipelines, which were eventually scrapped after intense opposition by indigenous people in Canada. Dentons also defends corporations against class action suits, including those of an \"aboriginal\" and \"environmental\" nature. Indeed, the company has its very own specialist (anti) aboriginal law department. Clients include BASF, the government of India, and Centrica.","address source":"https://www.dentons.com/en/global-presence/united-kingdom/london ","address check date":"Address checked: August 2021","address notes":""},"geometry":{"type":"Point","coordinates":[-0.103647,51.516081]}},{"type":"Feature","properties":{"sector":"2.5 Law firms","subsector":"2.5 Law firms","name":"Freshfields Brookhaus Deringer","address":"100 Bishopsgate, London EC2P 2SR","description":"Multinational corporate law firm headquartered in London. Established in 1743, Freshfields is the world’s oldest international law firm. It advises multinationals, including oil and gas firms, dealing with litigation on environmental and human rights grounds. Although it likes to keep details of the clients in specific cases a secret, other sources reveal that the company has successfully defended Europe’s biggest CO2 emitter, RWE, against a claim by a Peruvian mountain guide for the company’s contribution to the effects of climate change on his community.  ","address source":"https://www.freshfields.com/en-gb/contacts/contact-us/europe/london-office/","address check date":"Address checked: August 2021","address notes":""},"geometry":{"type":"Point","coordinates":[-0.081617,51.51591]}},{"type":"Feature","properties":{"sector":"2.5 Law firms","subsector":"2.5 Law firms","name":"Gibson Dunn and Crutcher","address":"Telephone House, 2-4 Temple Avenue, London, EC4Y 0HB","description":"Multinational US firm that prides itself on its work with the oil and gas industries. Its ‘environmental tort’ department specialises in defending companies against mass action claims for breaches of environmental laws. The company boasts a long list of examples, including representing a major food business: \"in a series of toxic tort lawsuits involving thousands of Latin American workers claiming personal injuries from exposure to a chemical used on banana farms\". Another of its “success” stories is helping Chevron overturn a ruling in favour of 48 Ecuadorean plaintiffs who had sued the company over pollution from the Lago Agrio oil field. ","address source":"https://www.gibsondunn.com/office/london/ ","address check date":"Address checked: August 2021","address notes":""},"geometry":{"type":"Point","coordinates":[-0.106585,51.511703]}},{"type":"Feature","properties":{"sector":"2.5 Law firms","subsector":"2.5 Law firms","name":"Latham and Watkins","address":"99 Bishopsgate, London, EC2M 3XF","description":"US law firm whose clients include Shell, Exxon Mobil, and Chevron. Its record includes representing Shell in two sets of group actions brought by thousands of residents of the Bille and Ogale communities for extensive oil pollution in the Niger Delta, which they lost at the Supreme Court in 2021. The ruling means that the claimants can sue Shell in English courts despite a company subsidiary having carried out operations in Nigeria.","address source":"https://www.lw.com/offices/london ","address check date":"Address checked: August 2021","address notes":""},"geometry":{"type":"Point","coordinates":[-0.082358,51.515939]}},{"type":"Feature","properties":{"sector":"2.5 Law firms","subsector":"2.5 Law firms","name":"Linklaters","address":"1 Silk Street, London, EC2Y 8HQ","description":"Multinational corporate law firm. Clients include ExxonMobil, Eni, BP, Total, Gazprom, and Rosneft. Has advised Rosneft on oil concessions in Iraqi Kurdistan.","address source":"https://www.linklaters.com/en/locations/united-kingdom ","address check date":"Address checked: August 2021","address notes":""},"geometry":{"type":"Point","coordinates":[-0.092269,51.520537]}},{"type":"Feature","properties":{"sector":"2.5 Law firms","subsector":"2.5 Law firms","name":"Norton Rose Fulbright","address":"3 More London, Riverside, London, SE1 2AQ","description":"Another huge international law firm, with a specialism in defending multinationals against so-called “toxic tort” cases. These include “mass disaster and catastrophic events”, such as class action lawsuits by communities affected by groundwater contamination, and workers subjected to chemical exposure.\n\nClients include BP, Exxon Mobil and Shell and defending legal challenges by indigenous people to pipeline projects in Canada. ","address source":"http://www.nortonrosefulbright.com/en-gb/locations/london ","address check date":"Address checked: August 2021","address notes":""},"geometry":{"type":"Point","coordinates":[-0.079624,51.504345]}},{"type":"Feature","properties":{"sector":"2.5 Law firms","subsector":"2.5 Law firms","name":"Pinsent Masons","address":"30 Crown Place, Earl Street, London, EC2A 4ES","description":"Major international law firm specialising in work with the energy sector, among others. Has reportedly offered its services to companies seeking anti-fracking protest injunctions. Clients include BP, Shell and Total. ","address source":"http://www.pinsentmasons.com/locations/europe/united-kingdom/london?pageNumber=1 ","address check date":"Address checked: August 2021","address notes":""},"geometry":{"type":"Point","coordinates":[-0.08321,51.520872]}},{"type":"Feature","properties":{"sector":"2.5 Law firms","subsector":"2.5 Law firms","name":"Shearman & Sterling","address":"9 Appold St, London, EC2A 2AP","description":"Representing China Three Gorges Corporation, a Chinese state-owned energy company responsible for the eponymous mega-dam. The Corporation is currently the main builder of the largest proposed hydropower project in the world, the Grand Inga III dam on the Congo River. Also represents some of the world’s biggest mining companies and does extensive work for the oil, gas and nuclear industries. ","address source":"https://www.shearman.com/Regions/Europe?accordion=london","address check date":"Address checked: August 2021","address notes":""},"geometry":{"type":"Point","coordinates":[-0.081639,51.521469]}},{"type":"Feature","properties":{"sector":"2.5 Law firms","subsector":"2.5 Law firms","name":"Slaughter and May","address":"1 Bunhill Row, London, EC1Y 8YY","description":"Major corporate law firm which has worked extensively with oil, gas and mining companies. Clients include INEOS, Shell, Repsol and Premier Oil.","address source":"https://www.slaughterandmay.com/where-we-work/offices/london//#officelocation ","address check date":"Address checked: August 2021","address notes":""},"geometry":{"type":"Point","coordinates":[-0.090191,51.521036]}},{"type":"Feature","properties":{"sector":"2.5 Law firms","subsector":"2.5 Law firms","name":"White and Case","address":"5 Old Broad Street, London, EC2N 1DW","description":"US corporate law firm with offices in London. Clients include Energean, Saudi Aramco, Eni and Total.","address source":"http://www.whitecase.com/locations/emea/london ","address check date":"Address checked: August 2021","address notes":""},"geometry":{"type":"Point","coordinates":[-0.085505,51.514535]}}],"_umap_options":{"displayOnLoad":true,"browsable":true,"name":"2021 law","id":1825071,"remoteData":{},"color":"LightSlateGray"}}