{"type":"FeatureCollection","features":[{"type":"Feature","properties":{"sector":"2.3 Insurance","subsector":"2.3 Insurance","name":"AIG","address":"The AIG Building, 58 Fenchurch Street, London, EC3M 4AB","description":"Massive US-based global insurance giant, infamously bailed out by the US government in the 2008 crash. It is the largest industrial insurer in the US, providing cover for the majority of big US industrial corporations, amongst many others. Its UK Energy division provides mining insurance, oil rig insurance, chemical and pharmaceutical insurance, and more. In January 2020, AIG confirmed that it will continue to insure coal, with executive chair and former CEO Brian Duperreault saying coal is “being taken out of the ground because people need it”. Has provided insurance for the Trans Mountain tar sands pipeline in Canada.","address source":"https://www.aig.co.uk/contact-aig-uk","address check date":"Address checked: August 2021","address notes":""},"geometry":{"type":"Point","coordinates":[-0.080077,51.511932]}},{"type":"Feature","properties":{"sector":"2.3 Insurance","subsector":"2.3 Insurance","name":"Allianz","address":"60 Gracechurch Street, London, EC3V 0HR","description":"Mega German-based insurance and financial services conglomerate: its fund management subsidiary Pimco features separately on this map. It is one of the world’s largest insurance businesses overall, and works with companies in all sectors including the onshore and offshore oil and gas industry. ","address source":"https://www.agcs.allianz.com/global-offices/united-kingdom.html ","address check date":"Address checked: August 2021","address notes":""},"geometry":{"type":"Point","coordinates":[-0.084953,51.511724]}},{"type":"Feature","properties":{"sector":"2.3 Insurance","subsector":"2.3 Insurance","name":"Aon PLC","address":"The Aon Centre, The Leadenhall Building, 122 Leadenhall Street, London, EC3V 4AN","description":"London-based insurance brokerage. Its energy and mining division works with all parts of the oil and gas industry, as well as mining companies, on products from oil rig insurance to “political risk”.","address source":"https://www.aon.com/unitedkingdom/contact-us.jsp ","address check date":"Address checked: August 2021","address notes":""},"geometry":{"type":"Point","coordinates":[-0.0824,51.513918]}},{"type":"Feature","properties":{"sector":"2.3 Insurance","subsector":"2.3 Insurance","name":"Axa UK PLC","address":"20 Gracechurch Street, London, EC3V 0BG","description":"Major French-based multinational insurance firm. Provides insurance to onshore and offshore energy companies, including major oil companies. In November 2019 Axa announced that it would stop insuring companies which produce more than 20 million tonnes of coal per year … but only by 2030 for European companies, and 2040 for the rest. It recently announced that it would be dropping RWE as a result of this pledge.","address source":"https://www.axa.co.uk/about/addresses/ ","address check date":"Address checked: August 2021","address notes":""},"geometry":{"type":"Point","coordinates":[-0.085028,51.512234]}},{"type":"Feature","properties":{"sector":"2.3 Insurance","subsector":"2.3 Insurance","name":"Beazley plc","address":"22 Bishopsgate, London, EC2N 4BQ","description":"Specialist group of London insurers, a participant in the Lloyds insurance marketplace. In 2019, its energy division claimed to insure over 30% of the world’s top 200 upstream and midstream oil and gas companies. Another of its specialisms is “political risk” insurance.","address source":"https://www.beazley.com/contact_us.html ","address check date":"Address checked: August 2021","address notes":""},"geometry":{"type":"Point","coordinates":[-0.083085,51.514438]}},{"type":"Feature","properties":{"sector":"2.3 Insurance","subsector":"2.3 Insurance","name":"Chubb Ltd","address":"The Chubb Building, 100 Leadenhall Street, London, EC3A 3BP","description":"Chubb is a Swiss-headquartered global insurer which claims to be “the world’s largest publicly traded property and casualty insurer”, and a “leading supplier” to the energy industry. It provides cover to downstream/onshore and upstream/offshore fossil fuels companies, including the Trans Mountain tar sands pipeline in Canada.","address source":"https://www.chubb.com/uk-en/contact-us/locations.aspx ","address check date":"Address checked: August 2021","address notes":""},"geometry":{"type":"Point","coordinates":[-0.080094,51.513726]}},{"type":"Feature","properties":{"sector":"2.3 Insurance","subsector":"2.3 Insurance","name":"Lloyds of London","address":"1 Lime Street, London, EC3M 7HA","description":"Lloyds is not an insurance company itself, but rather an insurance marketplace. It is made up of numerous members, who come together in 70 plus “syndicates” to offer insurance cover. Lloyds’ historical roots are in marine insurance, and the shipping and energy industries are still important parts of the business. Following Axa, Lloyds has pledged to pull out of fossil fuels by 2030 – far too late to have a real impact. \n\nWas recently targeted by activists for facilitating the development Australia’s biggest coal mine, Adani’s Carmichael mine, and for continuing to provide services for the Trans Mountain tar sands pipeline project in Canada. \n\nDominating the marine insurance business in the 18th century, Lloyds’ history is intricately bound up with the slave trade, which accounted for up to 40% of the sector. Has faced many allegations - and an unsuccessful lawsuit - for profiting from slavery by facilitating compensation schemes for slave owners. Slavers’ insurance enabled traders to be reimbursed for many slave deaths and enabled atrocities such as the Zong massacre: when the slave ship, Zong, allegedly ran low on drinking water, the crew threw more than 130 slaves overboard believing they would be reimbursed by their insurance provider. ","address source":"https://www.lloyds.com/contact-us ","address check date":"Address checked: August 2021","address notes":""},"geometry":{"type":"Point","coordinates":[-0.082407,51.512965]}},{"type":"Feature","properties":{"sector":"2.3 Insurance","subsector":"2.3 Insurance","name":"Lockton","address":"The St Botolph Building, 138 Houndsditch, London, EC3A 7AG","description":"US insurance broker, one of the world’s biggest. It insures companies across the oil and gas supply chain. It claims to work with over 20 major midstream companies, in-process liquefied natural gas (LNG) facilities, and offshore Gulf of Mexico facilities. Owners: still controlled by the founding Lockton family. ","address source":"https://www.lockton.com/offices/uk ","address check date":"Address checked: August 2021","address notes":""},"geometry":{"type":"Point","coordinates":[-0.077163,51.514758]}},{"type":"Feature","properties":{"sector":"2.3 Insurance","subsector":"2.3 Insurance","name":"Miller Insurance","address":"70 Mark Lane, London, EC3R 7NQ","description":"Miller works with companies in the upstream, midstream and downstream phases of fossil fuel production, in the renewable energy sector, and on major energy infrastructure construction projects.","address source":"https://www.miller-insurance.com/Contact/London ","address check date":"Address checked: August 2021","address notes":""},"geometry":{"type":"Point","coordinates":[-0.079755,51.511239]}},{"type":"Feature","properties":{"sector":"2.3 Insurance","subsector":"2.3 Insurance","name":"QBE Insurance","address":"Plantation Place, 30 Fenchurch Street, London, EC3M 3BD","description":"QBE says it has been supporting companies in the oil and gas sector for more than 30 years, including many of the world’s largest international and national oil companies, drilling contractors and service companies. ","address source":"https://qbeeurope.com/contact-us/ ","address check date":"Address checked: August 2021","address notes":""},"geometry":{"type":"Point","coordinates":[-0.082303,51.511249]}}],"_umap_options":{"displayOnLoad":true,"browsable":true,"name":"2021 insurance","id":1825069,"remoteData":{},"color":"Red"}}