{"type":"FeatureCollection","features":[{"type":"Feature","properties":{"sector":"2.4 Other financial","subsector":"2.4.3 Exchanges","name":"CTX","address":"CTX - Sales: 207 Old Marylebone Road, London, NW1 5QP ","description":"UK and Australia based company which runs an electronic exchange for trading voluntary carbon offset credits.","address source":"https://ctxglobal.com/contact/","address check date":"Address checked: August 2021","address notes":""},"geometry":{"type":"Point","coordinates":[-0.165515,51.519397]}},{"type":"Feature","properties":{"sector":"2.4 Other financial","subsector":"2.4.1 The Big 4 Auditors","name":"Deloitte","address":"1-3 New Street Square, London, EC4A 3HQ","description":"The “Big Four” accountancy firms in the UK are: Deloitte, Ernst & Young, KPMG, and Price Waterhouse Coopers (PWC).They audited the accounts of every single FTSE 100 company in 2019, and 227 of the FTSE 250 (the 250 next biggest UK listed companies). In the US, their dominance is not quite so complete: they audited just over 50% of the biggest 3000 companies in 2018. As well as being by far the biggest accountancy firms in the world, the Big 4 also branch out into a range of other “consultancy” services to the business world.\n\nThere is endless debate about the need to regulate the accountancy market “cartel”, without much happening so far – although the government is currently consulting on some new proposals. The auditors have an incentive to sign off accounts without asking any awkward questions, in order to win not just more auditing contracts but other lucrative consultancy work. \n\nAll the Big 4 firms have been the subject of multiple scandals, collusion allegations, fraud and money-laundering inquiries, etc., which sometimes lead to prosecutions and fines. These are far too numerous to list here: web search and you’ll find plenty. \n\nTechnically, the Big 4 are not in fact companies, but “professional services networks” involving multiple local partners. This further inoculates them from legal come-back by scattering liability amongst the partner firms.","address source":"https://www2.deloitte.com/uk/en/footerlinks/office-locator.html ","address check date":"Address checked: August 2021","address notes":""},"geometry":{"type":"Point","coordinates":[-0.107422,51.516135]}},{"type":"Feature","properties":{"sector":"2.4 Other financial","subsector":"2.4.1 The Big 4 Auditors","name":"Deloitte","address":"Hill House, 1 Little New Street, London, EC4A 3TR","description":"The “Big Four” accountancy firms in the UK are: Deloitte, Ernst & Young, KPMG, and Price Waterhouse Coopers (PWC).They audited the accounts of every single FTSE 100 company in 2019, and 227 of the FTSE 250 (the 250 next biggest UK listed companies). In the US, their dominance is not quite so complete: they audited just over 50% of the biggest 3000 companies in 2018. As well as being by far the biggest accountancy firms in the world, the Big 4 also branch out into a range of other “consultancy” services to the business world.\n\nThere is endless debate about the need to regulate the accountancy market “cartel”, without much happening so far – although the government is currently consulting on some new proposals. The auditors have an incentive to sign off accounts without asking any awkward questions, in order to win not just more auditing contracts but other lucrative consultancy work. \n\nAll the Big 4 firms have been the subject of multiple scandals, collusion allegations, fraud and money-laundering inquiries, etc., which sometimes lead to prosecutions and fines. These are far too numerous to list here: web search and you’ll find plenty. \n\nTechnically, the Big 4 are not in fact companies, but “professional services networks” involving multiple local partners. This further inoculates them from legal come-back by scattering liability amongst the partner firms.","address source":"https://www2.deloitte.com/uk/en/footerlinks/office-locator.html","address check date":"Address checked: August 2021","address notes":""},"geometry":{"type":"Point","coordinates":[-0.106837,51.515495]}},{"type":"Feature","properties":{"sector":"2.4 Other financial","subsector":"2.4.1 The Big 4 Auditors","name":"EY","address":"1 More London, Riverside, London, SE1 2AF","description":"The “Big Four” accountancy firms in the UK are: Deloitte, Ernst & Young, KPMG, and Price Waterhouse Coopers (PWC).They audited the accounts of every single FTSE 100 company in 2019, and 227 of the FTSE 250 (the 250 next biggest UK listed companies). In the US, their dominance is not quite so complete: they audited just over 50% of the biggest 3000 companies in 2018. As well as being by far the biggest accountancy firms in the world, the Big 4 also branch out into a range of other “consultancy” services to the business world.\n\nThere is endless debate about the need to regulate the accountancy market “cartel”, without much happening so far – although the government is currently consulting on some new proposals. The auditors have an incentive to sign off accounts without asking any awkward questions, in order to win not just more auditing contracts but other lucrative consultancy work. \n\nAll the Big 4 firms have been the subject of multiple scandals, collusion allegations, fraud and money-laundering inquiries, etc., which sometimes lead to prosecutions and fines. These are far too numerous to list here: web search and you’ll find plenty. \n\nTechnically, the Big 4 are not in fact companies, but “professional services networks” involving multiple local partners. This further inoculates them from legal come-back by scattering liability amongst the partner firms.","address source":"https://www.ey.com/en_gl/locations/united-kingdom ","address check date":"Address checked: August 2021","address notes":""},"geometry":{"type":"Point","coordinates":[-0.081076,51.505419]}},{"type":"Feature","properties":{"sector":"2.4 Other financial","subsector":"2.4.1 The Big 4 Auditors","name":"EY","address":"25 Churchill Place, Canary Wharf, London, E14 5EY","description":"The “Big Four” accountancy firms in the UK are: Deloitte, Ernst & Young, KPMG, and Price Waterhouse Coopers (PWC).They audited the accounts of every single FTSE 100 company in 2019, and 227 of the FTSE 250 (the 250 next biggest UK listed companies). In the US, their dominance is not quite so complete: they audited just over 50% of the biggest 3000 companies in 2018. As well as being by far the biggest accountancy firms in the world, the Big 4 also branch out into a range of other “consultancy” services to the business world.\n\nThere is endless debate about the need to regulate the accountancy market “cartel”, without much happening so far – although the government is currently consulting on some new proposals. The auditors have an incentive to sign off accounts without asking any awkward questions, in order to win not just more auditing contracts but other lucrative consultancy work. \n\nAll the Big 4 firms have been the subject of multiple scandals, collusion allegations, fraud and money-laundering inquiries, etc., which sometimes lead to prosecutions and fines. These are far too numerous to list here: web search and you’ll find plenty. \n\nTechnically, the Big 4 are not in fact companies, but “professional services networks” involving multiple local partners. This further inoculates them from legal come-back by scattering liability amongst the partner firms.","address source":"https://www.ey.com/en_gl/locations/united-kingdom","address check date":"Address checked: August 2021","address notes":""},"geometry":{"type":"Point","coordinates":[-0.014776,51.503805]}},{"type":"Feature","properties":{"sector":"2.4 Other financial","subsector":"2.4.2 Ratings Agencies","name":"Fitch Ratings","address":"30 North Colonnade, Canary Wharf, London, E14 5GN","description":"The three main global rating agencies, S&P, Moodys and Fitch Ratings, are all US-based. All have London offices, which are often the main bases for their analysts working on Europe, the Middle East and Africa. \n\nFitch owners: Hearst Corporation","address source":"https://www.fitchratings.com/site/about/contact ","address check date":"Address checked: August 2021","address notes":""},"geometry":{"type":"Point","coordinates":[-0.015654,51.505095]}},{"type":"Feature","properties":{"sector":"2.4 Other financial","subsector":"2.4.3 Exchanges","name":"ICE Futures","address":"5th Floor, Milton Gate, 60 Chiswell Street, London, EC1Y 4SA","description":"The main European exchange for trading futures, option, and other standard derivatives contracts. Products traded here include commodities and energy derivatives, such as futures and options contracts on oil, gas, coal, and “soft” agricultural commodities. ICE Futures Europe says it is “home to 50% of the world’s crude and refined oil futures trading”. It is also now the “world’s leading market for emissions trading”. It trades futures contracts for EU carbon allowances and Kyoto protocol “certified emissions reductions” (CERs). (The previous European Climate Exchange (ECX) was bought out by ICE and merged into the main exchange.)\n\nOwners: formerly LIFFE (London International Financial Futures and Options Exchange), it is now the European part of the international derivatives market owned by Intercontinental Exchange (ICE), based in the US. ","address source":"https://www.intercontinentalexchange.com/about/offices ","address check date":"Address checked: August 2021","address notes":""},"geometry":{"type":"Point","coordinates":[-0.090146,51.520589]}},{"type":"Feature","properties":{"sector":"2.4 Other financial","subsector":"2.4.1 The Big 4 Auditors","name":"KPMG","address":"15 Canada Square, Canary Wharf, London, E14 5GL","description":"The “Big Four” accountancy firms in the UK are: Deloitte, Ernst & Young, KPMG, and Price Waterhouse Coopers (PWC).They audited the accounts of every single FTSE 100 company in 2019, and 227 of the FTSE 250 (the 250 next biggest UK listed companies). In the US, their dominance is not quite so complete: they audited just over 50% of the biggest 3000 companies in 2018. As well as being by far the biggest accountancy firms in the world, the Big 4 also branch out into a range of other “consultancy” services to the business world.\n\nThere is endless debate about the need to regulate the accountancy market “cartel”, without much happening so far – although the government is currently consulting on some new proposals. The auditors have an incentive to sign off accounts without asking any awkward questions, in order to win not just more auditing contracts but other lucrative consultancy work. \n\nAll the Big 4 firms have been the subject of multiple scandals, collusion allegations, fraud and money-laundering inquiries, etc., which sometimes lead to prosecutions and fines. These are far too numerous to list here: web search and you’ll find plenty. \n\nTechnically, the Big 4 are not in fact companies, but “professional services networks” involving multiple local partners. This further inoculates them from legal come-back by scattering liability amongst the partner firms.","address source":"https://home.kpmg/uk/en/home/about/offices.html ","address check date":"Address checked: August 2021","address notes":""},"geometry":{"type":"Point","coordinates":[-0.016413,51.505352]}},{"type":"Feature","properties":{"sector":"2.4 Other financial","subsector":"2.4.3 Exchanges","name":"LCH (clearing house)","address":"Aldgate House, Aldgate High Street, London, EC3N 1EA","description":"A key back office part of the financial markets infrastructure, a clearing house organises the actual payment and exchange of securities after deals are made on the various exchanges, as well as for more bespoke “over the counter” (OTC) deals. LCH is one of the biggest in the global markets.","address source":"https://www.lch.com/contact-us ","address check date":"Address checked: August 2021","address notes":"NB: Registered address. This is a current official company address; but it is not confirmed that it is an operational site rather than just a “letterbox”."},"geometry":{"type":"Point","coordinates":[-0.075032,51.514446]}},{"type":"Feature","properties":{"sector":"2.4 Other financial","subsector":"2.4.3 Exchanges","name":"London Bullion Market Association","address":"1-2 Royal Exchange Buildings, Royal Exchange, London, EC3V 3LF","description":"Members of the LBMA, mostly international banks and bullion dealers and refiners, trade futures contracts on precious metals in over-the-counter (rather than exchange) deals.","address source":"http://www.lbma.org.uk/contact ","address check date":"Address checked: August 2021","address notes":""},"geometry":{"type":"Point","coordinates":[-0.086922,51.513778]}},{"type":"Feature","properties":{"sector":"2.4 Other financial","subsector":"2.4.3 Exchanges","name":"London Metal Exchange","address":"10 Finsbury Square, London, EC2A 1AJ","description":"The LME is the world’s largest market for trading futures and options contracts concerning base and other metals, including non-ferrous, steel, cobalt and precious metals. The LME’s “responsible sourcing rules” do not require companies to take into account environmental and climate risks in their supply chains.","address source":"https://www.lme.com/en-GB/About/Contact-us/Offices ","address check date":"Address checked: August 2021","address notes":""},"geometry":{"type":"Point","coordinates":[-0.087475,51.521236]}},{"type":"Feature","properties":{"sector":"2.4 Other financial","subsector":"2.4.3 Exchanges","name":"London Stock Exchange","address":"10 Paternoster Square, London, EC4M 7LS","description":"","address source":"https://www.londonstockexchange.com/exchange/global/contact-us/contact-us.html ","address check date":"Address checked: August 2021","address notes":""},"geometry":{"type":"Point","coordinates":[-0.099108,51.515027]}},{"type":"Feature","properties":{"sector":"2.4 Other financial","subsector":"2.4.2 Ratings Agencies","name":"Moodys","address":"1 Canada Square, Canary Wharf, London, E14 5FA","description":"The three main global rating agencies, S&P, Moodys and Fitch Ratings, are all US-based. All have London offices, which are often the main bases for their analysts working on Europe, the Middle East and Africa.   \n\nOwners: PLC. The biggest shareholder is Berkshire Hathaway Inc. at around 13% (Warren Buffet’s investment fund), after that the usual big funds such as Vanguard, BlackRock, State St. ","address source":"https://www.moodys.com/Pages/contactus.aspx ","address check date":"Address checked: August 2021","address notes":""},"geometry":{"type":"Point","coordinates":[-0.019377,51.504792]}},{"type":"Feature","properties":{"sector":"2.4 Other financial","subsector":"2.4.1 The Big 4 Auditors","name":"PWC","address":"1 Embankment Place, London, WC2N 6RH","description":"The “Big Four” accountancy firms in the UK are: Deloitte, Ernst & Young, KPMG, and Price Waterhouse Coopers (PWC).They audited the accounts of every single FTSE 100 company in 2019, and 227 of the FTSE 250 (the 250 next biggest UK listed companies). In the US, their dominance is not quite so complete: they audited just over 50% of the biggest 3000 companies in 2018. As well as being by far the biggest accountancy firms in the world, the Big 4 also branch out into a range of other “consultancy” services to the business world.\n\nThere is endless debate about the need to regulate the accountancy market “cartel”, without much happening so far – although the government is currently consulting on some new proposals. The auditors have an incentive to sign off accounts without asking any awkward questions, in order to win not just more auditing contracts but other lucrative consultancy work. \n\nAll the Big 4 firms have been the subject of multiple scandals, collusion allegations, fraud and money-laundering inquiries, etc., which sometimes lead to prosecutions and fines. These are far too numerous to list here: web search and you’ll find plenty. \n\nTechnically, the Big 4 are not in fact companies, but “professional services networks” involving multiple local partners. This further inoculates them from legal come-back by scattering liability amongst the partner firms.","address source":"https://www.pwc.co.uk/who-we-are/regional-sites/london/offices.html ","address check date":"Address checked: August 2021","address notes":""},"geometry":{"type":"Point","coordinates":[-0.123686,51.507818]}},{"type":"Feature","properties":{"sector":"2.4 Other financial","subsector":"2.4.1 The Big 4 Auditors","name":"PWC","address":"7 More London, Riverside, London, SE1 2RT","description":"The “Big Four” accountancy firms in the UK are: Deloitte, Ernst & Young, KPMG, and Price Waterhouse Coopers (PWC).They audited the accounts of every single FTSE 100 company in 2019, and 227 of the FTSE 250 (the 250 next biggest UK listed companies). In the US, their dominance is not quite so complete: they audited just over 50% of the biggest 3000 companies in 2018. As well as being by far the biggest accountancy firms in the world, the Big 4 also branch out into a range of other “consultancy” services to the business world.\n\nThere is endless debate about the need to regulate the accountancy market “cartel”, without much happening so far – although the government is currently consulting on some new proposals. The auditors have an incentive to sign off accounts without asking any awkward questions, in order to win not just more auditing contracts but other lucrative consultancy work. \n\nAll the Big 4 firms have been the subject of multiple scandals, collusion allegations, fraud and money-laundering inquiries, etc., which sometimes lead to prosecutions and fines. These are far too numerous to list here: web search and you’ll find plenty. \n\nTechnically, the Big 4 are not in fact companies, but “professional services networks” involving multiple local partners. This further inoculates them from legal come-back by scattering liability amongst the partner firms.","address source":"https://www.pwc.co.uk/who-we-are/regional-sites/london/offices.html","address check date":"Address checked: August 2021","address notes":""},"geometry":{"type":"Point","coordinates":[-0.081226,51.504599]}},{"type":"Feature","properties":{"sector":"2.4 Other financial","subsector":"2.4.2 Ratings Agencies","name":"S&P","address":"The Mcgraw-Hill Building, 20 Canada Square, Canary Wharf, London, E14 5LH","description":"The three main global rating agencies, S&P, Moodys and Fitch Ratings, are all US-based. All have London offices, which are often the main bases for their analysts working on Europe, the Middle East and Africa.   ","address source":"https://www.spglobal.com/en/contact-us/office-locations","address check date":"Address checked: August 2021","address notes":""},"geometry":{"type":"Point","coordinates":[-0.016539,51.503877]}}],"_umap_options":{"displayOnLoad":true,"browsable":true,"name":"2021 other finance","id":1825075,"remoteData":{},"color":"MediumSlateBlue"}}