{"type":"FeatureCollection","features":[{"type":"Feature","properties":{"sector":"1.8 Chemicals","subsector":"1.8 Chemicals","name":"BASF","address":"BASF Metals Limited: 21st Floor, Bishopsgate, London, EC2N 4AY","description":"BASF is the largest chemicals company. It is among the biggest manufacturers of plastics and of pesticides and also has a biotech arm, BASF Plant Science. ","address source":"https://www.basf.com/gb/en/who-we-are/BASF-in-the-United-Kingdom/BASF-Metals-Limited--BML-.html ","address check date":"Address checked: August 2021","address notes":"NB: The London office belongs to its Metals division."},"geometry":{"type":"Point","coordinates":[-0.080947,51.516223]}},{"type":"Feature","properties":{"sector":"1.8 Chemicals","subsector":"1.8 Chemicals","name":"CocaCola","address":"1A Wimpole St, London, W1G 0EA","description":"We include Coca Cola here as the world’s number one plastic consumer products polluter, according to Break Free From Plastic. There are plenty of other environmental and human scandals linked to the company, from groundwater depletion in India to support for Apartheid South Africa or the Israeli far-right.","address source":"https://www.coca-cola.co.uk/about-us/contact-us","address check date":"Address checked: August 2021","address notes":""},"geometry":{"type":"Point","coordinates":[-0.148587,51.518956]}},{"type":"Feature","properties":{"sector":"1.8 Chemicals","subsector":"1.8 Chemicals","name":"Ineos","address":"Ineos HQ: 38 Hans Cres, London, SW1X 0LZ\n","description":"Ineos is the UK’s biggest chemical company, and the world’s fifth biggest. It is also among the world’s largest producers of single-use plastics. It operates through dozens of subsidiary companies. Its flagship base is Grangemouth, which is “home to Scotland’s only crude oil refinery and produces the bulk of fuels used in Scotland.” Ineos’ “Dragon Ship” LNG tankers ferry US shale gas to the site.\n\nIneos also has its own oil and gas exploration arm, well known for its attempts to start fracking in the UK, which has bought up the majority of shale gas exploration licenses here.  \n\nOwner: billionaire Jim Ratcliffe, listed as the UK’s leading billionaire by Forbes, founded the company and still owns 60%. The Brexiteer recently moved his official address to Monaco, saving himself approximately $4bn each year in UK tax payments. Ineos is one of the UK’s biggest privately-held companies (as opposed to listed PLCs).\n\nSee also Corporate Watch’s profile on Ineos’ billionaire owner Jim Ratcliffe. ","address source":"https://www.ineos.com/contact","address check date":"Address checked: August 2021","address notes":""},"geometry":{"type":"Point","coordinates":[-0.161995,51.499758]}},{"type":"Feature","properties":{"sector":"1.8 Chemicals","subsector":"1.8 Chemicals","name":"Lyondell Basell","address":"4th Floor, One Vine Street, London, W1J 0AH","description":"Major chemical multinational, registered in the Netherlands but with a London HQ. It describes itself as the leading US and European producer of polypropylenes – one of the plastics widely used in packaging responsible for massive environmental pollution. \n\nOwners: PLC, listed on New York Stock Exchange.","address source":"https://www.lyondellbasell.com/en/london-office/contact-us/","address check date":"Address checked: August 2021","address notes":""},"geometry":{"type":"Point","coordinates":[-0.13743,51.509691]}}],"_umap_options":{"displayOnLoad":true,"browsable":true,"name":"2021 chemicals","id":1825066,"remoteData":{},"color":"Yellow"}}