{"type": "FeatureCollection", "features": [{"type": "Feature", "geometry": {"type": "Point", "coordinates": [-0.1275, 51.50722]}, "properties": {"name": "GlaxoSmithKline", "group": "Paid to settle illegal marketing, kickbacks or false claims", "headquarters": "London", "country": "United Kingdom", "placed at": "its headquarters", "Wikipedia": "https://en.wikipedia.org/wiki/GlaxoSmithKline", "Wikidata": "https://www.wikidata.org/wiki/Q212322", "source": "https://en.wikipedia.org/wiki/List_of_largest_pharmaceutical_settlements", "Year": "2012", "Company": "GlaxoSmithKline", "Settlement": "$3 billion ($1B criminal, $2B civil)", "Violation(s)": "Criminal: Off-label promotion, failure to disclose safety data. Civil: paying kickbacks to physicians, making false and misleading statements concerning the safety of Avandia, reporting false best prices and underpaying rebates owed under the Medicaid Drug Rebate Program", "Product(s)": "Avandia (not providing safety data), Wellbutrin , Paxil (promotion of paediatric use), Advair , Lamictal , Zofran , Imitrex , Lotronex , Flovent , Valtrex", "Laws violated (if applicable)": "False Claims Act , FDCA"}}, {"type": "Feature", "geometry": {"type": "Point", "coordinates": [-74.00611, 40.71278]}, "properties": {"name": "Pfizer", "group": "Paid to settle illegal marketing, kickbacks or false claims", "headquarters": "New York City", "country": "United States", "placed at": "its headquarters", "Wikipedia": "https://en.wikipedia.org/wiki/Pfizer", "Wikidata": "https://www.wikidata.org/wiki/Q206921", "source": "https://en.wikipedia.org/wiki/List_of_largest_pharmaceutical_settlements", "Year": "2009", "Company": "Pfizer", "Settlement": "$2.3 billion", "Violation(s)": "Off-label promotion, kickbacks", "Product(s)": "Bextra , Geodon , Zyvox , Lyrica", "Laws violated (if applicable)": "False Claims Act, FDCA"}}, {"type": "Feature", "geometry": {"type": "Point", "coordinates": [-74.44444, 40.48667]}, "properties": {"name": "Johnson & Johnson", "group": "Paid to settle illegal marketing, kickbacks or false claims", "headquarters": "New Brunswick", "country": "United States", "placed at": "its headquarters", "Wikipedia": "https://en.wikipedia.org/wiki/Johnson_%26_Johnson", "Wikidata": "https://www.wikidata.org/wiki/Q333718", "source": "https://en.wikipedia.org/wiki/List_of_largest_pharmaceutical_settlements", "Year": "2013", "Company": "Johnson & Johnson", "Settlement": "$2.2 billion", "Violation(s)": "Off-label promotion, kickbacks", "Product(s)": "Risperdal , Invega , Nesiritide", "Laws violated (if applicable)": "False Claims Act, FDCA"}}, {"type": "Feature", "geometry": {"type": "Point", "coordinates": [-87.85941, 42.31715]}, "properties": {"name": "Abbott Laboratories", "group": "Paid to settle illegal marketing, kickbacks or false claims", "headquarters": "North Chicago", "country": "United States", "placed at": "its headquarters", "Wikipedia": "https://en.wikipedia.org/wiki/Abbott_Laboratories", "Wikidata": "https://www.wikidata.org/wiki/Q306764", "source": "https://en.wikipedia.org/wiki/List_of_largest_pharmaceutical_settlements", "Year": "2012", "Company": "Abbott Laboratories", "Settlement": "$1.5 billion", "Violation(s)": "Off-label promotion", "Product(s)": "Depakote", "Laws violated (if applicable)": "False Claims Act, FDCA"}}, {"type": "Feature", "geometry": {"type": "Point", "coordinates": [-86.15806, 39.76861]}, "properties": {"name": "Eli Lilly", "group": "Paid to settle illegal marketing, kickbacks or false claims", "headquarters": "Indianapolis", "country": "United States", "placed at": "its headquarters", "Wikipedia": "https://en.wikipedia.org/wiki/Eli_Lilly_and_Company", "Wikidata": "https://www.wikidata.org/wiki/Q632240", "source": "https://en.wikipedia.org/wiki/List_of_largest_pharmaceutical_settlements", "Year": "2009", "Company": "Eli Lilly", "Settlement": "$1.4 billion", "Violation(s)": "Off-label promotion", "Product(s)": "Zyprexa", "Laws violated (if applicable)": "False Claims Act, FDCA"}}, {"type": "Feature", "geometry": {"type": "Point", "coordinates": [-97.4826, 39.5385]}, "properties": {"name": "TAP Pharmaceutical Products", "group": "Paid to settle illegal marketing, kickbacks or false claims", "country": "United States", "placed at": "the middle of United States of America: Wikidata gives no nearer place", "Wikipedia": "https://en.wikipedia.org/wiki/TAP_Pharmaceutical_Products", "Wikidata": "https://www.wikidata.org/wiki/Q7669340", "source": "https://en.wikipedia.org/wiki/List_of_largest_pharmaceutical_settlements", "Year": "2001", "Company": "TAP Pharmaceutical Products", "Settlement": "$875 million", "Violation(s)": "Medicare fraud , kickbacks", "Product(s)": "Lupron", "Laws violated (if applicable)": "False Claims Act, Prescription Drug Marketing Act"}}, {"type": "Feature", "geometry": {"type": "Point", "coordinates": [-118.875, 34.18944]}, "properties": {"name": "Amgen", "group": "Paid to settle illegal marketing, kickbacks or false claims", "headquarters": "Thousand Oaks", "country": "United States", "placed at": "its headquarters", "Wikipedia": "https://en.wikipedia.org/wiki/Amgen", "Wikidata": "https://www.wikidata.org/wiki/Q470517", "source": "https://en.wikipedia.org/wiki/List_of_largest_pharmaceutical_settlements", "Year": "2012", "Company": "Amgen", "Settlement": "$762 million", "Violation(s)": "Off-label promotion, kickbacks", "Product(s)": "Aranesp", "Laws violated (if applicable)": "False Claims Act, FDCA"}}, {"type": "Feature", "geometry": {"type": "Point", "coordinates": [-0.1275, 51.50722]}, "properties": {"name": "GlaxoSmithKline", "group": "Paid to settle illegal marketing, kickbacks or false claims", "headquarters": "London", "country": "United Kingdom", "placed at": "its headquarters", "Wikipedia": "https://en.wikipedia.org/wiki/GlaxoSmithKline", "Wikidata": "https://www.wikidata.org/wiki/Q212322", "source": "https://en.wikipedia.org/wiki/List_of_largest_pharmaceutical_settlements", "Wikipedia article found from": "the same company's linked row", "Year": "2010", "Company": "GlaxoSmithKline", "Settlement": "$750 million", "Violation(s)": "Poor manufacturing practices", "Product(s)": "Kytril , Bactroban , Paxil CR , Avandamet", "Laws violated (if applicable)": "False Claims Act, FDCA"}}, {"type": "Feature", "geometry": {"type": "Point", "coordinates": [6.15, 46.2]}, "properties": {"name": "Serono", "group": "Paid to settle illegal marketing, kickbacks or false claims", "headquarters": "Geneva", "country": "Switzerland", "placed at": "its headquarters", "Wikipedia": "https://en.wikipedia.org/wiki/Serono", "Wikidata": "https://www.wikidata.org/wiki/Q669903", "source": "https://en.wikipedia.org/wiki/List_of_largest_pharmaceutical_settlements", "Year": "2005", "Company": "Serono", "Settlement": "$704 million", "Violation(s)": "Off-label promotion, kickbacks, monopolistic practices", "Product(s)": "Serostim", "Laws violated (if applicable)": "False Claims Act"}}, {"type": "Feature", "geometry": {"type": "Point", "coordinates": [-74.28111, 40.60722]}, "properties": {"name": "Merck", "group": "Paid to settle illegal marketing, kickbacks or false claims", "headquarters": "Rahway", "country": "United States", "placed at": "its headquarters", "Wikipedia": "https://en.wikipedia.org/wiki/Merck_%26_Co.", "Wikidata": "https://www.wikidata.org/wiki/Q247489", "source": "https://en.wikipedia.org/wiki/List_of_largest_pharmaceutical_settlements", "Year": "2008", "Company": "Merck", "Settlement": "$650 million", "Violation(s)": "Medicare fraud, kickbacks", "Product(s)": "Zocor , Vioxx , Pepsid", "Laws violated (if applicable)": "False Claims Act, Medicaid Rebate Statute"}}, {"type": "Feature", "geometry": {"type": "Point", "coordinates": [-73.55222, 41.09667]}, "properties": {"name": "Purdue Pharma", "group": "Paid to settle illegal marketing, kickbacks or false claims", "headquarters": "Stamford", "country": "United States", "placed at": "its headquarters", "Wikipedia": "https://en.wikipedia.org/wiki/Purdue_Pharma", "Wikidata": "https://www.wikidata.org/wiki/Q7260981", "source": "https://en.wikipedia.org/wiki/List_of_largest_pharmaceutical_settlements", "Year": "2007", "Company": "Purdue Pharma", "Settlement": "$601 million", "Violation(s)": "Off-label promotion", "Product(s)": "Oxycontin", "Laws violated (if applicable)": "False Claims Act"}}, {"type": "Feature", "geometry": {"type": "Point", "coordinates": [-8.0, 53.0]}, "properties": {"name": "Allergan", "group": "Paid to settle illegal marketing, kickbacks or false claims", "headquarters": "Ireland", "country": "Ireland", "placed at": "its headquarters", "Wikipedia": "https://en.wikipedia.org/wiki/Allergan", "Wikidata": "https://www.wikidata.org/wiki/Q906187", "source": "https://en.wikipedia.org/wiki/List_of_largest_pharmaceutical_settlements", "Year": "2010", "Company": "Allergan", "Settlement": "$600 million", "Violation(s)": "Off-label promotion", "Product(s)": "Botox", "Laws violated (if applicable)": "False Claims Act, FDCA"}}, {"type": "Feature", "geometry": {"type": "Point", "coordinates": [0.14, 52.176]}, "properties": {"name": "AstraZeneca", "group": "Paid to settle illegal marketing, kickbacks or false claims", "headquarters": "Cambridge Biomedical Campus", "country": "Sweden", "placed at": "its headquarters", "Wikipedia": "https://en.wikipedia.org/wiki/AstraZeneca", "Wikidata": "https://www.wikidata.org/wiki/Q731938", "source": "https://en.wikipedia.org/wiki/List_of_largest_pharmaceutical_settlements", "Year": "2010", "Company": "AstraZeneca", "Settlement": "$520 million", "Violation(s)": "Off-label promotion, kickbacks", "Product(s)": "Seroquel", "Laws violated (if applicable)": "False Claims Act"}}, {"type": "Feature", "geometry": {"type": "Point", "coordinates": [-74.00611, 40.71278]}, "properties": {"name": "Bristol-Myers Squibb", "group": "Paid to settle illegal marketing, kickbacks or false claims", "headquarters": "New York City", "country": "United States", "placed at": "its headquarters", "Wikipedia": "https://en.wikipedia.org/wiki/Bristol-Myers_Squibb", "Wikidata": "https://www.wikidata.org/wiki/Q266423", "source": "https://en.wikipedia.org/wiki/List_of_largest_pharmaceutical_settlements", "Year": "2007", "Company": "Bristol-Myers Squibb", "Settlement": "$515 million", "Violation(s)": "Off-label promotion, kickbacks, Medicare fraud", "Product(s)": "Abilify , Serzone", "Laws violated (if applicable)": "False Claims Act, FDCA"}}, {"type": "Feature", "geometry": {"type": "Point", "coordinates": [-74.2893, 40.6774]}, "properties": {"name": "Schering-Plough", "group": "Paid to settle illegal marketing, kickbacks or false claims", "headquarters": "Kenilworth", "placed at": "its headquarters", "Wikipedia": "https://en.wikipedia.org/wiki/Schering-Plough", "Wikidata": "https://www.wikidata.org/wiki/Q249723", "source": "https://en.wikipedia.org/wiki/List_of_largest_pharmaceutical_settlements", "Year": "2002", "Company": "Schering-Plough", "Settlement": "$500 million", "Violation(s)": "Poor manufacturing practices", "Product(s)": "Claritin", "Laws violated (if applicable)": "FDA Current Good Manufacturing Practices"}}, {"type": "Feature", "geometry": {"type": "Point", "coordinates": [-80.185, 40.26194]}, "properties": {"name": "Mylan", "group": "Paid to settle illegal marketing, kickbacks or false claims", "headquarters": "Canonsburg", "country": "Netherlands", "placed at": "its headquarters", "Wikipedia": "https://en.wikipedia.org/wiki/Mylan", "Wikidata": "https://www.wikidata.org/wiki/Q899010", "source": "https://en.wikipedia.org/wiki/List_of_largest_pharmaceutical_settlements", "Year": "2006", "Company": "Mylan", "Settlement": "$465 million", "Violation(s)": "Misclassification under the Medicaid Drug Rebate Program", "Product(s)": "EpiPen ( epinephrine )", "Laws violated (if applicable)": "False Claims Act"}}, {"type": "Feature", "geometry": {"type": "Point", "coordinates": [-74.2893, 40.6774]}, "properties": {"name": "Schering-Plough", "group": "Paid to settle illegal marketing, kickbacks or false claims", "headquarters": "Kenilworth", "placed at": "its headquarters", "Wikipedia": "https://en.wikipedia.org/wiki/Schering-Plough", "Wikidata": "https://www.wikidata.org/wiki/Q249723", "source": "https://en.wikipedia.org/wiki/List_of_largest_pharmaceutical_settlements", "Wikipedia article found from": "the same company's linked row", "Year": "2006", "Company": "Schering-Plough", "Settlement": "$435 million", "Violation(s)": "Off-label promotion, kickbacks, Medicare fraud", "Product(s)": "Temodar , Intron A , K-Dur , Claritin RediTabs", "Laws violated (if applicable)": "False Claims Act, FDCA"}}, {"type": "Feature", "geometry": {"type": "Point", "coordinates": [-74.00611, 40.71278]}, "properties": {"name": "Pfizer", "group": "Paid to settle illegal marketing, kickbacks or false claims", "headquarters": "New York City", "country": "United States", "placed at": "its headquarters", "Wikipedia": "https://en.wikipedia.org/wiki/Pfizer", "Wikidata": "https://www.wikidata.org/wiki/Q206921", "source": "https://en.wikipedia.org/wiki/List_of_largest_pharmaceutical_settlements", "Wikipedia article found from": "the same company's linked row", "Year": "2004", "Company": "Pfizer", "Settlement": "$430 million", "Violation(s)": "Off-label promotion", "Product(s)": "Neurontin", "Laws violated (if applicable)": "False Claims Act, FDCA"}}, {"type": "Feature", "geometry": {"type": "Point", "coordinates": [-75.555, 40.038]}, "properties": {"name": "Cephalon", "group": "Paid to settle illegal marketing, kickbacks or false claims", "headquarters": "Frazer", "placed at": "its headquarters", "Wikipedia": "https://en.wikipedia.org/wiki/Cephalon_%28company%29", "Wikidata": "https://www.wikidata.org/wiki/Q15427523", "source": "https://en.wikipedia.org/wiki/List_of_largest_pharmaceutical_settlements", "Year": "2008", "Company": "Cephalon", "Settlement": "$425 million", "Violation(s)": "Off-label promotion", "Product(s)": "Actiq , Gabitril , Provigil", "Laws violated (if applicable)": "False Claims Act, FDCA"}}, {"type": "Feature", "geometry": {"type": "Point", "coordinates": [7.59056, 47.56056]}, "properties": {"name": "Novartis", "group": "Paid to settle illegal marketing, kickbacks or false claims", "headquarters": "Basel", "country": "Switzerland", "placed at": "its headquarters", "Wikipedia": "https://en.wikipedia.org/wiki/Novartis", "Wikidata": "https://www.wikidata.org/wiki/Q507154", "source": "https://en.wikipedia.org/wiki/List_of_largest_pharmaceutical_settlements", "Year": "2010", "Company": "Novartis", "Settlement": "$423 million", "Violation(s)": "Off-label promotion, kickbacks", "Product(s)": "Trileptal", "Laws violated (if applicable)": "False Claims Act, FDCA"}}, {"type": "Feature", "geometry": {"type": "Point", "coordinates": [0.14, 52.176]}, "properties": {"name": "AstraZeneca", "group": "Paid to settle illegal marketing, kickbacks or false claims", "headquarters": "Cambridge Biomedical Campus", "country": "Sweden", "placed at": "its headquarters", "Wikipedia": "https://en.wikipedia.org/wiki/AstraZeneca", "Wikidata": "https://www.wikidata.org/wiki/Q731938", "source": "https://en.wikipedia.org/wiki/List_of_largest_pharmaceutical_settlements", "Wikipedia article found from": "the same company's linked row", "Year": "2003", "Company": "AstraZeneca", "Settlement": "$355 million", "Violation(s)": "Medicare fraud", "Product(s)": "Zoladex", "Laws violated (if applicable)": "Prescription Drug Marketing Act"}}, {"type": "Feature", "geometry": {"type": "Point", "coordinates": [-74.2893, 40.6774]}, "properties": {"name": "Schering-Plough", "group": "Paid to settle illegal marketing, kickbacks or false claims", "headquarters": "Kenilworth", "placed at": "its headquarters", "Wikipedia": "https://en.wikipedia.org/wiki/Schering-Plough", "Wikidata": "https://www.wikidata.org/wiki/Q249723", "source": "https://en.wikipedia.org/wiki/List_of_largest_pharmaceutical_settlements", "Wikipedia article found from": "the same company's linked row", "Year": "2004", "Company": "Schering-Plough", "Settlement": "$345 million", "Violation(s)": "Medicare fraud, kickbacks", "Product(s)": "Claritin", "Laws violated (if applicable)": "False Claims Act, Anti-Kickback Statute"}}, {"type": "Feature", "geometry": {"type": "Point", "coordinates": [-73.55222, 41.09667]}, "properties": {"name": "Purdue Pharma", "group": "Named in the opioid epidemic's convictions and settlements", "headquarters": "Stamford", "country": "United States", "placed at": "its headquarters", "Wikipedia": "https://en.wikipedia.org/wiki/Purdue_Pharma", "Wikidata": "https://www.wikidata.org/wiki/Q7260981", "source": "https://en.wikipedia.org/wiki/Opioid_epidemic_in_the_United_States", "what the article says": "Purdue Pharma hosted over forty promotional conferences at three select locations in the southwest and southeast of the United States. states in 2021 over the firm's role in driving opioid sales for Purdue Pharma and other pharmaceutical companies. After its 1995 approval by the FDA by Deputy Director Curtis Wright IV, Purdue Pharma introduced OxyContin, a controlled release formulation of oxycodone in 1996. In 2010, Purdue Pharma reformulated OxyContin, using a polymer to make the pills extremely difficult to crush or dissolve in water to reduce non-medical use of OxyContin."}}, {"type": "Feature", "geometry": {"type": "Point", "coordinates": [-97.4826, 39.5385]}, "properties": {"name": "Sackler family", "group": "Named in the opioid epidemic's convictions and settlements", "country": "United States", "placed at": "the middle of United States of America: Wikidata gives no nearer place", "Wikipedia": "https://en.wikipedia.org/wiki/Sackler_family", "Wikidata": "https://www.wikidata.org/wiki/Q61911512", "source": "https://en.wikipedia.org/wiki/Opioid_epidemic_in_the_United_States", "what the article says": "The owners, the Sackler family, were nevertheless able to file for bankruptcy afterwards. In 2021, Empire of Pain: The Secret History of the Sackler Dynasty by Patrick Radden Keefe was published, examining the history of the Sackler family, including the founding of Purdue Pharma, its role in the marketing of pharmaceuticals, and the family's central role in the opioid epidemic. The book followed Keefe's 2017 article on the Sackler family in The New Yorker, titled \"The Family That Built an Empire of Pain\". In 2021, HBO released The Crime of the Century, a 2-part documentary directed by Alex Gibney that follows the opioid epidemic and the political operatives, government regulations and corporations that enable the abuse of opioids, particularly the Sackler family and Purdue Pharma, and received positive reviews.\" \nAll the Beauty and the Bloodshed is a 2022 documentary about the activist Nan Goldin's fight against the Sackler family for their role in the opioid epidemic in the United States.."}}, {"type": "Feature", "geometry": {"type": "Point", "coordinates": [-111.84139, 33.30333]}, "properties": {"name": "Insys Therapeutics", "group": "Named in the opioid epidemic's convictions and settlements", "headquarters": "Chandler", "country": "United States", "placed at": "its headquarters", "Wikipedia": "https://en.wikipedia.org/wiki/Insys_Therapeutics", "Wikidata": "https://www.wikidata.org/wiki/Q19903344", "source": "https://en.wikipedia.org/wiki/Opioid_epidemic_in_the_United_States", "what the article says": "=== State and local governments ===\n\n\n=== Economic impact ===\n\n\n=== Legal action ===\nIn May 2019, in the first successful prosecution of top pharmaceutical executives for crimes related to the prescribing of opioids, the founder and four former executives of Insys Therapeutics Inc."}}, {"type": "Feature", "geometry": {"type": "Point", "coordinates": [-74.44444, 40.48667]}, "properties": {"name": "Johnson & Johnson", "group": "Named in the opioid epidemic's convictions and settlements", "headquarters": "New Brunswick", "country": "United States", "placed at": "its headquarters", "Wikipedia": "https://en.wikipedia.org/wiki/Johnson_%26_Johnson", "Wikidata": "https://www.wikidata.org/wiki/Q333718", "source": "https://en.wikipedia.org/wiki/Opioid_epidemic_in_the_United_States", "what the article says": "In the first state case to reach a decision, on August 26, 2019, Oklahoma district court judge Thad Balkman found the pharmaceutical company Johnson & Johnson responsible for creating a \"public nuisance\" under state law, and ordered the company to pay a fine of $572 million. The two counties had reached a similar settlement of US$20.4 million with Johnson & Johnson and its subsidiary Ethicon, Inc."}}, {"type": "Feature", "geometry": {"type": "Point", "coordinates": [-96.95083, 32.81167]}, "properties": {"name": "McKesson Corporation", "group": "Named in the opioid epidemic's convictions and settlements", "headquarters": "Irving", "country": "United States", "placed at": "its headquarters", "Wikipedia": "https://en.wikipedia.org/wiki/McKesson_Corporation", "Wikidata": "https://www.wikidata.org/wiki/Q570473", "source": "https://en.wikipedia.org/wiki/Opioid_epidemic_in_the_United_States", "what the article says": "==== States reject distributors' settlement ====\nIn February 2020, 21 US states turned down an $18 billion (US), 18-year offer from McKesson Corporation, Cardinal Health Inc, and AmerisourceBergen Corp. ==== July 2021 settlement ====\nFour major drug manufacturers and distributors, J&J, McKesson, Cardinal Health, and AmerisourceBergen, have agreed to a settlement announced by a group of state attorneys general in July 2021. ==== Cleveland Settlement ====\nThe United States' three largest pharmaceutical distributors, AmerisourceBergen, Cardinal Health and McKesson Corporation reached an agreement in October 2019 where they will pay two Ohio counties a combined US$215 million. 57 billion (75%) of these pain pills were distributed by these companies: McKesson Corporation, Walgreens, Cardinal Health, AmerisourceBergen, CVS and Walmart."}}, {"type": "Feature", "geometry": {"type": "Point", "coordinates": [-83.1403, 40.1092]}, "properties": {"name": "Cardinal Health", "group": "Named in the opioid epidemic's convictions and settlements", "headquarters": "Dublin", "country": "United States", "placed at": "its headquarters", "Wikipedia": "https://en.wikipedia.org/wiki/Cardinal_Health", "Wikidata": "https://www.wikidata.org/wiki/Q902397", "source": "https://en.wikipedia.org/wiki/Opioid_epidemic_in_the_United_States", "what the article says": "==== States reject distributors' settlement ====\nIn February 2020, 21 US states turned down an $18 billion (US), 18-year offer from McKesson Corporation, Cardinal Health Inc, and AmerisourceBergen Corp. ==== July 2021 settlement ====\nFour major drug manufacturers and distributors, J&J, McKesson, Cardinal Health, and AmerisourceBergen, have agreed to a settlement announced by a group of state attorneys general in July 2021. ==== Cleveland Settlement ====\nThe United States' three largest pharmaceutical distributors, AmerisourceBergen, Cardinal Health and McKesson Corporation reached an agreement in October 2019 where they will pay two Ohio counties a combined US$215 million. 57 billion (75%) of these pain pills were distributed by these companies: McKesson Corporation, Walgreens, Cardinal Health, AmerisourceBergen, CVS and Walmart."}}, {"type": "Feature", "geometry": {"type": "Point", "coordinates": [-75.455, 40.07444]}, "properties": {"name": "Cencora", "group": "Named in the opioid epidemic's convictions and settlements", "headquarters": "Chesterbrook", "country": "United States", "placed at": "its headquarters", "Wikipedia": "https://en.wikipedia.org/wiki/Cencora", "Wikidata": "https://www.wikidata.org/wiki/Q470156", "source": "https://en.wikipedia.org/wiki/Opioid_epidemic_in_the_United_States", "what the article says": "==== States reject distributors' settlement ====\nIn February 2020, 21 US states turned down an $18 billion (US), 18-year offer from McKesson Corporation, Cardinal Health Inc, and AmerisourceBergen Corp. ==== July 2021 settlement ====\nFour major drug manufacturers and distributors, J&J, McKesson, Cardinal Health, and AmerisourceBergen, have agreed to a settlement announced by a group of state attorneys general in July 2021. ==== Cleveland Settlement ====\nThe United States' three largest pharmaceutical distributors, AmerisourceBergen, Cardinal Health and McKesson Corporation reached an agreement in October 2019 where they will pay two Ohio counties a combined US$215 million. 57 billion (75%) of these pain pills were distributed by these companies: McKesson Corporation, Walgreens, Cardinal Health, AmerisourceBergen, CVS and Walmart."}}, {"type": "Feature", "geometry": {"type": "Point", "coordinates": [34.83651, 32.11526]}, "properties": {"name": "Teva Pharmaceuticals", "group": "Named in the opioid epidemic's convictions and settlements", "headquarters": "Ramat HaHayal", "country": "Israel", "placed at": "its headquarters", "Wikipedia": "https://en.wikipedia.org/wiki/Teva_Pharmaceuticals", "Wikidata": "https://www.wikidata.org/wiki/Q898750", "source": "https://en.wikipedia.org/wiki/Opioid_epidemic_in_the_United_States", "what the article says": "Purdue Pharma, the maker of OxyContin, agreed to a fine of $270 million in March 2019, and Teva Pharmaceuticals, which makes generic drugs, agreed to pay $85 million in May. As part of the deal, Israel drug manufacturer Teva will also provide US$20 million in cash and US$25 million worth of Suboxone, an opioid addiction treatment."}}, {"type": "Feature", "geometry": {"type": "Point", "coordinates": [-98.5795, 39.82818]}, "properties": {"name": "Mallinckrodt", "group": "Named in the opioid epidemic's convictions and settlements", "headquarters": "United States", "country": "Ireland", "placed at": "its headquarters", "Wikipedia": "https://en.wikipedia.org/wiki/Mallinckrodt", "Wikidata": "https://www.wikidata.org/wiki/Q6744211", "source": "https://en.wikipedia.org/wiki/Opioid_epidemic_in_the_United_States", "what the article says": "Nearly 67 billion (88%) of the drugs were manufactured by SpecGx, a subsidiary of Mallinckrodt; Actavis Pharma; and Par Pharmaceutical, a subsidiary of Endo Pharmaceuticals."}}, {"type": "Feature", "geometry": {"type": "Point", "coordinates": [-8.0, 53.0]}, "properties": {"name": "Endo International", "group": "Named in the opioid epidemic's convictions and settlements", "headquarters": "Ireland", "country": "Ireland", "placed at": "its headquarters", "Wikipedia": "https://en.wikipedia.org/wiki/Endo_International", "Wikidata": "https://www.wikidata.org/wiki/Q5376211", "source": "https://en.wikipedia.org/wiki/Opioid_epidemic_in_the_United_States", "what the article says": "Nearly 67 billion (88%) of the drugs were manufactured by SpecGx, a subsidiary of Mallinckrodt; Actavis Pharma; and Par Pharmaceutical, a subsidiary of Endo Pharmaceuticals."}}, {"type": "Feature", "geometry": {"type": "Point", "coordinates": [-71.51611, 42.00833]}, "properties": {"name": "CVS Health", "group": "Named in the opioid epidemic's convictions and settlements", "headquarters": "Woonsocket", "country": "United States", "placed at": "its headquarters", "Wikipedia": "https://en.wikipedia.org/wiki/CVS_Health", "Wikidata": "https://www.wikidata.org/wiki/Q624375", "source": "https://en.wikipedia.org/wiki/Opioid_epidemic_in_the_United_States", "what the article says": "The defendants are pharmacy chains and operators, including Walmart, Walgreens and CVS. On August 17, 2022, CVS, Walgreens and Walmart were forced to pay out $650.5 million to Lake and Trumbull County. 57 billion (75%) of these pain pills were distributed by these companies: McKesson Corporation, Walgreens, Cardinal Health, AmerisourceBergen, CVS and Walmart."}}, {"type": "Feature", "geometry": {"type": "Point", "coordinates": [-87.85139, 42.16833]}, "properties": {"name": "Walgreens", "group": "Named in the opioid epidemic's convictions and settlements", "headquarters": "Deerfield", "country": "United States", "placed at": "its headquarters", "Wikipedia": "https://en.wikipedia.org/wiki/Walgreens", "Wikidata": "https://www.wikidata.org/wiki/Q1591889", "source": "https://en.wikipedia.org/wiki/Opioid_epidemic_in_the_United_States", "what the article says": "Among pharmacies, the most prolific distributor was Walgreens, which bought 13 billion oxycodone and hydrocodone pills from 2006 to 2012, about twenty percent of all such pills in US pharmacies. The defendants are pharmacy chains and operators, including Walmart, Walgreens and CVS. On August 17, 2022, CVS, Walgreens and Walmart were forced to pay out $650.5 million to Lake and Trumbull County. 57 billion (75%) of these pain pills were distributed by these companies: McKesson Corporation, Walgreens, Cardinal Health, AmerisourceBergen, CVS and Walmart."}}, {"type": "Feature", "geometry": {"type": "Point", "coordinates": [-94.21333, 36.36667]}, "properties": {"name": "Walmart", "group": "Named in the opioid epidemic's convictions and settlements", "headquarters": "Bentonville", "country": "United States", "placed at": "its headquarters", "Wikipedia": "https://en.wikipedia.org/wiki/Walmart", "Wikidata": "https://www.wikidata.org/wiki/Q483551", "source": "https://en.wikipedia.org/wiki/Opioid_epidemic_in_the_United_States", "what the article says": "A March 2020 report by ProPublica revealed that Walmart used its political influence with the Trump administration to avoid criminal prosecution for over-dispensing opioids in Texas. The defendants are pharmacy chains and operators, including Walmart, Walgreens and CVS. On August 17, 2022, CVS, Walgreens and Walmart were forced to pay out $650.5 million to Lake and Trumbull County. 57 billion (75%) of these pain pills were distributed by these companies: McKesson Corporation, Walgreens, Cardinal Health, AmerisourceBergen, CVS and Walmart."}}, {"type": "Feature", "geometry": {"type": "Point", "coordinates": [-74.00611, 40.71278]}, "properties": {"name": "McKinsey & Company", "group": "Named in the opioid epidemic's convictions and settlements", "headquarters": "New York City", "country": "United States", "placed at": "its headquarters", "Wikipedia": "https://en.wikipedia.org/wiki/McKinsey_%26_Company", "Wikidata": "https://www.wikidata.org/wiki/Q310207", "source": "https://en.wikipedia.org/wiki/Opioid_epidemic_in_the_United_States", "what the article says": "Consulting firm McKinsey & Company reached a nearly $600 million settlement with 49 of 50 U.S."}}, {"type": "Feature", "geometry": {"type": "Point", "coordinates": [-122.26806, 37.87028]}, "properties": {"name": "Cutter Laboratories", "group": "Sold blood products contaminated with HIV", "headquarters": "Berkeley", "country": "United States", "placed at": "its headquarters", "Wikipedia": "https://en.wikipedia.org/wiki/Cutter_Laboratories", "Wikidata": "https://www.wikidata.org/wiki/Q5196941", "source": "https://en.wikipedia.org/wiki/Contaminated_haemophilia_blood_products", "what the article says": "The companies involved included Alpha Therapeutic Corporation, Institut Mérieux (which then became Rhone-Poulenc Rorer Inc., and is now part of Sanofi), Bayer Corporation and its Cutter Biological division, and Baxter International and its Hyland Pharmaceutical division. In January 1983, the manager of plasma procurement for Bayer's Cutter Biological division acknowledged in a letter that \"There is strong evidence to suggest that AIDS is passed on to other people through ... plasma products.\" In March 1983, the CDC warned that blood products \"appear responsible for AIDS among hemophilia patients.\" By May 1983, a Cutter rival began making a heat-treated concentrate and France decided to halt all imports of clotting factor concentrates. Cutter feared losing customers, so according to an internal memo, Cutter \"want[ed] to give the impression that [they were] continuously improving our product without telling them [they expected] soon to also have a heat-treated\" concentrate."}}, {"type": "Feature", "geometry": {"type": "Point", "coordinates": [6.98333, 51.03333]}, "properties": {"name": "Bayer", "group": "Sold blood products contaminated with HIV", "headquarters": "Leverkusen", "country": "Germany", "placed at": "its headquarters", "Wikipedia": "https://en.wikipedia.org/wiki/Bayer", "Wikidata": "https://www.wikidata.org/wiki/Q152051", "source": "https://en.wikipedia.org/wiki/Contaminated_haemophilia_blood_products", "what the article says": "The companies involved included Alpha Therapeutic Corporation, Institut Mérieux (which then became Rhone-Poulenc Rorer Inc., and is now part of Sanofi), Bayer Corporation and its Cutter Biological division, and Baxter International and its Hyland Pharmaceutical division. In January 1983, the manager of plasma procurement for Bayer's Cutter Biological division acknowledged in a letter that \"There is strong evidence to suggest that AIDS is passed on to other people through ... Bayer officials (responding on behalf of Cutter) issued a statement, stating that Cutter continued to sell the old medicine, \"because some customers doubted the new drug's effectiveness\", and because some countries were slow to approve its sale. The company also said that a shortage of plasma, used to make the medicine, had kept Cutter from manufacturing more of the new product.\" Bayer officials also claimed that an overall plasma shortage in 1985 kept Cutter from making more heat treated medicine; however, because Cutter was using some of its limited plasma to continue making the old product, they may have contributed to the shortage."}}, {"type": "Feature", "geometry": {"type": "Point", "coordinates": [-87.85139, 42.16833]}, "properties": {"name": "Baxter International", "group": "Sold blood products contaminated with HIV", "headquarters": "Deerfield", "country": "United States", "placed at": "its headquarters", "Wikipedia": "https://en.wikipedia.org/wiki/Baxter_International", "Wikidata": "https://www.wikidata.org/wiki/Q761965", "source": "https://en.wikipedia.org/wiki/Contaminated_haemophilia_blood_products", "what the article says": "The companies involved included Alpha Therapeutic Corporation, Institut Mérieux (which then became Rhone-Poulenc Rorer Inc., and is now part of Sanofi), Bayer Corporation and its Cutter Biological division, and Baxter International and its Hyland Pharmaceutical division. Institut Mérieux is now part of Sanofi-Aventis, while Immuno AG was acquired by Baxter International in 1996. === United States ===\nIn 1993, top executives of three companies (Baxter International, Rhône-Poulenc and Alpha Therapeutic) met with leaders of the hemophilia community to outline the terms of a $125 million offer."}}]}