{"type": "FeatureCollection", "name": "Who Owns the Food Industry", "overlays": [], "filters": [{"label": "Type", "from": "the page's own sections", "rows": true, "values": [{"k": "Inputs · Seeds & Agrochemicals", "label": "Inputs · Seeds & Agrochemicals", "n": 4}, {"k": "Regional sites", "label": "Regional sites", "n": 40}, {"k": "Commodity Traders", "label": "Commodity Traders", "n": 6}, {"k": "Meat & Protein", "label": "Meat & Protein", "n": 5}, {"k": "Branded Manufacturers", "label": "Branded Manufacturers", "n": 20}, {"k": "Retail & Grocery", "label": "Retail & Grocery", "n": 7}, {"k": "Foodservice & Restaurants", "label": "Foodservice & Restaurants", "n": 6}, {"k": "Asset managers and financiers", "label": "Asset managers and financiers", "n": 8}, {"k": "Lobby groups", "label": "Lobby groups", "n": 5}, {"k": "Bodies in the industry's orbit", "label": "Bodies in the industry's orbit", "n": 12}, {"k": "Ties: shareholdings", "label": "Ties: shareholdings", "n": 88}, {"k": "Ties: lobby membership", "label": "Ties: lobby membership", "n": 27}, {"k": "Ties: the orbit", "label": "Ties: the orbit", "n": 76}]}], "features": [{"type": "Feature", "geometry": {"type": "Point", "coordinates": [6.985, 51.0307]}, "properties": {"k": "6b49882255e00a65", "c": "#2e7d32", "r": 10.0, "s": "#FFFFFF", "w": 2, "o": 0.95, "n": "Bayer", "p": 1, "f": "|Inputs · Seeds & Agrochemicals|"}}, {"type": "Feature", "geometry": {"type": "Point", "coordinates": [-90.564, 38.6627]}, "properties": {"k": "207fb7fab1ff417b", "c": "#2e7d32", "r": 4.0, "s": "#FFFFFF", "w": 1, "o": 0.8, "n": "Bayer: Crop Science US -- St. Louis", "p": 1, "f": "|Regional sites|"}}, {"type": "Feature", "geometry": {"type": "Point", "coordinates": [-86.2664, 39.7872]}, "properties": {"k": "0b98608639d5b99d", "c": "#2e7d32", "r": 9.123105625617661, "s": "#FFFFFF", "w": 2, "o": 0.95, "n": "Corteva", "p": 1, "f": "|Inputs · Seeds & Agrochemicals|"}}, {"type": "Feature", "geometry": {"type": "Point", "coordinates": [7.5906, 47.555]}, "properties": {"k": "e6745b99c97ee344", "c": "#2e7d32", "r": 10.744562646538029, "s": "#FFFFFF", "w": 2, "o": 0.95, "n": "Syngenta", "p": 1, "f": "|Inputs · Seeds & Agrochemicals|"}}, {"type": "Feature", "geometry": {"type": "Point", "coordinates": [116.3975, 39.9088]}, "properties": {"k": "3fac704d25da2631", "c": "#2e7d32", "r": 4.0, "s": "#FFFFFF", "w": 1, "o": 0.8, "n": "Syngenta: Parent -- Beijing", "p": 1, "f": "|Regional sites|"}}, {"type": "Feature", "geometry": {"type": "Point", "coordinates": [-106.6345, 52.117]}, "properties": {"k": "84055dd4025e7dca", "c": "#2e7d32", "r": 10.099019513592784, "s": "#FFFFFF", "w": 2, "o": 0.95, "n": "Nutrien", "p": 1, "f": "|Inputs · Seeds & Agrochemicals|"}}, {"type": "Feature", "geometry": {"type": "Point", "coordinates": [-93.5106, 44.969]}, "properties": {"k": "b7120c3c2897e1c0", "c": "#b8860b", "r": 16.0, "s": "#FFFFFF", "w": 2, "o": 0.95, "n": "Cargill", "p": 1, "f": "|Commodity Traders|"}}, {"type": "Feature", "geometry": {"type": "Point", "coordinates": [-0.1278, 51.5074]}, "properties": {"k": "f2bcf822407b204d", "c": "#b8860b", "r": 4.0, "s": "#FFFFFF", "w": 1, "o": 0.8, "n": "Cargill: Europe -- London", "p": 1, "f": "|Regional sites|"}}, {"type": "Feature", "geometry": {"type": "Point", "coordinates": [-46.685, -23.595]}, "properties": {"k": "076d8c12432ac08c", "c": "#b8860b", "r": 4.0, "s": "#FFFFFF", "w": 1, "o": 0.8, "n": "Cargill: S. America -- São Paulo", "p": 1, "f": "|Regional sites|"}}, {"type": "Feature", "geometry": {"type": "Point", "coordinates": [-87.632, 41.8869]}, "properties": {"k": "a880b41d6115428f", "c": "#b8860b", "r": 14.219544457292887, "s": "#FFFFFF", "w": 2, "o": 0.95, "n": "ADM", "p": 1, "f": "|Commodity Traders|"}}, {"type": "Feature", "geometry": {"type": "Point", "coordinates": [6.3286, 46.4583]}, "properties": {"k": "222c7a4c6e22ba47", "c": "#b8860b", "r": 4.0, "s": "#FFFFFF", "w": 1, "o": 0.8, "n": "ADM: EMEA -- Rolle, CH", "p": 1, "f": "|Regional sites|"}}, {"type": "Feature", "geometry": {"type": "Point", "coordinates": [103.8501, 1.2897]}, "properties": {"k": "255a29db220810b0", "c": "#b8860b", "r": 4.0, "s": "#FFFFFF", "w": 1, "o": 0.8, "n": "ADM: APAC -- Singapore", "p": 1, "f": "|Regional sites|"}}, {"type": "Feature", "geometry": {"type": "Point", "coordinates": [-46.697, -23.623]}, "properties": {"k": "58e5694153fe11ff", "c": "#b8860b", "r": 4.0, "s": "#FFFFFF", "w": 1, "o": 0.8, "n": "ADM: S. America -- São Paulo", "p": 1, "f": "|Regional sites|"}}, {"type": "Feature", "geometry": {"type": "Point", "coordinates": [-90.5771, 38.6631]}, "properties": {"k": "fe7275838cb5225b", "c": "#b8860b", "r": 12.280109889280517, "s": "#FFFFFF", "w": 2, "o": 0.95, "n": "Bunge", "p": 1, "f": "|Commodity Traders|"}}, {"type": "Feature", "geometry": {"type": "Point", "coordinates": [6.1432, 46.2044]}, "properties": {"k": "d3ee63125462dd5d", "c": "#b8860b", "r": 4.0, "s": "#FFFFFF", "w": 1, "o": 0.8, "n": "Bunge: Europe -- Geneva", "p": 1, "f": "|Regional sites|"}}, {"type": "Feature", "geometry": {"type": "Point", "coordinates": [6.1478, 46.2089]}, "properties": {"k": "d81fea07f12e6b53", "c": "#b8860b", "r": 12.071067811865476, "s": "#FFFFFF", "w": 2, "o": 0.95, "n": "Louis Dreyfus", "p": 1, "f": "|Commodity Traders|"}}, {"type": "Feature", "geometry": {"type": "Point", "coordinates": [-46.654, -23.563]}, "properties": {"k": "4b25c2fe10096e03", "c": "#b8860b", "r": 4.0, "s": "#FFFFFF", "w": 1, "o": 0.8, "n": "Louis Dreyfus: S. America -- São Paulo", "p": 1, "f": "|Regional sites|"}}, {"type": "Feature", "geometry": {"type": "Point", "coordinates": [116.3975, 39.9088]}, "properties": {"k": "baa5c9e0826374e2", "c": "#b8860b", "r": 13.366600265340756, "s": "#FFFFFF", "w": 2, "o": 0.95, "n": "COFCO", "p": 1, "f": "|Commodity Traders|"}}, {"type": "Feature", "geometry": {"type": "Point", "coordinates": [103.851, 1.284]}, "properties": {"k": "7743ffeaaa157116", "c": "#b8860b", "r": 4.0, "s": "#FFFFFF", "w": 1, "o": 0.8, "n": "COFCO: COFCO Intl -- Singapore", "p": 1, "f": "|Regional sites|"}}, {"type": "Feature", "geometry": {"type": "Point", "coordinates": [103.8456, 1.2756]}, "properties": {"k": "0a362f75d1fe5aeb", "c": "#b8860b", "r": 13.18535277187245, "s": "#FFFFFF", "w": 2, "o": 0.95, "n": "Wilmar", "p": 1, "f": "|Commodity Traders|"}}, {"type": "Feature", "geometry": {"type": "Point", "coordinates": [-46.7397, -23.5133]}, "properties": {"k": "5426c29e3e488b68", "c": "#a93226", "r": 13.774964387392123, "s": "#FFFFFF", "w": 2, "o": 0.95, "n": "JBS", "p": 1, "f": "|Meat & Protein|"}}, {"type": "Feature", "geometry": {"type": "Point", "coordinates": [-104.7091, 40.4221]}, "properties": {"k": "d6667a1eaaac2019", "c": "#a93226", "r": 4.0, "s": "#FFFFFF", "w": 1, "o": 0.8, "n": "JBS: US -- Greeley, CO", "p": 1, "f": "|Regional sites|"}}, {"type": "Feature", "geometry": {"type": "Point", "coordinates": [-94.1286, 36.2099]}, "properties": {"k": "938afb6952988c6c", "c": "#a93226", "r": 12.280109889280517, "s": "#FFFFFF", "w": 2, "o": 0.95, "n": "Tyson Foods", "p": 1, "f": "|Meat & Protein|"}}, {"type": "Feature", "geometry": {"type": "Point", "coordinates": [114.1747, 22.2783]}, "properties": {"k": "89f32717f36863dd", "c": "#a93226", "r": 10.099019513592784, "s": "#FFFFFF", "w": 2, "o": 0.95, "n": "WH Group", "p": 1, "f": "|Meat & Protein|"}}, {"type": "Feature", "geometry": {"type": "Point", "coordinates": [-76.6316, 36.9899]}, "properties": {"k": "bb0b63c35760f14f", "c": "#a93226", "r": 4.0, "s": "#FFFFFF", "w": 1, "o": 0.8, "n": "WH Group: Smithfield -- Virginia", "p": 1, "f": "|Regional sites|"}}, {"type": "Feature", "geometry": {"type": "Point", "coordinates": [-46.8456, -23.5018]}, "properties": {"k": "0af26f286cac92ce", "c": "#a93226", "r": 8.74165738677394, "s": "#FFFFFF", "w": 2, "o": 0.95, "n": "BRF", "p": 1, "f": "|Meat & Protein|"}}, {"type": "Feature", "geometry": {"type": "Point", "coordinates": [-46.697, -23.601]}, "properties": {"k": "b5d8f40f36aa45db", "c": "#a93226", "r": 10.099019513592784, "s": "#FFFFFF", "w": 2, "o": 0.95, "n": "Marfrig", "p": 1, "f": "|Meat & Protein|"}}, {"type": "Feature", "geometry": {"type": "Point", "coordinates": [6.8421, 46.4577]}, "properties": {"k": "b78d7664092d9f8a", "c": "#1f6fb2", "r": 15.14889156509222, "s": "#FFFFFF", "w": 2, "o": 0.95, "n": "Nestlé", "p": 1, "f": "|Branded Manufacturers|"}}, {"type": "Feature", "geometry": {"type": "Point", "coordinates": [-77.091, 38.8816]}, "properties": {"k": "e08e4e330911000d", "c": "#1f6fb2", "r": 4.0, "s": "#FFFFFF", "w": 1, "o": 0.8, "n": "Nestlé: Nestlé USA -- Arlington", "p": 1, "f": "|Regional sites|"}}, {"type": "Feature", "geometry": {"type": "Point", "coordinates": [103.8519, 1.2903]}, "properties": {"k": "a4c4d5b97d4517f4", "c": "#1f6fb2", "r": 4.0, "s": "#FFFFFF", "w": 1, "o": 0.8, "n": "Nestlé: Zone AOA -- Singapore", "p": 1, "f": "|Regional sites|"}}, {"type": "Feature", "geometry": {"type": "Point", "coordinates": [-73.7006, 41.029]}, "properties": {"k": "14d396d31b3efaf4", "c": "#1f6fb2", "r": 14.591663046625438, "s": "#FFFFFF", "w": 2, "o": 0.95, "n": "PepsiCo", "p": 1, "f": "|Branded Manufacturers|"}}, {"type": "Feature", "geometry": {"type": "Point", "coordinates": [55.2708, 25.2048]}, "properties": {"k": "8bc04c2cd192d767", "c": "#1f6fb2", "r": 4.0, "s": "#FFFFFF", "w": 1, "o": 0.8, "n": "PepsiCo: AMESA -- Dubai", "p": 1, "f": "|Regional sites|"}}, {"type": "Feature", "geometry": {"type": "Point", "coordinates": [-99.1332, 19.4326]}, "properties": {"k": "b388ee97e7446b0e", "c": "#1f6fb2", "r": 4.0, "s": "#FFFFFF", "w": 1, "o": 0.8, "n": "PepsiCo: LatAm -- Mexico City", "p": 1, "f": "|Regional sites|"}}, {"type": "Feature", "geometry": {"type": "Point", "coordinates": [121.4737, 31.2304]}, "properties": {"k": "8305455da370e352", "c": "#1f6fb2", "r": 4.0, "s": "#FFFFFF", "w": 1, "o": 0.8, "n": "PepsiCo: APAC -- Shanghai", "p": 1, "f": "|Regional sites|"}}, {"type": "Feature", "geometry": {"type": "Point", "coordinates": [-84.3921, 33.7676]}, "properties": {"k": "ab32e4edfa25cb01", "c": "#1f6fb2", "r": 11.855654600401044, "s": "#FFFFFF", "w": 2, "o": 0.95, "n": "Coca-Cola", "p": 1, "f": "|Branded Manufacturers|"}}, {"type": "Feature", "geometry": {"type": "Point", "coordinates": [-0.1278, 51.5074]}, "properties": {"k": "c4b6b4c74f0760f0", "c": "#1f6fb2", "r": 4.0, "s": "#FFFFFF", "w": 1, "o": 0.8, "n": "Coca-Cola: Europe -- London", "p": 1, "f": "|Regional sites|"}}, {"type": "Feature", "geometry": {"type": "Point", "coordinates": [-99.1332, 19.4326]}, "properties": {"k": "10ad9fbe94fb2e66", "c": "#1f6fb2", "r": 4.0, "s": "#FFFFFF", "w": 1, "o": 0.8, "n": "Coca-Cola: LatAm -- Mexico City", "p": 1, "f": "|Regional sites|"}}, {"type": "Feature", "geometry": {"type": "Point", "coordinates": [-87.6219, 41.8855]}, "properties": {"k": "1e8059dd7c56d10c", "c": "#1f6fb2", "r": 11.0, "s": "#FFFFFF", "w": 2, "o": 0.95, "n": "Mondelēz", "p": 1, "f": "|Branded Manufacturers|"}}, {"type": "Feature", "geometry": {"type": "Point", "coordinates": [8.5417, 47.3769]}, "properties": {"k": "23f9e9f5d938b54d", "c": "#1f6fb2", "r": 4.0, "s": "#FFFFFF", "w": 1, "o": 0.8, "n": "Mondelēz: Europe -- Zurich", "p": 1, "f": "|Regional sites|"}}, {"type": "Feature", "geometry": {"type": "Point", "coordinates": [103.8519, 1.2903]}, "properties": {"k": "1a2a2ef7468cbc5b", "c": "#1f6fb2", "r": 4.0, "s": "#FFFFFF", "w": 1, "o": 0.8, "n": "Mondelēz: APAC -- Singapore", "p": 1, "f": "|Regional sites|"}}, {"type": "Feature", "geometry": {"type": "Point", "coordinates": [-77.176, 38.93]}, "properties": {"k": "9f4eae5070cde1df", "c": "#1f6fb2", "r": 12.745966692414834, "s": "#FFFFFF", "w": 2, "o": 0.95, "n": "Mars", "p": 1, "f": "|Branded Manufacturers|"}}, {"type": "Feature", "geometry": {"type": "Point", "coordinates": [-0.595, 51.5105]}, "properties": {"k": "aefa03138a001f5f", "c": "#1f6fb2", "r": 4.0, "s": "#FFFFFF", "w": 1, "o": 0.8, "n": "Mars: EMEA -- Slough", "p": 1, "f": "|Regional sites|"}}, {"type": "Feature", "geometry": {"type": "Point", "coordinates": [4.3517, 50.8503]}, "properties": {"k": "e5a2137018d8a09a", "c": "#1f6fb2", "r": 4.0, "s": "#FFFFFF", "w": 1, "o": 0.8, "n": "Mars: Petcare -- Brussels", "p": 1, "f": "|Regional sites|"}}, {"type": "Feature", "geometry": {"type": "Point", "coordinates": [-93.3636, 44.969]}, "properties": {"k": "7ad6b8c703213b6b", "c": "#1f6fb2", "r": 9.47213595499958, "s": "#FFFFFF", "w": 2, "o": 0.95, "n": "General Mills", "p": 1, "f": "|Branded Manufacturers|"}}, {"type": "Feature", "geometry": {"type": "Point", "coordinates": [6.2333, 46.3833]}, "properties": {"k": "1389519860d646b3", "c": "#1f6fb2", "r": 4.0, "s": "#FFFFFF", "w": 1, "o": 0.8, "n": "General Mills: Europe -- Nyon", "p": 1, "f": "|Regional sites|"}}, {"type": "Feature", "geometry": {"type": "Point", "coordinates": [2.301, 48.8716]}, "properties": {"k": "0ac9e3a4616506bd", "c": "#1f6fb2", "r": 10.385164807134505, "s": "#FFFFFF", "w": 2, "o": 0.95, "n": "Danone", "p": 1, "f": "|Branded Manufacturers|"}}, {"type": "Feature", "geometry": {"type": "Point", "coordinates": [103.8519, 1.2903]}, "properties": {"k": "84b676bc4b32835e", "c": "#1f6fb2", "r": 4.0, "s": "#FFFFFF", "w": 1, "o": 0.8, "n": "Danone: Asia -- Singapore", "p": 1, "f": "|Regional sites|"}}, {"type": "Feature", "geometry": {"type": "Point", "coordinates": [-46.6333, -23.5505]}, "properties": {"k": "fc87e18e0c020e28", "c": "#1f6fb2", "r": 4.0, "s": "#FFFFFF", "w": 1, "o": 0.8, "n": "Danone: LatAm -- São Paulo", "p": 1, "f": "|Regional sites|"}}, {"type": "Feature", "geometry": {"type": "Point", "coordinates": [-0.1357, 51.5093]}, "properties": {"k": "c1dc1a97717ee220", "c": "#1f6fb2", "r": 8.872983346207416, "s": "#FFFFFF", "w": 2, "o": 0.95, "n": "Assoc. British Foods", "p": 1, "f": "|Branded Manufacturers|"}}, {"type": "Feature", "geometry": {"type": "Point", "coordinates": [-87.6213, 41.8849]}, "properties": {"k": "e4df21668a4f091a", "c": "#1f6fb2", "r": 10.099019513592784, "s": "#FFFFFF", "w": 2, "o": 0.95, "n": "Kraft Heinz", "p": 1, "f": "|Branded Manufacturers|"}}, {"type": "Feature", "geometry": {"type": "Point", "coordinates": [-79.9956, 40.4419]}, "properties": {"k": "e69abd64c7de9caf", "c": "#1f6fb2", "r": 4.0, "s": "#FFFFFF", "w": 1, "o": 0.8, "n": "Kraft Heinz: Co-HQ -- Pittsburgh", "p": 1, "f": "|Regional sites|"}}, {"type": "Feature", "geometry": {"type": "Point", "coordinates": [4.9041, 52.3676]}, "properties": {"k": "adbabb9e050edb1e", "c": "#1f6fb2", "r": 4.0, "s": "#FFFFFF", "w": 1, "o": 0.8, "n": "Kraft Heinz: Intl -- Amsterdam", "p": 1, "f": "|Regional sites|"}}, {"type": "Feature", "geometry": {"type": "Point", "coordinates": [8.0353, 44.7009]}, "properties": {"k": "6d1f5d8749ad03d1", "c": "#1f6fb2", "r": 9.358898943540673, "s": "#FFFFFF", "w": 2, "o": 0.95, "n": "Ferrero", "p": 1, "f": "|Branded Manufacturers|"}}, {"type": "Feature", "geometry": {"type": "Point", "coordinates": [6.1319, 49.6116]}, "properties": {"k": "48465d35e08dc578", "c": "#1f6fb2", "r": 4.0, "s": "#FFFFFF", "w": 1, "o": 0.8, "n": "Ferrero: Holding -- Luxembourg", "p": 1, "f": "|Regional sites|"}}, {"type": "Feature", "geometry": {"type": "Point", "coordinates": [-74.4257, 40.8579]}, "properties": {"k": "6d9e959e561f05d5", "c": "#1f6fb2", "r": 4.0, "s": "#FFFFFF", "w": 1, "o": 0.8, "n": "Ferrero: N. America -- Parsippany", "p": 1, "f": "|Regional sites|"}}, {"type": "Feature", "geometry": {"type": "Point", "coordinates": [-96.82, 33.1003]}, "properties": {"k": "97ed6bf343f8db99", "c": "#1f6fb2", "r": 8.872983346207416, "s": "#FFFFFF", "w": 2, "o": 0.95, "n": "Keurig Dr Pepper", "p": 1, "f": "|Branded Manufacturers|"}}, {"type": "Feature", "geometry": {"type": "Point", "coordinates": [-71.1956, 42.5048]}, "properties": {"k": "391f87ecf291d2c4", "c": "#1f6fb2", "r": 4.0, "s": "#FFFFFF", "w": 1, "o": 0.8, "n": "Keurig Dr Pepper: Coffee -- Burlington, MA", "p": 1, "f": "|Regional sites|"}}, {"type": "Feature", "geometry": {"type": "Point", "coordinates": [-75.119, 39.929]}, "properties": {"k": "972f42c0925cac44", "c": "#1f6fb2", "r": 8.16227766016838, "s": "#FFFFFF", "w": 2, "o": 0.95, "n": "Campbell's", "p": 1, "f": "|Branded Manufacturers|"}}, {"type": "Feature", "geometry": {"type": "Point", "coordinates": [-87.6386, 41.8836]}, "properties": {"k": "693c9ad05f89f196", "c": "#1f6fb2", "r": 8.464101615137753, "s": "#FFFFFF", "w": 2, "o": 0.95, "n": "Conagra", "p": 1, "f": "|Branded Manufacturers|"}}, {"type": "Feature", "geometry": {"type": "Point", "coordinates": [-81.7646, 40.8423]}, "properties": {"k": "a8b19d1ac1064960", "c": "#1f6fb2", "r": 8.0, "s": "#FFFFFF", "w": 2, "o": 0.95, "n": "J.M. Smucker", "p": 1, "f": "|Branded Manufacturers|"}}, {"type": "Feature", "geometry": {"type": "Point", "coordinates": [-92.9747, 43.6694]}, "properties": {"k": "ba3f5a9d81653768", "c": "#1f6fb2", "r": 8.464101615137753, "s": "#FFFFFF", "w": 2, "o": 0.95, "n": "Hormel", "p": 1, "f": "|Branded Manufacturers|"}}, {"type": "Feature", "geometry": {"type": "Point", "coordinates": [-0.1057, 51.5113]}, "properties": {"k": "b355bf88c3d67262", "c": "#1f6fb2", "r": 8.74165738677394, "s": "#FFFFFF", "w": 2, "o": 0.95, "n": "Unilever", "p": 1, "f": "|Branded Manufacturers|"}}, {"type": "Feature", "geometry": {"type": "Point", "coordinates": [4.4777, 51.9244]}, "properties": {"k": "455b64d8b6ddf316", "c": "#1f6fb2", "r": 4.0, "s": "#FFFFFF", "w": 1, "o": 0.8, "n": "Unilever: Rotterdam", "p": 1, "f": "|Regional sites|"}}, {"type": "Feature", "geometry": {"type": "Point", "coordinates": [72.8777, 19.076]}, "properties": {"k": "9ea994bdca213aea", "c": "#1f6fb2", "r": 4.0, "s": "#FFFFFF", "w": 1, "o": 0.8, "n": "Unilever: HUL -- Mumbai", "p": 1, "f": "|Regional sites|"}}, {"type": "Feature", "geometry": {"type": "Point", "coordinates": [4.9469, 52.3091]}, "properties": {"k": "c52187371cb4abb3", "c": "#1f6fb2", "r": 7.91547594742265, "s": "#FFFFFF", "w": 2, "o": 0.95, "n": "Magnum Ice Cream Co.", "p": 1, "f": "|Branded Manufacturers|"}}, {"type": "Feature", "geometry": {"type": "Point", "coordinates": [-0.97, 51.4575]}, "properties": {"k": "84eb2245a2e50137", "c": "#1f6fb2", "r": 4.0, "s": "#FFFFFF", "w": 1, "o": 0.8, "n": "Magnum Ice Cream Co.: Ops -- Reading, UK", "p": 1, "f": "|Regional sites|"}}, {"type": "Feature", "geometry": {"type": "Point", "coordinates": [-82.448, 27.962]}, "properties": {"k": "a8c759e161b4ad1c", "c": "#1f6fb2", "r": 7.6076809620810595, "s": "#FFFFFF", "w": 2, "o": 0.95, "n": "Primo Brands", "p": 1, "f": "|Branded Manufacturers|"}}, {"type": "Feature", "geometry": {"type": "Point", "coordinates": [-87.65, 41.85]}, "properties": {"k": "5f3b8c569dc9c36f", "c": "#1f6fb2", "r": 6.732050807568877, "s": "#FFFFFF", "w": 2, "o": 0.95, "n": "Tropicana Brands Grp", "p": 1, "f": "|Branded Manufacturers|"}}, {"type": "Feature", "geometry": {"type": "Point", "coordinates": [4.3007, 52.0705]}, "properties": {"k": "2880b36b996851d0", "c": "#1f6fb2", "r": 6.58113883008419, "s": "#FFFFFF", "w": 2, "o": 0.95, "n": "Lipton Teas & Infusions", "p": 1, "f": "|Branded Manufacturers|"}}, {"type": "Feature", "geometry": {"type": "Point", "coordinates": [-94.2192, 36.3641]}, "properties": {"k": "2e6648ac4c91737a", "c": "#884ea0", "r": 16.0, "s": "#FFFFFF", "w": 2, "o": 0.95, "n": "Walmart", "p": 1, "f": "|Retail & Grocery|"}}, {"type": "Feature", "geometry": {"type": "Point", "coordinates": [-99.1332, 19.4326]}, "properties": {"k": "a93455192ac02417", "c": "#884ea0", "r": 4.0, "s": "#FFFFFF", "w": 1, "o": 0.8, "n": "Walmart: Walmart de México", "p": 1, "f": "|Regional sites|"}}, {"type": "Feature", "geometry": {"type": "Point", "coordinates": [-122.0269, 47.5468]}, "properties": {"k": "e3d5bcf1e1270d18", "c": "#884ea0", "r": 16.0, "s": "#FFFFFF", "w": 2, "o": 0.95, "n": "Costco", "p": 1, "f": "|Retail & Grocery|"}}, {"type": "Feature", "geometry": {"type": "Point", "coordinates": [9.208, 49.1486]}, "properties": {"k": "faf9423a0353a4d7", "c": "#884ea0", "r": 16.0, "s": "#FFFFFF", "w": 2, "o": 0.95, "n": "Schwarz Group", "p": 1, "f": "|Retail & Grocery|"}}, {"type": "Feature", "geometry": {"type": "Point", "coordinates": [-84.5067, 39.1023]}, "properties": {"k": "4b104272280df66a", "c": "#884ea0", "r": 16.0, "s": "#FFFFFF", "w": 2, "o": 0.95, "n": "Kroger", "p": 1, "f": "|Retail & Grocery|"}}, {"type": "Feature", "geometry": {"type": "Point", "coordinates": [4.827, 52.4389]}, "properties": {"k": "94125c0ceccbc14e", "c": "#884ea0", "r": 14.899494936611665, "s": "#FFFFFF", "w": 2, "o": 0.95, "n": "Ahold Delhaize", "p": 1, "f": "|Retail & Grocery|"}}, {"type": "Feature", "geometry": {"type": "Point", "coordinates": [-71.0023, 42.2529]}, "properties": {"k": "ed1b59a118ed8715", "c": "#884ea0", "r": 4.0, "s": "#FFFFFF", "w": 1, "o": 0.8, "n": "Ahold Delhaize: US -- Quincy, MA", "p": 1, "f": "|Regional sites|"}}, {"type": "Feature", "geometry": {"type": "Point", "coordinates": [2.2654, 48.7297]}, "properties": {"k": "4547b5849090f36b", "c": "#884ea0", "r": 14.695359714832659, "s": "#FFFFFF", "w": 2, "o": 0.95, "n": "Carrefour", "p": 1, "f": "|Retail & Grocery|"}}, {"type": "Feature", "geometry": {"type": "Point", "coordinates": [-46.6333, -23.5505]}, "properties": {"k": "2a1c25f558c44150", "c": "#884ea0", "r": 4.0, "s": "#FFFFFF", "w": 1, "o": 0.8, "n": "Carrefour: Brazil -- São Paulo", "p": 1, "f": "|Regional sites|"}}, {"type": "Feature", "geometry": {"type": "Point", "coordinates": [-0.2061, 51.8008]}, "properties": {"k": "9c1fc3fddc79485b", "c": "#884ea0", "r": 14.219544457292887, "s": "#FFFFFF", "w": 2, "o": 0.95, "n": "Tesco", "p": 1, "f": "|Retail & Grocery|"}}, {"type": "Feature", "geometry": {"type": "Point", "coordinates": [-95.5654, 29.7958]}, "properties": {"k": "6a80deff5b33a336", "c": "#d35400", "r": 13.888194417315589, "s": "#FFFFFF", "w": 2, "o": 0.95, "n": "Sysco", "p": 1, "f": "|Foodservice & Restaurants|"}}, {"type": "Feature", "geometry": {"type": "Point", "coordinates": [-0.496, 51.387]}, "properties": {"k": "9dd9945145403ea7", "c": "#d35400", "r": 11.48074069840786, "s": "#FFFFFF", "w": 2, "o": 0.95, "n": "Compass Group", "p": 1, "f": "|Foodservice & Restaurants|"}}, {"type": "Feature", "geometry": {"type": "Point", "coordinates": [-80.8431, 35.2271]}, "properties": {"k": "fc352ac28fba33b8", "c": "#d35400", "r": 4.0, "s": "#FFFFFF", "w": 1, "o": 0.8, "n": "Compass Group: US -- Charlotte", "p": 1, "f": "|Regional sites|"}}, {"type": "Feature", "geometry": {"type": "Point", "coordinates": [-87.6533, 41.8868]}, "properties": {"k": "6008afd508998c3d", "c": "#d35400", "r": 10.099019513592784, "s": "#FFFFFF", "w": 2, "o": 0.95, "n": "McDonald's", "p": 1, "f": "|Foodservice & Restaurants|"}}, {"type": "Feature", "geometry": {"type": "Point", "coordinates": [-0.1278, 51.5074]}, "properties": {"k": "91b912fbb4bbbb0f", "c": "#d35400", "r": 4.0, "s": "#FFFFFF", "w": 1, "o": 0.8, "n": "McDonald's: Intl -- London", "p": 1, "f": "|Regional sites|"}}, {"type": "Feature", "geometry": {"type": "Point", "coordinates": [-85.648, 38.221]}, "properties": {"k": "5e673400d0e97190", "c": "#d35400", "r": 7.738612787525831, "s": "#FFFFFF", "w": 2, "o": 0.95, "n": "Yum! Brands", "p": 1, "f": "|Foodservice & Restaurants|"}}, {"type": "Feature", "geometry": {"type": "Point", "coordinates": [-79.387, 43.6481]}, "properties": {"k": "7f2f2383f28db530", "c": "#d35400", "r": 7.898275349237888, "s": "#FFFFFF", "w": 2, "o": 0.95, "n": "Restaurant Brands Intl", "p": 1, "f": "|Foodservice & Restaurants|"}}, {"type": "Feature", "geometry": {"type": "Point", "coordinates": [-122.3354, 47.5805]}, "properties": {"k": "df9543c05a3ca338", "c": "#d35400", "r": 11.0, "s": "#FFFFFF", "w": 2, "o": 0.95, "n": "Starbucks", "p": 1, "f": "|Foodservice & Restaurants|"}}, {"type": "Feature", "geometry": {"type": "Point", "coordinates": [121.4737, 31.2304]}, "properties": {"k": "77f64be2215eecdb", "c": "#d35400", "r": 4.0, "s": "#FFFFFF", "w": 1, "o": 0.8, "n": "Starbucks: China -- Shanghai", "p": 1, "f": "|Regional sites|"}}, {"type": "Feature", "geometry": {"type": "Point", "coordinates": [-75.5022, 40.0451]}, "properties": {"k": "61bafe6fb67a6ec8", "c": "#c0392b", "r": 9.0, "s": "#FFFFFF", "w": 2, "o": 0.95, "n": "Vanguard", "p": 1, "f": "|Asset managers and financiers|"}}, {"type": "Feature", "geometry": {"type": "Point", "coordinates": [-73.9786, 40.7589]}, "properties": {"k": "804d7f0b1f2be8a8", "c": "#1c2833", "r": 9.0, "s": "#FFFFFF", "w": 2, "o": 0.95, "n": "BlackRock", "p": 1, "f": "|Asset managers and financiers|"}}, {"type": "Feature", "geometry": {"type": "Point", "coordinates": [-71.053, 42.3554]}, "properties": {"k": "c18fe361754943b8", "c": "#2471a3", "r": 9.0, "s": "#FFFFFF", "w": 2, "o": 0.95, "n": "State Street", "p": 1, "f": "|Asset managers and financiers|"}}, {"type": "Feature", "geometry": {"type": "Point", "coordinates": [-95.992, 41.2335]}, "properties": {"k": "9305b00074eb05c8", "c": "#148f77", "r": 9.0, "s": "#FFFFFF", "w": 2, "o": 0.95, "n": "Berkshire Hathaway", "p": 1, "f": "|Asset managers and financiers|"}}, {"type": "Feature", "geometry": {"type": "Point", "coordinates": [6.1319, 49.6116]}, "properties": {"k": "fc49ea239f2cef1d", "c": "#8e44ad", "r": 9.0, "s": "#FFFFFF", "w": 2, "o": 0.95, "n": "JAB Holding", "p": 1, "f": "|Asset managers and financiers|"}}, {"type": "Feature", "geometry": {"type": "Point", "coordinates": [-73.984, 40.7549]}, "properties": {"k": "2a3eaf14aa4598ac", "c": "#e67e22", "r": 9.0, "s": "#FFFFFF", "w": 2, "o": 0.95, "n": "3G Capital", "p": 1, "f": "|Asset managers and financiers|"}}, {"type": "Feature", "geometry": {"type": "Point", "coordinates": [2.3078, 48.8698]}, "properties": {"k": "e02e3c974714a56e", "c": "#d4ac0d", "r": 9.0, "s": "#FFFFFF", "w": 2, "o": 0.95, "n": "PAI Partners", "p": 1, "f": "|Asset managers and financiers|"}}, {"type": "Feature", "geometry": {"type": "Point", "coordinates": [6.13, 49.61]}, "properties": {"k": "e6f71bf30a931231", "c": "#16a085", "r": 9.0, "s": "#FFFFFF", "w": 2, "o": 0.95, "n": "CVC Capital", "p": 1, "f": "|Asset managers and financiers|"}}, {"type": "Feature", "geometry": {"type": "Point", "coordinates": [6.1432, 46.2044]}, "properties": {"k": "71003eeaac3d3a7e", "c": "#c2185b", "r": 9.0, "s": "#FFFFFF", "w": 2, "o": 0.95, "n": "IFBA", "p": 1, "f": "|Lobby groups|"}}, {"type": "Feature", "geometry": {"type": "Point", "coordinates": [-77.1068, 38.8799]}, "properties": {"k": "a10b76b463c6941d", "c": "#2471a3", "r": 9.0, "s": "#FFFFFF", "w": 2, "o": 0.95, "n": "Consumer Brands Assoc.", "p": 1, "f": "|Lobby groups|"}}, {"type": "Feature", "geometry": {"type": "Point", "coordinates": [-77.0421, 38.9026]}, "properties": {"k": "15597e172b6585ad", "c": "#148f77", "r": 9.0, "s": "#FFFFFF", "w": 2, "o": 0.95, "n": "American Beverage Assoc.", "p": 1, "f": "|Lobby groups|"}}, {"type": "Feature", "geometry": {"type": "Point", "coordinates": [-77.05, 38.9045]}, "properties": {"k": "43b8f5b1b8a087d1", "c": "#a93226", "r": 9.0, "s": "#FFFFFF", "w": 2, "o": 0.95, "n": "Meat Institute", "p": 1, "f": "|Lobby groups|"}}, {"type": "Feature", "geometry": {"type": "Point", "coordinates": [4.3517, 50.8503]}, "properties": {"k": "9cb4b506f907ed5a", "c": "#2e7d32", "r": 9.0, "s": "#FFFFFF", "w": 2, "o": 0.95, "n": "CropLife Intl", "p": 1, "f": "|Lobby groups|"}}, {"type": "Feature", "geometry": {"type": "Point", "coordinates": [6.18, 46.226]}, "properties": {"k": "be9e4fce5233799a", "c": "#3949ab", "r": 9.0, "s": "#FFFFFF", "w": 2, "o": 0.95, "n": "WEF", "p": 1, "f": "|Bodies in the industry's orbit|"}}, {"type": "Feature", "geometry": {"type": "Point", "coordinates": [2.273, 48.8245]}, "properties": {"k": "913fbd38fda44e41", "c": "#6a1b9a", "r": 9.0, "s": "#FFFFFF", "w": 2, "o": 0.95, "n": "Consumer Goods Forum", "p": 1, "f": "|Bodies in the industry's orbit|"}}, {"type": "Feature", "geometry": {"type": "Point", "coordinates": [12.4894, 41.8835]}, "properties": {"k": "2cf7a00df2c8c393", "c": "#00897b", "r": 9.0, "s": "#FFFFFF", "w": 2, "o": 0.95, "n": "Codex Alimentarius", "p": 1, "f": "|Bodies in the industry's orbit|"}}, {"type": "Feature", "geometry": {"type": "Point", "coordinates": [12.485, 41.879]}, "properties": {"k": "d59b3e13f9d2ea4b", "c": "#00838f", "r": 9.0, "s": "#FFFFFF", "w": 2, "o": 0.95, "n": "FAO", "p": 1, "f": "|Bodies in the industry's orbit|"}}, {"type": "Feature", "geometry": {"type": "Point", "coordinates": [6.14, 46.2336]}, "properties": {"k": "d1c2be5c9d8df31b", "c": "#1565c0", "r": 9.0, "s": "#FFFFFF", "w": 2, "o": 0.95, "n": "WHO", "p": 1, "f": "|Bodies in the industry's orbit|"}}, {"type": "Feature", "geometry": {"type": "Point", "coordinates": [6.1495, 46.2244]}, "properties": {"k": "7c927504b4ee5d60", "c": "#4527a0", "r": 9.0, "s": "#FFFFFF", "w": 2, "o": 0.95, "n": "WTO", "p": 1, "f": "|Bodies in the industry's orbit|"}}, {"type": "Feature", "geometry": {"type": "Point", "coordinates": [6.137, 46.228]}, "properties": {"k": "8a79126f5b28b182", "c": "#d81b60", "r": 9.0, "s": "#FFFFFF", "w": 2, "o": 0.95, "n": "GAIN", "p": 1, "f": "|Bodies in the industry's orbit|"}}, {"type": "Feature", "geometry": {"type": "Point", "coordinates": [6.15, 46.22]}, "properties": {"k": "fc817032714df764", "c": "#ad1457", "r": 9.0, "s": "#FFFFFF", "w": 2, "o": 0.95, "n": "SUN Movement", "p": 1, "f": "|Bodies in the industry's orbit|"}}, {"type": "Feature", "geometry": {"type": "Point", "coordinates": [-77.043, 38.905]}, "properties": {"k": "d0f0a89b5b157cda", "c": "#b71c1c", "r": 9.0, "s": "#FFFFFF", "w": 2, "o": 0.95, "n": "ILSI / IAFNS", "p": 1, "f": "|Bodies in the industry's orbit|"}}, {"type": "Feature", "geometry": {"type": "Point", "coordinates": [101.71, 3.15]}, "properties": {"k": "b4a18a789e54a12a", "c": "#1b5e20", "r": 9.0, "s": "#FFFFFF", "w": 2, "o": 0.95, "n": "RSPO", "p": 1, "f": "|Bodies in the industry's orbit|"}}, {"type": "Feature", "geometry": {"type": "Point", "coordinates": [-122.351, 47.627]}, "properties": {"k": "b30244db9433bafe", "c": "#ef6c00", "r": 9.0, "s": "#FFFFFF", "w": 2, "o": 0.95, "n": "Gates Foundation", "p": 1, "f": "|Bodies in the industry's orbit|"}}, {"type": "Feature", "geometry": {"type": "Point", "coordinates": [36.817, -1.286]}, "properties": {"k": "ca3152bef2ddb688", "c": "#6d4c41", "r": 9.0, "s": "#FFFFFF", "w": 2, "o": 0.95, "n": "AGRA", "p": 1, "f": "|Bodies in the industry's orbit|"}}, {"type": "Feature", "geometry": {"type": "LineString", "coordinates": [[-75.5022, 40.0451], [6.985, 51.0307]]}, "properties": {"k": "96db40109c36193b", "c": "#c0392b", "w": 1, "o": 0.5, "n": "Vanguard – Bayer", "p": 1, "f": "|Ties: shareholdings|"}}, {"type": "Feature", "geometry": {"type": "LineString", "coordinates": [[-75.5022, 40.0451], [-86.2664, 39.7872]]}, "properties": {"k": "dcea8885b739518b", "c": "#c0392b", "w": 1, "o": 0.5, "n": "Vanguard – Corteva", "p": 1, "f": "|Ties: shareholdings|"}}, {"type": "Feature", "geometry": {"type": "LineString", "coordinates": [[-75.5022, 40.0451], [-106.6345, 52.117]]}, "properties": {"k": "b2252f0c80a53b5b", "c": "#c0392b", "w": 1, "o": 0.5, "n": "Vanguard – Nutrien", "p": 1, "f": "|Ties: shareholdings|"}}, {"type": "Feature", "geometry": {"type": "LineString", "coordinates": [[-75.5022, 40.0451], [-87.632, 41.8869]]}, "properties": {"k": "66b9c1b5f593307b", "c": "#c0392b", "w": 1, "o": 0.5, "n": "Vanguard – ADM", "p": 1, "f": "|Ties: shareholdings|"}}, {"type": "Feature", "geometry": {"type": "LineString", "coordinates": [[-75.5022, 40.0451], [-90.5771, 38.6631]]}, "properties": {"k": "75d897811cb75b7b", "c": "#c0392b", "w": 1, "o": 0.5, "n": "Vanguard – Bunge", "p": 1, "f": "|Ties: shareholdings|"}}, {"type": "Feature", "geometry": {"type": "LineString", "coordinates": [[-75.5022, 40.0451], [6.8421, 46.4577]]}, "properties": {"k": "dde8ae6f321b1e3f", "c": "#c0392b", "w": 1, "o": 0.5, "n": "Vanguard – Nestlé", "p": 1, "f": "|Ties: shareholdings|"}}, {"type": "Feature", "geometry": {"type": "LineString", "coordinates": [[-75.5022, 40.0451], [-73.7006, 41.029]]}, "properties": {"k": "d503c1e23fd1df7e", "c": "#c0392b", "w": 1, "o": 0.5, "n": "Vanguard – PepsiCo", "p": 1, "f": "|Ties: shareholdings|"}}, {"type": "Feature", "geometry": {"type": "LineString", "coordinates": [[-75.5022, 40.0451], [-84.3921, 33.7676]]}, "properties": {"k": "266928991847497a", "c": "#c0392b", "w": 1, "o": 0.5, "n": "Vanguard – Coca-Cola", "p": 1, "f": "|Ties: shareholdings|"}}, {"type": "Feature", "geometry": {"type": "LineString", "coordinates": [[-75.5022, 40.0451], [-87.6219, 41.8855]]}, "properties": {"k": "ecb8330e0444d78c", "c": "#c0392b", "w": 1, "o": 0.5, "n": "Vanguard – Mondelēz", "p": 1, "f": "|Ties: shareholdings|"}}, {"type": "Feature", "geometry": {"type": "LineString", "coordinates": [[-75.5022, 40.0451], [-93.3636, 44.969]]}, "properties": {"k": "3896dcfb1bbfea41", "c": "#c0392b", "w": 1, "o": 0.5, "n": "Vanguard – General Mills", "p": 1, "f": "|Ties: shareholdings|"}}, {"type": "Feature", "geometry": {"type": "LineString", "coordinates": [[-75.5022, 40.0451], [2.301, 48.8716]]}, "properties": {"k": "2ca26f588c188c27", "c": "#c0392b", "w": 1, "o": 0.5, "n": "Vanguard – Danone", "p": 1, "f": "|Ties: shareholdings|"}}, {"type": "Feature", "geometry": {"type": "LineString", "coordinates": [[-75.5022, 40.0451], [-87.6213, 41.8849]]}, "properties": {"k": "61cae69451c3f107", "c": "#c0392b", "w": 1, "o": 0.5, "n": "Vanguard – Kraft Heinz", "p": 1, "f": "|Ties: shareholdings|"}}, {"type": "Feature", "geometry": {"type": "LineString", "coordinates": [[-75.5022, 40.0451], [-87.6386, 41.8836]]}, "properties": {"k": "2e5d06033455e7a4", "c": "#c0392b", "w": 1, "o": 0.5, "n": "Vanguard – Conagra", "p": 1, "f": "|Ties: shareholdings|"}}, {"type": "Feature", "geometry": {"type": "LineString", "coordinates": [[-75.5022, 40.0451], [-81.7646, 40.8423]]}, "properties": {"k": "55fde37f4ee5c4ac", "c": "#c0392b", "w": 1, "o": 0.5, "n": "Vanguard – J.M. Smucker", "p": 1, "f": "|Ties: shareholdings|"}}, {"type": "Feature", "geometry": {"type": "LineString", "coordinates": [[-75.5022, 40.0451], [-0.1057, 51.5113]]}, "properties": {"k": "2ffba58ecdb2e308", "c": "#c0392b", "w": 1, "o": 0.5, "n": "Vanguard – Unilever", "p": 1, "f": "|Ties: shareholdings|"}}, {"type": "Feature", "geometry": {"type": "LineString", "coordinates": [[-75.5022, 40.0451], [4.9469, 52.3091]]}, "properties": {"k": "49d74d84cf7515b8", "c": "#c0392b", "w": 1, "o": 0.5, "n": "Vanguard – Magnum Ice Cream Co.", "p": 1, "f": "|Ties: shareholdings|"}}, {"type": "Feature", "geometry": {"type": "LineString", "coordinates": [[-75.5022, 40.0451], [-82.448, 27.962]]}, "properties": {"k": "14ac64467833b9ae", "c": "#c0392b", "w": 1, "o": 0.5, "n": "Vanguard – Primo Brands", "p": 1, "f": "|Ties: shareholdings|"}}, {"type": "Feature", "geometry": {"type": "LineString", "coordinates": [[-75.5022, 40.0451], [-122.0269, 47.5468]]}, "properties": {"k": "1dd109baee6a1f50", "c": "#c0392b", "w": 1, "o": 0.5, "n": "Vanguard – Costco", "p": 1, "f": "|Ties: shareholdings|"}}, {"type": "Feature", "geometry": {"type": "LineString", "coordinates": [[-75.5022, 40.0451], [-84.5067, 39.1023]]}, "properties": {"k": "69ad3694ab8fe40c", "c": "#c0392b", "w": 1, "o": 0.5, "n": "Vanguard – Kroger", "p": 1, "f": "|Ties: shareholdings|"}}, {"type": "Feature", "geometry": {"type": "LineString", "coordinates": [[-75.5022, 40.0451], [4.827, 52.4389]]}, "properties": {"k": "e81164f03c112f4a", "c": "#c0392b", "w": 1, "o": 0.5, "n": "Vanguard – Ahold Delhaize", "p": 1, "f": "|Ties: shareholdings|"}}, {"type": "Feature", "geometry": {"type": "LineString", "coordinates": [[-75.5022, 40.0451], [2.2654, 48.7297]]}, "properties": {"k": "937caf92b1ef7536", "c": "#c0392b", "w": 1, "o": 0.5, "n": "Vanguard – Carrefour", "p": 1, "f": "|Ties: shareholdings|"}}, {"type": "Feature", "geometry": {"type": "LineString", "coordinates": [[-75.5022, 40.0451], [-0.2061, 51.8008]]}, "properties": {"k": "766fe0555346bcb0", "c": "#c0392b", "w": 1, "o": 0.5, "n": "Vanguard – Tesco", "p": 1, "f": "|Ties: shareholdings|"}}, {"type": "Feature", "geometry": {"type": "LineString", "coordinates": [[-75.5022, 40.0451], [-95.5654, 29.7958]]}, "properties": {"k": "40deb8f1b6e3c75a", "c": "#c0392b", "w": 1, "o": 0.5, "n": "Vanguard – Sysco", "p": 1, "f": "|Ties: shareholdings|"}}, {"type": "Feature", "geometry": {"type": "LineString", "coordinates": [[-75.5022, 40.0451], [-0.496, 51.387]]}, "properties": {"k": "affc2032b5f8af48", "c": "#c0392b", "w": 1, "o": 0.5, "n": "Vanguard – Compass Group", "p": 1, "f": "|Ties: shareholdings|"}}, {"type": "Feature", "geometry": {"type": "LineString", "coordinates": [[-75.5022, 40.0451], [-87.6533, 41.8868]]}, "properties": {"k": "612b5037fd319d59", "c": "#c0392b", "w": 1, "o": 0.5, "n": "Vanguard – McDonald's", "p": 1, "f": "|Ties: shareholdings|"}}, {"type": "Feature", "geometry": {"type": "LineString", "coordinates": [[-75.5022, 40.0451], [-85.648, 38.221]]}, "properties": {"k": "3a6d2513b6867520", "c": "#c0392b", "w": 1, "o": 0.5, "n": "Vanguard – Yum! Brands", "p": 1, "f": "|Ties: shareholdings|"}}, {"type": "Feature", "geometry": {"type": "LineString", "coordinates": [[-75.5022, 40.0451], [-122.3354, 47.5805]]}, "properties": {"k": "ffa53096c7d83cd2", "c": "#c0392b", "w": 1, "o": 0.5, "n": "Vanguard – Starbucks", "p": 1, "f": "|Ties: shareholdings|"}}, {"type": "Feature", "geometry": {"type": "LineString", "coordinates": [[-73.9786, 40.7589], [6.985, 51.0307]]}, "properties": {"k": "f0808fe4bcdadfc9", "c": "#1c2833", "w": 1, "o": 0.5, "n": "BlackRock – Bayer", "p": 1, "f": "|Ties: shareholdings|"}}, {"type": "Feature", "geometry": {"type": "LineString", "coordinates": [[-73.9786, 40.7589], [-86.2664, 39.7872]]}, "properties": {"k": "7656537678507966", "c": "#1c2833", "w": 1, "o": 0.5, "n": "BlackRock – Corteva", "p": 1, "f": "|Ties: shareholdings|"}}, {"type": "Feature", "geometry": {"type": "LineString", "coordinates": [[-73.9786, 40.7589], [-106.6345, 52.117]]}, "properties": {"k": "568f9b6f4cd1d98b", "c": "#1c2833", "w": 1, "o": 0.5, "n": "BlackRock – Nutrien", "p": 1, "f": "|Ties: shareholdings|"}}, {"type": "Feature", "geometry": {"type": "LineString", "coordinates": [[-73.9786, 40.7589], [-87.632, 41.8869]]}, "properties": {"k": "3f8c76e59aad0011", "c": "#1c2833", "w": 1, "o": 0.5, "n": "BlackRock – ADM", "p": 1, "f": "|Ties: shareholdings|"}}, {"type": "Feature", "geometry": {"type": "LineString", "coordinates": [[-73.9786, 40.7589], [-90.5771, 38.6631]]}, "properties": {"k": "92dd92686e32c212", "c": "#1c2833", "w": 1, "o": 0.5, "n": "BlackRock – Bunge", "p": 1, "f": "|Ties: shareholdings|"}}, {"type": "Feature", "geometry": {"type": "LineString", "coordinates": [[-73.9786, 40.7589], [6.8421, 46.4577]]}, "properties": {"k": "0f7cde76a9a15012", "c": "#1c2833", "w": 1, "o": 0.5, "n": "BlackRock – Nestlé", "p": 1, "f": "|Ties: shareholdings|"}}, {"type": "Feature", "geometry": {"type": "LineString", "coordinates": [[-73.9786, 40.7589], [-73.7006, 41.029]]}, "properties": {"k": "b8d3eac31b3ea0fb", "c": "#1c2833", "w": 1, "o": 0.5, "n": "BlackRock – PepsiCo", "p": 1, "f": "|Ties: shareholdings|"}}, {"type": "Feature", "geometry": {"type": "LineString", "coordinates": [[-73.9786, 40.7589], [-84.3921, 33.7676]]}, "properties": {"k": "005bdc111af192f1", "c": "#1c2833", "w": 1, "o": 0.5, "n": "BlackRock – Coca-Cola", "p": 1, "f": "|Ties: shareholdings|"}}, {"type": "Feature", "geometry": {"type": "LineString", "coordinates": [[-73.9786, 40.7589], [-87.6219, 41.8855]]}, "properties": {"k": "493956062dad7424", "c": "#1c2833", "w": 1, "o": 0.5, "n": "BlackRock – Mondelēz", "p": 1, "f": "|Ties: shareholdings|"}}, {"type": "Feature", "geometry": {"type": "LineString", "coordinates": [[-73.9786, 40.7589], [-93.3636, 44.969]]}, "properties": {"k": "0e52164b4cdb2dd3", "c": "#1c2833", "w": 1, "o": 0.5, "n": "BlackRock – General Mills", "p": 1, "f": "|Ties: shareholdings|"}}, {"type": "Feature", "geometry": {"type": "LineString", "coordinates": [[-73.9786, 40.7589], [2.301, 48.8716]]}, "properties": {"k": "adffa11e2da60a9b", "c": "#1c2833", "w": 1, "o": 0.5, "n": "BlackRock – Danone", "p": 1, "f": "|Ties: shareholdings|"}}, {"type": "Feature", "geometry": {"type": "LineString", "coordinates": [[-73.9786, 40.7589], [-87.6213, 41.8849]]}, "properties": {"k": "c4c2a9f3c5c25b69", "c": "#1c2833", "w": 1, "o": 0.5, "n": "BlackRock – Kraft Heinz", "p": 1, "f": "|Ties: shareholdings|"}}, {"type": "Feature", "geometry": {"type": "LineString", "coordinates": [[-73.9786, 40.7589], [-87.6386, 41.8836]]}, "properties": {"k": "64b8835f786cf400", "c": "#1c2833", "w": 1, "o": 0.5, "n": "BlackRock – Conagra", "p": 1, "f": "|Ties: shareholdings|"}}, {"type": "Feature", "geometry": {"type": "LineString", "coordinates": [[-73.9786, 40.7589], [-81.7646, 40.8423]]}, "properties": {"k": "22c55c5eac9789e3", "c": "#1c2833", "w": 1, "o": 0.5, "n": "BlackRock – J.M. Smucker", "p": 1, "f": "|Ties: shareholdings|"}}, {"type": "Feature", "geometry": {"type": "LineString", "coordinates": [[-73.9786, 40.7589], [-0.1057, 51.5113]]}, "properties": {"k": "b1ae2c65a1cb80f6", "c": "#1c2833", "w": 1, "o": 0.5, "n": "BlackRock – Unilever", "p": 1, "f": "|Ties: shareholdings|"}}, {"type": "Feature", "geometry": {"type": "LineString", "coordinates": [[-73.9786, 40.7589], [4.9469, 52.3091]]}, "properties": {"k": "cee9e86627af2ce2", "c": "#1c2833", "w": 1, "o": 0.5, "n": "BlackRock – Magnum Ice Cream Co.", "p": 1, "f": "|Ties: shareholdings|"}}, {"type": "Feature", "geometry": {"type": "LineString", "coordinates": [[-73.9786, 40.7589], [-82.448, 27.962]]}, "properties": {"k": "7ffc5abc63ee1157", "c": "#1c2833", "w": 1, "o": 0.5, "n": "BlackRock – Primo Brands", "p": 1, "f": "|Ties: shareholdings|"}}, {"type": "Feature", "geometry": {"type": "LineString", "coordinates": [[-73.9786, 40.7589], [-122.0269, 47.5468]]}, "properties": {"k": "3687cf7e7f155f2e", "c": "#1c2833", "w": 1, "o": 0.5, "n": "BlackRock – Costco", "p": 1, "f": "|Ties: shareholdings|"}}, {"type": "Feature", "geometry": {"type": "LineString", "coordinates": [[-73.9786, 40.7589], [-84.5067, 39.1023]]}, "properties": {"k": "b70f93de4e7baab9", "c": "#1c2833", "w": 1, "o": 0.5, "n": "BlackRock – Kroger", "p": 1, "f": "|Ties: shareholdings|"}}, {"type": "Feature", "geometry": {"type": "LineString", "coordinates": [[-73.9786, 40.7589], [4.827, 52.4389]]}, "properties": {"k": "2e5a6767b2143f02", "c": "#1c2833", "w": 1, "o": 0.5, "n": "BlackRock – Ahold Delhaize", "p": 1, "f": "|Ties: shareholdings|"}}, {"type": "Feature", "geometry": {"type": "LineString", "coordinates": [[-73.9786, 40.7589], [2.2654, 48.7297]]}, "properties": {"k": "3f888ca3af559b4a", "c": "#1c2833", "w": 1, "o": 0.5, "n": "BlackRock – Carrefour", "p": 1, "f": "|Ties: shareholdings|"}}, {"type": "Feature", "geometry": {"type": "LineString", "coordinates": [[-73.9786, 40.7589], [-0.2061, 51.8008]]}, "properties": {"k": "f5778ca77ac350ff", "c": "#1c2833", "w": 1, "o": 0.5, "n": "BlackRock – Tesco", "p": 1, "f": "|Ties: shareholdings|"}}, {"type": "Feature", "geometry": {"type": "LineString", "coordinates": [[-73.9786, 40.7589], [-95.5654, 29.7958]]}, "properties": {"k": "dd9bbf68af5fb638", "c": "#1c2833", "w": 1, "o": 0.5, "n": "BlackRock – Sysco", "p": 1, "f": "|Ties: shareholdings|"}}, {"type": "Feature", "geometry": {"type": "LineString", "coordinates": [[-73.9786, 40.7589], [-0.496, 51.387]]}, "properties": {"k": "b9accbfa691362d0", "c": "#1c2833", "w": 1, "o": 0.5, "n": "BlackRock – Compass Group", "p": 1, "f": "|Ties: shareholdings|"}}, {"type": "Feature", "geometry": {"type": "LineString", "coordinates": [[-73.9786, 40.7589], [-87.6533, 41.8868]]}, "properties": {"k": "fe3c4d34eeef6a19", "c": "#1c2833", "w": 1, "o": 0.5, "n": "BlackRock – McDonald's", "p": 1, "f": "|Ties: shareholdings|"}}, {"type": "Feature", "geometry": {"type": "LineString", "coordinates": [[-73.9786, 40.7589], [-85.648, 38.221]]}, "properties": {"k": "24449e6284ca721b", "c": "#1c2833", "w": 1, "o": 0.5, "n": "BlackRock – Yum! Brands", "p": 1, "f": "|Ties: shareholdings|"}}, {"type": "Feature", "geometry": {"type": "LineString", "coordinates": [[-73.9786, 40.7589], [-122.3354, 47.5805]]}, "properties": {"k": "e8f472a2df47cc6c", "c": "#1c2833", "w": 1, "o": 0.5, "n": "BlackRock – Starbucks", "p": 1, "f": "|Ties: shareholdings|"}}, {"type": "Feature", "geometry": {"type": "LineString", "coordinates": [[-71.053, 42.3554], [6.985, 51.0307]]}, "properties": {"k": "094020e45b3f2179", "c": "#2471a3", "w": 1, "o": 0.5, "n": "State Street – Bayer", "p": 1, "f": "|Ties: shareholdings|"}}, {"type": "Feature", "geometry": {"type": "LineString", "coordinates": [[-71.053, 42.3554], [-86.2664, 39.7872]]}, "properties": {"k": "e1254768983863f7", "c": "#2471a3", "w": 1, "o": 0.5, "n": "State Street – Corteva", "p": 1, "f": "|Ties: shareholdings|"}}, {"type": "Feature", "geometry": {"type": "LineString", "coordinates": [[-71.053, 42.3554], [-106.6345, 52.117]]}, "properties": {"k": "035e4161b612d57e", "c": "#2471a3", "w": 1, "o": 0.5, "n": "State Street – Nutrien", "p": 1, "f": "|Ties: shareholdings|"}}, {"type": "Feature", "geometry": {"type": "LineString", "coordinates": [[-71.053, 42.3554], [-87.632, 41.8869]]}, "properties": {"k": "5743e7b76a2b72c2", "c": "#2471a3", "w": 1, "o": 0.5, "n": "State Street – ADM", "p": 1, "f": "|Ties: shareholdings|"}}, {"type": "Feature", "geometry": {"type": "LineString", "coordinates": [[-71.053, 42.3554], [-90.5771, 38.6631]]}, "properties": {"k": "8ddeeffac9ca5601", "c": "#2471a3", "w": 1, "o": 0.5, "n": "State Street – Bunge", "p": 1, "f": "|Ties: shareholdings|"}}, {"type": "Feature", "geometry": {"type": "LineString", "coordinates": [[-71.053, 42.3554], [6.8421, 46.4577]]}, "properties": {"k": "6e0151312f5a08a2", "c": "#2471a3", "w": 1, "o": 0.5, "n": "State Street – Nestlé", "p": 1, "f": "|Ties: shareholdings|"}}, {"type": "Feature", "geometry": {"type": "LineString", "coordinates": [[-71.053, 42.3554], [-73.7006, 41.029]]}, "properties": {"k": "13421892bf6486fc", "c": "#2471a3", "w": 1, "o": 0.5, "n": "State Street – PepsiCo", "p": 1, "f": "|Ties: shareholdings|"}}, {"type": "Feature", "geometry": {"type": "LineString", "coordinates": [[-71.053, 42.3554], [-84.3921, 33.7676]]}, "properties": {"k": "92fcb1f3fdecf245", "c": "#2471a3", "w": 1, "o": 0.5, "n": "State Street – Coca-Cola", "p": 1, "f": "|Ties: shareholdings|"}}, {"type": "Feature", "geometry": {"type": "LineString", "coordinates": [[-71.053, 42.3554], [-87.6219, 41.8855]]}, "properties": {"k": "8550cf0c54d47b81", "c": "#2471a3", "w": 1, "o": 0.5, "n": "State Street – Mondelēz", "p": 1, "f": "|Ties: shareholdings|"}}, {"type": "Feature", "geometry": {"type": "LineString", "coordinates": [[-71.053, 42.3554], [-93.3636, 44.969]]}, "properties": {"k": "d454f155762cd4c7", "c": "#2471a3", "w": 1, "o": 0.5, "n": "State Street – General Mills", "p": 1, "f": "|Ties: shareholdings|"}}, {"type": "Feature", "geometry": {"type": "LineString", "coordinates": [[-71.053, 42.3554], [2.301, 48.8716]]}, "properties": {"k": "0d70eae4dfcf6bda", "c": "#2471a3", "w": 1, "o": 0.5, "n": "State Street – Danone", "p": 1, "f": "|Ties: shareholdings|"}}, {"type": "Feature", "geometry": {"type": "LineString", "coordinates": [[-71.053, 42.3554], [-87.6213, 41.8849]]}, "properties": {"k": "ad4d459d523644e8", "c": "#2471a3", "w": 1, "o": 0.5, "n": "State Street – Kraft Heinz", "p": 1, "f": "|Ties: shareholdings|"}}, {"type": "Feature", "geometry": {"type": "LineString", "coordinates": [[-71.053, 42.3554], [-87.6386, 41.8836]]}, "properties": {"k": "fd5553bf974914f8", "c": "#2471a3", "w": 1, "o": 0.5, "n": "State Street – Conagra", "p": 1, "f": "|Ties: shareholdings|"}}, {"type": "Feature", "geometry": {"type": "LineString", "coordinates": [[-71.053, 42.3554], [-81.7646, 40.8423]]}, "properties": {"k": "540cc3085320d106", "c": "#2471a3", "w": 1, "o": 0.5, "n": "State Street – J.M. Smucker", "p": 1, "f": "|Ties: shareholdings|"}}, {"type": "Feature", "geometry": {"type": "LineString", "coordinates": [[-71.053, 42.3554], [-0.1057, 51.5113]]}, "properties": {"k": "f3cc587cf57a5973", "c": "#2471a3", "w": 1, "o": 0.5, "n": "State Street – Unilever", "p": 1, "f": "|Ties: shareholdings|"}}, {"type": "Feature", "geometry": {"type": "LineString", "coordinates": [[-71.053, 42.3554], [4.9469, 52.3091]]}, "properties": {"k": "fe637429953137d0", "c": "#2471a3", "w": 1, "o": 0.5, "n": "State Street – Magnum Ice Cream Co.", "p": 1, "f": "|Ties: shareholdings|"}}, {"type": "Feature", "geometry": {"type": "LineString", "coordinates": [[-71.053, 42.3554], [-82.448, 27.962]]}, "properties": {"k": "e23a070abf89cb43", "c": "#2471a3", "w": 1, "o": 0.5, "n": "State Street – Primo Brands", "p": 1, "f": "|Ties: shareholdings|"}}, {"type": "Feature", "geometry": {"type": "LineString", "coordinates": [[-71.053, 42.3554], [-122.0269, 47.5468]]}, "properties": {"k": "1ceaa8cbeff977e4", "c": "#2471a3", "w": 1, "o": 0.5, "n": "State Street – Costco", "p": 1, "f": "|Ties: shareholdings|"}}, {"type": "Feature", "geometry": {"type": "LineString", "coordinates": [[-71.053, 42.3554], [-84.5067, 39.1023]]}, "properties": {"k": "efac7352b4df7748", "c": "#2471a3", "w": 1, "o": 0.5, "n": "State Street – Kroger", "p": 1, "f": "|Ties: shareholdings|"}}, {"type": "Feature", "geometry": {"type": "LineString", "coordinates": [[-71.053, 42.3554], [4.827, 52.4389]]}, "properties": {"k": "3ab6523745fe253d", "c": "#2471a3", "w": 1, "o": 0.5, "n": "State Street – Ahold Delhaize", "p": 1, "f": "|Ties: shareholdings|"}}, {"type": "Feature", "geometry": {"type": "LineString", "coordinates": [[-71.053, 42.3554], [2.2654, 48.7297]]}, "properties": {"k": "7a7df76b8ab08bb8", "c": "#2471a3", "w": 1, "o": 0.5, "n": "State Street – Carrefour", "p": 1, "f": "|Ties: shareholdings|"}}, {"type": "Feature", "geometry": {"type": "LineString", "coordinates": [[-71.053, 42.3554], [-0.2061, 51.8008]]}, "properties": {"k": "8f3c3416ef683d1c", "c": "#2471a3", "w": 1, "o": 0.5, "n": "State Street – Tesco", "p": 1, "f": "|Ties: shareholdings|"}}, {"type": "Feature", "geometry": {"type": "LineString", "coordinates": [[-71.053, 42.3554], [-95.5654, 29.7958]]}, "properties": {"k": "db32c4b02e6ae34c", "c": "#2471a3", "w": 1, "o": 0.5, "n": "State Street – Sysco", "p": 1, "f": "|Ties: shareholdings|"}}, {"type": "Feature", "geometry": {"type": "LineString", "coordinates": [[-71.053, 42.3554], [-0.496, 51.387]]}, "properties": {"k": "c19fb4d7db329619", "c": "#2471a3", "w": 1, "o": 0.5, "n": "State Street – Compass Group", "p": 1, "f": "|Ties: shareholdings|"}}, {"type": "Feature", "geometry": {"type": "LineString", "coordinates": [[-71.053, 42.3554], [-87.6533, 41.8868]]}, "properties": {"k": "f44738a9c8c1f027", "c": "#2471a3", "w": 1, "o": 0.5, "n": "State Street – McDonald's", "p": 1, "f": "|Ties: shareholdings|"}}, {"type": "Feature", "geometry": {"type": "LineString", "coordinates": [[-71.053, 42.3554], [-85.648, 38.221]]}, "properties": {"k": "5bb03a8ecd96385a", "c": "#2471a3", "w": 1, "o": 0.5, "n": "State Street – Yum! Brands", "p": 1, "f": "|Ties: shareholdings|"}}, {"type": "Feature", "geometry": {"type": "LineString", "coordinates": [[-71.053, 42.3554], [-122.3354, 47.5805]]}, "properties": {"k": "68d94ce3c98b98c0", "c": "#2471a3", "w": 1, "o": 0.5, "n": "State Street – Starbucks", "p": 1, "f": "|Ties: shareholdings|"}}, {"type": "Feature", "geometry": {"type": "LineString", "coordinates": [[-95.992, 41.2335], [-84.3921, 33.7676]]}, "properties": {"k": "56052592f33fb6ad", "c": "#148f77", "w": 1, "o": 0.5, "n": "Berkshire Hathaway – Coca-Cola", "p": 1, "f": "|Ties: shareholdings|"}}, {"type": "Feature", "geometry": {"type": "LineString", "coordinates": [[-95.992, 41.2335], [-87.6213, 41.8849]]}, "properties": {"k": "6132caeaacb4b034", "c": "#148f77", "w": 1, "o": 0.5, "n": "Berkshire Hathaway – Kraft Heinz", "p": 1, "f": "|Ties: shareholdings|"}}, {"type": "Feature", "geometry": {"type": "LineString", "coordinates": [[6.1319, 49.6116], [-96.82, 33.1003]]}, "properties": {"k": "b8ee799f01dc7a84", "c": "#8e44ad", "w": 1, "o": 0.5, "n": "JAB Holding – Keurig Dr Pepper", "p": 1, "f": "|Ties: shareholdings|"}}, {"type": "Feature", "geometry": {"type": "LineString", "coordinates": [[-73.984, 40.7549], [-79.387, 43.6481]]}, "properties": {"k": "dab50fdee2b3fd2a", "c": "#e67e22", "w": 1, "o": 0.5, "n": "3G Capital – Restaurant Brands Intl", "p": 1, "f": "|Ties: shareholdings|"}}, {"type": "Feature", "geometry": {"type": "LineString", "coordinates": [[-73.984, 40.7549], [-87.6213, 41.8849]]}, "properties": {"k": "5a7643b68c5ffc21", "c": "#e67e22", "w": 1, "o": 0.5, "n": "3G Capital – Kraft Heinz", "p": 1, "f": "|Ties: shareholdings|"}}, {"type": "Feature", "geometry": {"type": "LineString", "coordinates": [[2.3078, 48.8698], [-87.65, 41.85]]}, "properties": {"k": "0539d739f1405851", "c": "#d4ac0d", "w": 1, "o": 0.5, "n": "PAI Partners – Tropicana Brands Grp", "p": 1, "f": "|Ties: shareholdings|"}}, {"type": "Feature", "geometry": {"type": "LineString", "coordinates": [[6.13, 49.61], [4.3007, 52.0705]]}, "properties": {"k": "d65216d630020cb1", "c": "#16a085", "w": 1, "o": 0.5, "n": "CVC Capital – Lipton Teas & Infusions", "p": 1, "f": "|Ties: shareholdings|"}}, {"type": "Feature", "geometry": {"type": "LineString", "coordinates": [[6.1432, 46.2044], [-84.3921, 33.7676]]}, "properties": {"k": "0db9509b2b287af5", "c": "#c2185b", "w": 1, "o": 0.5, "n": "IFBA – Coca-Cola", "p": 1, "f": "|Ties: lobby membership|"}}, {"type": "Feature", "geometry": {"type": "LineString", "coordinates": [[6.1432, 46.2044], [2.301, 48.8716]]}, "properties": {"k": "1d98778d0f70d59f", "c": "#c2185b", "w": 1, "o": 0.5, "n": "IFBA – Danone", "p": 1, "f": "|Ties: lobby membership|"}}, {"type": "Feature", "geometry": {"type": "LineString", "coordinates": [[6.1432, 46.2044], [8.0353, 44.7009]]}, "properties": {"k": "2bff3523b81657cc", "c": "#c2185b", "w": 1, "o": 0.5, "n": "IFBA – Ferrero", "p": 1, "f": "|Ties: lobby membership|"}}, {"type": "Feature", "geometry": {"type": "LineString", "coordinates": [[6.1432, 46.2044], [-93.3636, 44.969]]}, "properties": {"k": "6405a3ffd0bed668", "c": "#c2185b", "w": 1, "o": 0.5, "n": "IFBA – General Mills", "p": 1, "f": "|Ties: lobby membership|"}}, {"type": "Feature", "geometry": {"type": "LineString", "coordinates": [[6.1432, 46.2044], [-77.176, 38.93]]}, "properties": {"k": "f3b3ea2e9cb457f7", "c": "#c2185b", "w": 1, "o": 0.5, "n": "IFBA – Mars", "p": 1, "f": "|Ties: lobby membership|"}}, {"type": "Feature", "geometry": {"type": "LineString", "coordinates": [[6.1432, 46.2044], [6.8421, 46.4577]]}, "properties": {"k": "e90403f4bbe09ed9", "c": "#c2185b", "w": 1, "o": 0.5, "n": "IFBA – Nestlé", "p": 1, "f": "|Ties: lobby membership|"}}, {"type": "Feature", "geometry": {"type": "LineString", "coordinates": [[6.1432, 46.2044], [-73.7006, 41.029]]}, "properties": {"k": "c737c6622e79b081", "c": "#c2185b", "w": 1, "o": 0.5, "n": "IFBA – PepsiCo", "p": 1, "f": "|Ties: lobby membership|"}}, {"type": "Feature", "geometry": {"type": "LineString", "coordinates": [[6.1432, 46.2044], [-0.1057, 51.5113]]}, "properties": {"k": "eabd978177570501", "c": "#c2185b", "w": 1, "o": 0.5, "n": "IFBA – Unilever", "p": 1, "f": "|Ties: lobby membership|"}}, {"type": "Feature", "geometry": {"type": "LineString", "coordinates": [[6.1432, 46.2044], [-87.6219, 41.8855]]}, "properties": {"k": "0f7ae527fd021fe5", "c": "#c2185b", "w": 1, "o": 0.5, "n": "IFBA – Mondelēz", "p": 1, "f": "|Ties: lobby membership|"}}, {"type": "Feature", "geometry": {"type": "LineString", "coordinates": [[6.1432, 46.2044], [-87.6533, 41.8868]]}, "properties": {"k": "55a55fe34920dc99", "c": "#c2185b", "w": 1, "o": 0.5, "n": "IFBA – McDonald's", "p": 1, "f": "|Ties: lobby membership|"}}, {"type": "Feature", "geometry": {"type": "LineString", "coordinates": [[-77.1068, 38.8799], [6.8421, 46.4577]]}, "properties": {"k": "eec57f8980b712f0", "c": "#2471a3", "w": 1, "o": 0.5, "n": "Consumer Brands Assoc. – Nestlé", "p": 1, "f": "|Ties: lobby membership|"}}, {"type": "Feature", "geometry": {"type": "LineString", "coordinates": [[-77.1068, 38.8799], [-93.3636, 44.969]]}, "properties": {"k": "be37350190854ce8", "c": "#2471a3", "w": 1, "o": 0.5, "n": "Consumer Brands Assoc. – General Mills", "p": 1, "f": "|Ties: lobby membership|"}}, {"type": "Feature", "geometry": {"type": "LineString", "coordinates": [[-77.1068, 38.8799], [-75.119, 39.929]]}, "properties": {"k": "5473ae87a0e532cc", "c": "#2471a3", "w": 1, "o": 0.5, "n": "Consumer Brands Assoc. – Campbell's", "p": 1, "f": "|Ties: lobby membership|"}}, {"type": "Feature", "geometry": {"type": "LineString", "coordinates": [[-77.1068, 38.8799], [-87.6213, 41.8849]]}, "properties": {"k": "313d13b3a2985cdb", "c": "#2471a3", "w": 1, "o": 0.5, "n": "Consumer Brands Assoc. – Kraft Heinz", "p": 1, "f": "|Ties: lobby membership|"}}, {"type": "Feature", "geometry": {"type": "LineString", "coordinates": [[-77.1068, 38.8799], [-94.1286, 36.2099]]}, "properties": {"k": "25e61b2da4308dd9", "c": "#2471a3", "w": 1, "o": 0.5, "n": "Consumer Brands Assoc. – Tyson Foods", "p": 1, "f": "|Ties: lobby membership|"}}, {"type": "Feature", "geometry": {"type": "LineString", "coordinates": [[-77.0421, 38.9026], [-84.3921, 33.7676]]}, "properties": {"k": "da8e11e1caef5f0e", "c": "#148f77", "w": 1, "o": 0.5, "n": "American Beverage Assoc. – Coca-Cola", "p": 1, "f": "|Ties: lobby membership|"}}, {"type": "Feature", "geometry": {"type": "LineString", "coordinates": [[-77.0421, 38.9026], [-73.7006, 41.029]]}, "properties": {"k": "1078e4aea1303ed8", "c": "#148f77", "w": 1, "o": 0.5, "n": "American Beverage Assoc. – PepsiCo", "p": 1, "f": "|Ties: lobby membership|"}}, {"type": "Feature", "geometry": {"type": "LineString", "coordinates": [[-77.0421, 38.9026], [-96.82, 33.1003]]}, "properties": {"k": "0fe821a62dc2fd69", "c": "#148f77", "w": 1, "o": 0.5, "n": "American Beverage Assoc. – Keurig Dr Pepper", "p": 1, "f": "|Ties: lobby membership|"}}, {"type": "Feature", "geometry": {"type": "LineString", "coordinates": [[-77.05, 38.9045], [-94.1286, 36.2099]]}, "properties": {"k": "6d564bfc8afa2b69", "c": "#a93226", "w": 1, "o": 0.5, "n": "Meat Institute – Tyson Foods", "p": 1, "f": "|Ties: lobby membership|"}}, {"type": "Feature", "geometry": {"type": "LineString", "coordinates": [[-77.05, 38.9045], [-46.7397, -23.5133]]}, "properties": {"k": "a86c9f5136c48f3b", "c": "#a93226", "w": 1, "o": 0.5, "n": "Meat Institute – JBS", "p": 1, "f": "|Ties: lobby membership|"}}, {"type": "Feature", "geometry": {"type": "LineString", "coordinates": [[-77.05, 38.9045], [-93.5106, 44.969]]}, "properties": {"k": "56a782b9761afa75", "c": "#a93226", "w": 1, "o": 0.5, "n": "Meat Institute – Cargill", "p": 1, "f": "|Ties: lobby membership|"}}, {"type": "Feature", "geometry": {"type": "LineString", "coordinates": [[-77.05, 38.9045], [114.1747, 22.2783]]}, "properties": {"k": "5e021199fbc0585d", "c": "#a93226", "w": 1, "o": 0.5, "n": "Meat Institute – WH Group", "p": 1, "f": "|Ties: lobby membership|"}}, {"type": "Feature", "geometry": {"type": "LineString", "coordinates": [[-77.05, 38.9045], [-92.9747, 43.6694]]}, "properties": {"k": "521756cbdb7a4345", "c": "#a93226", "w": 1, "o": 0.5, "n": "Meat Institute – Hormel", "p": 1, "f": "|Ties: lobby membership|"}}, {"type": "Feature", "geometry": {"type": "LineString", "coordinates": [[-77.05, 38.9045], [-46.697, -23.601]]}, "properties": {"k": "526074c4f7add485", "c": "#a93226", "w": 1, "o": 0.5, "n": "Meat Institute – Marfrig", "p": 1, "f": "|Ties: lobby membership|"}}, {"type": "Feature", "geometry": {"type": "LineString", "coordinates": [[4.3517, 50.8503], [6.985, 51.0307]]}, "properties": {"k": "e74eca822fe1f85f", "c": "#2e7d32", "w": 1, "o": 0.5, "n": "CropLife Intl – Bayer", "p": 1, "f": "|Ties: lobby membership|"}}, {"type": "Feature", "geometry": {"type": "LineString", "coordinates": [[4.3517, 50.8503], [-86.2664, 39.7872]]}, "properties": {"k": "68424a9bcc8a715d", "c": "#2e7d32", "w": 1, "o": 0.5, "n": "CropLife Intl – Corteva", "p": 1, "f": "|Ties: lobby membership|"}}, {"type": "Feature", "geometry": {"type": "LineString", "coordinates": [[4.3517, 50.8503], [7.5906, 47.555]]}, "properties": {"k": "9f04bf13a318d063", "c": "#2e7d32", "w": 1, "o": 0.5, "n": "CropLife Intl – Syngenta", "p": 1, "f": "|Ties: lobby membership|"}}, {"type": "Feature", "geometry": {"type": "LineString", "coordinates": [[6.18, 46.226], [6.8421, 46.4577]]}, "properties": {"k": "4acde202d39a679b", "c": "#3949ab", "w": 1, "o": 0.5, "n": "WEF – Nestlé", "p": 1, "f": "|Ties: the orbit|"}}, {"type": "Feature", "geometry": {"type": "LineString", "coordinates": [[6.18, 46.226], [-73.7006, 41.029]]}, "properties": {"k": "ecdd830601dc7587", "c": "#3949ab", "w": 1, "o": 0.5, "n": "WEF – PepsiCo", "p": 1, "f": "|Ties: the orbit|"}}, {"type": "Feature", "geometry": {"type": "LineString", "coordinates": [[6.18, 46.226], [-84.3921, 33.7676]]}, "properties": {"k": "c29ea114bbe573d4", "c": "#3949ab", "w": 1, "o": 0.5, "n": "WEF – Coca-Cola", "p": 1, "f": "|Ties: the orbit|"}}, {"type": "Feature", "geometry": {"type": "LineString", "coordinates": [[6.18, 46.226], [-0.1057, 51.5113]]}, "properties": {"k": "3e46e5332132908f", "c": "#3949ab", "w": 1, "o": 0.5, "n": "WEF – Unilever", "p": 1, "f": "|Ties: the orbit|"}}, {"type": "Feature", "geometry": {"type": "LineString", "coordinates": [[6.18, 46.226], [-87.6219, 41.8855]]}, "properties": {"k": "3d3d79f019f9e469", "c": "#3949ab", "w": 1, "o": 0.5, "n": "WEF – Mondelēz", "p": 1, "f": "|Ties: the orbit|"}}, {"type": "Feature", "geometry": {"type": "LineString", "coordinates": [[6.18, 46.226], [-77.176, 38.93]]}, "properties": {"k": "5997fedfd2c5e82f", "c": "#3949ab", "w": 1, "o": 0.5, "n": "WEF – Mars", "p": 1, "f": "|Ties: the orbit|"}}, {"type": "Feature", "geometry": {"type": "LineString", "coordinates": [[6.18, 46.226], [2.301, 48.8716]]}, "properties": {"k": "c49d88280815233f", "c": "#3949ab", "w": 1, "o": 0.5, "n": "WEF – Danone", "p": 1, "f": "|Ties: the orbit|"}}, {"type": "Feature", "geometry": {"type": "LineString", "coordinates": [[6.18, 46.226], [-93.5106, 44.969]]}, "properties": {"k": "8ea889c76a4321c1", "c": "#3949ab", "w": 1, "o": 0.5, "n": "WEF – Cargill", "p": 1, "f": "|Ties: the orbit|"}}, {"type": "Feature", "geometry": {"type": "LineString", "coordinates": [[6.18, 46.226], [6.985, 51.0307]]}, "properties": {"k": "6b85eb84efb99e95", "c": "#3949ab", "w": 1, "o": 0.5, "n": "WEF – Bayer", "p": 1, "f": "|Ties: the orbit|"}}, {"type": "Feature", "geometry": {"type": "LineString", "coordinates": [[2.273, 48.8245], [6.8421, 46.4577]]}, "properties": {"k": "5125f63a61153f8c", "c": "#6a1b9a", "w": 1, "o": 0.5, "n": "Consumer Goods Forum – Nestlé", "p": 1, "f": "|Ties: the orbit|"}}, {"type": "Feature", "geometry": {"type": "LineString", "coordinates": [[2.273, 48.8245], [-73.7006, 41.029]]}, "properties": {"k": "f0f36baee80aa13a", "c": "#6a1b9a", "w": 1, "o": 0.5, "n": "Consumer Goods Forum – PepsiCo", "p": 1, "f": "|Ties: the orbit|"}}, {"type": "Feature", "geometry": {"type": "LineString", "coordinates": [[2.273, 48.8245], [-84.3921, 33.7676]]}, "properties": {"k": "a15b485af9942583", "c": "#6a1b9a", "w": 1, "o": 0.5, "n": "Consumer Goods Forum – Coca-Cola", "p": 1, "f": "|Ties: the orbit|"}}, {"type": "Feature", "geometry": {"type": "LineString", "coordinates": [[2.273, 48.8245], [-0.1057, 51.5113]]}, "properties": {"k": "4e0b4eccaf722116", "c": "#6a1b9a", "w": 1, "o": 0.5, "n": "Consumer Goods Forum – Unilever", "p": 1, "f": "|Ties: the orbit|"}}, {"type": "Feature", "geometry": {"type": "LineString", "coordinates": [[2.273, 48.8245], [-87.6219, 41.8855]]}, "properties": {"k": "7c3689f2677bfbb8", "c": "#6a1b9a", "w": 1, "o": 0.5, "n": "Consumer Goods Forum – Mondelēz", "p": 1, "f": "|Ties: the orbit|"}}, {"type": "Feature", "geometry": {"type": "LineString", "coordinates": [[2.273, 48.8245], [-77.176, 38.93]]}, "properties": {"k": "33747998e962eaf9", "c": "#6a1b9a", "w": 1, "o": 0.5, "n": "Consumer Goods Forum – Mars", "p": 1, "f": "|Ties: the orbit|"}}, {"type": "Feature", "geometry": {"type": "LineString", "coordinates": [[2.273, 48.8245], [2.301, 48.8716]]}, "properties": {"k": "3eed3fb0310f9828", "c": "#6a1b9a", "w": 1, "o": 0.5, "n": "Consumer Goods Forum – Danone", "p": 1, "f": "|Ties: the orbit|"}}, {"type": "Feature", "geometry": {"type": "LineString", "coordinates": [[2.273, 48.8245], [-93.3636, 44.969]]}, "properties": {"k": "1a16dae2f0281450", "c": "#6a1b9a", "w": 1, "o": 0.5, "n": "Consumer Goods Forum – General Mills", "p": 1, "f": "|Ties: the orbit|"}}, {"type": "Feature", "geometry": {"type": "LineString", "coordinates": [[2.273, 48.8245], [-94.2192, 36.3641]]}, "properties": {"k": "8f53aa7227468bea", "c": "#6a1b9a", "w": 1, "o": 0.5, "n": "Consumer Goods Forum – Walmart", "p": 1, "f": "|Ties: the orbit|"}}, {"type": "Feature", "geometry": {"type": "LineString", "coordinates": [[2.273, 48.8245], [2.2654, 48.7297]]}, "properties": {"k": "d7f5e709ca35e551", "c": "#6a1b9a", "w": 1, "o": 0.5, "n": "Consumer Goods Forum – Carrefour", "p": 1, "f": "|Ties: the orbit|"}}, {"type": "Feature", "geometry": {"type": "LineString", "coordinates": [[2.273, 48.8245], [-0.2061, 51.8008]]}, "properties": {"k": "672c276dac274e1d", "c": "#6a1b9a", "w": 1, "o": 0.5, "n": "Consumer Goods Forum – Tesco", "p": 1, "f": "|Ties: the orbit|"}}, {"type": "Feature", "geometry": {"type": "LineString", "coordinates": [[2.273, 48.8245], [4.827, 52.4389]]}, "properties": {"k": "2a8a5034314adf2f", "c": "#6a1b9a", "w": 1, "o": 0.5, "n": "Consumer Goods Forum – Ahold Delhaize", "p": 1, "f": "|Ties: the orbit|"}}, {"type": "Feature", "geometry": {"type": "LineString", "coordinates": [[12.4894, 41.8835], [6.8421, 46.4577]]}, "properties": {"k": "8b693aa50e14b02e", "c": "#00897b", "w": 1, "o": 0.5, "n": "Codex Alimentarius – Nestlé", "p": 1, "f": "|Ties: the orbit|"}}, {"type": "Feature", "geometry": {"type": "LineString", "coordinates": [[12.4894, 41.8835], [-73.7006, 41.029]]}, "properties": {"k": "3241593d900d6875", "c": "#00897b", "w": 1, "o": 0.5, "n": "Codex Alimentarius – PepsiCo", "p": 1, "f": "|Ties: the orbit|"}}, {"type": "Feature", "geometry": {"type": "LineString", "coordinates": [[12.4894, 41.8835], [-84.3921, 33.7676]]}, "properties": {"k": "b8a558de3ddb42c7", "c": "#00897b", "w": 1, "o": 0.5, "n": "Codex Alimentarius – Coca-Cola", "p": 1, "f": "|Ties: the orbit|"}}, {"type": "Feature", "geometry": {"type": "LineString", "coordinates": [[12.4894, 41.8835], [-87.6219, 41.8855]]}, "properties": {"k": "28b34a601cb25719", "c": "#00897b", "w": 1, "o": 0.5, "n": "Codex Alimentarius – Mondelēz", "p": 1, "f": "|Ties: the orbit|"}}, {"type": "Feature", "geometry": {"type": "LineString", "coordinates": [[12.4894, 41.8835], [2.301, 48.8716]]}, "properties": {"k": "d35a1723a1c2ec0b", "c": "#00897b", "w": 1, "o": 0.5, "n": "Codex Alimentarius – Danone", "p": 1, "f": "|Ties: the orbit|"}}, {"type": "Feature", "geometry": {"type": "LineString", "coordinates": [[12.4894, 41.8835], [-0.1057, 51.5113]]}, "properties": {"k": "c4c4435fc7fd0eb9", "c": "#00897b", "w": 1, "o": 0.5, "n": "Codex Alimentarius – Unilever", "p": 1, "f": "|Ties: the orbit|"}}, {"type": "Feature", "geometry": {"type": "LineString", "coordinates": [[12.4894, 41.8835], [-77.176, 38.93]]}, "properties": {"k": "8d3b26f11a724d6d", "c": "#00897b", "w": 1, "o": 0.5, "n": "Codex Alimentarius – Mars", "p": 1, "f": "|Ties: the orbit|"}}, {"type": "Feature", "geometry": {"type": "LineString", "coordinates": [[12.485, 41.879], [6.985, 51.0307]]}, "properties": {"k": "83296298d90b57af", "c": "#00838f", "w": 1, "o": 0.5, "n": "FAO – Bayer", "p": 1, "f": "|Ties: the orbit|"}}, {"type": "Feature", "geometry": {"type": "LineString", "coordinates": [[12.485, 41.879], [-86.2664, 39.7872]]}, "properties": {"k": "b328f983dda8f084", "c": "#00838f", "w": 1, "o": 0.5, "n": "FAO – Corteva", "p": 1, "f": "|Ties: the orbit|"}}, {"type": "Feature", "geometry": {"type": "LineString", "coordinates": [[12.485, 41.879], [7.5906, 47.555]]}, "properties": {"k": "365273f3ac169623", "c": "#00838f", "w": 1, "o": 0.5, "n": "FAO – Syngenta", "p": 1, "f": "|Ties: the orbit|"}}, {"type": "Feature", "geometry": {"type": "LineString", "coordinates": [[12.485, 41.879], [6.8421, 46.4577]]}, "properties": {"k": "26c2b0f0988b658b", "c": "#00838f", "w": 1, "o": 0.5, "n": "FAO – Nestlé", "p": 1, "f": "|Ties: the orbit|"}}, {"type": "Feature", "geometry": {"type": "LineString", "coordinates": [[6.14, 46.2336], [-84.3921, 33.7676]]}, "properties": {"k": "dee59513a5979f04", "c": "#1565c0", "w": 1, "o": 0.5, "n": "WHO – Coca-Cola", "p": 1, "f": "|Ties: the orbit|"}}, {"type": "Feature", "geometry": {"type": "LineString", "coordinates": [[6.14, 46.2336], [-73.7006, 41.029]]}, "properties": {"k": "4562bcf7fa4a249e", "c": "#1565c0", "w": 1, "o": 0.5, "n": "WHO – PepsiCo", "p": 1, "f": "|Ties: the orbit|"}}, {"type": "Feature", "geometry": {"type": "LineString", "coordinates": [[6.14, 46.2336], [6.8421, 46.4577]]}, "properties": {"k": "3145ddef4345f6b1", "c": "#1565c0", "w": 1, "o": 0.5, "n": "WHO – Nestlé", "p": 1, "f": "|Ties: the orbit|"}}, {"type": "Feature", "geometry": {"type": "LineString", "coordinates": [[6.14, 46.2336], [-87.6219, 41.8855]]}, "properties": {"k": "10cee87b1f152cf2", "c": "#1565c0", "w": 1, "o": 0.5, "n": "WHO – Mondelēz", "p": 1, "f": "|Ties: the orbit|"}}, {"type": "Feature", "geometry": {"type": "LineString", "coordinates": [[6.14, 46.2336], [-0.1057, 51.5113]]}, "properties": {"k": "0834308c49acc107", "c": "#1565c0", "w": 1, "o": 0.5, "n": "WHO – Unilever", "p": 1, "f": "|Ties: the orbit|"}}, {"type": "Feature", "geometry": {"type": "LineString", "coordinates": [[6.1495, 46.2244], [-93.5106, 44.969]]}, "properties": {"k": "2e9256eec43542d6", "c": "#4527a0", "w": 1, "o": 0.5, "n": "WTO – Cargill", "p": 1, "f": "|Ties: the orbit|"}}, {"type": "Feature", "geometry": {"type": "LineString", "coordinates": [[6.1495, 46.2244], [-87.632, 41.8869]]}, "properties": {"k": "84b4d01cd288c881", "c": "#4527a0", "w": 1, "o": 0.5, "n": "WTO – ADM", "p": 1, "f": "|Ties: the orbit|"}}, {"type": "Feature", "geometry": {"type": "LineString", "coordinates": [[6.1495, 46.2244], [-90.5771, 38.6631]]}, "properties": {"k": "77ffa78c80f7f2fa", "c": "#4527a0", "w": 1, "o": 0.5, "n": "WTO – Bunge", "p": 1, "f": "|Ties: the orbit|"}}, {"type": "Feature", "geometry": {"type": "LineString", "coordinates": [[6.1495, 46.2244], [6.1478, 46.2089]]}, "properties": {"k": "fbb9606b5af5377c", "c": "#4527a0", "w": 1, "o": 0.5, "n": "WTO – Louis Dreyfus", "p": 1, "f": "|Ties: the orbit|"}}, {"type": "Feature", "geometry": {"type": "LineString", "coordinates": [[6.1495, 46.2244], [116.3975, 39.9088]]}, "properties": {"k": "ee5395d4c96ea875", "c": "#4527a0", "w": 1, "o": 0.5, "n": "WTO – COFCO", "p": 1, "f": "|Ties: the orbit|"}}, {"type": "Feature", "geometry": {"type": "LineString", "coordinates": [[6.1495, 46.2244], [103.8456, 1.2756]]}, "properties": {"k": "7aff075ba32998c4", "c": "#4527a0", "w": 1, "o": 0.5, "n": "WTO – Wilmar", "p": 1, "f": "|Ties: the orbit|"}}, {"type": "Feature", "geometry": {"type": "LineString", "coordinates": [[6.137, 46.228], [6.8421, 46.4577]]}, "properties": {"k": "21107e5ae558ecb0", "c": "#d81b60", "w": 1, "o": 0.5, "n": "GAIN – Nestlé", "p": 1, "f": "|Ties: the orbit|"}}, {"type": "Feature", "geometry": {"type": "LineString", "coordinates": [[6.137, 46.228], [-73.7006, 41.029]]}, "properties": {"k": "848e786365ce6674", "c": "#d81b60", "w": 1, "o": 0.5, "n": "GAIN – PepsiCo", "p": 1, "f": "|Ties: the orbit|"}}, {"type": "Feature", "geometry": {"type": "LineString", "coordinates": [[6.137, 46.228], [2.301, 48.8716]]}, "properties": {"k": "d891e1841974135f", "c": "#d81b60", "w": 1, "o": 0.5, "n": "GAIN – Danone", "p": 1, "f": "|Ties: the orbit|"}}, {"type": "Feature", "geometry": {"type": "LineString", "coordinates": [[6.137, 46.228], [-0.1057, 51.5113]]}, "properties": {"k": "e70f664621efb0ed", "c": "#d81b60", "w": 1, "o": 0.5, "n": "GAIN – Unilever", "p": 1, "f": "|Ties: the orbit|"}}, {"type": "Feature", "geometry": {"type": "LineString", "coordinates": [[6.137, 46.228], [-77.176, 38.93]]}, "properties": {"k": "7bc60e2a09d14c7f", "c": "#d81b60", "w": 1, "o": 0.5, "n": "GAIN – Mars", "p": 1, "f": "|Ties: the orbit|"}}, {"type": "Feature", "geometry": {"type": "LineString", "coordinates": [[6.137, 46.228], [-93.3636, 44.969]]}, "properties": {"k": "44ba54c69ab26c24", "c": "#d81b60", "w": 1, "o": 0.5, "n": "GAIN – General Mills", "p": 1, "f": "|Ties: the orbit|"}}, {"type": "Feature", "geometry": {"type": "LineString", "coordinates": [[6.15, 46.22], [6.8421, 46.4577]]}, "properties": {"k": "996a1884546cdb5d", "c": "#ad1457", "w": 1, "o": 0.5, "n": "SUN Movement – Nestlé", "p": 1, "f": "|Ties: the orbit|"}}, {"type": "Feature", "geometry": {"type": "LineString", "coordinates": [[6.15, 46.22], [-73.7006, 41.029]]}, "properties": {"k": "25b6a592139d69c0", "c": "#ad1457", "w": 1, "o": 0.5, "n": "SUN Movement – PepsiCo", "p": 1, "f": "|Ties: the orbit|"}}, {"type": "Feature", "geometry": {"type": "LineString", "coordinates": [[6.15, 46.22], [-0.1057, 51.5113]]}, "properties": {"k": "1afcbb3e7c541d22", "c": "#ad1457", "w": 1, "o": 0.5, "n": "SUN Movement – Unilever", "p": 1, "f": "|Ties: the orbit|"}}, {"type": "Feature", "geometry": {"type": "LineString", "coordinates": [[6.15, 46.22], [-87.6219, 41.8855]]}, "properties": {"k": "0fe0bcf97f99ed8f", "c": "#ad1457", "w": 1, "o": 0.5, "n": "SUN Movement – Mondelēz", "p": 1, "f": "|Ties: the orbit|"}}, {"type": "Feature", "geometry": {"type": "LineString", "coordinates": [[6.15, 46.22], [2.301, 48.8716]]}, "properties": {"k": "ed238c134026f006", "c": "#ad1457", "w": 1, "o": 0.5, "n": "SUN Movement – Danone", "p": 1, "f": "|Ties: the orbit|"}}, {"type": "Feature", "geometry": {"type": "LineString", "coordinates": [[6.15, 46.22], [-93.5106, 44.969]]}, "properties": {"k": "7e0cc2e6f6a9973e", "c": "#ad1457", "w": 1, "o": 0.5, "n": "SUN Movement – Cargill", "p": 1, "f": "|Ties: the orbit|"}}, {"type": "Feature", "geometry": {"type": "LineString", "coordinates": [[-77.043, 38.905], [-84.3921, 33.7676]]}, "properties": {"k": "d851ad8bdee86aad", "c": "#b71c1c", "w": 1, "o": 0.5, "n": "ILSI / IAFNS – Coca-Cola", "p": 1, "f": "|Ties: the orbit|"}}, {"type": "Feature", "geometry": {"type": "LineString", "coordinates": [[-77.043, 38.905], [-73.7006, 41.029]]}, "properties": {"k": "b241943ff5245743", "c": "#b71c1c", "w": 1, "o": 0.5, "n": "ILSI / IAFNS – PepsiCo", "p": 1, "f": "|Ties: the orbit|"}}, {"type": "Feature", "geometry": {"type": "LineString", "coordinates": [[-77.043, 38.905], [6.8421, 46.4577]]}, "properties": {"k": "9c3a60df4e206b72", "c": "#b71c1c", "w": 1, "o": 0.5, "n": "ILSI / IAFNS – Nestlé", "p": 1, "f": "|Ties: the orbit|"}}, {"type": "Feature", "geometry": {"type": "LineString", "coordinates": [[-77.043, 38.905], [-77.176, 38.93]]}, "properties": {"k": "e39d85a6e316ae29", "c": "#b71c1c", "w": 1, "o": 0.5, "n": "ILSI / IAFNS – Mars", "p": 1, "f": "|Ties: the orbit|"}}, {"type": "Feature", "geometry": {"type": "LineString", "coordinates": [[-77.043, 38.905], [-93.3636, 44.969]]}, "properties": {"k": "dbc8ee042c05cd02", "c": "#b71c1c", "w": 1, "o": 0.5, "n": "ILSI / IAFNS – General Mills", "p": 1, "f": "|Ties: the orbit|"}}, {"type": "Feature", "geometry": {"type": "LineString", "coordinates": [[-77.043, 38.905], [-87.6219, 41.8855]]}, "properties": {"k": "6fceb2c62a02c2ff", "c": "#b71c1c", "w": 1, "o": 0.5, "n": "ILSI / IAFNS – Mondelēz", "p": 1, "f": "|Ties: the orbit|"}}, {"type": "Feature", "geometry": {"type": "LineString", "coordinates": [[-77.043, 38.905], [-87.6213, 41.8849]]}, "properties": {"k": "8561e308239d7e7b", "c": "#b71c1c", "w": 1, "o": 0.5, "n": "ILSI / IAFNS – Kraft Heinz", "p": 1, "f": "|Ties: the orbit|"}}, {"type": "Feature", "geometry": {"type": "LineString", "coordinates": [[101.71, 3.15], [103.8456, 1.2756]]}, "properties": {"k": "b366b22f3c8ce74e", "c": "#1b5e20", "w": 1, "o": 0.5, "n": "RSPO – Wilmar", "p": 1, "f": "|Ties: the orbit|"}}, {"type": "Feature", "geometry": {"type": "LineString", "coordinates": [[101.71, 3.15], [6.8421, 46.4577]]}, "properties": {"k": "1d5a6bd377d844db", "c": "#1b5e20", "w": 1, "o": 0.5, "n": "RSPO – Nestlé", "p": 1, "f": "|Ties: the orbit|"}}, {"type": "Feature", "geometry": {"type": "LineString", "coordinates": [[101.71, 3.15], [-73.7006, 41.029]]}, "properties": {"k": "b3ce618c3b3dfd50", "c": "#1b5e20", "w": 1, "o": 0.5, "n": "RSPO – PepsiCo", "p": 1, "f": "|Ties: the orbit|"}}, {"type": "Feature", "geometry": {"type": "LineString", "coordinates": [[101.71, 3.15], [-0.1057, 51.5113]]}, "properties": {"k": "379ff98bbd89b539", "c": "#1b5e20", "w": 1, "o": 0.5, "n": "RSPO – Unilever", "p": 1, "f": "|Ties: the orbit|"}}, {"type": "Feature", "geometry": {"type": "LineString", "coordinates": [[101.71, 3.15], [-87.6219, 41.8855]]}, "properties": {"k": "fdc25c12652c2a2d", "c": "#1b5e20", "w": 1, "o": 0.5, "n": "RSPO – Mondelēz", "p": 1, "f": "|Ties: the orbit|"}}, {"type": "Feature", "geometry": {"type": "LineString", "coordinates": [[101.71, 3.15], [-77.176, 38.93]]}, "properties": {"k": "5680690a06d8f86d", "c": "#1b5e20", "w": 1, "o": 0.5, "n": "RSPO – Mars", "p": 1, "f": "|Ties: the orbit|"}}, {"type": "Feature", "geometry": {"type": "LineString", "coordinates": [[101.71, 3.15], [-93.5106, 44.969]]}, "properties": {"k": "f8bb021394117c81", "c": "#1b5e20", "w": 1, "o": 0.5, "n": "RSPO – Cargill", "p": 1, "f": "|Ties: the orbit|"}}, {"type": "Feature", "geometry": {"type": "LineString", "coordinates": [[-122.351, 47.627], [6.985, 51.0307]]}, "properties": {"k": "46f78b59dd474efe", "c": "#ef6c00", "w": 1, "o": 0.5, "n": "Gates Foundation – Bayer", "p": 1, "f": "|Ties: the orbit|"}}, {"type": "Feature", "geometry": {"type": "LineString", "coordinates": [[-122.351, 47.627], [-86.2664, 39.7872]]}, "properties": {"k": "c4a00f6361d3a75c", "c": "#ef6c00", "w": 1, "o": 0.5, "n": "Gates Foundation – Corteva", "p": 1, "f": "|Ties: the orbit|"}}, {"type": "Feature", "geometry": {"type": "LineString", "coordinates": [[-122.351, 47.627], [-93.5106, 44.969]]}, "properties": {"k": "43b22e979129f0fd", "c": "#ef6c00", "w": 1, "o": 0.5, "n": "Gates Foundation – Cargill", "p": 1, "f": "|Ties: the orbit|"}}, {"type": "Feature", "geometry": {"type": "LineString", "coordinates": [[36.817, -1.286], [6.985, 51.0307]]}, "properties": {"k": "69363da436155aae", "c": "#6d4c41", "w": 1, "o": 0.5, "n": "AGRA – Bayer", "p": 1, "f": "|Ties: the orbit|"}}, {"type": "Feature", "geometry": {"type": "LineString", "coordinates": [[36.817, -1.286], [-86.2664, 39.7872]]}, "properties": {"k": "6a88df577c526c56", "c": "#6d4c41", "w": 1, "o": 0.5, "n": "AGRA – Corteva", "p": 1, "f": "|Ties: the orbit|"}}, {"type": "Feature", "geometry": {"type": "LineString", "coordinates": [[36.817, -1.286], [7.5906, 47.555]]}, "properties": {"k": "e36b7557c8694fa7", "c": "#6d4c41", "w": 1, "o": 0.5, "n": "AGRA – Syngenta", "p": 1, "f": "|Ties: the orbit|"}}, {"type": "Feature", "geometry": {"type": "LineString", "coordinates": [[36.817, -1.286], [-106.6345, 52.117]]}, "properties": {"k": "55299d28a7d47b72", "c": "#6d4c41", "w": 1, "o": 0.5, "n": "AGRA – Nutrien", "p": 1, "f": "|Ties: the orbit|"}}]}