{"type": "FeatureCollection", "features": [{"type": "Feature", "geometry": {"type": "Point", "coordinates": [-80.8422255, 35.2273122]}, "properties": {"bank": "Bank of America", "rank_in_figure_1": 1, "sp_global_rank": "8", "country": "USA", "region": "North America", "total_assets_2019_million_usd": 2434080, "finance_linked_to_biodiversity_risk_2019_billion_usd_approx": 210, "of_which_direct_risk_billion_usd_approx": 108, "of_which_indirect_risk_billion_usd_approx": 102, "as_share_of_total_assets_percent_approx": 8.7, "direct_as_share_of_total_assets_percent_approx": 4.6, "how_measured": "Figure 1 prints no numbers. The amounts are measured from the length of the bank's bars in the figure, on its own axis, rounded to the nearest billion (percentages to 0.1); approximate.", "legal_entity": "BANK OF AMERICA CORPORATION", "lei": "9DJT3UXIJIZJI4WXO774", "headquarters_address": "Bank of America Corporate Center, 100 North Tryon Street, Charlotte, US-NC, 28202, US", "gleif_record": "https://search.gleif.org/#/record/9DJT3UXIJIZJI4WXO774", "position": "The headquarters address in the GLEIF register, found in OpenStreetMap.", "source": "Bankrolling Extinction (Portfolio Earth, 2020), Table 2 and Figure 1; https://portfolio.earth/campaigns/bankrolling-extinction/"}}, {"type": "Feature", "geometry": {"type": "Point", "coordinates": [-74.0111721, 40.7206458]}, "properties": {"bank": "Citigroup", "rank_in_figure_1": 2, "sp_global_rank": "13", "country": "USA", "region": "North America", "total_assets_2019_million_usd": 1951160, "finance_linked_to_biodiversity_risk_2019_billion_usd_approx": 185, "of_which_direct_risk_billion_usd_approx": 113, "of_which_indirect_risk_billion_usd_approx": 72, "as_share_of_total_assets_percent_approx": 9.6, "direct_as_share_of_total_assets_percent_approx": 5.9, "how_measured": "Figure 1 prints no numbers. The amounts are measured from the length of the bank's bars in the figure, on its own axis, rounded to the nearest billion (percentages to 0.1); approximate.", "legal_entity": "CITIGROUP INC.", "lei": "6SHGI4ZSSLCXXQSBB395", "headquarters_address": "388 GREENWICH STREET, NEW YORK, US-NY, 10013, US", "gleif_record": "https://search.gleif.org/#/record/6SHGI4ZSSLCXXQSBB395", "position": "The headquarters address in the GLEIF register, found in OpenStreetMap.", "source": "Bankrolling Extinction (Portfolio Earth, 2020), Table 2 and Figure 1; https://portfolio.earth/campaigns/bankrolling-extinction/"}}, {"type": "Feature", "geometry": {"type": "Point", "coordinates": [-73.9767459, 40.7554453]}, "properties": {"bank": "JPMorgan Chase", "rank_in_figure_1": 3, "sp_global_rank": "7", "country": "USA", "region": "North America", "total_assets_2019_million_usd": 2687380, "finance_linked_to_biodiversity_risk_2019_billion_usd_approx": 172, "of_which_direct_risk_billion_usd_approx": 95, "of_which_indirect_risk_billion_usd_approx": 77, "as_share_of_total_assets_percent_approx": 6.4, "direct_as_share_of_total_assets_percent_approx": 3.7, "how_measured": "Figure 1 prints no numbers. The amounts are measured from the length of the bank's bars in the figure, on its own axis, rounded to the nearest billion (percentages to 0.1); approximate.", "legal_entity": "JPMORGAN CHASE & CO.", "lei": "8I5DZWZKVSZI1NUHU748", "headquarters_address": "383 MADISON AVENUE, NEW YORK, US-NY, 10179, US", "gleif_record": "https://search.gleif.org/#/record/8I5DZWZKVSZI1NUHU748", "position": "The headquarters address in the GLEIF register, found in OpenStreetMap.", "source": "Bankrolling Extinction (Portfolio Earth, 2020), Table 2 and Figure 1; https://portfolio.earth/campaigns/bankrolling-extinction/"}}, {"type": "Feature", "geometry": {"type": "Point", "coordinates": [-122.3974036, 37.7919383]}, "properties": {"bank": "Wells Fargo", "rank_in_figure_1": 5, "sp_global_rank": "14", "country": "USA", "region": "North America", "total_assets_2019_million_usd": 1927560, "finance_linked_to_biodiversity_risk_2019_billion_usd_approx": 133, "of_which_direct_risk_billion_usd_approx": 71, "of_which_indirect_risk_billion_usd_approx": 62, "as_share_of_total_assets_percent_approx": 7.0, "direct_as_share_of_total_assets_percent_approx": 3.8, "how_measured": "Figure 1 prints no numbers. The amounts are measured from the length of the bank's bars in the figure, on its own axis, rounded to the nearest billion (percentages to 0.1); approximate.", "legal_entity": "WELLS FARGO & COMPANY", "lei": "PBLD0EJDB5FWOLXP3B76", "headquarters_address": "333 Market Street, San Francisco, US-CA, 94105, US", "gleif_record": "https://search.gleif.org/#/record/PBLD0EJDB5FWOLXP3B76", "position": "The headquarters address in the GLEIF register, found in OpenStreetMap.", "source": "Bankrolling Extinction (Portfolio Earth, 2020), Table 2 and Figure 1; https://portfolio.earth/campaigns/bankrolling-extinction/"}}, {"type": "Feature", "geometry": {"type": "Point", "coordinates": [2.3376561, 48.8717343]}, "properties": {"bank": "BNP Paribas", "rank_in_figure_1": 6, "sp_global_rank": "9", "country": "France", "region": "Europe", "total_assets_2019_million_usd": 2429260, "finance_linked_to_biodiversity_risk_2019_billion_usd_approx": 127, "of_which_direct_risk_billion_usd_approx": 73, "of_which_indirect_risk_billion_usd_approx": 54, "as_share_of_total_assets_percent_approx": 5.3, "direct_as_share_of_total_assets_percent_approx": 3.2, "how_measured": "Figure 1 prints no numbers. The amounts are measured from the length of the bank's bars in the figure, on its own axis, rounded to the nearest billion (percentages to 0.1); approximate.", "legal_entity": "BNP PARIBAS", "lei": "R0MUWSFPU8MPRO8K5P83", "headquarters_address": "16 BOULEVARD DES ITALIENS, PARIS, FR-75C, 75009, FR", "gleif_record": "https://search.gleif.org/#/record/R0MUWSFPU8MPRO8K5P83", "position": "The headquarters address in the GLEIF register, found in OpenStreetMap.", "source": "Bankrolling Extinction (Portfolio Earth, 2020), Table 2 and Figure 1; https://portfolio.earth/campaigns/bankrolling-extinction/"}}, {"type": "Feature", "geometry": {"type": "Point", "coordinates": [-0.0174404, 51.5054316]}, "properties": {"bank": "HSBC", "rank_in_figure_1": 8, "sp_global_rank": "6", "country": "UK", "region": "Europe", "total_assets_2019_million_usd": 2715150, "finance_linked_to_biodiversity_risk_2019_billion_usd_approx": 118, "of_which_direct_risk_billion_usd_approx": 64, "of_which_indirect_risk_billion_usd_approx": 53, "as_share_of_total_assets_percent_approx": 4.4, "direct_as_share_of_total_assets_percent_approx": 2.4, "how_measured": "Figure 1 prints no numbers. The amounts are measured from the length of the bank's bars in the figure, on its own axis, rounded to the nearest billion (percentages to 0.1); approximate.", "legal_entity": "HSBC HOLDINGS PLC", "lei": "MLU0ZO3ML4LN2LL2TL39", "headquarters_address": "8 CANADA SQUARE, LONDON, GB-LND, E14 5HQ, GB", "gleif_record": "https://search.gleif.org/#/record/MLU0ZO3ML4LN2LL2TL39", "position": "The headquarters address in the GLEIF register, found in OpenStreetMap.", "source": "Bankrolling Extinction (Portfolio Earth, 2020), Table 2 and Figure 1; https://portfolio.earth/campaigns/bankrolling-extinction/"}}, {"type": "Feature", "geometry": {"type": "Point", "coordinates": [-0.0143728, 51.5050457]}, "properties": {"bank": "Barclays", "rank_in_figure_1": 10, "sp_global_rank": "18", "country": "UK", "region": "Europe", "total_assets_2019_million_usd": 1510140, "finance_linked_to_biodiversity_risk_2019_billion_usd_approx": 104, "of_which_direct_risk_billion_usd_approx": 59, "of_which_indirect_risk_billion_usd_approx": 45, "as_share_of_total_assets_percent_approx": 7.1, "direct_as_share_of_total_assets_percent_approx": 4.0, "how_measured": "Figure 1 prints no numbers. The amounts are measured from the length of the bank's bars in the figure, on its own axis, rounded to the nearest billion (percentages to 0.1); approximate.", "legal_entity": "BARCLAYS PLC", "lei": "213800LBQA1Y9L22JB70", "headquarters_address": "1 CHURCHILL PLACE, LONDON, GB-LND, E14 5HP, GB", "gleif_record": "https://search.gleif.org/#/record/213800LBQA1Y9L22JB70", "position": "The headquarters address in the GLEIF register, found in OpenStreetMap.", "source": "Bankrolling Extinction (Portfolio Earth, 2020), Table 2 and Figure 1; https://portfolio.earth/campaigns/bankrolling-extinction/"}}, {"type": "Feature", "geometry": {"type": "Point", "coordinates": [-74.0144315, 40.7147237]}, "properties": {"bank": "Goldman Sachs", "rank_in_figure_1": 11, "sp_global_rank": "30", "country": "USA", "region": "North America", "total_assets_2019_million_usd": 992970, "finance_linked_to_biodiversity_risk_2019_billion_usd_approx": 97, "of_which_direct_risk_billion_usd_approx": 49, "of_which_indirect_risk_billion_usd_approx": 48, "as_share_of_total_assets_percent_approx": 10.0, "direct_as_share_of_total_assets_percent_approx": 5.0, "how_measured": "Figure 1 prints no numbers. The amounts are measured from the length of the bank's bars in the figure, on its own axis, rounded to the nearest billion (percentages to 0.1); approximate.", "legal_entity": "THE GOLDMAN SACHS GROUP, INC.", "lei": "784F5XWPLTWKTBV3E584", "headquarters_address": "200 WEST STREET, NEW YORK, US-NY, 10282, US", "gleif_record": "https://search.gleif.org/#/record/784F5XWPLTWKTBV3E584", "position": "The headquarters address in the GLEIF register, found in OpenStreetMap.", "source": "Bankrolling Extinction (Portfolio Earth, 2020), Table 2 and Figure 1; https://portfolio.earth/campaigns/bankrolling-extinction/"}}, {"type": "Feature", "geometry": {"type": "Point", "coordinates": [-73.9855237, 40.7599838]}, "properties": {"bank": "Morgan Stanley", "rank_in_figure_1": 13, "sp_global_rank": "39", "country": "USA", "region": "North America", "total_assets_2019_million_usd": 895430, "finance_linked_to_biodiversity_risk_2019_billion_usd_approx": 79, "of_which_direct_risk_billion_usd_approx": 44, "of_which_indirect_risk_billion_usd_approx": 36, "as_share_of_total_assets_percent_approx": 9.1, "direct_as_share_of_total_assets_percent_approx": 5.1, "how_measured": "Figure 1 prints no numbers. The amounts are measured from the length of the bank's bars in the figure, on its own axis, rounded to the nearest billion (percentages to 0.1); approximate.", "legal_entity": "MORGAN STANLEY", "lei": "IGJSJL3JD5P30I6NJZ34", "headquarters_address": "1585 Broadway, New York, US-NY, 10036, US", "gleif_record": "https://search.gleif.org/#/record/IGJSJL3JD5P30I6NJZ34", "position": "The headquarters address in the GLEIF register, found in OpenStreetMap.", "source": "Bankrolling Extinction (Portfolio Earth, 2020), Table 2 and Figure 1; https://portfolio.earth/campaigns/bankrolling-extinction/"}}, {"type": "Feature", "geometry": {"type": "Point", "coordinates": [116.3599221, 39.9108672]}, "properties": {"bank": "Bank of China", "rank_in_figure_1": 14, "sp_global_rank": "4", "country": "China", "region": "Asia & Pacific", "total_assets_2019_million_usd": 3270150, "finance_linked_to_biodiversity_risk_2019_billion_usd_approx": 77, "of_which_direct_risk_billion_usd_approx": 61, "of_which_indirect_risk_billion_usd_approx": 16, "as_share_of_total_assets_percent_approx": 2.5, "direct_as_share_of_total_assets_percent_approx": 2.0, "how_measured": "Figure 1 prints no numbers. The amounts are measured from the length of the bank's bars in the figure, on its own axis, rounded to the nearest billion (percentages to 0.1); approximate.", "legal_entity": "中国银行股份有限公司", "lei": "54930053HGCFWVHYZX42", "headquarters_address": "复兴门内大街1号, 西城区, CN-BJ, 100818, CN", "gleif_record": "https://search.gleif.org/#/record/54930053HGCFWVHYZX42", "position": "The headquarters city in the GLEIF register (the street address was not found in OpenStreetMap).", "source": "Bankrolling Extinction (Portfolio Earth, 2020), Table 2 and Figure 1; https://portfolio.earth/campaigns/bankrolling-extinction/"}}, {"type": "Feature", "geometry": {"type": "Point", "coordinates": [-73.5686342, 45.5015845]}, "properties": {"bank": "Royal Bank of Canada", "rank_in_figure_1": 15, "sp_global_rank": "23", "country": "Canada", "region": "North America", "total_assets_2019_million_usd": 1116310, "finance_linked_to_biodiversity_risk_2019_billion_usd_approx": 75, "of_which_direct_risk_billion_usd_approx": 49, "of_which_indirect_risk_billion_usd_approx": 26, "as_share_of_total_assets_percent_approx": 6.8, "direct_as_share_of_total_assets_percent_approx": 4.5, "how_measured": "Figure 1 prints no numbers. The amounts are measured from the length of the bank's bars in the figure, on its own axis, rounded to the nearest billion (percentages to 0.1); approximate.", "legal_entity": "Royal Bank of Canada", "lei": "ES7IP3U3RHIGC71XBU11", "headquarters_address": "1 place Ville-Marie, Montreal, CA-QC, H3B 3A9, CA", "gleif_record": "https://search.gleif.org/#/record/ES7IP3U3RHIGC71XBU11", "position": "The headquarters address in the GLEIF register, found in OpenStreetMap.", "source": "Bankrolling Extinction (Portfolio Earth, 2020), Table 2 and Figure 1; https://portfolio.earth/campaigns/bankrolling-extinction/"}}, {"type": "Feature", "geometry": {"type": "Point", "coordinates": [2.3322343, 48.8729499]}, "properties": {"bank": "Société Générale", "rank_in_figure_1": 16, "sp_global_rank": "17", "country": "France", "region": "Europe", "total_assets_2019_million_usd": 1522050, "finance_linked_to_biodiversity_risk_2019_billion_usd_approx": 69, "of_which_direct_risk_billion_usd_approx": 43, "of_which_indirect_risk_billion_usd_approx": 26, "as_share_of_total_assets_percent_approx": 4.7, "direct_as_share_of_total_assets_percent_approx": 3.0, "how_measured": "Figure 1 prints no numbers. The amounts are measured from the length of the bank's bars in the figure, on its own axis, rounded to the nearest billion (percentages to 0.1); approximate.", "legal_entity": "SOCIETE GENERALE", "lei": "O2RNE8IBXP4R0TD8PU41", "headquarters_address": "29 BOULEVARD HAUSSMANN, PARIS, FR-75C, 75009, FR", "gleif_record": "https://search.gleif.org/#/record/O2RNE8IBXP4R0TD8PU41", "position": "The headquarters address in the GLEIF register, found in OpenStreetMap.", "source": "Bankrolling Extinction (Portfolio Earth, 2020), Table 2 and Figure 1; https://portfolio.earth/campaigns/bankrolling-extinction/"}}, {"type": "Feature", "geometry": {"type": "Point", "coordinates": [8.6679963, 50.1137472]}, "properties": {"bank": "Deutsche Bank", "rank_in_figure_1": 17, "sp_global_rank": "21", "country": "Germany", "region": "Europe", "total_assets_2019_million_usd": 1456260, "finance_linked_to_biodiversity_risk_2019_billion_usd_approx": 69, "of_which_direct_risk_billion_usd_approx": 34, "of_which_indirect_risk_billion_usd_approx": 35, "as_share_of_total_assets_percent_approx": 4.9, "direct_as_share_of_total_assets_percent_approx": 2.5, "how_measured": "Figure 1 prints no numbers. The amounts are measured from the length of the bank's bars in the figure, on its own axis, rounded to the nearest billion (percentages to 0.1); approximate.", "legal_entity": "DEUTSCHE BANK AKTIENGESELLSCHAFT", "lei": "7LTWFZYICNSX8D621K86", "headquarters_address": "Taunusanlage 12, Frankfurt am Main, DE-HE, 60325, DE", "gleif_record": "https://search.gleif.org/#/record/7LTWFZYICNSX8D621K86", "position": "The headquarters address in the GLEIF register, found in OpenStreetMap.", "source": "Bankrolling Extinction (Portfolio Earth, 2020), Table 2 and Figure 1; https://portfolio.earth/campaigns/bankrolling-extinction/"}}, {"type": "Feature", "geometry": {"type": "Point", "coordinates": [-79.3839347, 43.6534817]}, "properties": {"bank": "Toronto-Dominion Bank", "rank_in_figure_1": 18, "sp_global_rank": "25", "country": "Canada", "region": "North America", "total_assets_2019_million_usd": 1102040, "finance_linked_to_biodiversity_risk_2019_billion_usd_approx": 57, "of_which_direct_risk_billion_usd_approx": 39, "of_which_indirect_risk_billion_usd_approx": 18, "as_share_of_total_assets_percent_approx": 5.4, "direct_as_share_of_total_assets_percent_approx": 3.7, "how_measured": "Figure 1 prints no numbers. The amounts are measured from the length of the bank's bars in the figure, on its own axis, rounded to the nearest billion (percentages to 0.1); approximate.", "legal_entity": "THE TORONTO-DOMINION BANK", "lei": "PT3QB789TSUIDF371261", "headquarters_address": "15FLR-66 ST Wellington W, Toronto, CA-ON, M5K 1A2, CA", "gleif_record": "https://search.gleif.org/#/record/PT3QB789TSUIDF371261", "position": "The headquarters city in the GLEIF register (the street address was not found in OpenStreetMap).", "source": "Bankrolling Extinction (Portfolio Earth, 2020), Table 2 and Figure 1; https://portfolio.earth/campaigns/bankrolling-extinction/"}}, {"type": "Feature", "geometry": {"type": "Point", "coordinates": [8.5386224, 47.3699463]}, "properties": {"bank": "Credit Suisse", "rank_in_figure_1": 19, "sp_global_rank": "41", "country": "Switzerland", "region": "Europe", "total_assets_2019_million_usd": 812910, "finance_linked_to_biodiversity_risk_2019_billion_usd_approx": 54, "of_which_direct_risk_billion_usd_approx": 35, "of_which_indirect_risk_billion_usd_approx": 19, "as_share_of_total_assets_percent_approx": 6.7, "direct_as_share_of_total_assets_percent_approx": 4.4, "how_measured": "Figure 1 prints no numbers. The amounts are measured from the length of the bank's bars in the figure, on its own axis, rounded to the nearest billion (percentages to 0.1); approximate.", "legal_entity": "CREDIT SUISSE GROUP AG", "lei": "549300506SI9CRFV9Z86", "headquarters_address": "PARADEPLATZ 8, ZURICH, CH-ZH, 8001, CH", "gleif_record": "https://search.gleif.org/#/record/549300506SI9CRFV9Z86", "position": "The headquarters address in the GLEIF register, found in OpenStreetMap.", "source": "Bankrolling Extinction (Portfolio Earth, 2020), Table 2 and Figure 1; https://portfolio.earth/campaigns/bankrolling-extinction/"}}, {"type": "Feature", "geometry": {"type": "Point", "coordinates": [-3.8033928, 43.461801]}, "properties": {"bank": "Santander", "rank_in_figure_1": 20, "sp_global_rank": "16", "country": "Spain", "region": "Europe", "total_assets_2019_million_usd": 1702610, "finance_linked_to_biodiversity_risk_2019_billion_usd_approx": 50, "of_which_direct_risk_billion_usd_approx": 32, "of_which_indirect_risk_billion_usd_approx": 17, "as_share_of_total_assets_percent_approx": 3.1, "direct_as_share_of_total_assets_percent_approx": 2.0, "how_measured": "Figure 1 prints no numbers. The amounts are measured from the length of the bank's bars in the figure, on its own axis, rounded to the nearest billion (percentages to 0.1); approximate.", "legal_entity": "BANCO SANTANDER S.A.", "lei": "5493006QMFDDMYWIAM13", "headquarters_address": "PASEO DE PEREDA 9-12, SANTANDER, ES-S, 39004, ES", "gleif_record": "https://search.gleif.org/#/record/5493006QMFDDMYWIAM13", "position": "The headquarters address in the GLEIF register, found in OpenStreetMap.", "source": "Bankrolling Extinction (Portfolio Earth, 2020), Table 2 and Figure 1; https://portfolio.earth/campaigns/bankrolling-extinction/"}}, {"type": "Feature", "geometry": {"type": "Point", "coordinates": [4.9497613, 52.3153553]}, "properties": {"bank": "ING Group", "rank_in_figure_1": 21, "sp_global_rank": "29", "country": "Netherlands", "region": "Europe", "total_assets_2019_million_usd": 1000720, "finance_linked_to_biodiversity_risk_2019_billion_usd_approx": 49, "of_which_direct_risk_billion_usd_approx": 32, "of_which_indirect_risk_billion_usd_approx": 16, "as_share_of_total_assets_percent_approx": 5.1, "direct_as_share_of_total_assets_percent_approx": 3.4, "how_measured": "Figure 1 prints no numbers. The amounts are measured from the length of the bank's bars in the figure, on its own axis, rounded to the nearest billion (percentages to 0.1); approximate.", "legal_entity": "ING GROEP N.V.", "lei": "549300NYKK9MWM7GGW15", "headquarters_address": "BIJLMERDREEF 106, AMSTERDAM, NL-NH, 1102 CT, NL", "gleif_record": "https://search.gleif.org/#/record/549300NYKK9MWM7GGW15", "position": "The headquarters address in the GLEIF register, found in OpenStreetMap.", "source": "Bankrolling Extinction (Portfolio Earth, 2020), Table 2 and Figure 1; https://portfolio.earth/campaigns/bankrolling-extinction/"}}, {"type": "Feature", "geometry": {"type": "Point", "coordinates": [116.3553958, 39.9145299]}, "properties": {"bank": "China Construction Bank", "rank_in_figure_1": 22, "sp_global_rank": "2", "country": "China", "region": "Asia & Pacific", "total_assets_2019_million_usd": 3653110, "finance_linked_to_biodiversity_risk_2019_billion_usd_approx": 43, "of_which_direct_risk_billion_usd_approx": 35, "of_which_indirect_risk_billion_usd_approx": 7, "as_share_of_total_assets_percent_approx": 1.3, "direct_as_share_of_total_assets_percent_approx": 0.7, "how_measured": "Figure 1 prints no numbers. The amounts are measured from the length of the bank's bars in the figure, on its own axis, rounded to the nearest billion (percentages to 0.1); approximate.", "legal_entity": "China Construction Bank Corporation", "lei": "2549006EHFY98CQJZN84", "headquarters_address": "25 Financial Street, Xicheng District, Xicheng Qu, CN-BJ, 100033, CN", "gleif_record": "https://search.gleif.org/#/record/2549006EHFY98CQJZN84", "position": "The headquarters address in the GLEIF register, found in OpenStreetMap as a whole address.", "source": "Bankrolling Extinction (Portfolio Earth, 2020), Table 2 and Figure 1; https://portfolio.earth/campaigns/bankrolling-extinction/"}}, {"type": "Feature", "geometry": {"type": "Point", "coordinates": [116.3912972, 39.9057136]}, "properties": {"bank": "Industrial and Commercial Bank of China", "rank_in_figure_1": 24, "sp_global_rank": "1", "country": "China", "region": "Asia & Pacific", "total_assets_2019_million_usd": 4324270, "finance_linked_to_biodiversity_risk_2019_billion_usd_approx": 41, "of_which_direct_risk_billion_usd_approx": 31, "of_which_indirect_risk_billion_usd_approx": 10, "as_share_of_total_assets_percent_approx": 1.0, "direct_as_share_of_total_assets_percent_approx": 0.7, "how_measured": "Figure 1 prints no numbers. The amounts are measured from the length of the bank's bars in the figure, on its own axis, rounded to the nearest billion (percentages to 0.1); approximate.", "legal_entity": "INDUSTRIAL AND COMMERCIAL BANK OF CHINA LIMITED", "lei": "2549005QXSCD8MSHQU78", "headquarters_address": "55 Fuxingmennei Avenue, Xicheng District, Beijing, CN-BJ, 100140, CN", "gleif_record": "https://search.gleif.org/#/record/2549005QXSCD8MSHQU78", "position": "The headquarters city in the GLEIF register (the street address was not found in OpenStreetMap).", "source": "Bankrolling Extinction (Portfolio Earth, 2020), Table 2 and Figure 1; https://portfolio.earth/campaigns/bankrolling-extinction/"}}, {"type": "Feature", "geometry": {"type": "Point", "coordinates": [116.4100395, 39.9269012]}, "properties": {"bank": "Agricultural Bank of China", "rank_in_figure_1": 25, "sp_global_rank": "3", "country": "China", "region": "Asia & Pacific", "total_assets_2019_million_usd": 3572980, "finance_linked_to_biodiversity_risk_2019_billion_usd_approx": 34, "of_which_direct_risk_billion_usd_approx": 26, "of_which_indirect_risk_billion_usd_approx": 8, "as_share_of_total_assets_percent_approx": 1.0, "direct_as_share_of_total_assets_percent_approx": 0.8, "how_measured": "Figure 1 prints no numbers. The amounts are measured from the length of the bank's bars in the figure, on its own axis, rounded to the nearest billion (percentages to 0.1); approximate.", "legal_entity": "中国农业银行股份有限公司", "lei": "549300E7TSGLCOVSY746", "headquarters_address": "东城区建国门内大街69号, 东城区, CN-BJ, 100005, CN", "gleif_record": "https://search.gleif.org/#/record/549300E7TSGLCOVSY746", "position": "The headquarters city in the GLEIF register (the street address was not found in OpenStreetMap).", "source": "Bankrolling Extinction (Portfolio Earth, 2020), Table 2 and Figure 1; https://portfolio.earth/campaigns/bankrolling-extinction/"}}, {"type": "Feature", "geometry": {"type": "Point", "coordinates": [2.3636124, 48.8290105]}, "properties": {"bank": "BPCE Group", "rank_in_figure_1": 27, "sp_global_rank": "19", "country": "France", "region": "Europe", "total_assets_2019_million_usd": 1501590, "finance_linked_to_biodiversity_risk_2019_billion_usd_approx": 29, "of_which_direct_risk_billion_usd_approx": 21, "of_which_indirect_risk_billion_usd_approx": 8, "as_share_of_total_assets_percent_approx": 2.1, "direct_as_share_of_total_assets_percent_approx": 1.5, "how_measured": "Figure 1 prints no numbers. The amounts are measured from the length of the bank's bars in the figure, on its own axis, rounded to the nearest billion (percentages to 0.1); approximate.", "legal_entity": "BPCE", "lei": "9695005MSX1OYEMGDF46", "headquarters_address": "7 PRO GERMAINE SABLON, PARIS 13, FR-75C, 75013, FR", "gleif_record": "https://search.gleif.org/#/record/9695005MSX1OYEMGDF46", "position": "The headquarters city in the GLEIF register (the street address was not found in OpenStreetMap).", "source": "Bankrolling Extinction (Portfolio Earth, 2020), Table 2 and Figure 1; https://portfolio.earth/campaigns/bankrolling-extinction/"}}, {"type": "Feature", "geometry": {"type": "Point", "coordinates": [8.5382214, 47.3719416]}, "properties": {"bank": "UBS", "rank_in_figure_1": 28, "sp_global_rank": "33", "country": "Switzerland", "region": "Europe", "total_assets_2019_million_usd": 972180, "finance_linked_to_biodiversity_risk_2019_billion_usd_approx": 24, "of_which_direct_risk_billion_usd_approx": 14, "of_which_indirect_risk_billion_usd_approx": 10, "as_share_of_total_assets_percent_approx": 2.6, "direct_as_share_of_total_assets_percent_approx": 1.5, "how_measured": "Figure 1 prints no numbers. The amounts are measured from the length of the bank's bars in the figure, on its own axis, rounded to the nearest billion (percentages to 0.1); approximate.", "legal_entity": "UBS Group AG", "lei": "549300SZJ9VS8SGXAN81", "headquarters_address": "Bahnhofstrasse 45, Zurich, CH-ZH, 8001, CH", "gleif_record": "https://search.gleif.org/#/record/549300SZJ9VS8SGXAN81", "position": "The headquarters address in the GLEIF register, found in OpenStreetMap.", "source": "Bankrolling Extinction (Portfolio Earth, 2020), Table 2 and Figure 1; https://portfolio.earth/campaigns/bankrolling-extinction/"}}, {"type": "Feature", "geometry": {"type": "Point", "coordinates": [-3.1914231, 55.9544835]}, "properties": {"bank": "NatWest", "rank_in_figure_1": 29, "sp_global_rank": "36", "country": "UK", "region": "Europe", "total_assets_2019_million_usd": 957600, "finance_linked_to_biodiversity_risk_2019_billion_usd_approx": 23, "of_which_direct_risk_billion_usd_approx": 13, "of_which_indirect_risk_billion_usd_approx": 9, "as_share_of_total_assets_percent_approx": 2.5, "direct_as_share_of_total_assets_percent_approx": 1.5, "how_measured": "Figure 1 prints no numbers. The amounts are measured from the length of the bank's bars in the figure, on its own axis, rounded to the nearest billion (percentages to 0.1); approximate.", "legal_entity": "NATWEST GROUP PLC", "lei": "2138005O9XJIJN4JPN90", "headquarters_address": "36 ST ANDREW SQUARE, EDINBURGH, GB-EDH, EH2 2YB, GB", "gleif_record": "https://search.gleif.org/#/record/2138005O9XJIJN4JPN90", "position": "The headquarters address in the GLEIF register, found in OpenStreetMap.", "source": "Bankrolling Extinction (Portfolio Earth, 2020), Table 2 and Figure 1; https://portfolio.earth/campaigns/bankrolling-extinction/"}}, {"type": "Feature", "geometry": {"type": "Point", "coordinates": [5.1089334, 52.0859114]}, "properties": {"bank": "Rabobank", "rank_in_figure_1": 30, "sp_global_rank": "47", "country": "Netherlands", "region": "Europe", "total_assets_2019_million_usd": 662770, "finance_linked_to_biodiversity_risk_2019_billion_usd_approx": 23, "of_which_direct_risk_billion_usd_approx": 15, "of_which_indirect_risk_billion_usd_approx": 8, "as_share_of_total_assets_percent_approx": 3.6, "direct_as_share_of_total_assets_percent_approx": 2.3, "how_measured": "Figure 1 prints no numbers. The amounts are measured from the length of the bank's bars in the figure, on its own axis, rounded to the nearest billion (percentages to 0.1); approximate.", "legal_entity": "Coöperatieve Rabobank U.A.", "lei": "DG3RU1DBUFHT4ZF9WN62", "headquarters_address": "Croeselaan 18, Utrecht, NL-UT, 3521 CB, NL", "gleif_record": "https://search.gleif.org/#/record/DG3RU1DBUFHT4ZF9WN62", "position": "The headquarters address in the GLEIF register, found in OpenStreetMap.", "source": "Bankrolling Extinction (Portfolio Earth, 2020), Table 2 and Figure 1; https://portfolio.earth/campaigns/bankrolling-extinction/"}}, {"type": "Feature", "geometry": {"type": "Point", "coordinates": [103.8519072, 1.2899175]}, "properties": {"bank": "DBS", "rank_in_figure_1": 31, "sp_global_rank": "66", "country": "Singapore", "region": "Asia & Pacific", "total_assets_2019_million_usd": 430450, "finance_linked_to_biodiversity_risk_2019_billion_usd_approx": 21, "of_which_direct_risk_billion_usd_approx": 13, "of_which_indirect_risk_billion_usd_approx": 8, "as_share_of_total_assets_percent_approx": 5.0, "direct_as_share_of_total_assets_percent_approx": 3.1, "how_measured": "Figure 1 prints no numbers. The amounts are measured from the length of the bank's bars in the figure, on its own axis, rounded to the nearest billion (percentages to 0.1); approximate.", "legal_entity": "DBS GROUP HOLDINGS LTD", "lei": "5493007FKT78NKPM5V55", "headquarters_address": "12 MARINA BOULEVARD, MARINA BAY FINANCIAL CENTRE, SINGAPORE, SG-01, 018982, SG", "gleif_record": "https://search.gleif.org/#/record/5493007FKT78NKPM5V55", "position": "The headquarters city in the GLEIF register (the street address was not found in OpenStreetMap).", "source": "Bankrolling Extinction (Portfolio Earth, 2020), Table 2 and Figure 1; https://portfolio.earth/campaigns/bankrolling-extinction/"}}, {"type": "Feature", "geometry": {"type": "Point", "coordinates": [-0.0835294, 51.5158235]}, "properties": {"bank": "Lloyds Banking Group", "rank_in_figure_1": 33, "sp_global_rank": "24", "country": "UK", "region": "Europe", "total_assets_2019_million_usd": 1104420, "finance_linked_to_biodiversity_risk_2019_billion_usd_approx": 13, "of_which_direct_risk_billion_usd_approx": 6, "of_which_indirect_risk_billion_usd_approx": 7, "as_share_of_total_assets_percent_approx": 1.2, "direct_as_share_of_total_assets_percent_approx": 0.6, "how_measured": "Figure 1 prints no numbers. The amounts are measured from the length of the bank's bars in the figure, on its own axis, rounded to the nearest billion (percentages to 0.1); approximate.", "legal_entity": "LLOYDS BANKING GROUP PLC", "lei": "549300PPXHEU2JF0AM85", "headquarters_address": "33 OLD BROAD STREET, LONDON, GB-LND, EC2N 1HZ, GB", "gleif_record": "https://search.gleif.org/#/record/549300PPXHEU2JF0AM85", "position": "The headquarters address in the GLEIF register, found in OpenStreetMap.", "source": "Bankrolling Extinction (Portfolio Earth, 2020), Table 2 and Figure 1; https://portfolio.earth/campaigns/bankrolling-extinction/"}}, {"type": "Feature", "geometry": {"type": "Point", "coordinates": [103.8519072, 1.2899175]}, "properties": {"bank": "Oversea-Chinese Banking Corporation", "rank_in_figure_1": 34, "sp_global_rank": "76", "country": "Singapore", "region": "Asia & Pacific", "total_assets_2019_million_usd": 365570, "finance_linked_to_biodiversity_risk_2019_billion_usd_approx": 9, "of_which_direct_risk_billion_usd_approx": 7, "of_which_indirect_risk_billion_usd_approx": 2, "as_share_of_total_assets_percent_approx": 2.7, "direct_as_share_of_total_assets_percent_approx": 2.3, "how_measured": "Figure 1 prints no numbers. The amounts are measured from the length of the bank's bars in the figure, on its own axis, rounded to the nearest billion (percentages to 0.1); approximate.", "legal_entity": "OVERSEA-CHINESE BANKING CORPORATION LIMITED", "lei": "5493007O3QFXCPOGWK22", "headquarters_address": "63 CHULIA STREET #10-00 OCBC Centre East, SINGAPORE, SG-01, 049514, SG", "gleif_record": "https://search.gleif.org/#/record/5493007O3QFXCPOGWK22", "position": "The headquarters city in the GLEIF register (the street address was not found in OpenStreetMap).", "source": "Bankrolling Extinction (Portfolio Earth, 2020), Table 2 and Figure 1; https://portfolio.earth/campaigns/bankrolling-extinction/"}}, {"type": "Feature", "geometry": {"type": "Point", "coordinates": [2.3082727, 48.8928115]}, "properties": {"bank": "Crédit Mutuel CIC Group", "rank_in_figure_1": 35, "sp_global_rank": "32", "country": "France", "region": "Europe", "total_assets_2019_million_usd": 976140, "finance_linked_to_biodiversity_risk_2019_billion_usd_approx": 7, "of_which_direct_risk_billion_usd_approx": 4, "of_which_indirect_risk_billion_usd_approx": 3, "as_share_of_total_assets_percent_approx": 0.8, "direct_as_share_of_total_assets_percent_approx": 0.5, "how_measured": "Figure 1 prints no numbers. The amounts are measured from the length of the bank's bars in the figure, on its own axis, rounded to the nearest billion (percentages to 0.1); approximate.", "legal_entity": "CONFEDERATION NATIONALE CREDIT MUTUEL", "lei": "9695000CG7B84NLR5984", "headquarters_address": "46 RUE DU BASTION, PARIS, FR-75C, 75017, FR", "gleif_record": "https://search.gleif.org/#/record/9695000CG7B84NLR5984", "position": "The headquarters address in the GLEIF register, found in OpenStreetMap.", "source": "Bankrolling Extinction (Portfolio Earth, 2020), Table 2 and Figure 1; https://portfolio.earth/campaigns/bankrolling-extinction/"}}, {"type": "Feature", "geometry": {"type": "Point", "coordinates": [151.2082848, -33.8698439]}, "properties": {"bank": "Commonwealth Bank of Australia", "rank_in_figure_1": 36, "sp_global_rank": "44", "country": "Australia", "region": "Asia & Pacific", "total_assets_2019_million_usd": 688400, "finance_linked_to_biodiversity_risk_2019_billion_usd_approx": 6, "of_which_direct_risk_billion_usd_approx": 5, "of_which_indirect_risk_billion_usd_approx": 2, "as_share_of_total_assets_percent_approx": 1.1, "direct_as_share_of_total_assets_percent_approx": 0.9, "how_measured": "Figure 1 prints no numbers. The amounts are measured from the length of the bank's bars in the figure, on its own axis, rounded to the nearest billion (percentages to 0.1); approximate.", "legal_entity": "COMMONWEALTH BANK OF AUSTRALIA", "lei": "MSFSBD3QN1GSN7Q6C537", "headquarters_address": "Commonwealth Bank Place South, Level 1,11 Harbour Street, SYDNEY, AU-NSW, 2000, AU", "gleif_record": "https://search.gleif.org/#/record/MSFSBD3QN1GSN7Q6C537", "position": "The headquarters city in the GLEIF register (the street address was not found in OpenStreetMap).", "source": "Bankrolling Extinction (Portfolio Earth, 2020), Table 2 and Figure 1; https://portfolio.earth/campaigns/bankrolling-extinction/"}}, {"type": "Feature", "geometry": {"type": "Point", "coordinates": [144.9631732, -37.8142454]}, "properties": {"bank": "National Australia Bank", "rank_in_figure_1": 37, "sp_global_rank": "52", "country": "Australia", "region": "Asia & Pacific", "total_assets_2019_million_usd": 571340, "finance_linked_to_biodiversity_risk_2019_billion_usd_approx": 6, "of_which_direct_risk_billion_usd_approx": 5, "of_which_indirect_risk_billion_usd_approx": 2, "as_share_of_total_assets_percent_approx": 1.2, "direct_as_share_of_total_assets_percent_approx": 0.9, "how_measured": "Figure 1 prints no numbers. The amounts are measured from the length of the bank's bars in the figure, on its own axis, rounded to the nearest billion (percentages to 0.1); approximate.", "legal_entity": "NATIONAL AUSTRALIA BANK LIMITED", "lei": "F8SB4JFBSYQFRQEH3Z21", "headquarters_address": "LEVEL 28, 395 BOURKE STREET, MELBOURNE, AU-VIC, 3000, AU", "gleif_record": "https://search.gleif.org/#/record/F8SB4JFBSYQFRQEH3Z21", "position": "The headquarters city in the GLEIF register (the street address was not found in OpenStreetMap).", "source": "Bankrolling Extinction (Portfolio Earth, 2020), Table 2 and Figure 1; https://portfolio.earth/campaigns/bankrolling-extinction/"}}, {"type": "Feature", "geometry": {"type": "Point", "coordinates": [8.6607502, 50.1095247]}, "properties": {"bank": "DZ Bank", "rank_in_figure_1": 38, "sp_global_rank": "49", "country": "Germany", "region": "Europe", "total_assets_2019_million_usd": 627310, "finance_linked_to_biodiversity_risk_2019_billion_usd_approx": 6, "of_which_direct_risk_billion_usd_approx": 4, "of_which_indirect_risk_billion_usd_approx": 2, "as_share_of_total_assets_percent_approx": 1.0, "direct_as_share_of_total_assets_percent_approx": 0.8, "how_measured": "Figure 1 prints no numbers. The amounts are measured from the length of the bank's bars in the figure, on its own axis, rounded to the nearest billion (percentages to 0.1); approximate.", "legal_entity": "DZ BANK AG Deutsche Zentral-Genossenschaftsbank, Frankfurt am Main", "lei": "529900HNOAA1KXQJUQ27", "headquarters_address": "Platz der Republik, Frankfurt am Main, DE-HE, 60265, DE", "gleif_record": "https://search.gleif.org/#/record/529900HNOAA1KXQJUQ27", "position": "The headquarters address in the GLEIF register, found in OpenStreetMap.", "source": "Bankrolling Extinction (Portfolio Earth, 2020), Table 2 and Figure 1; https://portfolio.earth/campaigns/bankrolling-extinction/"}}, {"type": "Feature", "geometry": {"type": "Point", "coordinates": [72.8692035, 19.054999]}, "properties": {"bank": "State Bank of India", "rank_in_figure_1": 40, "sp_global_rank": "55", "country": "India", "region": "Asia & Pacific", "total_assets_2019_million_usd": 561740, "finance_linked_to_biodiversity_risk_2019_billion_usd_approx": 6, "of_which_direct_risk_billion_usd_approx": 4, "of_which_indirect_risk_billion_usd_approx": 1, "as_share_of_total_assets_percent_approx": 1.1, "direct_as_share_of_total_assets_percent_approx": 1.0, "how_measured": "Figure 1 prints no numbers. The amounts are measured from the length of the bank's bars in the figure, on its own axis, rounded to the nearest billion (percentages to 0.1); approximate.", "legal_entity": "STATE BANK OF INDIA", "lei": "5493001JZ37UBBZF6L49", "headquarters_address": "C/O STATE BANK BHAVAN MADAME CAMA ROAD NARIMAN POINT, MUMBAI, IN-MH, 400021, IN", "gleif_record": "https://search.gleif.org/#/record/5493001JZ37UBBZF6L49", "position": "The headquarters city in the GLEIF register (the street address was not found in OpenStreetMap).", "source": "Bankrolling Extinction (Portfolio Earth, 2020), Table 2 and Figure 1; https://portfolio.earth/campaigns/bankrolling-extinction/"}}, {"type": "Feature", "geometry": {"type": "Point", "coordinates": [-47.8828, -15.7939869]}, "properties": {"bank": "Banco do Brasil", "rank_in_figure_1": 41, "sp_global_rank": "77", "country": "Brazil", "region": "South America", "total_assets_2019_million_usd": 365510, "finance_linked_to_biodiversity_risk_2019_billion_usd_approx": 6, "of_which_direct_risk_billion_usd_approx": 2, "of_which_indirect_risk_billion_usd_approx": 4, "as_share_of_total_assets_percent_approx": 1.6, "direct_as_share_of_total_assets_percent_approx": 0.7, "how_measured": "Figure 1 prints no numbers. The amounts are measured from the length of the bank's bars in the figure, on its own axis, rounded to the nearest billion (percentages to 0.1); approximate.", "legal_entity": "BANCO DO BRASIL S.A.", "lei": "81560032A9148CB5EB22", "headquarters_address": "-, BRASILIA, BR", "gleif_record": "https://search.gleif.org/#/record/81560032A9148CB5EB22", "position": "The headquarters address in the GLEIF register, found in OpenStreetMap as a whole address.", "source": "Bankrolling Extinction (Portfolio Earth, 2020), Table 2 and Figure 1; https://portfolio.earth/campaigns/bankrolling-extinction/"}}, {"type": "Feature", "geometry": {"type": "Point", "coordinates": [101.6526147, 3.16777]}, "properties": {"bank": "CIMB Group", "rank_in_figure_1": 42, "sp_global_rank": "na", "country": "Malaysia", "region": "Asia & Pacific", "total_assets_2019_million_usd": 139404, "finance_linked_to_biodiversity_risk_2019_billion_usd_approx": 6, "of_which_direct_risk_billion_usd_approx": 3, "of_which_indirect_risk_billion_usd_approx": 3, "as_share_of_total_assets_percent_approx": 4.1, "direct_as_share_of_total_assets_percent_approx": 2.8, "how_measured": "Figure 1 prints no numbers. The amounts are measured from the length of the bank's bars in the figure, on its own axis, rounded to the nearest billion (percentages to 0.1); approximate.", "legal_entity": "CIMB GROUP HOLDINGS BERHAD", "lei": "549300FYDN5UD7USZW18", "headquarters_address": "LEVEL 13, MENARA CIMB JALAN STESEN SENTRAL 2 KUALA LUMPUR SENTRAL, KUALA LUMPUR, MY-14, 50470, MY", "gleif_record": "https://search.gleif.org/#/record/549300FYDN5UD7USZW18", "position": "The headquarters address in the GLEIF register, found in OpenStreetMap.", "source": "Bankrolling Extinction (Portfolio Earth, 2020), Table 2 and Figure 1; https://portfolio.earth/campaigns/bankrolling-extinction/"}}, {"type": "Feature", "geometry": {"type": "Point", "coordinates": [-46.7916801, -23.5324859]}, "properties": {"bank": "Bradesco", "rank_in_figure_1": 43, "sp_global_rank": "79", "country": "Brazil", "region": "South America", "total_assets_2019_million_usd": 345210, "finance_linked_to_biodiversity_risk_2019_billion_usd_approx": 5, "of_which_direct_risk_billion_usd_approx": 2, "of_which_indirect_risk_billion_usd_approx": 3, "as_share_of_total_assets_percent_approx": 1.6, "direct_as_share_of_total_assets_percent_approx": 1.0, "how_measured": "Figure 1 prints no numbers. The amounts are measured from the length of the bank's bars in the figure, on its own axis, rounded to the nearest billion (percentages to 0.1); approximate.", "legal_entity": "BANCO BRADESCO S.A.", "lei": "549300CTUU1RFXHQJE44", "headquarters_address": "NUC CIDADE DE DEUS S/N, VILA YARA, OSASCO, BR-SP, 06029-900, BR", "gleif_record": "https://search.gleif.org/#/record/549300CTUU1RFXHQJE44", "position": "The headquarters city in the GLEIF register (the street address was not found in OpenStreetMap).", "source": "Bankrolling Extinction (Portfolio Earth, 2020), Table 2 and Figure 1; https://portfolio.earth/campaigns/bankrolling-extinction/"}}, {"type": "Feature", "geometry": {"type": "Point", "coordinates": [101.6526147, 3.16777]}, "properties": {"bank": "Malayan Banking", "rank_in_figure_1": 44, "sp_global_rank": "na", "country": "Malaysia", "region": "Asia & Pacific", "total_assets_2019_million_usd": 202914, "finance_linked_to_biodiversity_risk_2019_billion_usd_approx": 5, "of_which_direct_risk_billion_usd_approx": 3, "of_which_indirect_risk_billion_usd_approx": 2, "as_share_of_total_assets_percent_approx": 2.1, "direct_as_share_of_total_assets_percent_approx": 2.5, "how_measured": "Figure 1 prints no numbers. The amounts are measured from the length of the bank's bars in the figure, on its own axis, rounded to the nearest billion (percentages to 0.1); approximate.", "legal_entity": "MALAYAN BANKING BERHAD", "lei": "5493004OT3TOY404V310", "headquarters_address": "LEVEL 14, MENARA MAYBANK 100 JALAN TUN PERAK, KUALA LUMPUR, MY-14, 50050, MY", "gleif_record": "https://search.gleif.org/#/record/5493004OT3TOY404V310", "position": "The headquarters address in the GLEIF register, found in OpenStreetMap.", "source": "Bankrolling Extinction (Portfolio Earth, 2020), Table 2 and Figure 1; https://portfolio.earth/campaigns/bankrolling-extinction/"}}, {"type": "Feature", "geometry": {"type": "Point", "coordinates": [106.827168, -6.1754049]}, "properties": {"bank": "Bank Mandiri", "rank_in_figure_1": 45, "sp_global_rank": "na", "country": "Indonesia", "region": "Asia & Pacific", "total_assets_2019_million_usd": 94653, "finance_linked_to_biodiversity_risk_2019_billion_usd_approx": 3, "of_which_direct_risk_billion_usd_approx": 1, "of_which_indirect_risk_billion_usd_approx": 2, "as_share_of_total_assets_percent_approx": 2.9, "direct_as_share_of_total_assets_percent_approx": 2.3, "how_measured": "Figure 1 prints no numbers. The amounts are measured from the length of the bank's bars in the figure, on its own axis, rounded to the nearest billion (percentages to 0.1); approximate.", "legal_entity": "PT. Bank Mandiri (Persero) Tbk.", "lei": "549300RSKQN4Z5ZSGH94", "headquarters_address": "Plaza Mandiri, Jl Jend. Gatot Subroto, Kav. 36-38, Jakarta, ID-JK, 12190, ID", "gleif_record": "https://search.gleif.org/#/record/549300RSKQN4Z5ZSGH94", "position": "The headquarters city in the GLEIF register (the street address was not found in OpenStreetMap).", "source": "Bankrolling Extinction (Portfolio Earth, 2020), Table 2 and Figure 1; https://portfolio.earth/campaigns/bankrolling-extinction/"}}, {"type": "Feature", "geometry": {"type": "Point", "coordinates": [37.5684542, 55.6955192]}, "properties": {"bank": "Sberbank", "rank_in_figure_1": 46, "sp_global_rank": "60", "country": "Russia", "region": "Europe", "total_assets_2019_million_usd": 482530, "finance_linked_to_biodiversity_risk_2019_billion_usd_approx": 3, "of_which_direct_risk_billion_usd_approx": 1, "of_which_indirect_risk_billion_usd_approx": 2, "as_share_of_total_assets_percent_approx": 0.6, "direct_as_share_of_total_assets_percent_approx": 0.5, "how_measured": "Figure 1 prints no numbers. The amounts are measured from the length of the bank's bars in the figure, on its own axis, rounded to the nearest billion (percentages to 0.1); approximate.", "legal_entity": "Публичное акционерное общество \"Сбербанк России\"", "lei": "549300WE6TAF5EEWQS81", "headquarters_address": "ул. Вавилова, д. 19, Москва, RU-MOW, 117312, RU", "gleif_record": "https://search.gleif.org/#/record/549300WE6TAF5EEWQS81", "position": "The headquarters address in the GLEIF register, found in OpenStreetMap.", "source": "Bankrolling Extinction (Portfolio Earth, 2020), Table 2 and Figure 1; https://portfolio.earth/campaigns/bankrolling-extinction/"}}, {"type": "Feature", "geometry": {"type": "Point", "coordinates": [28.049722, -26.205]}, "properties": {"bank": "Standard Bank", "rank_in_figure_1": 47, "sp_global_rank": "na", "country": "South Africa", "region": "Africa", "total_assets_2019_million_usd": 156471, "finance_linked_to_biodiversity_risk_2019": "Drawn at the figure's smallest bar length, shared by 4 banks, with no direct part drawn: the report says the smallest bank's figure is 1.3 billion USD", "how_measured": "Figure 1 prints no numbers. The amounts are measured from the length of the bank's bars in the figure, on its own axis, rounded to the nearest billion (percentages to 0.1); approximate.", "legal_entity": "Standard Bank Group Limited", "lei": "2549003PEZXUT7MDBU41", "headquarters_address": "P O BOX 7725, JOHANNESBURG, ZA-GP, 2000, ZA", "gleif_record": "https://search.gleif.org/#/record/2549003PEZXUT7MDBU41", "position": "The headquarters city in the GLEIF register (the street address was not found in OpenStreetMap).", "source": "Bankrolling Extinction (Portfolio Earth, 2020), Table 2 and Figure 1; https://portfolio.earth/campaigns/bankrolling-extinction/"}}, {"type": "Feature", "geometry": {"type": "Point", "coordinates": [72.8692035, 19.054999]}, "properties": {"bank": "HDFC Bank", "rank_in_figure_1": 48, "sp_global_rank": "na", "country": "India", "region": "Asia & Pacific", "total_assets_2019_million_usd": 214338, "finance_linked_to_biodiversity_risk_2019": "Drawn at the figure's smallest bar length, shared by 4 banks, with no direct part drawn: the report says the smallest bank's figure is 1.3 billion USD", "how_measured": "Figure 1 prints no numbers. The amounts are measured from the length of the bank's bars in the figure, on its own axis, rounded to the nearest billion (percentages to 0.1); approximate.", "legal_entity": "HDFC BANK LIMITED", "lei": "335800ZQ6I4E2JXENC50", "headquarters_address": "HDFC BANK HOUSE, SENAPATI BAPAT MARG , LOWER PAREL (WEST), MUMBAI, IN-MH, 400013, IN", "gleif_record": "https://search.gleif.org/#/record/335800ZQ6I4E2JXENC50", "position": "The headquarters city in the GLEIF register (the street address was not found in OpenStreetMap).", "source": "Bankrolling Extinction (Portfolio Earth, 2020), Table 2 and Figure 1; https://portfolio.earth/campaigns/bankrolling-extinction/"}}, {"type": "Feature", "geometry": {"type": "Point", "coordinates": [126.9782914, 37.5666791]}, "properties": {"bank": "Shinhan Financial Group", "rank_in_figure_1": 49, "sp_global_rank": "61", "country": "South Korea", "region": "Asia & Pacific", "total_assets_2019_million_usd": 478500, "finance_linked_to_biodiversity_risk_2019": "Drawn at the figure's smallest bar length, shared by 4 banks, with no direct part drawn: the report says the smallest bank's figure is 1.3 billion USD", "how_measured": "Figure 1 prints no numbers. The amounts are measured from the length of the bank's bars in the figure, on its own axis, rounded to the nearest billion (percentages to 0.1); approximate.", "legal_entity": "(주)신한금융지주회사", "lei": "988400EB8A6G49E5KO54", "headquarters_address": "서울특별시 중구 세종대로9길 20 (태평로2가), 16층 사업지원팀, Seoul, KR-11, 04513, KR", "gleif_record": "https://search.gleif.org/#/record/988400EB8A6G49E5KO54", "position": "The headquarters city in the GLEIF register (the street address was not found in OpenStreetMap).", "source": "Bankrolling Extinction (Portfolio Earth, 2020), Table 2 and Figure 1; https://portfolio.earth/campaigns/bankrolling-extinction/"}}]}