{"type": "FeatureCollection", "name": "Methane from 15 large meat and dairy companies (Emissions Impossible: Methane Edition, IATP and Changing Markets)", "overlays": [], "filters": [{"label": "Show", "values": [{"k": "kind:meat", "label": "Meat companies", "n": 4}, {"k": "kind:milk", "label": "Dairy companies", "n": 9}]}], "features": [{"type": "Feature", "geometry": {"type": "Point", "coordinates": [-94.14583, 36.18139]}, "properties": {"k": "c048e40ba80c92aa", "n": "Tyson", "c": "#1A5C92", "r": 10.15, "s": "#08203F", "w": 1.2, "o": 0.95, "t": 1, "p": 1, "f": "|kind:meat|"}}, {"type": "Feature", "geometry": {"type": "Point", "coordinates": [114.15861, 22.27833]}, "properties": {"k": "0740c74c634f02a8", "n": "WH Group", "c": "#1A5C92", "r": 7.1, "s": "#08203F", "w": 1.2, "o": 0.95, "t": 1, "p": 1, "f": "|kind:meat|"}}, {"type": "Feature", "geometry": {"type": "Point", "coordinates": [-46.63395, -23.55039]}, "properties": {"k": "9e9e6475510e333c", "n": "JBS", "c": "#1A5C92", "r": 14.0, "s": "#08203F", "w": 1.2, "o": 0.95, "t": 1, "p": 1, "f": "|kind:meat|"}}, {"type": "Feature", "geometry": {"type": "Point", "coordinates": [-46.63395, -23.55039]}, "properties": {"k": "e12da90183c6d626", "n": "Marfrig", "c": "#1A5C92", "r": 10.64, "s": "#08203F", "w": 1.2, "o": 0.95, "t": 1, "p": 1, "f": "|kind:meat|"}}, {"type": "Feature", "geometry": {"type": "Point", "coordinates": [174.76528, -36.84917]}, "properties": {"k": "6c1782454a4da084", "n": "Fonterra", "c": "#6FC2DA", "r": 7.89, "s": "#08203F", "w": 1.2, "o": 0.95, "t": 1, "p": 1, "f": "|kind:milk|"}}, {"type": "Feature", "geometry": {"type": "Point", "coordinates": [-94.58333, 39.05]}, "properties": {"k": "4170907b015d289f", "n": "Dairy Farmers of America", "c": "#6FC2DA", "r": 9.09, "s": "#08203F", "w": 1.2, "o": 0.95, "t": 1, "p": 1, "f": "|kind:milk|"}}, {"type": "Feature", "geometry": {"type": "Point", "coordinates": [-0.77, 48.07278]}, "properties": {"k": "a2e1bcde0d332d30", "n": "Lactalis", "c": "#6FC2DA", "r": 7.96, "s": "#08203F", "w": 1.2, "o": 0.95, "t": 1, "p": 1, "f": "|kind:milk|"}}, {"type": "Feature", "geometry": {"type": "Point", "coordinates": [6.85, 46.46667]}, "properties": {"k": "8779da7239335831", "n": "Nestlé", "c": "#6FC2DA", "r": 7.34, "s": "#08203F", "w": 1.2, "o": 0.95, "t": 1, "p": 1, "f": "|kind:milk|"}}, {"type": "Feature", "geometry": {"type": "Point", "coordinates": [10.16111, 56.125]}, "properties": {"k": "722a36b5d422891e", "n": "Arla", "c": "#6FC2DA", "r": 7.35, "s": "#08203F", "w": 1.2, "o": 0.95, "t": 1, "p": 1, "f": "|kind:milk|"}}, {"type": "Feature", "geometry": {"type": "Point", "coordinates": [5.38, 52.15]}, "properties": {"k": "9d91acb76f34966e", "n": "FrieslandCampina", "c": "#6FC2DA", "r": 7.18, "s": "#08203F", "w": 1.2, "o": 0.95, "t": 1, "p": 1, "f": "|kind:milk|"}}, {"type": "Feature", "geometry": {"type": "Point", "coordinates": [2.35222, 48.85667]}, "properties": {"k": "7383c4852f235637", "n": "Danone", "c": "#6FC2DA", "r": 6.98, "s": "#08203F", "w": 1.2, "o": 0.95, "t": 1, "p": 1, "f": "|kind:milk|"}}, {"type": "Feature", "geometry": {"type": "Point", "coordinates": [-73.58684, 45.50334]}, "properties": {"k": "3e26447e875a6d24", "n": "Saputo", "c": "#6FC2DA", "r": 7.58, "s": "#08203F", "w": 1.2, "o": 0.95, "t": 1, "p": 1, "f": "|kind:milk|"}}, {"type": "Feature", "geometry": {"type": "Point", "coordinates": [111.66293, 40.81507]}, "properties": {"k": "4995cf1b12a0f62d", "n": "Yili", "c": "#6FC2DA", "r": 7.65, "s": "#08203F", "w": 1.2, "o": 0.95, "t": 1, "p": 1, "f": "|kind:milk|"}}]}