{"type":"FeatureCollection","month":"2016-10","features":[{"type":"Feature","geometry":{"type":"Point","coordinates":[98.985,18.79]},"properties":{"name":"Chiang Mai, Chiang Mai, Thailand","first":"2016-10-04","last":"2016-10-04","days":["2016-10-04"],"links":[{"u":"https://www.newswit.com/post/best-mental-health-retreat-in-thailand-what-to-look-for-and-where-to-go","t":"fight: THAILAND","day":"2016-10-04","seen":"2016-10-04"}],"events":1}},{"type":"Feature","geometry":{"type":"Point","coordinates":[77.2,28.6]},"properties":{"name":"New Delhi, Delhi, India","first":"2016-10-05","last":"2016-10-05","days":["2016-10-05"],"links":[{"u":"https://aninews.in/news/national/general-news/vhp-praises-smit-machchhar-for-averting-911-style-jihadi-conspiracy-calls-for-global-strategy-against-terrorism20261003180628/","t":"fight: GOVERNMENT and HINDU","day":"2016-10-05","seen":"2016-10-05"}],"events":1}}]}