{"type":"FeatureCollection","month":"2025-10","features":[{"type":"Feature","geometry":{"type":"Point","coordinates":[30.517,50.433]},"properties":{"name":"Kyiv, Kyyiv, Misto, Ukraine","first":"2025-10-01","last":"2025-10-02","days":["2025-10-01","2025-10-02"],"links":[{"u":"https://www.aol.com/articles/russian-air-strikes-kill-one-023546000.html","t":"fight: RUSSIA and UKRAINIAN","day":"2025-10-01","seen":"2025-10-01"},{"u":"https://www.freemalaysiatoday.com/category/world/2026/10/02/south-korea-warns-further-measures-if-ukraine-refuses-public-apology","t":"assault: UKRAINIAN and NORTH KOREAN","day":"2025-10-02","seen":"2025-10-02"},{"u":"https://www.euronews.com/2026/10/02/south-korea-warns-of-further-measures-if-ukraine-refuses-public-apology-over-pow-transfer-","t":"assault: UKRAINIAN and NORTH KOREAN","day":"2025-10-02","seen":"2025-10-02"}],"events":5}},{"type":"Feature","geometry":{"type":"Point","coordinates":[-93.214,42.005]},"properties":{"name":"Iowa, United States","first":"2025-10-01","last":"2025-10-01","days":["2025-10-01"],"links":[{"u":"https://www.kwqc.com:443/2026/09/30/former-public-defender-sentenced-prison-healthcare-fraud/","t":"assault: NEBRASKA","day":"2025-10-01","seen":"2025-10-01"}],"events":2}},{"type":"Feature","geometry":{"type":"Point","coordinates":[37.616,55.752]},"properties":{"name":"Moscow, Moskva, Russia","first":"2025-10-01","last":"2025-10-01","days":["2025-10-01"],"links":[{"u":"https://japantoday.com/category/world/russia-attacks-ukrainian-energy-grid-forcing-power-cuts-as-winter-looms","t":"fight: RUSSIA and UKRAINIAN","day":"2025-10-01","seen":"2025-10-01"}],"events":2}},{"type":"Feature","geometry":{"type":"Point","coordinates":[121.0,24.0]},"properties":{"name":"Taiwan","first":"2025-10-01","last":"2025-10-01","days":["2025-10-01"],"links":[{"u":"https://www.livemint.com/ai/in-ai-race-software-is-now-winning-alongside-chips-11790815570554.html","t":"fight: SERVER","day":"2025-10-01","seen":"2025-10-01"}],"events":1}},{"type":"Feature","geometry":{"type":"Point","coordinates":[-0.083,50.917]},"properties":{"name":"Sussex, East Sussex, United Kingdom","first":"2025-10-01","last":"2025-10-01","days":["2025-10-01"],"links":[{"u":"https://www.express.co.uk/news/royal/2252632/prince-harry-clashes-royal-family","t":"fight: UNITED KINGDOM","day":"2025-10-01","seen":"2025-10-01"}],"events":6}},{"type":"Feature","geometry":{"type":"Point","coordinates":[-74.509,40.314]},"properties":{"name":"New Jersey, United States","first":"2025-10-01","last":"2025-10-01","days":["2025-10-01"],"links":[{"u":"https://foxbaltimore.com/station/share/nj-lawmaker-announces-she-got-pregnant-intentionally-amid-facing-17-years-in-prison-immigration-congress","t":"assault: UNITED STATES and UNITED STATES","day":"2025-10-01","seen":"2025-10-01"}],"events":1}},{"type":"Feature","geometry":{"type":"Point","coordinates":[34.333,31.417]},"properties":{"name":"Gaza, Israel (general), Israel","first":"2025-10-01","last":"2025-10-02","days":["2025-10-01","2025-10-02"],"links":[{"u":"https://www.middleeasteye.net/news/israel-kills-eight-gaza-ceasefire-violations-continue-year","t":"fight: ISRAEL","day":"2025-10-01","seen":"2025-10-01"},{"u":"https://www.aol.co.uk/articles/recent-lobbyist-palantir-had-key-084747000.html","t":"fight: ISRAEL and CHIEF EXECUTIVE","day":"2025-10-02","seen":"2025-10-02"}],"events":3}},{"type":"Feature","geometry":{"type":"Point","coordinates":[-89.002,40.336]},"properties":{"name":"Illinois, United States","first":"2025-10-01","last":"2025-10-01","days":["2025-10-01"],"links":[{"u":"https://www.dailystar.co.uk/news/world-news/killer-knifed-pregnant-mum-killed-37719584","t":"fight: UNITED STATES and PRISON","day":"2025-10-01","seen":"2025-10-01"}],"events":1}},{"type":"Feature","geometry":{"type":"Point","coordinates":[22.6,57.033]},"properties":{"name":"Kauli, Talsu Novads, Latvia","first":"2025-10-01","last":"2025-10-01","days":["2025-10-01"],"links":[{"u":"https://bnn-news.com/social/600-million-euro-iris-t-systems-heading-to-latvia-nbs-reveals-when-they-could-become-operational-2mgr8gm","t":"fight: LATVIA and COMMANDER","day":"2025-10-01","seen":"2025-10-01"}],"events":2}},{"type":"Feature","geometry":{"type":"Point","coordinates":[-4.0,54.0]},"properties":{"name":"United Kingdom","first":"2025-10-01","last":"2025-10-01","days":["2025-10-01"],"links":[{"u":"https://www.lbc.co.uk/article/burntisland-primary-school-sex-offender-parents-5HjdjJ2_2/","t":"assault: DEPUTY and UNIVERSITY","day":"2025-10-01","seen":"2025-10-01"}],"events":2}},{"type":"Feature","geometry":{"type":"Point","coordinates":[28.229,-25.707]},"properties":{"name":"Pretoria, Gauteng, South Africa","first":"2025-10-01","last":"2025-10-01","days":["2025-10-01"],"links":[{"u":"https://www.enca.com/news/sibiyas-list-troubles-keeps-getting-longer","t":"fight: AFRICA","day":"2025-10-01","seen":"2025-10-01"}],"events":1}},{"type":"Feature","geometry":{"type":"Point","coordinates":[-97.647,31.106]},"properties":{"name":"Texas, United States","first":"2025-10-01","last":"2025-10-02","days":["2025-10-01","2025-10-02"],"links":[{"u":"https://breakingdefense.com/2026/10/battling-sand-and-wind-pentagon-evaluates-counter-drone-tech-at-southern-border-exercise/","t":"fight: ADMINISTRATION","day":"2025-10-01","seen":"2025-10-01"},{"u":"https://www.thenews.com.pk/latest/1418426-new-ice-rules-require-body-cameras-and-ban-high-speed-car-chases","t":"fight: THE ASSOCIATED PRESS","day":"2025-10-02","seen":"2025-10-02"}],"events":2}},{"type":"Feature","geometry":{"type":"Point","coordinates":[-83.331,44.42]},"properties":{"name":"Oscoda, Michigan, United States","first":"2025-10-01","last":"2025-10-01","days":["2025-10-01"],"links":[{"u":"https://mix93.fm/news/2026/10/01/whos-running-for-michigan-supreme-court-6-candidates-compete-for-2-seats","t":"assault: CRIMINAL","day":"2025-10-01","seen":"2025-10-01"}],"events":1}},{"type":"Feature","geometry":{"type":"Point","coordinates":[-84.56,43.35]},"properties":{"name":"Michigan, United States","first":"2025-10-01","last":"2025-10-01","days":["2025-10-01"],"links":[{"u":"https://mix93.fm/news/2026/10/01/whos-running-for-michigan-supreme-court-6-candidates-compete-for-2-seats","t":"assault: CRIMINAL","day":"2025-10-01","seen":"2025-10-01"}],"events":1}},{"type":"Feature","geometry":{"type":"Point","coordinates":[67.059,24.787]},"properties":{"name":"Ittehad, Sindh, Pakistan","first":"2025-10-01","last":"2025-10-01","days":["2025-10-01"],"links":[{"u":"https://www.rferl.org/a/pakistan-afghanistan-air-strikes-taliban/33867970.html","t":"fight: PAKISTANI and AFGHAN","day":"2025-10-01","seen":"2025-10-01"}],"events":2}},{"type":"Feature","geometry":{"type":"Point","coordinates":[-84.133,44.667]},"properties":{"name":"Oscoda County, Michigan, United States","first":"2025-10-01","last":"2025-10-01","days":["2025-10-01"],"links":[{"u":"https://wupy101.com/news/2026/10/01/whos-running-for-michigan-supreme-court-6-candidates-compete-for-2-seats","t":"assault: CRIMINAL","day":"2025-10-01","seen":"2025-10-01"}],"events":1}},{"type":"Feature","geometry":{"type":"Point","coordinates":[10.133,51.6]},"properties":{"name":"Bodensee, Niedersachsen, Germany","first":"2025-10-01","last":"2025-10-01","days":["2025-10-01"],"links":[{"u":"https://www.dw.com/en/germany-news-merz-lauds-nato-with-westphalian-peace-prize/live-79496180","t":"fight: POLAND and GERMANY","day":"2025-10-01","seen":"2025-10-01"}],"events":1}},{"type":"Feature","geometry":{"type":"Point","coordinates":[20.0,52.0]},"properties":{"name":"Poland","first":"2025-10-01","last":"2025-10-02","days":["2025-10-01","2025-10-02"],"links":[{"u":"https://www.dw.com/en/germany-news-merz-lauds-nato-with-westphalian-peace-prize/live-79496180","t":"fight: POLAND and GERMANY","day":"2025-10-01","seen":"2025-10-01"},{"u":"https://www.freemalaysiatoday.com/category/world/2026/10/02/south-korea-warns-further-measures-if-ukraine-refuses-public-apology","t":"assault: UKRAINE and NORTH KOREA","day":"2025-10-02","seen":"2025-10-02"}],"events":3}},{"type":"Feature","geometry":{"type":"Point","coordinates":[-122.46,37.787]},"properties":{"name":"Temple Emanu-El, California, United States","first":"2025-10-01","last":"2025-10-01","days":["2025-10-01"],"links":[{"u":"https://sf.streetsblog.org/2026/09/30/driver-kills-pedestrian-at-arguello-and-anza-as-city-continues-to-drag-feet-on-funded-safety-project","t":"fight: UNITED STATES","day":"2025-10-01","seen":"2025-10-01"}],"events":1}},{"type":"Feature","geometry":{"type":"Point","coordinates":[35.233,31.767]},"properties":{"name":"Jerusalem, Israel (general), Israel","first":"2025-10-01","last":"2025-10-01","days":["2025-10-01"],"links":[{"u":"https://news.antiwar.com/2026/10/01/trump-sending-third-aircraft-carrier-strike-group-to-middle-east/","t":"fight: ISRAEL and AIRCRAFT CARRIER","day":"2025-10-01","seen":"2025-10-01"}],"events":1}},{"type":"Feature","geometry":{"type":"Point","coordinates":[51.515,35.75]},"properties":{"name":"Tehran, Tehran, Iran","first":"2025-10-01","last":"2025-10-01","days":["2025-10-01"],"links":[{"u":"https://news.antiwar.com/2026/10/01/trump-sending-third-aircraft-carrier-strike-group-to-middle-east/","t":"fight: AIRCRAFT CARRIER","day":"2025-10-01","seen":"2025-10-01"}],"events":1}},{"type":"Feature","geometry":{"type":"Point","coordinates":[-76.147,43.048]},"properties":{"name":"Syracuse, New York, United States","first":"2025-10-01","last":"2025-10-01","days":["2025-10-01"],"links":[{"u":"https://www.fingerlakes1.com/2026/10/01/four-area-counties-receive-10-6-million-in-new-york-gun-violence-grants/","t":"fight: ROCHESTER","day":"2025-10-01","seen":"2025-10-01"}],"events":2}},{"type":"Feature","geometry":{"type":"Point","coordinates":[-96.0,60.0]},"properties":{"name":"Canada","first":"2025-10-01","last":"2025-10-01","days":["2025-10-01"],"links":[{"u":"https://www.bbc.co.uk/news/articles/cvwyzykel653o","t":"assault: ACTOR","day":"2025-10-01","seen":"2025-10-01"}],"events":2}},{"type":"Feature","geometry":{"type":"Point","coordinates":[-0.117,51.5]},"properties":{"name":"London, London, City of, United Kingdom","first":"2025-10-01","last":"2025-10-01","days":["2025-10-01"],"links":[{"u":"https://www.comingsoon.net/movies/news/2200814-avengers-endgame-encore-owen-wilson-mcu-scene-doomsday-directors","t":"fight: LONDON and ACTOR","day":"2025-10-01","seen":"2025-10-01"}],"events":1}},{"type":"Feature","geometry":{"type":"Point","coordinates":[-71.06,42.358]},"properties":{"name":"Boston, Massachusetts, United States","first":"2025-10-01","last":"2025-10-01","days":["2025-10-01"],"links":[{"u":"https://www.thesunchronicle.com/news/state/2-men-behind-explosion-inside-a-harvard-medical-school-building-avoid-jail-time/article_994f8557-633d-5bf8-9344-9f226998b8c5.html","t":"assault: BOSTON","day":"2025-10-01","seen":"2025-10-01"}],"events":1}},{"type":"Feature","geometry":{"type":"Point","coordinates":[-119.746,36.17]},"properties":{"name":"California, United States","first":"2025-10-01","last":"2025-10-01","days":["2025-10-01"],"links":[{"u":"https://www.usmagazine.com/crime-news/news/delta-pilot-ex-convicted-of-sexually-abusing-daughter/","t":"assault: PRISON","day":"2025-10-01","seen":"2025-10-01"}],"events":1}},{"type":"Feature","geometry":{"type":"Point","coordinates":[-122.419,37.775]},"properties":{"name":"San Francisco, California, United States","first":"2025-10-02","last":"2025-10-02","days":["2025-10-02"],"links":[{"u":"https://www.sfexaminer.com/newsom-eager-for-a-higher-perch-climbs-the-golden-gate-bridge/article_67ed8ea3-6d96-532b-bc77-6f6754642fa0.html","t":"fight: ACTIVIST","day":"2025-10-02","seen":"2025-10-02"}],"events":3}},{"type":"Feature","geometry":{"type":"Point","coordinates":[-74.938,42.15]},"properties":{"name":"New York, United States","first":"2025-10-02","last":"2025-10-02","days":["2025-10-02"],"links":[{"u":"https://www.sfexaminer.com/newsom-eager-for-a-higher-perch-climbs-the-golden-gate-bridge/article_67ed8ea3-6d96-532b-bc77-6f6754642fa0.html","t":"fight: ACTIVIST","day":"2025-10-02","seen":"2025-10-02"}],"events":1}},{"type":"Feature","geometry":{"type":"Point","coordinates":[-77.35,38.85]},"properties":{"name":"Fairfax County, Virginia, United States","first":"2025-10-02","last":"2025-10-02","days":["2025-10-02"],"links":[{"u":"https://pjmedia.com/catherinesalgado/2026/10/01/meet-the-child-abuser-sanctuary-fairfax-county-released-n4957859","t":"fight: UNITED STATES","day":"2025-10-02","seen":"2025-10-02"}],"events":1}},{"type":"Feature","geometry":{"type":"Point","coordinates":[-110.326,46.905]},"properties":{"name":"Montana, United States","first":"2025-10-02","last":"2025-10-02","days":["2025-10-02"],"links":[{"u":"https://www.pressdemocrat.com/2026/09/30/newsom-eager-for-a-higher-perch-climbs-the-golden-gate-bridge/","t":"fight: ACTIVIST","day":"2025-10-02","seen":"2025-10-02"}],"events":1}},{"type":"Feature","geometry":{"type":"Point","coordinates":[100.0,60.0]},"properties":{"name":"Russia","first":"2025-10-02","last":"2025-10-02","days":["2025-10-02"],"links":[{"u":"https://www.freemalaysiatoday.com/category/world/2026/10/02/south-korea-warns-further-measures-if-ukraine-refuses-public-apology","t":"assault: UKRAINIAN and NORTH KOREAN","day":"2025-10-02","seen":"2025-10-02"},{"u":"https://www.ucanews.com/news/south-korea-vows-further-measures-if-ukraine-refuses-pow-apology/115596","t":"assault: UKRAINIAN and NORTH KOREAN","day":"2025-10-02","seen":"2025-10-02"}],"events":2}},{"type":"Feature","geometry":{"type":"Point","coordinates":[-122.332,47.606]},"properties":{"name":"Seattle, Washington, United States","first":"2025-10-02","last":"2025-10-02","days":["2025-10-02"],"links":[{"u":"https://www.spokesman.com/stories/2026/oct/01/lummi-nation-man-pleads-guilty-to-illegal-shooting/","t":"fight: SEATTLE and ATTORNEY","day":"2025-10-02","seen":"2025-10-02"}],"events":2}},{"type":"Feature","geometry":{"type":"Point","coordinates":[-122.642,48.76]},"properties":{"name":"Lummi Reservation, Washington, United States","first":"2025-10-02","last":"2025-10-02","days":["2025-10-02"],"links":[{"u":"https://www.spokesman.com/stories/2026/oct/01/lummi-nation-man-pleads-guilty-to-illegal-shooting/","t":"fight: SEATTLE and UNITED STATES","day":"2025-10-02","seen":"2025-10-02"}],"events":1}},{"type":"Feature","geometry":{"type":"Point","coordinates":[26.0,-30.0]},"properties":{"name":"South Africa","first":"2025-10-02","last":"2025-10-02","days":["2025-10-02"],"links":[{"u":"https://defenceweb.co.za/sa-defence-sa-defence/operation-mistral-over-with-all-sandf-personnel-now-back-from-dr-congo/","t":"fight: AFRICA and THE DRC","day":"2025-10-02","seen":"2025-10-02"}],"events":3}},{"type":"Feature","geometry":{"type":"Point","coordinates":[0.117,52.2]},"properties":{"name":"Cambridge, Cambridgeshire, United Kingdom","first":"2025-10-02","last":"2025-10-02","days":["2025-10-02"],"links":[{"u":"https://www.thenationalnews.com/news/uk/2026/10/02/unemployed-man-admits-stabbing-saudi-businessman-during-robbery-in-londons-mayfair/","t":"assault: SAUDI","day":"2025-10-02","seen":"2025-10-02"}],"events":3}},{"type":"Feature","geometry":{"type":"Point","coordinates":[45.0,25.0]},"properties":{"name":"Saudi Arabia","first":"2025-10-02","last":"2025-10-02","days":["2025-10-02"],"links":[{"u":"https://www.thenationalnews.com/news/uk/2026/10/02/unemployed-man-admits-stabbing-saudi-businessman-during-robbery-in-londons-mayfair/","t":"assault: UNITED KINGDOM and SAUDI ARABIA","day":"2025-10-02","seen":"2025-10-02"}],"events":2}}]}