{"type":"FeatureCollection","month":"2025-09","features":[{"type":"Feature","geometry":{"type":"Point","coordinates":[-97.647,31.106]},"properties":{"name":"Texas, United States","first":"2025-09-27","last":"2025-09-28","days":["2025-09-27","2025-09-28"],"links":[{"u":"https://whtc.com/2026/09/27/republicans-pour-money-into-dozens-of-us-house-races-previously-considered-safe/","t":"fight: CHAMBER","day":"2025-09-27","seen":"2025-09-27"},{"u":"https://bdnews24.com/world/americas/l54k1hfok8","t":"fight: CHAMBER","day":"2025-09-27","seen":"2025-09-27"},{"u":"https://www.newstribune.com/news/2026/sep/28/republicans-pour-money-into-dozens-of-us-house-races-previously-considered-safe/","t":"fight: CHAMBER","day":"2025-09-28","seen":"2025-09-28"},{"u":"https://newsone.com/6872924/texas-redistricting-effort-could-backfire-republicans/","t":"fight: TEXAS and PRESIDENT","day":"2025-09-28","seen":"2025-09-28"}],"events":6}},{"type":"Feature","geometry":{"type":"Point","coordinates":[-118.668,35.296]},"properties":{"name":"Kern County, California, United States","first":"2025-09-27","last":"2025-09-27","days":["2025-09-27"],"links":[{"u":"https://www.latimes.com/politics/story/2026-09-27/trump-ice-battleground-candidates-message-midterms","t":"fight: UNITED STATES","day":"2025-09-27","seen":"2025-09-27"}],"events":1}},{"type":"Feature","geometry":{"type":"Point","coordinates":[-89.638,44.256]},"properties":{"name":"Wisconsin, United States","first":"2025-09-27","last":"2025-09-28","days":["2025-09-27","2025-09-28"],"links":[{"u":"https://bdnews24.com/world/americas/l54k1hfok8","t":"fight: CHAMBER","day":"2025-09-27","seen":"2025-09-27"},{"u":"https://www.newstribune.com/news/2026/sep/28/republicans-pour-money-into-dozens-of-us-house-races-previously-considered-safe/","t":"fight: CHAMBER","day":"2025-09-28","seen":"2025-09-28"}],"events":2}},{"type":"Feature","geometry":{"type":"Point","coordinates":[15.95,-17.917]},"properties":{"name":"Ondangwa, Oshana, Namibia","first":"2025-09-27","last":"2025-09-28","days":["2025-09-27","2025-09-28"],"links":[{"u":"https://www.namibian.com.na/elderly-couples-in-oshikoto-kavango-west-killed-over-witchcraft-allegations/","t":"assault: VILLAGE","day":"2025-09-27","seen":"2025-09-27"},{"u":"https://allafrica.com/stories/202609280693.html","t":"assault: VILLAGE","day":"2025-09-28","seen":"2025-09-28"}],"events":6}},{"type":"Feature","geometry":{"type":"Point","coordinates":[33.499,14.406]},"properties":{"name":"Wad Madani, Al Jazirah, Sudan","first":"2025-09-27","last":"2025-09-29","days":["2025-09-27","2025-09-28","2025-09-29"],"links":[{"u":"https://www.freemalaysiatoday.com/category/world/2026/09/27/strikes-hit-sudan-cities-as-army-chief-remains-defiant-after-us-visa-snub","t":"fight: MILITARY","day":"2025-09-27","seen":"2025-09-27"},{"u":"https://www.aol.co.uk/articles/us-alienated-sudans-army-complex-152652000.html","t":"fight: ARMY","day":"2025-09-28","seen":"2025-09-28"},{"u":"https://allafrica.com/stories/202609290004.html","t":"fight: ARMY","day":"2025-09-29","seen":"2025-09-29"}],"events":6}},{"type":"Feature","geometry":{"type":"Point","coordinates":[33.35,14.6]},"properties":{"name":"Al-Jazira, Al Jazirah, Sudan","first":"2025-09-27","last":"2025-09-29","days":["2025-09-27","2025-09-28","2025-09-29"],"links":[{"u":"https://www.freemalaysiatoday.com/category/world/2026/09/27/strikes-hit-sudan-cities-as-army-chief-remains-defiant-after-us-visa-snub","t":"fight: MILITARY","day":"2025-09-27","seen":"2025-09-27"},{"u":"https://english.aawsat.com/arab-world/5323334-strikes-hit-sudan-cities-army-chief-defiant-after-us-visa-snub","t":"fight: MILITARY","day":"2025-09-28","seen":"2025-09-28"},{"u":"https://www.aol.co.uk/articles/us-alienated-sudans-army-complex-152652000.html","t":"fight: ARMY and SUDAN","day":"2025-09-28","seen":"2025-09-28"},{"u":"https://allafrica.com/stories/202609290004.html","t":"fight: ARMY","day":"2025-09-29","seen":"2025-09-29"}],"events":8}},{"type":"Feature","geometry":{"type":"Point","coordinates":[32.534,15.588]},"properties":{"name":"Khartoum, Al Khartum, Sudan","first":"2025-09-27","last":"2025-09-28","days":["2025-09-27","2025-09-28"],"links":[{"u":"https://www.arabnews.com/middle-east/strikes-hit-sudan-cities-as-army-chief-defiant-after-us-visa-snub-3003468","t":"fight: MILITARY","day":"2025-09-27","seen":"2025-09-27"},{"u":"https://english.aawsat.com/arab-world/5323334-strikes-hit-sudan-cities-army-chief-defiant-after-us-visa-snub","t":"fight: MILITARY","day":"2025-09-28","seen":"2025-09-28"}],"events":4}},{"type":"Feature","geometry":{"type":"Point","coordinates":[74.867,32.733]},"properties":{"name":"Jammu, Jammu and Kashmir, India","first":"2025-09-27","last":"2025-09-27","days":["2025-09-27"],"links":[{"u":"https://www.dailyexcelsior.com/terrorism-will-be-dealt-with-strongly-decisively-modi/","t":"fight: PAKISTAN and CIVILIAN","day":"2025-09-27","seen":"2025-09-27"}],"events":1}},{"type":"Feature","geometry":{"type":"Point","coordinates":[72.15,34.796]},"properties":{"name":"Kashmir, North-West Frontier, Pakistan","first":"2025-09-27","last":"2025-09-27","days":["2025-09-27"],"links":[{"u":"https://thenorthlines.com/surgical-strikes-showed-indias-new-anti-terror-resolve-pm/","t":"fight: PAKISTAN and CIVILIAN","day":"2025-09-27","seen":"2025-09-27"}],"events":1}},{"type":"Feature","geometry":{"type":"Point","coordinates":[26.0,-30.0]},"properties":{"name":"South Africa","first":"2025-09-28","last":"2025-09-28","days":["2025-09-28"],"links":[{"u":"https://www.politicsweb.co.za/news/the-farm-murder-phenomenon-explained","t":"fight: ADMINISTRATION","day":"2025-09-28","seen":"2025-09-28"}],"events":1}},{"type":"Feature","geometry":{"type":"Point","coordinates":[174.783,-41.3]},"properties":{"name":"Wellington, New Zealand (general), New Zealand","first":"2025-09-28","last":"2025-09-28","days":["2025-09-28"],"links":[{"u":"https://www.rnz.co.nz/news/crime-and-justice/1630159/jury-selected-for-trial-of-men-following-deadly-daylight-wairarapa-shooting","t":"fight: WELLINGTON","day":"2025-09-28","seen":"2025-09-28"}],"events":2}},{"type":"Feature","geometry":{"type":"Point","coordinates":[147.129,-41.436]},"properties":{"name":"Royal Park, Tasmania, Australia","first":"2025-09-28","last":"2025-09-28","days":["2025-09-28"],"links":[{"u":"https://www.greenleft.org.au/2026/1463/news/no-bystanders-concert-highlights-violence-against-women-raises-funds-charities","t":"fight: AUSTRALIA","day":"2025-09-28","seen":"2025-09-28"}],"events":1}},{"type":"Feature","geometry":{"type":"Point","coordinates":[138.0,36.0]},"properties":{"name":"Japan","first":"2025-09-28","last":"2025-09-28","days":["2025-09-28"],"links":[{"u":"https://www.businesstimes.com.sg/companies-markets/cdl-shares-dip-6-after-strategic-review-release","t":"fight: JAPAN","day":"2025-09-28","seen":"2025-09-28"}],"events":1}},{"type":"Feature","geometry":{"type":"Point","coordinates":[69.183,34.517]},"properties":{"name":"Kabul, Kabol, Afghanistan","first":"2025-09-28","last":"2025-09-28","days":["2025-09-28"],"links":[{"u":"https://www.arabnews.com/world/pakistan-says-issued-demarche-to-kabuls-embassy-over-afghan-airspace-violation-3003515","t":"fight: AFGHAN and PAKISTANI","day":"2025-09-28","seen":"2025-09-28"},{"u":"https://www.dailymail.com/news/article-16167547/Biden-administration-failed-Afghan-refugees-visas.html","t":"fight: AFGHANISTAN and NATIONAL GUARD","day":"2025-09-28","seen":"2025-09-28"}],"events":6}},{"type":"Feature","geometry":{"type":"Point","coordinates":[127.0,37.566]},"properties":{"name":"Seoul, Soul-t'ukpyolsi, South Korea","first":"2025-09-28","last":"2025-09-28","days":["2025-09-28"],"links":[{"u":"https://english.hani.co.kr/arti/english_edition/english_editorials/1279755.html","t":"assault: UKRAINIAN and SOUTH KOREA","day":"2025-09-28","seen":"2025-09-28"}],"events":1}},{"type":"Feature","geometry":{"type":"Point","coordinates":[127.0,40.0]},"properties":{"name":"North Korea","first":"2025-09-28","last":"2025-09-28","days":["2025-09-28"],"links":[{"u":"https://english.hani.co.kr/arti/english_edition/english_editorials/1279755.html","t":"assault: UKRAINIAN and SOUTH KOREA","day":"2025-09-28","seen":"2025-09-28"}],"events":2}},{"type":"Feature","geometry":{"type":"Point","coordinates":[35.196,31.903]},"properties":{"name":"Ramallah, West Bank (general), West Bank","first":"2025-09-28","last":"2025-09-28","days":["2025-09-28"],"links":[{"u":"https://www.presstv.co.uk/Detail/2026/09/28/777165/Israel-occupiers-home-vehicles","t":"fight: ISRAELI and PALESTINIAN","day":"2025-09-28","seen":"2025-09-28"}],"events":1}},{"type":"Feature","geometry":{"type":"Point","coordinates":[34.333,31.417]},"properties":{"name":"Gaza, Israel (general), Israel","first":"2025-09-28","last":"2025-09-28","days":["2025-09-28"],"links":[{"u":"https://www.presstv.co.uk/Detail/2026/09/28/777165/Israel-occupiers-home-vehicles","t":"fight: ISRAELI and PALESTINIAN","day":"2025-09-28","seen":"2025-09-28"}],"events":1}},{"type":"Feature","geometry":{"type":"Point","coordinates":[32.0,49.0]},"properties":{"name":"Ukraine","first":"2025-09-28","last":"2025-09-29","days":["2025-09-28","2025-09-29"],"links":[{"u":"https://www.surinametimes.com/artikel/power-cuts-rubble-millions-come-home-to-find-sudans-capital-unlivable","t":"fight: ARMY","day":"2025-09-28","seen":"2025-09-28"},{"u":"https://freerepublic.com/focus/f-news/4397220/posts","t":"fight: ARMY CHIEF OF STAFF and UKRAINE","day":"2025-09-29","seen":"2025-09-29"}],"events":3}},{"type":"Feature","geometry":{"type":"Point","coordinates":[-1.783,51.7]},"properties":{"name":"Fairford, Gloucestershire, United Kingdom","first":"2025-09-28","last":"2025-09-28","days":["2025-09-28"],"links":[{"u":"https://hotair.com/david-strom/2026/09/28/tale-of-two-terrorism-plots-n3819378","t":"fight: UNITED KINGDOM and EUROPE","day":"2025-09-28","seen":"2025-09-28"}],"events":1}},{"type":"Feature","geometry":{"type":"Point","coordinates":[-96.8,38.511]},"properties":{"name":"Kansas, United States","first":"2025-09-28","last":"2025-09-28","days":["2025-09-28"],"links":[{"u":"https://www.hawaiitribune-herald.com/2026/09/28/nation-world-news/republicans-pour-money-into-dozens-of-us-house-races-previously-considered-safe/","t":"fight: CHAMBER","day":"2025-09-28","seen":"2025-09-28"}],"events":1}},{"type":"Feature","geometry":{"type":"Point","coordinates":[37.216,19.616]},"properties":{"name":"Port Sudan, Al Ba?r al A?mar, Sudan","first":"2025-09-28","last":"2025-09-28","days":["2025-09-28"],"links":[{"u":"https://www.aol.co.uk/articles/us-alienated-sudans-army-complex-152652000.html","t":"fight: ARMY and SUDAN","day":"2025-09-28","seen":"2025-09-28"}],"events":1}},{"type":"Feature","geometry":{"type":"Point","coordinates":[-77.036,38.895]},"properties":{"name":"Washington, District of Columbia, United States","first":"2025-09-28","last":"2025-09-28","days":["2025-09-28"],"links":[{"u":"https://www.aol.co.uk/articles/us-alienated-sudans-army-complex-152652000.html","t":"fight: ARMY and SUDAN","day":"2025-09-28","seen":"2025-09-28"}],"events":1}},{"type":"Feature","geometry":{"type":"Point","coordinates":[-98.579,39.828]},"properties":{"name":"United States","first":"2025-09-28","last":"2025-09-28","days":["2025-09-28"],"links":[{"u":"https://www.mining.com/northern-star-rejects-opportunistic-gold-fields-27b-takeover-bid/","t":"fight: AUSTRALIAN","day":"2025-09-28","seen":"2025-09-28"}],"events":4}},{"type":"Feature","geometry":{"type":"Point","coordinates":[151.217,-33.883]},"properties":{"name":"Sydney, New South Wales, Australia","first":"2025-09-28","last":"2025-09-28","days":["2025-09-28"],"links":[{"u":"https://www.mining.com/northern-star-rejects-opportunistic-gold-fields-27b-takeover-bid/","t":"fight: AUSTRALIAN and AUSTRALIA","day":"2025-09-28","seen":"2025-09-28"}],"events":2}},{"type":"Feature","geometry":{"type":"Point","coordinates":[-73.301,7.264]},"properties":{"name":"Catatumbo, Santander, Colombia","first":"2025-09-28","last":"2025-09-29","days":["2025-09-28","2025-09-29"],"links":[{"u":"https://www.winnipegfreepress.com/world/2026/09/28/colombia-issues-lengthy-sentences-against-eln-rebel-leaders-for-recruiting-children","t":"fight: COLOMBIA","day":"2025-09-28","seen":"2025-09-28"},{"u":"https://lancasteronline.com/news/world/colombia-issues-lengthy-sentences-against-eln-rebel-leaders-for-recruiting-children/article_f8c5ed62-6436-5aca-95f9-3cbd93576e8a.html","t":"fight: COLOMBIA","day":"2025-09-29","seen":"2025-09-29"},{"u":"http://www.thegazette.com/news/world/colombia-issues-lengthy-sentences-against-eln-rebel-leaders-for-recruiting-children/article_75af2b2f-c770-5d10-b3d6-f0f437456150.html","t":"fight: GOVERNMENT","day":"2025-09-29","seen":"2025-09-29"}],"events":3}},{"type":"Feature","geometry":{"type":"Point","coordinates":[100.0,15.0]},"properties":{"name":"Thailand","first":"2025-09-28","last":"2025-09-28","days":["2025-09-28"],"links":[{"u":"https://www.livemint.com/market/a-tropical-island-drought-may-make-your-sneakers-pricier-11790623637487.html","t":"fight: INDONESIA","day":"2025-09-28","seen":"2025-09-28"}],"events":1}},{"type":"Feature","geometry":{"type":"Point","coordinates":[-77.036,38.895]},"properties":{"name":"White House, District of Columbia, United States","first":"2025-09-28","last":"2025-09-28","days":["2025-09-28"],"links":[{"u":"https://www.dailymail.com/news/article-16167547/Biden-administration-failed-Afghan-refugees-visas.html","t":"fight: AFGHAN and NATIONAL GUARD","day":"2025-09-28","seen":"2025-09-28"}],"events":1}},{"type":"Feature","geometry":{"type":"Point","coordinates":[-93.214,42.005]},"properties":{"name":"Iowa, United States","first":"2025-09-28","last":"2025-09-28","days":["2025-09-28"],"links":[{"u":"https://www.brnow.org/news/iowa-baptist-executive-tim-lubinus-to-transition-to-new-role-in-iowa/","t":"fight: MINISTRY and IOWA","day":"2025-09-28","seen":"2025-09-28"}],"events":2}},{"type":"Feature","geometry":{"type":"Point","coordinates":[-89.99,34.925]},"properties":{"name":"Desoto County, Mississippi, United States","first":"2025-09-28","last":"2025-09-28","days":["2025-09-28"],"links":[{"u":"https://www.fox13memphis.com/news/desoto-county-deputies-justified-in-shooting-killing-suspect-in-nesbit-ags-office-says/article_887f1a1b-591f-49e2-86ab-e265c84ecd2a.html","t":"fight: DEPUTIES","day":"2025-09-28","seen":"2025-09-28"}],"events":1}},{"type":"Feature","geometry":{"type":"Point","coordinates":[-89.681,32.767]},"properties":{"name":"Mississippi, United States","first":"2025-09-28","last":"2025-09-28","days":["2025-09-28"],"links":[{"u":"https://www.fox13memphis.com/news/desoto-county-deputies-justified-in-shooting-killing-suspect-in-nesbit-ags-office-says/article_887f1a1b-591f-49e2-86ab-e265c84ecd2a.html","t":"fight: DEPUTIES","day":"2025-09-28","seen":"2025-09-28"}],"events":1}},{"type":"Feature","geometry":{"type":"Point","coordinates":[77.0,20.0]},"properties":{"name":"India","first":"2025-09-28","last":"2025-09-28","days":["2025-09-28"],"links":[{"u":"https://cheknews.ca/man-accused-in-nijjars-assassination-put-on-fbi-most-wanted-list-1350482/","t":"assault: UNITED KINGDOM and UNITED KINGDOM","day":"2025-09-28","seen":"2025-09-28"}],"events":1}},{"type":"Feature","geometry":{"type":"Point","coordinates":[-4.0,54.0]},"properties":{"name":"United Kingdom","first":"2025-09-28","last":"2025-09-28","days":["2025-09-28"],"links":[{"u":"https://cheknews.ca/man-accused-in-nijjars-assassination-put-on-fbi-most-wanted-list-1350482/","t":"assault: PRESIDENT and UNITED KINGDOM","day":"2025-09-28","seen":"2025-09-28"}],"events":1}},{"type":"Feature","geometry":{"type":"Point","coordinates":[-122.917,49.217]},"properties":{"name":"New Westminster, British Columbia, Canada","first":"2025-09-28","last":"2025-09-28","days":["2025-09-28"],"links":[{"u":"https://cheknews.ca/man-accused-in-nijjars-assassination-put-on-fbi-most-wanted-list-1350482/","t":"assault: PRESIDENT and SIKH","day":"2025-09-28","seen":"2025-09-28"}],"events":1}},{"type":"Feature","geometry":{"type":"Point","coordinates":[44.83,41.822]},"properties":{"name":"Gldani, Georgia (general), Georgia","first":"2025-09-29","last":"2025-09-29","days":["2025-09-29"],"links":[{"u":"https://www.eng.kavkaz-uzel.eu/articles/78958","t":"assault: PRISON","day":"2025-09-29","seen":"2025-09-29"}],"events":1}},{"type":"Feature","geometry":{"type":"Point","coordinates":[34.75,31.5]},"properties":{"name":"Israel","first":"2025-09-29","last":"2025-09-29","days":["2025-09-29"],"links":[{"u":"https://www.newarkadvertiser.co.uk/news/museum-chief-says-the-country-is-no-longer-safe-for-jews-9484685/","t":"fight: WORSHIPPER and MANCHESTER","day":"2025-09-29","seen":"2025-09-29"}],"events":1}},{"type":"Feature","geometry":{"type":"Point","coordinates":[-67.109,45.078]},"properties":{"name":"Robbinston, Maine, United States","first":"2025-09-29","last":"2025-09-29","days":["2025-09-29"],"links":[{"u":"https://www.bangordailynews.com/2026/09/29/down-east/downeast-police-courts/raymond-brown-murder-trial-to-begin-this-week-joam40zk0w/","t":"fight: UNITED STATES","day":"2025-09-29","seen":"2025-09-29"}],"events":1}}]}