{"type":"FeatureCollection","month":"2026-08","features":[{"type":"Feature","geometry":{"type":"Point","coordinates":[18.417,-33.917]},"properties":{"name":"Cape Town, Western Cape, South Africa","first":"2026-08-28","last":"2026-08-29","days":["2026-08-28","2026-08-29"],"links":[{"u":"https://www.thesouthafrican.com/news/wrap-gunmen-kill-27-in-night-of-horror-in-south-africa/","t":"fight: AFRICA and POLICE","day":"2026-08-28","seen":"2026-08-28"},{"u":"https://dailytrust.com/more-nigerians-evacuated-as-gunmen-kill-27-in-south-africa/","t":"fight: AFRICA and POLICE","day":"2026-08-29","seen":"2026-08-29"},{"u":"https://thenationonlineng.net/gunmen-kill-27-people-in-separate-mass-shootings-in-south-africa/","t":"fight: POLICE","day":"2026-08-29","seen":"2026-08-29"},{"u":"http://www.businessghana.com/site/news/politics/356831/Two-mass-shootings-in-South-Africa-leave-28-dead","t":"fight: DEPUTY","day":"2026-08-29","seen":"2026-08-29"}],"events":6}},{"type":"Feature","geometry":{"type":"Point","coordinates":[-2.683,52.033]},"properties":{"name":"Rotherwas, Herefordshire, United Kingdom","first":"2026-08-28","last":"2026-08-29","days":["2026-08-28","2026-08-29"],"links":[{"u":"https://www.oxfordmail.co.uk/news/26585075.richard-hammond-faces-legal-action-another-court-case/","t":"fight: UNITED KINGDOM","day":"2026-08-28","seen":"2026-08-28"},{"u":"https://www.eveshamjournal.co.uk/news/26585826.richard-hammond-faces-legal-action-another-court-case/","t":"fight: UNITED KINGDOM","day":"2026-08-29","seen":"2026-08-29"}],"events":2}},{"type":"Feature","geometry":{"type":"Point","coordinates":[47.5,15.5]},"properties":{"name":"Yemen","first":"2026-08-28","last":"2026-08-29","days":["2026-08-28","2026-08-29"],"links":[{"u":"https://www.durangoherald.com/articles/associated-press/palestinian-death-toll-in-gaza-war-rises-above-74000-since-the-war-began-and-other-mideast-news/","t":"fight: YEMEN and WORLD HEALTH ORGANIZATION","day":"2026-08-28","seen":"2026-08-28"},{"u":"https://www.columbian.com/news/2026/sep/27/palestinian-death-toll-in-gaza-war-passes-74000/","t":"fight: YEMEN and WORLD HEALTH ORGANIZATION","day":"2026-08-28","seen":"2026-08-28"},{"u":"https://www.arkansasonline.com/news/2026/sep/28/us-iran-talks-go-on-despite-rejected-offer/","t":"fight: YEMEN and WORLD HEALTH ORGANIZATION","day":"2026-08-29","seen":"2026-08-29"},{"u":"https://havanatimes.org/news/international-news-briefs-for-monday-september-28-2026/","t":"fight: YEMEN and WORLD HEALTH ORGANIZATION","day":"2026-08-29","seen":"2026-08-29"}],"events":4}},{"type":"Feature","geometry":{"type":"Point","coordinates":[67.01,30.199]},"properties":{"name":"Quetta, Balochistan, Pakistan","first":"2026-08-28","last":"2026-08-28","days":["2026-08-28"],"links":[{"u":"https://tribune.com.pk/story/2631673/over-71-terrorists-killed-in-balochistan-over-last-96-hours-ispr","t":"assault: TERRORIST and POLICE PERSONNEL","day":"2026-08-28","seen":"2026-08-28"}],"events":1}},{"type":"Feature","geometry":{"type":"Point","coordinates":[72.553,35.055]},"properties":{"name":"Kharan, North-West Frontier, Pakistan","first":"2026-08-28","last":"2026-08-28","days":["2026-08-28"],"links":[{"u":"https://tribune.com.pk/story/2631673/over-71-terrorists-killed-in-balochistan-over-last-96-hours-ispr","t":"assault: TERRORIST and POLICE PERSONNEL","day":"2026-08-28","seen":"2026-08-28"}],"events":1}},{"type":"Feature","geometry":{"type":"Point","coordinates":[84.422,27.742]},"properties":{"name":"Kaligandaki, Nepal (general), Nepal","first":"2026-08-28","last":"2026-08-28","days":["2026-08-28"],"links":[{"u":"https://aa.com.tr/en/world/10-missing-after-avalanche-strikes-himlung-himal-peak-in-western-nepal/4070633","t":"fight: NEPAL","day":"2026-08-28","seen":"2026-08-28"}],"events":1}},{"type":"Feature","geometry":{"type":"Point","coordinates":[-71.531,42.237]},"properties":{"name":"Massachusetts, United States","first":"2026-08-28","last":"2026-08-30","days":["2026-08-28","2026-08-30"],"links":[{"u":"https://bankerandtradesman.com/sjc-upholds-ruling-in-jiminy-peak-injury-case/","t":"assault: GENERAL CONTRACTOR and MASSACHUSETTS","day":"2026-08-28","seen":"2026-08-28"},{"u":"https://nypost.com/2026/09/28/world-news/russia-paying-us-recruits-12000-to-become-cannon-fodder-in-ukraine-war/","t":"fight: RUSSIA","day":"2026-08-30","seen":"2026-08-30"}],"events":2}},{"type":"Feature","geometry":{"type":"Point","coordinates":[-74.938,42.15]},"properties":{"name":"New York, United States","first":"2026-08-28","last":"2026-08-29","days":["2026-08-28","2026-08-29"],"links":[{"u":"https://bankerandtradesman.com/sjc-upholds-ruling-in-jiminy-peak-injury-case/","t":"assault: GENERAL CONTRACTOR and UNITED STATES","day":"2026-08-28","seen":"2026-08-28"},{"u":"https://www.film-news.co.uk/news/UK/129367/Florence-Pugh-enraged-over-alleged-sexual-assault-case-at-Cornell-University","t":"assault: GANG","day":"2026-08-29","seen":"2026-08-29"}],"events":3}},{"type":"Feature","geometry":{"type":"Point","coordinates":[35.533,32.45]},"properties":{"name":"Shifa, Ha?afon, Israel","first":"2026-08-28","last":"2026-08-29","days":["2026-08-28","2026-08-29"],"links":[{"u":"http://www.idahostatejournal.com/news/national/palestinian-death-toll-in-gaza-war-passes-74-000-and-other-mideast-news/article_52c9b6a0-d2ad-5acb-9fda-7f699666b089.html","t":"fight: YEMEN and WORLD HEALTH ORGANIZATION","day":"2026-08-28","seen":"2026-08-28"},{"u":"https://www.newsday.com/news/nation/israel-gaza-iran-israel-yemen-september-27-2026-c92108","t":"fight: YEMEN and WORLD HEALTH ORGANIZATION","day":"2026-08-28","seen":"2026-08-28"},{"u":"https://www.hindustantimes.com/world-news/us-news/palestinian-death-toll-in-gaza-war-passes-74-000-and-other-mideast-news-101790534663391.html","t":"fight: YEMEN and WORLD HEALTH ORGANIZATION","day":"2026-08-28","seen":"2026-08-28"},{"u":"https://www.idahostatejournal.com/news/national/palestinian-death-toll-in-gaza-war-passes-74-000-and-other-mideast-news/article_52c9b6a0-d2ad-5acb-9fda-7f699666b089.html","t":"fight: YEMEN and WORLD HEALTH ORGANIZATION","day":"2026-08-29","seen":"2026-08-29"}],"events":5}},{"type":"Feature","geometry":{"type":"Point","coordinates":[35.25,31.667]},"properties":{"name":"West Bank","first":"2026-08-28","last":"2026-08-28","days":["2026-08-28"],"links":[{"u":"http://www.idahostatejournal.com/news/national/palestinian-death-toll-in-gaza-war-passes-74-000-and-other-mideast-news/article_52c9b6a0-d2ad-5acb-9fda-7f699666b089.html","t":"fight: YEMEN and WORLD HEALTH ORGANIZATION","day":"2026-08-28","seen":"2026-08-28"}],"events":1}},{"type":"Feature","geometry":{"type":"Point","coordinates":[51.515,35.75]},"properties":{"name":"Tehran, Tehran, Iran","first":"2026-08-28","last":"2026-08-29","days":["2026-08-28","2026-08-29"],"links":[{"u":"https://www.newsday.com/news/nation/israel-gaza-iran-israel-yemen-september-27-2026-c92108","t":"fight: YEMEN and WORLD HEALTH ORGANIZATION","day":"2026-08-28","seen":"2026-08-28"},{"u":"https://www.idahostatejournal.com/news/national/palestinian-death-toll-in-gaza-war-passes-74-000-and-other-mideast-news/article_52c9b6a0-d2ad-5acb-9fda-7f699666b089.html","t":"fight: YEMEN and WORLD HEALTH ORGANIZATION","day":"2026-08-29","seen":"2026-08-29"}],"events":2}},{"type":"Feature","geometry":{"type":"Point","coordinates":[34.333,31.417]},"properties":{"name":"Gaza, Israel (general), Israel","first":"2026-08-28","last":"2026-08-29","days":["2026-08-28","2026-08-29"],"links":[{"u":"https://www.butlereagle.com/20260927/palestinian-death-toll-in-gaza-war-passes-74000-and-other-mideast-news/","t":"fight: YEMEN and WORLD HEALTH ORGANIZATION","day":"2026-08-28","seen":"2026-08-28"},{"u":"https://trinidadexpress.com/opinion/letters/no-to-selective-outrage/article_6729cf95-d781-41b7-a494-6e6084a024ed.html","t":"fight: HAMAS and ISRAEL","day":"2026-08-29","seen":"2026-08-29"},{"u":"https://www.ironmountaindailynews.com/news/2026/09/palestinian-death-toll-in-gaza-war-passes-74000/","t":"fight: YEMEN and WORLD HEALTH ORGANIZATION","day":"2026-08-29","seen":"2026-08-29"},{"u":"https://www.irishecho.com/2026/9/gerry-adams-micheal-martin-turns-his-back-on-fianna-fail-priority","t":"fight: ISRAEL and PALESTINIAN","day":"2026-08-29","seen":"2026-08-29"}],"events":6}},{"type":"Feature","geometry":{"type":"Point","coordinates":[35.51,33.872]},"properties":{"name":"Beirut, Beyrouth, Lebanon","first":"2026-08-28","last":"2026-08-28","days":["2026-08-28"],"links":[{"u":"https://www.butlereagle.com/20260927/palestinian-death-toll-in-gaza-war-passes-74000-and-other-mideast-news/","t":"fight: YEMEN and WORLD HEALTH ORGANIZATION","day":"2026-08-28","seen":"2026-08-28"}],"events":1}},{"type":"Feature","geometry":{"type":"Point","coordinates":[53.0,32.0]},"properties":{"name":"Iran","first":"2026-08-29","last":"2026-08-29","days":["2026-08-29"],"links":[{"u":"https://www.worthynews.com/117814-iranian-christian-granted-israeli-residency-after-huckabee-appeals-to-netanyahu","t":"fight: IRAN and ISRAEL","day":"2026-08-29","seen":"2026-08-29"}],"events":1}},{"type":"Feature","geometry":{"type":"Point","coordinates":[34.75,31.5]},"properties":{"name":"Israel","first":"2026-08-29","last":"2026-08-29","days":["2026-08-29"],"links":[{"u":"https://www.worthynews.com/117814-iranian-christian-granted-israeli-residency-after-huckabee-appeals-to-netanyahu","t":"fight: ISRAEL and PARSA","day":"2026-08-29","seen":"2026-08-29"}],"events":2}},{"type":"Feature","geometry":{"type":"Point","coordinates":[-61.0,11.0]},"properties":{"name":"Trinidad And Tobago","first":"2026-08-29","last":"2026-08-29","days":["2026-08-29"],"links":[{"u":"https://trinidadexpress.com/opinion/letters/no-to-selective-outrage/article_6729cf95-d781-41b7-a494-6e6084a024ed.html","t":"fight: HAMAS and ISRAEL","day":"2026-08-29","seen":"2026-08-29"}],"events":1}},{"type":"Feature","geometry":{"type":"Point","coordinates":[78.474,17.375]},"properties":{"name":"Hyderabad, Andhra Pradesh, India","first":"2026-08-29","last":"2026-08-29","days":["2026-08-29"],"links":[{"u":"http://www.bignewsnetwork.com/news/279336718/hyderabad-woman-alleges-harassment-theft-of-rs-60000-by-taxi-driver-near-shamshabad","t":"fight: NURSE","day":"2026-08-29","seen":"2026-08-29"}],"events":1}},{"type":"Feature","geometry":{"type":"Point","coordinates":[-122.389,37.733]},"properties":{"name":"Bayview Baptist Church, California, United States","first":"2026-08-29","last":"2026-08-29","days":["2026-08-29"],"links":[{"u":"https://www.nbcsandiego.com/news/local/alfred-olango-funeral-san-diego-el-cajon-police-dept-shooting/2015334/","t":"fight: POLICE OFFICER and UNITED STATES","day":"2026-08-29","seen":"2026-08-29"}],"events":3}},{"type":"Feature","geometry":{"type":"Point","coordinates":[-76.466,42.45]},"properties":{"name":"Tompkins County, New York, United States","first":"2026-08-29","last":"2026-08-29","days":["2026-08-29"],"links":[{"u":"https://www.film-news.co.uk/news/UK/129367/Florence-Pugh-enraged-over-alleged-sexual-assault-case-at-Cornell-University","t":"assault: NEW YORK","day":"2026-08-29","seen":"2026-08-29"},{"u":"https://www.thenews.com.pk/latest/1417950-florence-pugh-left-sick-and-anxious-over-alleged-sexual-assault-case-at-cornell","t":"assault: UNITED STATES","day":"2026-08-29","seen":"2026-08-29"}],"events":2}},{"type":"Feature","geometry":{"type":"Point","coordinates":[-3.2,55.95]},"properties":{"name":"Edinburgh, Edinburgh, City of, United Kingdom","first":"2026-08-29","last":"2026-08-29","days":["2026-08-29"],"links":[{"u":"https://www.actuarialpost.co.uk/article/make-your-nominations-now-for-the-2026-actuarial-post-awards-27228.htm","t":"fight: INTELLIGENCE and BUSINESS","day":"2026-08-29","seen":"2026-08-29"}],"events":1}},{"type":"Feature","geometry":{"type":"Point","coordinates":[-3.017,51.833]},"properties":{"name":"Abergavenny, Monmouthshire, United Kingdom","first":"2026-08-29","last":"2026-08-29","days":["2026-08-29"],"links":[{"u":"https://www.southwalesargus.co.uk/news/26587279.richard-hammond-faces-legal-action-another-court-case/","t":"fight: UNITED KINGDOM","day":"2026-08-29","seen":"2026-08-29"}],"events":1}},{"type":"Feature","geometry":{"type":"Point","coordinates":[-105.327,39.065]},"properties":{"name":"Colorado, United States","first":"2026-08-29","last":"2026-08-30","days":["2026-08-29","2026-08-30"],"links":[{"u":"https://www.reporterherald.com/2026/09/28/colorado-immigration-ice-arrests-sanctions/","t":"assault: DISTRICT COURT and COLORADO","day":"2026-08-29","seen":"2026-08-29"},{"u":"https://www.eptrail.com/2026/09/28/colorado-immigration-ice-arrests-sanctions/","t":"assault: DISTRICT COURT and COLORADO","day":"2026-08-30","seen":"2026-08-30"}],"events":2}},{"type":"Feature","geometry":{"type":"Point","coordinates":[-77.036,38.895]},"properties":{"name":"Washington, District of Columbia, United States","first":"2026-08-29","last":"2026-08-29","days":["2026-08-29"],"links":[{"u":"http://www.somdnews.com/independent/news/local/man-charged-with-attempted-first-degree-murder-after-teen-shot-in-waldorf/article_57c1464e-5f48-4cd8-96b4-f88b02dd9bc0.html","t":"fight: WASHINGTON","day":"2026-08-29","seen":"2026-08-29"}],"events":2}},{"type":"Feature","geometry":{"type":"Point","coordinates":[-98.494,29.424]},"properties":{"name":"San Antonio, Texas, United States","first":"2026-08-29","last":"2026-08-29","days":["2026-08-29"],"links":[{"u":"https://www.gilmermirror.com/2026/09/28/ice-agent-who-shot-lorenzo-salgado-araujo-in-houston-identified/","t":"fight: AUSTIN","day":"2026-08-29","seen":"2026-08-29"}],"events":1}},{"type":"Feature","geometry":{"type":"Point","coordinates":[37.616,55.752]},"properties":{"name":"Moscow, Moskva, Russia","first":"2026-08-30","last":"2026-08-30","days":["2026-08-30"],"links":[{"u":"https://nypost.com/2026/09/28/world-news/russia-paying-us-recruits-12000-to-become-cannon-fodder-in-ukraine-war/","t":"fight: RUSSIA","day":"2026-08-30","seen":"2026-08-30"}],"events":1}},{"type":"Feature","geometry":{"type":"Point","coordinates":[6.0,10.0]},"properties":{"name":"Niger State, Niger, Nigeria","first":"2026-08-30","last":"2026-08-30","days":["2026-08-30"],"links":[{"u":"https://punchng.com/when-nigerians-become-numb-to-death/","t":"fight: VILLAGE","day":"2026-08-30","seen":"2026-08-30"}],"events":1}},{"type":"Feature","geometry":{"type":"Point","coordinates":[8.767,9.633]},"properties":{"name":"Riyom, Nigeria (general), Nigeria","first":"2026-08-30","last":"2026-08-30","days":["2026-08-30"],"links":[{"u":"https://punchng.com/when-nigerians-become-numb-to-death/","t":"fight: VILLAGE","day":"2026-08-30","seen":"2026-08-30"}],"events":1}},{"type":"Feature","geometry":{"type":"Point","coordinates":[9.783,7.85]},"properties":{"name":"Wukari, Nigeria (general), Nigeria","first":"2026-08-30","last":"2026-08-30","days":["2026-08-30"],"links":[{"u":"https://punchng.com/when-nigerians-become-numb-to-death/","t":"fight: VILLAGE","day":"2026-08-30","seen":"2026-08-30"}],"events":1}},{"type":"Feature","geometry":{"type":"Point","coordinates":[-118.244,34.052]},"properties":{"name":"Los Angeles, California, United States","first":"2026-08-30","last":"2026-08-30","days":["2026-08-30"],"links":[{"u":"https://www.citywatchla.com/finance/33442-the-settlement-bill-nobody-is-managing-inside-los-angeles-countys-sheriff-litigation-tab","t":"fight: LOS ANGELES and DEPUTIES","day":"2026-08-30","seen":"2026-08-30"}],"events":1}}]}