{"type":"FeatureCollection","features":[{"type":"Feature","geometry":{"type":"Point","coordinates":[-95.11289,29.724567]},"properties":{"name":"Oxy Vinyls Lp Deer Park Caustic","address":"1000 Tidal Rd, Deer Park, TX","parent_company":"OCCIDENTAL PETROLEUM CORP","tri_facility_id":"77536CCDNT1000T","primary_naics":"325211","year":2024,"source":"US EPA Toxics Release Inventory, 2024","link":"https://enviro.epa.gov/facts/tri/ef-facilities/#/Facility/77536CCDNT1000T","group":"Reporting vinyl chloride releases, United States","vinyl_chloride_released_pounds":7886.0,"vinyl_chloride_released_on_site_pounds":7886.0,"value":7886.0,"unit":"pounds of vinyl chloride released a year","_from":"us_tri"}},{"type":"Feature","geometry":{"type":"Point","coordinates":[-91.185503,30.498083]},"properties":{"name":"Formosa Plastics Corp Louisiana","address":"Gulf States Rd, Baton Rouge, LA","parent_company":"FORMOSA PLASTICS CORP USA","tri_facility_id":"70805FRMSPGULFS","primary_naics":"325211","year":2024,"source":"US EPA Toxics Release Inventory, 2024","link":"https://enviro.epa.gov/facts/tri/ef-facilities/#/Facility/70805FRMSPGULFS","group":"Reporting vinyl chloride releases, United States","vinyl_chloride_released_pounds":19574.0,"vinyl_chloride_released_on_site_pounds":19574.0,"value":19574.0,"unit":"pounds of vinyl chloride released a year","_from":"us_tri"}},{"type":"Feature","geometry":{"type":"Point","coordinates":[-89.34569,41.133501]},"properties":{"name":"Mexichem Specialty Resins Inc","address":"1546 County Rd 1450N, Henry, IL","parent_company":"MEXICHEM SPECIALTY RESINS INC","tri_facility_id":"61537THGNCRURAL","primary_naics":"325211","year":2024,"source":"US EPA Toxics Release Inventory, 2024","link":"https://enviro.epa.gov/facts/tri/ef-facilities/#/Facility/61537THGNCRURAL","group":"Reporting vinyl chloride releases, United States","vinyl_chloride_released_pounds":19633.76,"vinyl_chloride_released_on_site_pounds":19633.76,"value":19633.76,"unit":"pounds of vinyl chloride released a year","_from":"us_tri"}},{"type":"Feature","geometry":{"type":"Point","coordinates":[-95.08988,29.73122]},"properties":{"name":"Clean Harbors Deer Park Llc","address":"2027 Independence Parkway South, La Porte, TX","parent_company":"CLEAN HARBORS INC","tri_facility_id":"77536SFTYK2027B","primary_naics":"562211","year":2024,"source":"US EPA Toxics Release Inventory, 2024","link":"https://enviro.epa.gov/facts/tri/ef-facilities/#/Facility/77536SFTYK2027B","group":"Reporting vinyl chloride releases, United States","vinyl_chloride_released_pounds":40.123,"vinyl_chloride_released_on_site_pounds":21.123,"value":40.123,"unit":"pounds of vinyl chloride released a year","_from":"us_tri"}},{"type":"Feature","geometry":{"type":"Point","coordinates":[-91.17248,30.273408]},"properties":{"name":"Shintech Plaquemine Plant","address":"26270 Hwy 405, Plaquemine, LA","parent_company":"C-K TECH INC","tri_facility_id":"70764LLMNXHWY40","primary_naics":"325211","year":2024,"source":"US EPA Toxics Release Inventory, 2024","link":"https://enviro.epa.gov/facts/tri/ef-facilities/#/Facility/70764LLMNXHWY40","group":"Reporting vinyl chloride releases, United States","vinyl_chloride_released_pounds":17520.02,"vinyl_chloride_released_on_site_pounds":17520.02,"value":17520.02,"unit":"pounds of vinyl chloride released a year","_from":"us_tri"}},{"type":"Feature","geometry":{"type":"Point","coordinates":[-95.147313,29.712116]},"properties":{"name":"Oxy Vinyls Lp Pasadena Pvc Plant","address":"4403 Pasadena Fwy, Pasadena, TX","parent_company":"OCCIDENTAL PETROLEUM CORP","tri_facility_id":"77501CCDNT4403L","primary_naics":"325211","year":2024,"source":"US EPA Toxics Release Inventory, 2024","link":"https://enviro.epa.gov/facts/tri/ef-facilities/#/Facility/77501CCDNT4403L","group":"Reporting vinyl chloride releases, United States","vinyl_chloride_released_pounds":13208.34,"vinyl_chloride_released_on_site_pounds":13208.34,"value":13208.34,"unit":"pounds of vinyl chloride released a year","_from":"us_tri"}},{"type":"Feature","geometry":{"type":"Point","coordinates":[-91.002539,30.215843]},"properties":{"name":"Westlake Vinyls Co","address":"36045 Hwy 30, Geismar, LA","parent_company":"WESTLAKE CORP","tri_facility_id":"70734BRDNCLOUIS","primary_naics":"325211","year":2024,"source":"US EPA Toxics Release Inventory, 2024","link":"https://enviro.epa.gov/facts/tri/ef-facilities/#/Facility/70734BRDNCLOUIS","group":"Reporting vinyl chloride releases, United States","vinyl_chloride_released_pounds":24740.0,"vinyl_chloride_released_on_site_pounds":24740.0,"value":24740.0,"unit":"pounds of vinyl chloride released a year","_from":"us_tri"}},{"type":"Feature","geometry":{"type":"Point","coordinates":[-112.458597,40.599854]},"properties":{"name":"Clean Harbors Aragonite Llc","address":"11600 North Aptus Road, Grantsville, UT","parent_company":"CLEAN HARBORS INC","tri_facility_id":"84029SFTYK11600","primary_naics":"562211","year":2024,"source":"US EPA Toxics Release Inventory, 2024","link":"https://enviro.epa.gov/facts/tri/ef-facilities/#/Facility/84029SFTYK11600","group":"Reporting vinyl chloride releases, United States","vinyl_chloride_released_pounds":19.183,"vinyl_chloride_released_on_site_pounds":0.183,"value":19.183,"unit":"pounds of vinyl chloride released a year","_from":"us_tri"}},{"type":"Feature","geometry":{"type":"Point","coordinates":[-95.336905,28.955268]},"properties":{"name":"Huntsman Ethyleneamines Plant","address":"307 County Rd 624 A1 A38 Block, Freeport, TX","parent_company":"HUNTSMAN INC","tri_facility_id":"77541HNTSM307CO","primary_naics":"325199","year":2024,"source":"US EPA Toxics Release Inventory, 2024","link":"https://enviro.epa.gov/facts/tri/ef-facilities/#/Facility/77541HNTSM307CO","group":"Reporting vinyl chloride releases, United States","vinyl_chloride_released_pounds":40.07,"vinyl_chloride_released_on_site_pounds":37.04,"value":40.07,"unit":"pounds of vinyl chloride released a year","_from":"us_tri"}},{"type":"Feature","geometry":{"type":"Point","coordinates":[-88.559256,33.814814]},"properties":{"name":"Westlake Chemicals & Vinyls Llc","address":"715 Hwy 25 S, Aberdeen, MS","parent_company":"WESTLAKE CORP","tri_facility_id":"39730VSTPLPOBOX","primary_naics":"325211","year":2024,"source":"US EPA Toxics Release Inventory, 2024","link":"https://enviro.epa.gov/facts/tri/ef-facilities/#/Facility/39730VSTPLPOBOX","group":"Reporting vinyl chloride releases, United States","vinyl_chloride_released_pounds":8514.0,"vinyl_chloride_released_on_site_pounds":8514.0,"value":8514.0,"unit":"pounds of vinyl chloride released a year","_from":"us_tri"}},{"type":"Feature","geometry":{"type":"Point","coordinates":[-93.308634,30.211791]},"properties":{"name":"Lacc Llc Us/Lotte Chemical Louisiana Llc","address":"2200 Bayou D'Inde, Westlake, LA","parent_company":"LOTTE CHEMICAL USA CORP","tri_facility_id":"7066WLCCLL22BAY","primary_naics":"325199","year":2024,"source":"US EPA Toxics Release Inventory, 2024","link":"https://enviro.epa.gov/facts/tri/ef-facilities/#/Facility/7066WLCCLL22BAY","group":"Reporting vinyl chloride releases, United States","vinyl_chloride_released_pounds":1.0,"vinyl_chloride_released_on_site_pounds":1.0,"value":1.0,"unit":"pounds of vinyl chloride released a year","_from":"us_tri"}},{"type":"Feature","geometry":{"type":"Point","coordinates":[-97.281407,27.917202]},"properties":{"name":"The Chemours Co","address":"Hwy 361, Gregory, TX","parent_company":"THE CHEMOURS CO","tri_facility_id":"78362DPNTCHIGHW","primary_naics":"325120","year":2024,"source":"US EPA Toxics Release Inventory, 2024","link":"https://enviro.epa.gov/facts/tri/ef-facilities/#/Facility/78362DPNTCHIGHW","group":"Reporting vinyl chloride releases, United States","vinyl_chloride_released_pounds":1275.427,"vinyl_chloride_released_on_site_pounds":1275.427,"value":1275.427,"unit":"pounds of vinyl chloride released a year","_from":"us_tri"}},{"type":"Feature","geometry":{"type":"Point","coordinates":[-91.436788,39.834447]},"properties":{"name":"Basf Corp - Hannibal Site","address":"3150 Hwy Jj, Palmyra, MO","parent_company":"BASF CORP","tri_facility_id":"63461MRCNCSTATE","primary_naics":"325320","year":2024,"source":"US EPA Toxics Release Inventory, 2024","link":"https://enviro.epa.gov/facts/tri/ef-facilities/#/Facility/63461MRCNCSTATE","group":"Reporting vinyl chloride releases, United States","vinyl_chloride_released_pounds":287.0,"vinyl_chloride_released_on_site_pounds":287.0,"value":287.0,"unit":"pounds of vinyl chloride released a year","_from":"us_tri"}},{"type":"Feature","geometry":{"type":"Point","coordinates":[-95.336888,28.957654]},"properties":{"name":"Corteva Freeport Operations","address":"698 Midway Rd, Freeport, TX","parent_company":"CORTEVA INC","tri_facility_id":"7754WCRTVF698MI","primary_naics":"325199","year":2024,"source":"US EPA Toxics Release Inventory, 2024","link":"https://enviro.epa.gov/facts/tri/ef-facilities/#/Facility/7754WCRTVF698MI","group":"Reporting vinyl chloride releases, United States","vinyl_chloride_released_pounds":2356.0,"vinyl_chloride_released_on_site_pounds":2356.0,"value":2356.0,"unit":"pounds of vinyl chloride released a year","_from":"us_tri"}},{"type":"Feature","geometry":{"type":"Point","coordinates":[-95.377954,28.984158]},"properties":{"name":"Freeport_Olin Bc","address":"2301 N Brazosport Blvd, Freeport, TX","parent_company":"OLIN CORP","tri_facility_id":"7754WBLCBP231NB","primary_naics":"325199","year":2024,"source":"US EPA Toxics Release Inventory, 2024","link":"https://enviro.epa.gov/facts/tri/ef-facilities/#/Facility/7754WBLCBP231NB","group":"Reporting vinyl chloride releases, United States","vinyl_chloride_released_pounds":4441.0,"vinyl_chloride_released_on_site_pounds":4441.0,"value":4441.0,"unit":"pounds of vinyl chloride released a year","_from":"us_tri"}},{"type":"Feature","geometry":{"type":"Point","coordinates":[-88.349982,37.041379]},"properties":{"name":"Westlake Vinyls Inc. - Pvc Plant","address":"230 Johnson Riley Rd, Calvert City, KY","parent_company":"WESTLAKE CORP","tri_facility_id":"42029PCFCWJOHNS","primary_naics":"325211","year":2024,"source":"US EPA Toxics Release Inventory, 2024","link":"https://enviro.epa.gov/facts/tri/ef-facilities/#/Facility/42029PCFCWJOHNS","group":"Reporting vinyl chloride releases, United States","vinyl_chloride_released_pounds":43090.0,"vinyl_chloride_released_on_site_pounds":43090.0,"value":43090.0,"unit":"pounds of vinyl chloride released a year","_from":"us_tri"}},{"type":"Feature","geometry":{"type":"Point","coordinates":[-90.968443,30.196218]},"properties":{"name":"Occidental Chemical Holding Corp - Geismar Plant","address":"8318 Ashland Rd, Geismar, LA","parent_company":"OCCIDENTAL PETROLEUM CORP","tri_facility_id":"70734VLCNMASHLA","primary_naics":"325199","year":2024,"source":"US EPA Toxics Release Inventory, 2024","link":"https://enviro.epa.gov/facts/tri/ef-facilities/#/Facility/70734VLCNMASHLA","group":"Reporting vinyl chloride releases, United States","vinyl_chloride_released_pounds":1599.0,"vinyl_chloride_released_on_site_pounds":1596.0,"value":1599.0,"unit":"pounds of vinyl chloride released a year","_from":"us_tri"}},{"type":"Feature","geometry":{"type":"Point","coordinates":[-75.42202,39.771261]},"properties":{"name":"Oxy Vinyls Lp","address":"Rt 130 & Porcupine Rd, Pedricktown, NJ","parent_company":"OCCIDENTAL PETROLEUM CORP","tri_facility_id":"08067XYVNYRTE13","primary_naics":"325211","year":2024,"source":"US EPA Toxics Release Inventory, 2024","link":"https://enviro.epa.gov/facts/tri/ef-facilities/#/Facility/08067XYVNYRTE13","group":"Reporting vinyl chloride releases, United States","vinyl_chloride_released_pounds":4673.0,"vinyl_chloride_released_on_site_pounds":4673.0,"value":4673.0,"unit":"pounds of vinyl chloride released a year","_from":"us_tri"}},{"type":"Feature","geometry":{"type":"Point","coordinates":[-87.038497,34.630059]},"properties":{"name":"Daikin America Inc","address":"905 State Docks Rd, Decatur, AL","parent_company":"DAIKIN AMERICA INC","tri_facility_id":"35601DKNMRSTATE","primary_naics":"325211","year":2024,"source":"US EPA Toxics Release Inventory, 2024","link":"https://enviro.epa.gov/facts/tri/ef-facilities/#/Facility/35601DKNMRSTATE","group":"Reporting vinyl chloride releases, United States","vinyl_chloride_released_pounds":1945.0,"vinyl_chloride_released_on_site_pounds":1945.0,"value":1945.0,"unit":"pounds of vinyl chloride released a year","_from":"us_tri"}},{"type":"Feature","geometry":{"type":"Point","coordinates":[-91.180275,30.273136]},"properties":{"name":"Westlake Chemicals & Vinyls Llc","address":"26100 Hwy 405 S, Plaquemine, LA","parent_company":"WESTLAKE CHEMICAL CORP","tri_facility_id":"70765GRGGLHIGHW","primary_naics":"325211","year":2024,"source":"US EPA Toxics Release Inventory, 2024","link":"https://enviro.epa.gov/facts/tri/ef-facilities/#/Facility/70765GRGGLHIGHW","group":"Reporting vinyl chloride releases, United States","vinyl_chloride_released_pounds":17346.05,"vinyl_chloride_released_on_site_pounds":17346.0,"value":17346.05,"unit":"pounds of vinyl chloride released a year","_from":"us_tri"}},{"type":"Feature","geometry":{"type":"Point","coordinates":[-91.25643,30.331448]},"properties":{"name":"Shintech Louisiana Llc - Addis Plant A","address":"9750 Louisiana Hwy 1 S, Addis, LA","parent_company":"C-K TECH INC","tri_facility_id":"70710SHNTC9750L","primary_naics":"325211","year":2024,"source":"US EPA Toxics Release Inventory, 2024","link":"https://enviro.epa.gov/facts/tri/ef-facilities/#/Facility/70710SHNTC9750L","group":"Reporting vinyl chloride releases, United States","vinyl_chloride_released_pounds":16670.87,"vinyl_chloride_released_on_site_pounds":16670.87,"value":16670.87,"unit":"pounds of vinyl chloride released a year","_from":"us_tri"}},{"type":"Feature","geometry":{"type":"Point","coordinates":[-77.365406,35.070361]},"properties":{"name":"Rowmark Custom Laminations","address":"182 Industrial Park Dr, Trenton, NC","parent_company":"NA","tri_facility_id":"2858WTRYND182IN","primary_naics":"326113","year":2024,"source":"US EPA Toxics Release Inventory, 2024","link":"https://enviro.epa.gov/facts/tri/ef-facilities/#/Facility/2858WTRYND182IN","group":"Reporting vinyl chloride releases, United States","vinyl_chloride_released_pounds":102.0,"vinyl_chloride_released_on_site_pounds":102.0,"value":102.0,"unit":"pounds of vinyl chloride released a year","_from":"us_tri"}},{"type":"Feature","geometry":{"type":"Point","coordinates":[-95.358869,28.99231]},"properties":{"name":"Shintech Inc","address":"5618 Hwy 332 E, Freeport, TX","parent_company":"NA","tri_facility_id":"77541SHNTC5672H","primary_naics":"325211","year":2024,"source":"US EPA Toxics Release Inventory, 2024","link":"https://enviro.epa.gov/facts/tri/ef-facilities/#/Facility/77541SHNTC5672H","group":"Reporting vinyl chloride releases, United States","vinyl_chloride_released_pounds":22823.0,"vinyl_chloride_released_on_site_pounds":22818.0,"value":22823.0,"unit":"pounds of vinyl chloride released a year","_from":"us_tri"}},{"type":"Feature","geometry":{"type":"Point","coordinates":[-95.119288,29.710922]},"properties":{"name":"Oxy Vinyls Lp Deer Park-Vcm Plant","address":"5900 Hwy 225 Gate 8A, Deer Park, TX","parent_company":"OCCIDENTAL PETROLEUM CORP","tri_facility_id":"77536CCDNTTIDAL","primary_naics":"325199","year":2024,"source":"US EPA Toxics Release Inventory, 2024","link":"https://enviro.epa.gov/facts/tri/ef-facilities/#/Facility/77536CCDNTTIDAL","group":"Reporting vinyl chloride releases, United States","vinyl_chloride_released_pounds":3130.0,"vinyl_chloride_released_on_site_pounds":3130.0,"value":3130.0,"unit":"pounds of vinyl chloride released a year","_from":"us_tri"}},{"type":"Feature","geometry":{"type":"Point","coordinates":[-75.415965,39.758638]},"properties":{"name":"Mexichem Specialty Resins Inc","address":"76 Porcupine Rd - Po Box 420, Pedricktown, NJ","parent_company":"MEXICHEM SPECIALTY RESINS INC","tri_facility_id":"08067THGNCUSRTE","primary_naics":"325211","year":2024,"source":"US EPA Toxics Release Inventory, 2024","link":"https://enviro.epa.gov/facts/tri/ef-facilities/#/Facility/08067THGNCUSRTE","group":"Reporting vinyl chloride releases, United States","vinyl_chloride_released_pounds":17643.0,"vinyl_chloride_released_on_site_pounds":17613.0,"value":17643.0,"unit":"pounds of vinyl chloride released a year","_from":"us_tri"}},{"type":"Feature","geometry":{"type":"Point","coordinates":[-93.266301,30.258881]},"properties":{"name":"Westlake Us 2 Llc","address":"1300 Ppg Dr, Westlake, LA","parent_company":"WESTLAKE CORP","tri_facility_id":"70669PPGNDCOLUM","primary_naics":"325180","year":2024,"source":"US EPA Toxics Release Inventory, 2024","link":"https://enviro.epa.gov/facts/tri/ef-facilities/#/Facility/70669PPGNDCOLUM","group":"Reporting vinyl chloride releases, United States","vinyl_chloride_released_pounds":3640.93,"vinyl_chloride_released_on_site_pounds":3640.0,"value":3640.93,"unit":"pounds of vinyl chloride released a year","_from":"us_tri"}},{"type":"Feature","geometry":{"type":"Point","coordinates":[-80.548152,40.631481]},"properties":{"name":"Heritage Thermal Services","address":"1250 St George St, East Liverpool, OH","parent_company":"NA","tri_facility_id":"43920VNRLL1250S","primary_naics":"562213","year":2024,"source":"US EPA Toxics Release Inventory, 2024","link":"https://enviro.epa.gov/facts/tri/ef-facilities/#/Facility/43920VNRLL1250S","group":"Reporting vinyl chloride releases, United States","vinyl_chloride_released_pounds":3.73,"vinyl_chloride_released_on_site_pounds":0.05,"value":3.73,"unit":"pounds of vinyl chloride released a year","_from":"us_tri"}},{"type":"Feature","geometry":{"type":"Point","coordinates":[-88.331895,37.047546]},"properties":{"name":"Westlake Vinyls Inc","address":"2468 Ind Us Trial Pkwy, Calvert City, KY","parent_company":"WESTLAKE CORP","tri_facility_id":"42029WSTLK2468I","primary_naics":"325199","year":2024,"source":"US EPA Toxics Release Inventory, 2024","link":"https://enviro.epa.gov/facts/tri/ef-facilities/#/Facility/42029WSTLK2468I","group":"Reporting vinyl chloride releases, United States","vinyl_chloride_released_pounds":6564.75,"vinyl_chloride_released_on_site_pounds":6564.68,"value":6564.75,"unit":"pounds of vinyl chloride released a year","_from":"us_tri"}},{"type":"Feature","geometry":{"type":"Point","coordinates":[-82.035344,41.321739]},"properties":{"name":"Ross Incineration Services Inc","address":"36790 Giles Rd, Grafton, OH","parent_company":"RI TECHNOLOGIES INC","tri_facility_id":"44044RSSNC36790","primary_naics":"562211","year":2024,"source":"US EPA Toxics Release Inventory, 2024","link":"https://enviro.epa.gov/facts/tri/ef-facilities/#/Facility/44044RSSNC36790","group":"Reporting vinyl chloride releases, United States","vinyl_chloride_released_pounds":0.007,"vinyl_chloride_released_on_site_pounds":0.002,"value":0.007,"unit":"pounds of vinyl chloride released a year","_from":"us_tri"}},{"type":"Feature","geometry":{"type":"Point","coordinates":[-97.281407,27.917202]},"properties":{"name":"Occidental Chemical Corp","address":"4133 Hwy 361, Gregory, TX","parent_company":"OCCIDENTAL PETROLEUM CORP","tri_facility_id":"78359CCDNTHWY36","primary_naics":"325199","year":2024,"source":"US EPA Toxics Release Inventory, 2024","link":"https://enviro.epa.gov/facts/tri/ef-facilities/#/Facility/78359CCDNTHWY36","group":"Reporting vinyl chloride releases, United States","vinyl_chloride_released_pounds":10008.0,"vinyl_chloride_released_on_site_pounds":10008.0,"value":10008.0,"unit":"pounds of vinyl chloride released a year","_from":"us_tri"}},{"type":"Feature","geometry":{"type":"Point","coordinates":[-82.056129,41.493376]},"properties":{"name":"Mexichem Specialty Resins Inc","address":"33653 Walker Rd, Avon Lake, OH","parent_company":"MEXICHEM SPECIALTY RESINS INC","tri_facility_id":"4401WMXCHM33653","primary_naics":"325211","year":2024,"source":"US EPA Toxics Release Inventory, 2024","link":"https://enviro.epa.gov/facts/tri/ef-facilities/#/Facility/4401WMXCHM33653","group":"Reporting vinyl chloride releases, United States","vinyl_chloride_released_pounds":13.0,"vinyl_chloride_released_on_site_pounds":13.0,"value":13.0,"unit":"pounds of vinyl chloride released a year","_from":"us_tri"}},{"type":"Feature","geometry":{"type":"Point","coordinates":[-96.551699,28.692312]},"properties":{"name":"Formosa Plastics Corp Texas","address":"201 Formosa Dr, Point Comfort, TX","parent_company":"FORMOSA PLASTICS CORP USA","tri_facility_id":"77978FRMSPPOBOX","primary_naics":"325211","year":2024,"source":"US EPA Toxics Release Inventory, 2024","link":"https://enviro.epa.gov/facts/tri/ef-facilities/#/Facility/77978FRMSPPOBOX","group":"Reporting vinyl chloride releases, United States","vinyl_chloride_released_pounds":22487.0,"vinyl_chloride_released_on_site_pounds":22487.0,"value":22487.0,"unit":"pounds of vinyl chloride released a year","_from":"us_tri"}},{"type":"Feature","geometry":{"type":"Point","coordinates":[-92.632408,33.208074]},"properties":{"name":"Clean Harbors El Dorado Llc","address":"309 American Cir Union, El Dorado, AR","parent_company":"CLEAN HARBORS INC","tri_facility_id":"71730NVRNM309AM","primary_naics":"562211","year":2024,"source":"US EPA Toxics Release Inventory, 2024","link":"https://enviro.epa.gov/facts/tri/ef-facilities/#/Facility/71730NVRNM309AM","group":"Reporting vinyl chloride releases, United States","vinyl_chloride_released_pounds":36.898,"vinyl_chloride_released_on_site_pounds":1.898,"value":36.898,"unit":"pounds of vinyl chloride released a year","_from":"us_tri"}},{"type":"Feature","geometry":{"type":"Point","coordinates":[-93.287665,30.249836]},"properties":{"name":"Westlake Chemicals & Vinyls Llc","address":"1600 Vcm Plant Rd, Westlake, LA","parent_company":"WESTLAKE CORP","tri_facility_id":"70669GRGGL1600V","primary_naics":"325110","year":2024,"source":"US EPA Toxics Release Inventory, 2024","link":"https://enviro.epa.gov/facts/tri/ef-facilities/#/Facility/70669GRGGL1600V","group":"Reporting vinyl chloride releases, United States","vinyl_chloride_released_pounds":8629.49,"vinyl_chloride_released_on_site_pounds":8629.49,"value":8629.49,"unit":"pounds of vinyl chloride released a year","_from":"us_tri"}},{"type":"Feature","geometry":{"type":"Point","coordinates":[-122.25312,47.925574]},"properties":{"name":"Achilles Usa Inc","address":"1407 80Th St Sw, Everett, WA","parent_company":"NA","tri_facility_id":"98203KHKKS14078","primary_naics":"326113","year":2024,"source":"US EPA Toxics Release Inventory, 2024","link":"https://enviro.epa.gov/facts/tri/ef-facilities/#/Facility/98203KHKKS14078","group":"Reporting vinyl chloride releases, United States","vinyl_chloride_released_pounds":0,"vinyl_chloride_released_on_site_pounds":0,"value":0,"unit":"pounds of vinyl chloride released a year","_from":"us_tri"}},{"type":"Feature","geometry":{"type":"Point","coordinates":[-95.077735,29.72534]},"properties":{"name":"Oxy Vinyls Lp La Porte Vcm Plant","address":"2400 Miller Cutoff Rd, La Porte, TX","parent_company":"OCCIDENTAL CHEMICAL HOLDING CORP","tri_facility_id":"77571LPRTC2400M","primary_naics":"325199","year":2024,"source":"US EPA Toxics Release Inventory, 2024","link":"https://enviro.epa.gov/facts/tri/ef-facilities/#/Facility/77571LPRTC2400M","group":"Reporting vinyl chloride releases, United States","vinyl_chloride_released_pounds":4881.15,"vinyl_chloride_released_on_site_pounds":4881.15,"value":4881.15,"unit":"pounds of vinyl chloride released a year","_from":"us_tri"}},{"type":"Feature","geometry":{"type":"Point","coordinates":[-85.828995,38.223224]},"properties":{"name":"Lubrizol Advanced Materials Inc","address":"4200 Bells Ln, Louisville, KY","parent_company":"BERKSHIRE HATHAWAY INC","tri_facility_id":"40211BFGDR4100B","primary_naics":"325211","year":2024,"source":"US EPA Toxics Release Inventory, 2024","link":"https://enviro.epa.gov/facts/tri/ef-facilities/#/Facility/40211BFGDR4100B","group":"Reporting vinyl chloride releases, United States","vinyl_chloride_released_pounds":690.9,"vinyl_chloride_released_on_site_pounds":690.0,"value":690.9,"unit":"pounds of vinyl chloride released a year","_from":"us_tri"}},{"type":"Feature","geometry":{"type":"Point","coordinates":[-72.533457,45.874947]},"properties":{"addr:city":"Drummondville","addr:housenumber":"700","addr:province":"QC","addr:street":"Rue Bergeron","man_made":"works","name":"Produits Proflex","product":"pvc;plastics","osm":"https://www.openstreetmap.org/node/7714241249","source":"OpenStreetMap contributors (ODbL)","group":"Vinyl chloride and PVC plants in open maps","_from":"osm"}},{"type":"Feature","geometry":{"type":"Point","coordinates":[-73.72153,45.702404]},"properties":{"addr:city":"Terrebonne","addr:housenumber":"49","addr:province":"QC","addr:street":"Rue Théodore-Viau","man_made":"works","name":"EMS Extrusion - Yardscapes","product":"fence;railing;pvc","osm":"https://www.openstreetmap.org/node/8808792841","source":"OpenStreetMap contributors (ODbL)","group":"Vinyl chloride and PVC plants in open maps","_from":"osm"}},{"type":"Feature","geometry":{"type":"Point","coordinates":[15.134225,41.05769]},"properties":{"addr:city":"Flumeri","addr:postcode":"83040","addr:street":"Via Zona Industriale","man_made":"works","name":"Kira Finestre","operator":"Kira Finestre","product":"serramenti;porte;finestre;pvc;alluminio;thermofibra","osm":"https://www.openstreetmap.org/node/10971360268","source":"OpenStreetMap contributors (ODbL)","group":"Vinyl chloride and PVC plants in open maps","_from":"osm"}},{"type":"Feature","geometry":{"type":"Point","coordinates":[-3.026701,39.168189]},"properties":{"addr:city":"Tomelloso","addr:milestone":"Km. 0.8","addr:postcode":"13700","addr:street":"Carretera de Argamasilla de Alba","craft":"window_construction","email":"fachadas@somanpvc.com","name":"Soman PVC","phone":"+34 926 51 39 05","product":"carpintería metálica y PVC","website":"https://www.somanpvc.com/es/","osm":"https://www.openstreetmap.org/node/12760467902","source":"OpenStreetMap contributors (ODbL)","group":"Vinyl chloride and PVC plants in open maps","_from":"osm"}},{"type":"Feature","geometry":{"type":"Point","coordinates":[79.996229,13.399138]},"properties":{"addr:district":"Thiruvallur","addr:full":"Survey No. 28/3A, No. 28, Siruvada Village, Gummidipoondi Taluk, Chennai, Tamil Nadu 601201","addr:place":"Siruvada","addr:postcode":"601201","addr:state":"Tamil Nadu","addr:subdistrict":"Gummidipoondi","contact:instagram":"https://www.instagram.com/konitaindustries/","contact:linkedin":"https://www.linkedin.com/company/konitaindustries","man_made":"works","name":"Konita Industries","official_name":"Konita Industries Pvt. Ltd.","phone":"+91 98840 30572","product":"WPC boards;PVC boards;doors","website":"https://www.konita.in/","osm":"https://www.openstreetmap.org/node/14182303575","source":"OpenStreetMap contributors (ODbL)","group":"Vinyl chloride and PVC plants in open maps","_from":"osm"}},{"type":"Feature","geometry":{"type":"Point","coordinates":[18.966569,52.710895]},"properties":{"addr:city":"Włocławek","addr:housenumber":"222","addr:postcode":"87-805","addr:street":"Toruńska","industrial":"factory","landuse":"industrial","man_made":"works","name":"Anwil S.A.","old_name":"Zakłady Azotowe \"Włocławek\"","operator":"Orlen","operator:wikidata":"Q971649","product":"nitrogen_fertilizers;polyvinyl_chloride;chloroalkalia","short_name":"Anwil","website":"https://anwil.orlen.pl","wikidata":"Q9158241","wikipedia":"pl:Anwil (przedsiębiorstwo)","osm":"https://www.openstreetmap.org/way/238120854","source":"OpenStreetMap contributors (ODbL)","group":"Vinyl chloride and PVC plants in open maps","position":"the middle of the area OpenStreetMap maps","_from":"osm"}},{"type":"Feature","geometry":{"type":"Point","coordinates":[-88.349047,37.04514]},"properties":{"chemical":"chloralkali","industrial":"chemical","landuse":"industrial","man_made":"works","name":"Westlake PVC Corporation","product":"polyvinylchloride","osm":"https://www.openstreetmap.org/way/482039188","source":"OpenStreetMap contributors (ODbL)","group":"Vinyl chloride and PVC plants in open maps","position":"the middle of the area OpenStreetMap maps","_from":"osm"}},{"type":"Feature","geometry":{"type":"Point","coordinates":[-91.259174,30.324476]},"properties":{"industrial":"plastic_manufacturing","landuse":"industrial","man_made":"works","name":"Shintech","operator":"Shintech Louisiana, LLC","product":"polyvinyl_chloride","ref:US:EPA":"110020843872","osm":"https://www.openstreetmap.org/way/617508914","source":"OpenStreetMap contributors (ODbL)","group":"Vinyl chloride and PVC plants in open maps","position":"the middle of the area OpenStreetMap maps","_from":"osm"}},{"type":"Feature","geometry":{"type":"Point","coordinates":[-90.991213,30.199284]},"properties":{"addr:city":"Geismar","addr:housenumber":"8404","addr:postcode":"70734","addr:state":"LA","addr:street":"River Road","industrial":"chemical","landuse":"industrial","man_made":"works","name":"BASF Geismar","operator":"BASF Corporation","product":"ethylene_oxide;ethylene_glycols;toluene_diisocyanate;hydrochloric_acid;polyether_polyols;butanediol;n-methyl_pyrrolidone;tetrahydrofuran;n-vinylpyrrolidone;polyvinylpyrrolidone;specialty_amines;aniline;alkylethanolamines;methylamines;surfactants","start_date":"1958","website":"https://www.basf.com/us/en/who-we-are/organization/locations/find-out-about-basf-in---/Louisiana.html","osm":"https://www.openstreetmap.org/way/621799919","source":"OpenStreetMap contributors (ODbL)","group":"Vinyl chloride and PVC plants in open maps","position":"the middle of the area OpenStreetMap maps","_from":"osm"}},{"type":"Feature","geometry":{"type":"Point","coordinates":[120.200587,23.12694]},"properties":{"addr:city":"台南市","addr:country":"TW","addr:district":"西港區","addr:full":"723台南市西港區新興街201巷3號","addr:housenumber":"3","addr:place":"慶安區","addr:postcode":"723","addr:street":"新興街201巷","building":"industrial","man_made":"works","name":"永仕旺企業股份有限公司","opening_hours":"Mo-Fr 08:00-17:00","product":"pvc;膠膜;上膠;自黏代工","osm":"https://www.openstreetmap.org/way/711555134","source":"OpenStreetMap contributors (ODbL)","group":"Vinyl chloride and PVC plants in open maps","position":"the middle of the area OpenStreetMap maps","_from":"osm"}},{"type":"Feature","geometry":{"type":"Point","coordinates":[-9.275404,52.565881]},"properties":{"landuse":"industrial","name":"Kit-Fab","product":"pvc","osm":"https://www.openstreetmap.org/way/813618971","source":"OpenStreetMap contributors (ODbL)","group":"Vinyl chloride and PVC plants in open maps","position":"the middle of the area OpenStreetMap maps","_from":"osm"}},{"type":"Feature","geometry":{"type":"Point","coordinates":[23.546805,42.343571]},"properties":{"industrial":"factory","landuse":"industrial","name":"Пайп Индустриал България","product":"PVC Pipes;Fittings","osm":"https://www.openstreetmap.org/way/849483538","source":"OpenStreetMap contributors (ODbL)","group":"Vinyl chloride and PVC plants in open maps","position":"the middle of the area OpenStreetMap maps","_from":"osm"}},{"type":"Feature","geometry":{"type":"Point","coordinates":[-91.169442,30.250008]},"properties":{"industrial":"plastic_manufacturing","landuse":"industrial","man_made":"works","name":"Shintech Plaquemine PVC Plant","operator":"Shintech Louisiana, LLC","product":"polyvinyl_chloride","start_date":"2004","type":"multipolygon","website":"https://www.shintech.com/cgi-bin/rtbin/sbpg/rt_hdln_dsply2.cgi?Autoincrement=000004&value_6=About%20Us","osm":"https://www.openstreetmap.org/relation/15905508","source":"OpenStreetMap contributors (ODbL)","group":"Vinyl chloride and PVC plants in open maps","position":"the middle of the area OpenStreetMap maps","_from":"osm"}},{"type":"Feature","geometry":{"type":"Point","coordinates":[55.933333,53.671667]},"properties":{"name":"Bashkir Soda Company","country":"Russia","owner":"Government of the Republic of Bashkortostan","inception":"1945-03-01","products":"polyvinyl chloride","wikidata":"http://www.wikidata.org/entity/Q4217633","source":"Wikidata (CC0)","group":"Vinyl chloride and PVC plants in open maps","_from":"wikidata"}},{"type":"Feature","geometry":{"type":"Point","coordinates":[5.0984,45.8471]},"properties":{"name":"Chemical factory, Balan","country":"France","owner":"Arkema","inception":"1965-01-01","products":"polyethylene; vinyl chloride","wikidata":"http://www.wikidata.org/entity/Q16511667","source":"Wikidata (CC0)","group":"Vinyl chloride and PVC plants in open maps","_from":"wikidata"}},{"type":"Feature","geometry":{"type":"Point","coordinates":[-94.388664,18.109664]},"properties":{"name":"Pajaritos Petrochemical Complex","country":"Mexico","operator":"Orbia (Mexichem)","owner":"Pemex","products":"polyvinyl chloride; vinyl chloride","wikidata":"http://www.wikidata.org/entity/Q124611460","source":"Wikidata (CC0)","group":"Vinyl chloride and PVC plants in open maps","_from":"wikidata"}},{"type":"Feature","geometry":{"type":"Point","coordinates":[151.2225,-33.957778]},"properties":{"name":"Q139819174","country":"Australia","products":"polyvinyl chloride; vinyl chloride","wikidata":"http://www.wikidata.org/entity/Q139819174","source":"Wikidata (CC0)","group":"Vinyl chloride and PVC plants in open maps","_from":"wikidata"}},{"type":"Feature","geometry":{"type":"Point","coordinates":[4.846389,45.695]},"properties":{"name":"Q141386950","country":"France","products":"polyvinyl chloride; vinyl chloride","wikidata":"http://www.wikidata.org/entity/Q141386950","source":"Wikidata (CC0)","group":"Vinyl chloride and PVC plants in open maps","_from":"wikidata"}},{"type":"Feature","geometry":{"type":"Point","coordinates":[4.794722,45.351389]},"properties":{"name":"Q141451620","country":"France","products":"vinyl chloride","wikidata":"http://www.wikidata.org/entity/Q141451620","source":"Wikidata (CC0)","group":"Vinyl chloride and PVC plants in open maps","_from":"wikidata"}}]}