{"type": "FeatureCollection", "features": [{"type": "Feature", "geometry": {"type": "Point", "coordinates": [118.6689, 37.4335]}, "properties": {"Name History": "[{\"From\": \"2015\", \"To\": \"\", \"Name\": \"LU RONG YUAN YU 813\"}, {\"From\": \"\", \"To\": \"2017-01-01\", \"Name\": \"LU RONG YUAN YU 105, LU RONG YUAN YU 105\"}]", "Flag History": "[{\"From\": \"\", \"To\": \"\", \"Flag\": \"China\"}]", "Owner History": "[{\"From\": \"\", \"To\": \"\", \"Owner\": \"Shandong Lanyue Ocean Fishery Co Ltd\"}]", "Operator History": "[{\"From\": \"\", \"To\": \"\", \"Operator\": \"Shandong Lanyue Ocean Fishery Co Ltd\"}]", "IRCS History": "[{\"From\": \"\", \"To\": \"\", \"IRCS\": \"BBDK5\"}]", "National Reg No": "[{\"From\": \"2018-02-05\", \"To\": \"\", \"Reg.No\": \"3710822013040024\"}, {\"From\": \"\", \"To\": \"\", \"Reg.No\": \"(LU)CHUANDENG(JI)(2017)FT-200111\"}]", "RFMO History": "[{\"RFMO\": \"NAFO\", \"Status\": \"IUU Listed\", \"Date listed\": \"2023-10-11\", \"Reason\": \"Cross-listing\", \"Delisted\": \"\", \"Delisted Reason\": \"\"}, {\"RFMO\": \"IOTC\", \"Status\": \"IUU Listed\", \"Date listed\": \"2019-12\", \"Reason\": \"Cross-listing\", \"Delisted\": \"\", \"Delisted Reason\": \"\"}, {\"RFMO\": \"NEAFC\", \"Status\": \"IUU Listed\", \"Date listed\": \"2019\", \"Reason\": \"Cross-listing\", \"Delisted\": \"\", \"Delisted Reason\": \"\"}, {\"RFMO\": \"SIOFA\", \"Status\": \"IUU Listed\", \"Date listed\": \"2019\", \"Reason\": \"Cross-listing\", \"Delisted\": \"\", \"Delisted Reason\": \"\"}, {\"RFMO\": \"NPFC\", \"Status\": \"IUU Listed\", \"Date listed\": \"2018-01\", \"Reason\": \"\", \"Delisted\": \"\", \"Delisted Reason\": \"\"}]", "Name": "LU RONG YUAN YU 813", "RFMO Vessel Name": "LU RONG YUAN YU 105", "IMO Number": "8798134", "Reg. No.": "(LU)CHUANDENG(JI)(2017)FT-200111, 3710822013040024", "Vessel Type": "Unknown, Fishing Vessel", "Gear Type": "Trawl unspecified, Purse seine", "Current Flag": "China", "IRCS": "BBDK5", "MMSI No.": "412328749", "Gross Tonnage": "651.000, 648.000", "Deadweight": "", "Length": "49.560", "Depth": "4.200", "Year of Build": "201304", "Built in": "China, People's Republic Of", "Current Owner": "Shandong Lanyue Ocean Fishery Co Ltd", "Operator": "Shandong Lanyue Ocean Fishery Co Ltd", "Last known position": "Dongying, China / Bohai Sea", "Position date": "2026-03-03", "Status": "", "Status Date": "", "Service Provider*": "", "IOTC": "IUU Listed 2019-12 Cross-listing", "NEAFC": "IUU Listed 2019 Cross-listing", "SIOFA": "IUU Listed 2019 Cross-listing", "NPFC": "IUU Listed 2018-01", "Comments": "While LU RONG YUAN YU 105 is registered as one purse seine vessel in the NPFC list, two vessels with the identical name but different vessel types were seen operating in the NPFC Convention Area. LU RONG YUAN YU 105 was seen at 42˚27'N, 152˚ 5.8'E on 11 Oct 2016 operating lift nets. LU RONG YUAN YU 105 was seen at 41˚54.8'N, 151˚17.4'E on 5 September 2016 using a stern trawl. Images taken at the time show port of Shidao displayed on the vessels. This vessel was included in the NPFC IUU list on 13 November 2017. NPFC considers any vessel using the name LU RONG YUAN YU 105 to be operating illegally. The MMSI provided by NPFC for the IUU listed trawler has transmitted both the historic (LU RONG YUAN YU 105) and current (LU RONG YUAN YU 813) names of IMO 8798134, and the photo of the IUU listed vessel also appears to be a match for available photos of IMO 8798134, thus these are considered highly likely to be the same vessel", "page": "https://iuu-vessels.org/Vessel/GetVessel/368da5d3-d0b2-4d44-a2f9-0fd60a16ea6f", "placed at": "the place the list names, Dongying, China, by OpenStreetMap's Nominatim (not a reported coordinate)"}}, {"type": "Feature", "geometry": {"type": "Point", "coordinates": [-9.5839, 30.4205]}, "properties": {"Name History": "[{\"From\": \"2025\", \"To\": \"\", \"Name\": \"ORIENTE NO. 7\"}, {\"From\": \"2024-02-27\", \"To\": \"\", \"Name\": \"NAJEM AL SHAMAL\"}, {\"From\": \"2013\", \"To\": \"\", \"Name\": \"ORIENTE NO. 7\"}, {\"From\": \"2005-09\", \"To\": \"2013\", \"Name\": \"ALFAJR ALMUNIR, AL FAJR AL MUNIR\"}, {\"From\": \"2005-05\", \"To\": \"2005-09\", \"Name\": \"YADO\"}, {\"From\": \"2004-03\", \"To\": \"2005-05\", \"Name\": \"SQUID 9\"}, {\"From\": \"2001-12\", \"To\": \"2004-03\", \"Name\": \"GREEN BAY NO. 11\"}, {\"From\": \"\", \"To\": \"2001-12\", \"Name\": \"ORIENTE NO. 7\"}]", "Flag History": "[{\"From\": \"2005-09\", \"To\": \"\", \"Flag\": \"Libya\"}, {\"From\": \"2005-05\", \"To\": \"2005-09\", \"Flag\": \"Panama\"}, {\"From\": \"2001-12\", \"To\": \"2005-05\", \"Flag\": \"Thailand\"}, {\"From\": \"\", \"To\": \"2001-12\", \"Flag\": \"Honduras\"}]", "Owner History": "[{\"From\": \"2007-01-01\", \"To\": \"\", \"Owner\": \"Taisay Kosho Co Ltd\"}, {\"From\": \"2005-09-13\", \"To\": \"2007-01-01\", \"Owner\": \"AL FAJR AL MUNIR MARINE FISHING CO\"}, {\"From\": \"2005-05\", \"To\": \"2005-09-13\", \"Owner\": \"Yado Enterprises SA\"}, {\"From\": \"2001-12\", \"To\": \"2005-05\", \"Owner\": \"Evergreen Fisheries Co Ltd\"}, {\"From\": \"\", \"To\": \"2001-12\", \"Owner\": \"El Oriente S de RL\"}]", "Operator History": "[{\"From\": \"2016-03-22\", \"To\": \"\", \"Operator\": \"AL FAJR AL MUNIR MARINE FISHING CO\"}, {\"From\": \"\", \"To\": \"\", \"Operator\": \"Taisay Kosho Co Ltd\"}]", "IRCS History": "[{\"From\": \"2005-09\", \"To\": \"\", \"IRCS\": \"5AWC\"}, {\"From\": \"\", \"To\": \"2005-09\", \"IRCS\": \"HO3927\"}]", "National Reg No": "[{\"From\": \"\", \"To\": \"\", \"Reg.No\": \"S.T.189\"}]", "RFMO History": "[{\"RFMO\": \"NAFO\", \"Status\": \"IUU Listed\", \"Date listed\": \"2023-10-11\", \"Reason\": \"Cross-listing\", \"Delisted\": \"\", \"Delisted Reason\": \"\"}, {\"RFMO\": \"CCSBT\", \"Status\": \"IUU Listed\", \"Date listed\": \"2020-02-26\", \"Reason\": \"Cross-listing\", \"Delisted\": \"\", \"Delisted Reason\": \"\"}, {\"RFMO\": \"IOTC\", \"Status\": \"IUU Listed\", \"Date listed\": \"2019-12\", \"Reason\": \"Cross-listing\", \"Delisted\": \"\", \"Delisted Reason\": \"\"}, {\"RFMO\": \"SIOFA\", \"Status\": \"IUU Listed\", \"Date listed\": \"2019\", \"Reason\": \"Cross-listing\", \"Delisted\": \"\", \"Delisted Reason\": \"\"}, {\"RFMO\": \"GFCM\", \"Status\": \"IUU Listed\", \"Date listed\": \"2014-05\", \"Reason\": \"Cross-listing\", \"Delisted\": \"\", \"Delisted Reason\": \"\"}, {\"RFMO\": \"ICCAT\", \"Status\": \"IUU Listed\", \"Date listed\": \"2006-11-26\", \"Reason\": \"Vessels greater than 24m not included in ICCAT Record of Vessels. Seen fishing in the MED during closed season\", \"Delisted\": \"\", \"Delisted Reason\": \"\"}, {\"RFMO\": \"NEAFC\", \"Status\": \"IUU Listed\", \"Date listed\": \"2006-11\", \"Reason\": \"Cross-listing\", \"Delisted\": \"\", \"Delisted Reason\": \"\"}]", "Name": "NAJEM AL SHAMAL, ORIENTE NO. 7", "RFMO Vessel Name": "Oriente No. 7", "IMO Number": "8430586", "Reg. No.": "S.T.189", "Vessel Type": "Fishing Vessel", "Gear Type": "Longline", "Current Flag": "Libya", "IRCS": "5AWC", "MMSI No.": "642137027", "Gross Tonnage": "658.000", "Deadweight": "", "Length": "56.320, 56.300", "Depth": "3.750", "Year of Build": "199000", "Built in": "Kaohsiung, Lien Ho Shipbuilding Co., Ltd. - Kaohsiung, Chinese Taipei, Taiwan", "Current Owner": "Taisay Kosho Co Ltd", "Operator": "Taisay Kosho Co Ltd; AL FAJR AL MUNIR MARINE FISHING CO", "Last known position": "Agadir, Morocco / Canarias Sea", "Position date": "2026-05-01", "Status": "In Service/Commission", "Status Date": "2013-01-26", "Service Provider*": "", "CCSBT": "IUU Listed 2020-02-26 Cross-listing", "IOTC": "IUU Listed 2019-12 Cross-listing", "SIOFA": "IUU Listed 2019 Cross-listing", "GFCM": "IUU Listed 2014-05 Cross-listing", "ICCAT": "IUU Listed 2006-11-26 Vessels greater than 24m not included in ICCAT Record of Vessels. Seen fishing in the MED during closed season", "NEAFC": "IUU Listed 2006-11 Cross-listing", "Comments": "This vessel was originally Honduras flagged and owned by Honduras based company El Oriente S de RL, under the name ORIENTE NO. 7. This vessel was included in the ICCAT IUU list on 26 November 2006 for fishing in the Mediterranean during the closed season. Sources suggest this vessel was flagged to Libya, named AL FAJR AL MUNIR and under ownership of AL FAJR AL MUNIR MARINE FISHING CO at the time of IUU listing.", "page": "https://iuu-vessels.org/Vessel/GetVessel/44967d00-25c0-467b-b4ae-bc04ace29e0c", "placed at": "the place the list names, Agadir, Morocco, by OpenStreetMap's Nominatim (not a reported coordinate)"}}, {"type": "Feature", "geometry": {"type": "Point", "coordinates": [91.7254, 22.4675]}, "properties": {"Name History": "[{\"From\": \"2024-07-22\", \"To\": \"\", \"Name\": \"AN TON\"}, {\"From\": \"2023-04-09\", \"To\": \"2024-07-22\", \"Name\": \"WAN TONG\"}, {\"From\": \"2020-10-26\", \"To\": \"2023-04-09\", \"Name\": \"ZHONG FU HAO 111\"}, {\"From\": \"2015-01-01\", \"To\": \"2015-12-02\", \"Name\": \"PACIFIC\"}, {\"From\": \"2008-11\", \"To\": \"2015-01-01\", \"Name\": \"HUMBOLDT BAY, HUMBOLDTBAY\"}, {\"From\": \"1998-06\", \"To\": \"2008-11\", \"Name\": \"AMER WHITNEY\"}, {\"From\": \"1994-01\", \"To\": \"1998-06\", \"Name\": \"CALIFORNIAN REEFER\"}, {\"From\": \"\", \"To\": \"1994-01\", \"Name\": \"HUMBOLDT REX\"}]", "Flag History": "[{\"From\": \"2024-07\", \"To\": \"\", \"Flag\": \"Comoros\"}, {\"From\": \"2023-07-26\", \"To\": \"\", \"Flag\": \"Unknown\"}, {\"From\": \"2023-04-09\", \"To\": \"2023-07-26\", \"Flag\": \"Cameroon\"}, {\"From\": \"2020-10\", \"To\": \"2023-02\", \"Flag\": \"Panama\"}, {\"From\": \"2015-01-01\", \"To\": \"2015-12-02\", \"Flag\": \"Netherlands\"}, {\"From\": \"2007-10\", \"To\": \"2015-01-01\", \"Flag\": \"Liberia\"}, {\"From\": \"1998-06\", \"To\": \"2007-10\", \"Flag\": \"Cyprus\"}, {\"From\": \"\", \"To\": \"1998-06\", \"Flag\": \"Panama\"}]", "Owner History": "[{\"From\": \"2024-07-22\", \"To\": \"\", \"Owner\": \"Aries Navigation Ltd\"}, {\"From\": \"2024-02-12\", \"To\": \"2024-07-22\", \"Owner\": \"New Millennium Ocean Shipping Co Ltd\"}, {\"From\": \"2020-10-26\", \"To\": \"2024-02-12\", \"Owner\": \"Fuwantong Ocean Shipping Co Ltd\"}, {\"From\": \"2015-12-02\", \"To\": \"2020-10-26\", \"Owner\": \"Seatrade Groningen B.V. (Ow. Humboldt Bay Shipping Co)\"}, {\"From\": \"2015-12-02\", \"To\": \"2015-12-02\", \"Owner\": \"Humboldt Bay Shipping Company B.V. (FME)\"}, {\"From\": \"2015-12-02\", \"To\": \"2015-12-02\", \"Owner\": \"Humboldt Bay Shipping Company B.V. Foreign Maritime Entity\"}, {\"From\": \"2015-01-01\", \"To\": \"2015-12-02\", \"Owner\": \"CV Scheepvaartonderneming Pacific\"}, {\"From\": \"2008-11-19\", \"To\": \"2015-01-01\", \"Owner\": \"Humboldt Bay Shipping Co BV, Humboldt Bay Shipping Co NV\"}, {\"From\": \"2007-10-26\", \"To\": \"2008-11-19\", \"Owner\": \"Roseworthy Reefers Co Ltd\"}, {\"From\": \"\", \"To\": \"2007-10-26\", \"Owner\": \"Chacewater Shipping Ltd\"}]", "Operator History": "[{\"From\": \"2024-07-22\", \"To\": \"\", \"Operator\": \"Aries Navigation Ltd\"}, {\"From\": \"2015-12-02\", \"To\": \"\", \"Operator\": \"Seatrade Groningen B.V.\"}, {\"From\": \"2024-02-12\", \"To\": \"2024-07-22\", \"Operator\": \"Hai Ling Shipping (Hong Kong) Ltd\"}, {\"From\": \"2020-10-26\", \"To\": \"2024-02-12\", \"Operator\": \"Fuwantong Ocean Shipping Co Ltd\"}, {\"From\": \"2015-12-02\", \"To\": \"2015-12-02\", \"Operator\": \"Seatrade Groningen B.V. (Ow. Humboldt Bay Shipping Co)\"}, {\"From\": \"2008-11-19\", \"To\": \"2015-12-02\", \"Operator\": \"Seatrade Reefer Chartering N.V.; Seatrade Reefer Chartering NV\"}, {\"From\": \"2006-01-01\", \"To\": \"2008-11-19\", \"Operator\": \"Cool Carriers AB\"}, {\"From\": \"1998\", \"To\": \"2006-01-01\", \"Operator\": \"LauritzenCool AB\"}, {\"From\": \"\", \"To\": \"1998\", \"Operator\": \"Tohshin Kisen Co Ltd\"}]", "IRCS History": "[{\"From\": \"2024-07-22\", \"To\": \"\", \"IRCS\": \"D6A3582\"}, {\"From\": \"2023-04-09\", \"To\": \"2024-07-22\", \"IRCS\": \"TJM0159\"}, {\"From\": \"2020-10-26\", \"To\": \"2023-03-27\", \"IRCS\": \"HO4706\"}, {\"From\": \"2015-09-25\", \"To\": \"2015-01-01\", \"IRCS\": \"A8OL4\"}, {\"From\": \"\", \"To\": \"2015-12-02\", \"IRCS\": \"PGQI\"}]", "National Reg No": "[{\"From\": \"2024-07-22\", \"To\": \"\", \"Reg.No\": \"1301582\"}, {\"From\": \"2024-02-12\", \"To\": \"2024-07-22\", \"Reg.No\": \"K- 50/ IS/2023\"}, {\"From\": \"2022-12-13\", \"To\": \"\", \"Reg.No\": \"04-105-4880-238-779\"}, {\"From\": \"2021-09-07\", \"To\": \"\", \"Reg.No\": \"52241-21\"}, {\"From\": \"2020-10-26\", \"To\": \"2021-09-07\", \"Reg.No\": \"53112-PEXT\"}, {\"From\": \"\", \"To\": \"2020-10-26\", \"Reg.No\": \"13649\"}, {\"From\": \"2015-09-25\", \"To\": \"\", \"Reg.No\": \"242-09-NYC\"}, {\"From\": \"\", \"To\": \"2015-09-25\", \"Reg.No\": \"6124 ZG 1995\"}]", "RFMO History": "[{\"RFMO\": \"IOTC\", \"Status\": \"IUU Listed\", \"Date listed\": \"2024-05-23\", \"Reason\": \"Cross-listing\", \"Delisted\": \"\", \"Delisted Reason\": \"\"}, {\"RFMO\": \"NAFO\", \"Status\": \"IUU Listed\", \"Date listed\": \"2023-10-11\", \"Reason\": \"Cross-listing\", \"Delisted\": \"\", \"Delisted Reason\": \"\"}, {\"RFMO\": \"NPFC\", \"Status\": \"IUU Listed\", \"Date listed\": \"2023-07-26\", \"Reason\": \"This vessel was observed conducting unauthorized transshipment activities in the NPFC Convention Area on September 6, 2021.\", \"Delisted\": \"\", \"Delisted Reason\": \"\"}, {\"RFMO\": \"SIOFA\", \"Status\": \"IUU Listed\", \"Date listed\": \"2023-07-26\", \"Reason\": \"Cross-listing\", \"Delisted\": \"\", \"Delisted Reason\": \"\"}]", "Name": "AN TON", "RFMO Vessel Name": "", "IMO Number": "8907888", "Reg. No.": "1301582", "Vessel Type": "Cargo vessel, Fish carrier, Unknown", "Gear Type": "Unknown", "Current Flag": "Comoros", "IRCS": "D6A3582", "MMSI No.": "620999583", "Gross Tonnage": "10736.681, 9082.691, 5918.000, 9070.000, 12936.981, 17187.399", "Deadweight": "11633", "Length": "137.451, 141.898, 37.501, 133.920, 148.500, 148.520, 136.264, 152.166, 148.580, 140.400", "Depth": "12.800", "Year of Build": "199001", "Built in": "Toyohashi, Aichi, Netherlands, Japan", "Current Owner": "Aries Navigation Ltd", "Operator": "Seatrade Groningen B.V.; Aries Navigation Ltd", "Last known position": "Sonaichhari, Bangladesh", "Position date": "2024-08-06", "Status": "Broken Up", "Status Date": "2024-08-06", "Service Provider*": "", "NAFO": "IUU Listed 2023-10-11 Cross-listing", "NPFC": "IUU Listed 2023-07-26 This vessel was observed conducting unauthorized transshipment activities in the NPFC Convention Area on September 6, 2021.", "SIOFA": "IUU Listed 2023-07-26 Cross-listing", "Comments": "China and Bangladesh stated in the 2025 NPFC Compliance Committee meeting that this vessel has been scrapped. However, the vessel remained on the NPFC IUU list for 2025. , This vessel was observed conducting unauthorized transshipment activities in the NPFC Convention Area on 6 September 2021 and was subsequently included in the NPFC IUU Vessel list on 26 July 2023. This vessel held the name ZHONG FU HAO 111, Panama flag and was owned by Fuwantong Ocean Shipping Co Ltd at the time of IUU activity. Reports suggest the vessel has since renamed to WAN TONG then AN TON and reflagged to Cameroon followed by Comoros. This vessel has also undergone multiple ownership transfers since IUU listing.", "page": "https://iuu-vessels.org/Vessel/GetVessel/48423b07-311a-4e70-9205-5aa61f0aaf48", "placed at": "the place the list names, Sonaichhari, Bangladesh, by OpenStreetMap's Nominatim (not a reported coordinate)"}}, {"type": "Feature", "geometry": {"type": "Point", "coordinates": [121.4425, 37.4619]}, "properties": {"Name History": "[{\"From\": \"\", \"To\": \"\", \"Name\": \"YUANDA 8\"}]", "Flag History": "[{\"From\": \"\", \"To\": \"\", \"Flag\": \"China\"}]", "Owner History": "[]", "Operator History": "[]", "IRCS History": "[]", "National Reg No": "[]", "RFMO History": "[{\"RFMO\": \"NAFO\", \"Status\": \"IUU Listed\", \"Date listed\": \"2023-10-11\", \"Reason\": \"Cross-listing\", \"Delisted\": \"\", \"Delisted Reason\": \"\"}, {\"RFMO\": \"IOTC\", \"Status\": \"IUU Listed\", \"Date listed\": \"2021-06-09\", \"Reason\": \"Cross-listing\", \"Delisted\": \"\", \"Delisted Reason\": \"\"}, {\"RFMO\": \"SIOFA\", \"Status\": \"IUU Listed\", \"Date listed\": \"2020\", \"Reason\": \"Cross-listing\", \"Delisted\": \"\", \"Delisted Reason\": \"\"}, {\"RFMO\": \"NPFC\", \"Status\": \"IUU Listed\", \"Date listed\": \"2019\", \"Reason\": \"\", \"Delisted\": \"\", \"Delisted Reason\": \"\"}, {\"RFMO\": \"NEAFC\", \"Status\": \"IUU Listed\", \"Date listed\": \"2019\", \"Reason\": \"Cross-listing\", \"Delisted\": \"\", \"Delisted Reason\": \"\"}]", "Name": "YUANDA 8", "RFMO Vessel Name": "YUANDA 8", "IMO Number": "", "Reg. No.": "", "Vessel Type": "Fishing Vessel", "Gear Type": "", "Current Flag": "China", "IRCS": "", "MMSI No.": "412365486", "Gross Tonnage": "", "Deadweight": "", "Length": "", "Depth": "", "Year of Build": "", "Built in": "", "Current Owner": "", "Operator": "", "Last known position": "Yantai, China / Bohai Sea", "Position date": "2024-10-24", "Status": "", "Status Date": "", "Service Provider*": "", "IOTC": "IUU Listed 2021-06-09 Cross-listing", "SIOFA": "IUU Listed 2020 Cross-listing", "NPFC": "IUU Listed 2019", "NEAFC": "IUU Listed 2019 Cross-listing", "Comments": "A Japanese patrol vessel sighted this fishing vessel conducting fishing operations in the NPFC Convention area at 25˚46'02N, 147˚07'08E on April 15, 2019. This nameless vessel (assumed YUANDA 8 based on the vessel’s MMSI 412365486) was operating but raised a China flag and fled as the patrol vessel approached. Photographs of this vessel taken on sighting by patrol vessel suggest the vessels fishing gear had been cut. This vessel was included in the NPFC IUU List on 10 March 2020 for harvesting species covered by the Convention in the Convention Area without NPFC authorisation.", "page": "https://iuu-vessels.org/Vessel/GetVessel/4edadcf6-c1a6-4099-9c17-df7a1ec3e576", "placed at": "the place the list names, Yantai, China, by OpenStreetMap's Nominatim (not a reported coordinate)"}}, {"type": "Feature", "geometry": {"type": "Point", "coordinates": [124.0, 36.0]}, "properties": {"Name History": "[{\"From\": \"\", \"To\": \"\", \"Name\": \"ZHOU YU 653\"}]", "Flag History": "[]", "Owner History": "[]", "Operator History": "[]", "IRCS History": "[]", "National Reg No": "[]", "RFMO History": "[{\"RFMO\": \"NAFO\", \"Status\": \"IUU Listed\", \"Date listed\": \"2023-10-11\", \"Reason\": \"Cross-listing\", \"Delisted\": \"\", \"Delisted Reason\": \"\"}, {\"RFMO\": \"IOTC\", \"Status\": \"IUU Listed\", \"Date listed\": \"2019-12\", \"Reason\": \"Cross-listing\", \"Delisted\": \"\", \"Delisted Reason\": \"\"}, {\"RFMO\": \"SIOFA\", \"Status\": \"IUU Listed\", \"Date listed\": \"2019\", \"Reason\": \"Cross-listing\", \"Delisted\": \"\", \"Delisted Reason\": \"\"}, {\"RFMO\": \"NPFC\", \"Status\": \"IUU Listed\", \"Date listed\": \"2017-07\", \"Reason\": \"\", \"Delisted\": \"\", \"Delisted Reason\": \"\"}, {\"RFMO\": \"NEAFC\", \"Status\": \"IUU Listed\", \"Date listed\": \"2017\", \"Reason\": \"Cross-listing\", \"Delisted\": \"\", \"Delisted Reason\": \"\"}]", "Name": "ZHOU YU 653", "RFMO Vessel Name": "ZHOU YU 653", "IMO Number": "", "Reg. No.": "", "Vessel Type": "Fishing Vessel", "Gear Type": "Lift nets", "Current Flag": "", "IRCS": "", "MMSI No.": "412008003", "Gross Tonnage": "", "Deadweight": "", "Length": "", "Depth": "", "Year of Build": "", "Built in": "", "Current Owner": "", "Operator": "", "Last known position": "Yellow Sea", "Position date": "2024-04-30", "Status": "", "Status Date": "", "Service Provider*": "", "IOTC": "IUU Listed 2019-12 Cross-listing", "SIOFA": "IUU Listed 2019 Cross-listing", "NPFC": "IUU Listed 2017-07", "NEAFC": "IUU Listed 2017 Cross-listing", "Comments": "This vessel was sighted by a Japanese coast guard vessel operating with LU RONG YU YUN 56219 and ZHOU YU 656 at 42˚11.9'N, 151˚14.6'E on 30 Sep 2016. Photographs taken of the incident show this vessel displaying the port of Fungcheng. Communication between Japanese patrol vessel and LU RONG YU YUN 56219 indicated ZHOU YU 653 were transhipping 1500t of mackerel together with ZHOU YU 656. Vessel flag and ownership details are unknown. Due to this evidence, this vessel was included in the NPFC IUU List in July 2017. Sources show this vessel operates seasonally in international waters in the Northwest Indian Ocean from October to May and the Pacific Northwest for the remainder of the year.", "page": "https://iuu-vessels.org/Vessel/GetVessel/5738a88b-a3de-40d0-91c0-7a1b60c3a3ab", "placed at": "the place the list names, Yellow Sea, by OpenStreetMap's Nominatim (not a reported coordinate)"}}, {"type": "Feature", "geometry": {"type": "Point", "coordinates": [125.0, 29.0]}, "properties": {"Name History": "[{\"From\": \"\", \"To\": \"\", \"Name\": \"ZHEXIANG YU 23029\"}]", "Flag History": "[{\"From\": \"\", \"To\": \"\", \"Flag\": \"China\"}]", "Owner History": "[]", "Operator History": "[]", "IRCS History": "[]", "National Reg No": "[]", "RFMO History": "[{\"RFMO\": \"NAFO\", \"Status\": \"IUU Listed\", \"Date listed\": \"2023-10-11\", \"Reason\": \"Cross-listing\", \"Delisted\": \"\", \"Delisted Reason\": \"\"}, {\"RFMO\": \"IOTC\", \"Status\": \"IUU Listed\", \"Date listed\": \"2021-06-09\", \"Reason\": \"Cross-listing\", \"Delisted\": \"\", \"Delisted Reason\": \"\"}, {\"RFMO\": \"SIOFA\", \"Status\": \"IUU Listed\", \"Date listed\": \"2020\", \"Reason\": \"Cross-listing\", \"Delisted\": \"\", \"Delisted Reason\": \"\"}, {\"RFMO\": \"NPFC\", \"Status\": \"IUU Listed\", \"Date listed\": \"2019\", \"Reason\": \"Japanese patrol vessel sighted this fishing vessel in the Convention area at 25°42'03N, 147°11'02E on April 15, 2019. This vessel apparently had just finished as the gear was wet. the vessel name, which was not registered on the NPFC vessel registry\", \"Delisted\": \"\", \"Delisted Reason\": \"\"}, {\"RFMO\": \"NEAFC\", \"Status\": \"IUU Listed\", \"Date listed\": \"2019\", \"Reason\": \"Cross-listing\", \"Delisted\": \"\", \"Delisted Reason\": \"\"}]", "Name": "ZHEXIANG YU 23029", "RFMO Vessel Name": "ZHEXIANG YU 23029", "IMO Number": "", "Reg. No.": "", "Vessel Type": "Fishing Vessel", "Gear Type": "", "Current Flag": "China", "IRCS": "", "MMSI No.": "412123526", "Gross Tonnage": "", "Deadweight": "", "Length": "", "Depth": "", "Year of Build": "", "Built in": "", "Current Owner": "", "Operator": "", "Last known position": "East China Sea", "Position date": "2024-08-01", "Status": "", "Status Date": "", "Service Provider*": "", "IOTC": "IUU Listed 2021-06-09 Cross-listing", "SIOFA": "IUU Listed 2020 Cross-listing", "NPFC": "IUU Listed 2019 Japanese patrol vessel sighted this fishing vessel in the Convention area at 25°42'03N, 147°11'02E on April 15, 2019. This vessel apparently had just finished as the gear was wet. the vessel name, which was not registered on the NPFC vessel registry", "NEAFC": "IUU Listed 2019 Cross-listing", "Comments": "A Japanese patrol vessel sighted this fishing vessel in the Convention area at 25˚42'03N, 147˚11'02E on April 15, 2019. This vessel apparently had just finished as the gear was wet. the vessel name, which was not registered on the NPFC vessel registry, was erased deliberately. MMSI 412123526", "page": "https://iuu-vessels.org/Vessel/GetVessel/67bb61c8-59cb-4920-85c3-76b0511ea3db", "placed at": "the place the list names, East China Sea, by OpenStreetMap's Nominatim (not a reported coordinate)"}}, {"type": "Feature", "geometry": {"type": "Point", "coordinates": [103.8519, 1.2899]}, "properties": {"Name History": "[{\"From\": \"2017-01-12\", \"To\": \"\", \"Name\": \"LU RONG YUAN YU 810, LURONGYUANYU810\"}, {\"From\": \"\", \"To\": \"2017-01-12\", \"Name\": \"LU RONG YUAN YU 101, LU RONG YUAN YU 101, LURONGYUANYU101\"}]", "Flag History": "[{\"From\": \"\", \"To\": \"\", \"Flag\": \"China\"}]", "Owner History": "[{\"From\": \"\", \"To\": \"\", \"Owner\": \"Shandong Lanyue Ocean Fishery Co Ltd\"}]", "Operator History": "[{\"From\": \"\", \"To\": \"\", \"Operator\": \"Shandong Lanyue Ocean Fishery Co Ltd\"}]", "IRCS History": "[{\"From\": \"\", \"To\": \"\", \"IRCS\": \"BBCI1\"}]", "National Reg No": "[{\"From\": \"2018-02-05\", \"To\": \"\", \"Reg.No\": \"3710822013040018\"}, {\"From\": \"\", \"To\": \"\", \"Reg.No\": \"(LU)CHUANDENG(JI)(2017)FT-200114\"}]", "RFMO History": "[{\"RFMO\": \"IOTC\", \"Status\": \"IUU Listed\", \"Date listed\": \"2019-12\", \"Reason\": \"Cross-listing\", \"Delisted\": \"\", \"Delisted Reason\": \"\"}, {\"RFMO\": \"SIOFA\", \"Status\": \"IUU Listed\", \"Date listed\": \"2019\", \"Reason\": \"Cross-listing\", \"Delisted\": \"\", \"Delisted Reason\": \"\"}, {\"RFMO\": \"NPFC\", \"Status\": \"IUU Listed\", \"Date listed\": \"2018-01\", \"Reason\": \"\", \"Delisted\": \"\", \"Delisted Reason\": \"\"}]", "Name": "LU RONG YUAN YU 810, LURONGYUANYU810", "RFMO Vessel Name": "", "IMO Number": "8798093", "Reg. No.": "(LU)CHUANDENG(JI)(2017)FT-200114, 3710822013040018", "Vessel Type": "Fishing Vessel, Unknown", "Gear Type": "Trawl unspecified, Purse seine", "Current Flag": "China", "IRCS": "BBCI1", "MMSI No.": "412333743", "Gross Tonnage": "800.000, 651.000", "Deadweight": "", "Length": "49.560", "Depth": "4.200", "Year of Build": "201304", "Built in": "China, People's Republic Of", "Current Owner": "Shandong Lanyue Ocean Fishery Co Ltd", "Operator": "Shandong Lanyue Ocean Fishery Co Ltd", "Last known position": "Singapore, Singapore / Singapore Strait", "Position date": "2024-09-11", "Status": "In Service/Commission", "Status Date": "2013-04-07", "Service Provider*": "", "SIOFA": "IUU Listed 2019 Cross-listing", "NPFC": "IUU Listed 2018-01", "Comments": "Two different vessels using the name LU RONG YUAN YU 101 were sighted in the NPFC area. NPFC considers any vessel using that name to be IUU. The trawler with this name that was IUU listed by NPFC is a match on name and MMSI to the previous identity of IMO 8798093, and the photo of the IUU listed vessel also appears to be a match for available photos of IMO 8798093", "page": "https://iuu-vessels.org/Vessel/GetVessel/6a80d871-b5b6-4f14-a461-f12320a92542", "placed at": "the place the list names, Singapore, Singapore, by OpenStreetMap's Nominatim (not a reported coordinate)"}}, {"type": "Feature", "geometry": {"type": "Point", "coordinates": [119.6054, 24.4917]}, "properties": {"Name History": "[{\"From\": \"\", \"To\": \"\", \"Name\": \"ZHOU YU 651, ZHOUYU651\"}]", "Flag History": "[]", "Owner History": "[]", "Operator History": "[]", "IRCS History": "[]", "National Reg No": "[]", "RFMO History": "[{\"RFMO\": \"NAFO\", \"Status\": \"IUU Listed\", \"Date listed\": \"2023-10-11\", \"Reason\": \"Cross-listing\", \"Delisted\": \"\", \"Delisted Reason\": \"\"}, {\"RFMO\": \"IOTC\", \"Status\": \"IUU Listed\", \"Date listed\": \"2019-12\", \"Reason\": \"Cross-listing\", \"Delisted\": \"\", \"Delisted Reason\": \"\"}, {\"RFMO\": \"SIOFA\", \"Status\": \"IUU Listed\", \"Date listed\": \"2019\", \"Reason\": \"Cross-listing\", \"Delisted\": \"\", \"Delisted Reason\": \"\"}, {\"RFMO\": \"NEAFC\", \"Status\": \"IUU Listed\", \"Date listed\": \"2017-07\", \"Reason\": \"Cross-listing\", \"Delisted\": \"\", \"Delisted Reason\": \"\"}, {\"RFMO\": \"NPFC\", \"Status\": \"IUU Listed\", \"Date listed\": \"2017-07\", \"Reason\": \"\", \"Delisted\": \"\", \"Delisted Reason\": \"\"}]", "Name": "ZHOU YU 651, ZHOUYU651", "RFMO Vessel Name": "ZHOU YU 651", "IMO Number": "", "Reg. No.": "", "Vessel Type": "Fishing Vessel", "Gear Type": "Lift nets", "Current Flag": "", "IRCS": "", "MMSI No.": "412658989", "Gross Tonnage": "", "Deadweight": "", "Length": "", "Depth": "", "Year of Build": "", "Built in": "", "Current Owner": "", "Operator": "", "Last known position": "Taiwan Strait", "Position date": "2024-09-20", "Status": "", "Status Date": "", "Service Provider*": "", "IOTC": "IUU Listed 2019-12 Cross-listing", "SIOFA": "IUU Listed 2019 Cross-listing", "NEAFC": "IUU Listed 2017-07 Cross-listing", "NPFC": "IUU Listed 2017-07", "Comments": "This vessel was sighted by a Japanese coast guard vessel operating at 42˚30'2N, 152˚05'4E on 29 Sep 2016. Photographs of the sighting show this vessel was displaying the port Fungcheng. Vessel flag and ownership details are unknown. Due to this evidence, this vessel was included in the NPFC IUU List in July 2017.", "page": "https://iuu-vessels.org/Vessel/GetVessel/6c0b1406-0def-43b2-a456-334d162dafaa", "placed at": "the place the list names, Taiwan Strait, by OpenStreetMap's Nominatim (not a reported coordinate)"}}, {"type": "Feature", "geometry": {"type": "Point", "coordinates": [117.9647, 37.3821]}, "properties": {"Name History": "[{\"From\": \"\", \"To\": \"\", \"Name\": \"LU RONG YUAN YU 103, LURONGYUANYU103\"}]", "Flag History": "[{\"From\": \"\", \"To\": \"\", \"Flag\": \"China\"}]", "Owner History": "[]", "Operator History": "[]", "IRCS History": "[]", "National Reg No": "[]", "RFMO History": "[{\"RFMO\": \"IOTC\", \"Status\": \"IUU Listed\", \"Date listed\": \"2019-12\", \"Reason\": \"Cross-listing\", \"Delisted\": \"\", \"Delisted Reason\": \"\"}, {\"RFMO\": \"NEAFC\", \"Status\": \"IUU Listed\", \"Date listed\": \"2019\", \"Reason\": \"Cross-listing\", \"Delisted\": \"\", \"Delisted Reason\": \"\"}, {\"RFMO\": \"SIOFA\", \"Status\": \"IUU Listed\", \"Date listed\": \"2019\", \"Reason\": \"Cross-listing\", \"Delisted\": \"\", \"Delisted Reason\": \"\"}, {\"RFMO\": \"NPFC\", \"Status\": \"IUU Listed\", \"Date listed\": \"2018-01\", \"Reason\": \"\", \"Delisted\": \"\", \"Delisted Reason\": \"\"}]", "Name": "LU RONG YUAN YU 103, LURONGYUANYU103", "RFMO Vessel Name": "LU RONG YUAN YU 103", "IMO Number": "", "Reg. No.": "", "Vessel Type": "Unknown, Fishing Vessel", "Gear Type": "Trawl unspecified", "Current Flag": "China", "IRCS": "", "MMSI No.": "412328751", "Gross Tonnage": "651.000", "Deadweight": "", "Length": "", "Depth": "", "Year of Build": "", "Built in": "", "Current Owner": "", "Operator": "", "Last known position": "Binzhou, China", "Position date": "2023-08-30", "Status": "", "Status Date": "", "Service Provider*": "", "NEAFC": "IUU Listed 2019 Cross-listing", "SIOFA": "IUU Listed 2019 Cross-listing", "NPFC": "IUU Listed 2018-01", "Comments": "While LU RONG YUAN YU 103 is registered as a purse seine vessel in the NPFC list, two vessels with different vessel types were seen in the NPFC Convention Area using this name. LU RONG YUAN YU 103 was seen at 40˚25.9'N, 150˚ 9.9'E on 1 June 2016 using lift nets. LU RONG YUAN YU 103 was seen at 37˚59.9'N, 145˚58.5'E on 20 May 2016 trawl fishing. Images show port of Shidao displayed on the vessels. This vessel was included in the NPFC IUU list on 13 November 2017.", "page": "https://iuu-vessels.org/Vessel/GetVessel/700ed5d1-c891-4248-8815-1b2b8af7f9c9", "placed at": "the place the list names, Binzhou, China, by OpenStreetMap's Nominatim (not a reported coordinate)"}}, {"type": "Feature", "geometry": {"type": "Point", "coordinates": [65.0, 20.0]}, "properties": {"Name History": "[{\"From\": \"2025-12-29\", \"To\": \"\", \"Name\": \"XING FA\"}, {\"From\": \"2025-06-09\", \"To\": \"2025-12-29\", \"Name\": \"FENG HAI\"}, {\"From\": \"2023-08\", \"To\": \"2025-06-09\", \"Name\": \"XIANG HAI\"}, {\"From\": \"2022-11-07\", \"To\": \"2023-08\", \"Name\": \"J. SHORE, J SHORE\"}, {\"From\": \"2019-06-17\", \"To\": \"2022-11-07\", \"Name\": \"XING TONG YOU 59\"}, {\"From\": \"\", \"To\": \"2019-06-17\", \"Name\": \"DONG CHENG YOU 10\"}]", "Flag History": "[{\"From\": \"2025-10\", \"To\": \"\", \"Flag\": \"Sao Tome and Principe\"}, {\"From\": \"2023-07\", \"To\": \"2023-07\", \"Flag\": \"Belize\"}, {\"From\": \"2022-09\", \"To\": \"2023-07\", \"Flag\": \"Sierra Leone\"}, {\"From\": \"2018-01\", \"To\": \"2022-09\", \"Flag\": \"China\"}, {\"From\": \"\", \"To\": \"2023-08\", \"Flag\": \"Sierra Leone\"}]", "Owner History": "[{\"From\": \"2025-12-29\", \"To\": \"\", \"Owner\": \"Gold Charm International Enterprise Ltd\"}, {\"From\": \"2025-10-01\", \"To\": \"\", \"Owner\": \"Redbay Trade International Co Ltd\"}, {\"From\": \"2025-06-09\", \"To\": \"2025-10-01\", \"Owner\": \"Hongkong Qun Xun Shipping Ltd\"}, {\"From\": \"2023-10-02\", \"To\": \"2025-06-09\", \"Owner\": \"Hong Kong Shengzhongfa International Logistics Co Ltd\"}, {\"From\": \"2022-11-07\", \"To\": \"2023-10-02\", \"Owner\": \"Hong Yao International Trading Co Ltd\"}, {\"From\": \"\", \"To\": \"2022-11-07\", \"Owner\": \"Xingtong Shipping Co Ltd\"}]", "Operator History": "[{\"From\": \"2025-12-29\", \"To\": \"\", \"Operator\": \"Gold Charm International Enterprise Ltd\"}, {\"From\": \"2025-06-09\", \"To\": \"2025-12-29\", \"Operator\": \"Hongkong Qun Xun Shipping Ltd\"}, {\"From\": \"2023-10-02\", \"To\": \"2025-06-09\", \"Operator\": \"Sailing Ocean Int'l Shipping Management Co Ltd\"}, {\"From\": \"2022-11-07\", \"To\": \"2023-10-02\", \"Operator\": \"Hong Yao International Trading Co Ltd\"}, {\"From\": \"\", \"To\": \"2022-11-07\", \"Operator\": \"Xingtong Shipping Co Ltd\"}]", "IRCS History": "[{\"From\": \"2025-12-29\", \"To\": \"\", \"IRCS\": \"S9Z6\"}, {\"From\": \"2025-06-09\", \"To\": \"2025-12-29\", \"IRCS\": \"9LU2933\"}, {\"From\": \"2023-08\", \"To\": \"2025-06-09\", \"IRCS\": \"V3JI\"}, {\"From\": \"2022-11-07\", \"To\": \"2023-08\", \"IRCS\": \"9LU2933\"}, {\"From\": \"\", \"To\": \"2022-11-07\", \"IRCS\": \"BVDB5\"}]", "National Reg No": "[{\"From\": \"2025-12-29\", \"To\": \"\", \"Reg.No\": \"010120125023\"}, {\"From\": \"2025-06-09\", \"To\": \"2025-12-29\", \"Reg.No\": \"SLR10920\"}, {\"From\": \"2023-08\", \"To\": \"2025-06-09\", \"Reg.No\": \"852320015\"}, {\"From\": \"2022-11-07\", \"To\": \"2023-08\", \"Reg.No\": \"SLR10920\"}, {\"From\": \"\", \"To\": \"2022-11-07\", \"Reg.No\": \"CN20026982451\"}]", "RFMO History": "[{\"RFMO\": \"CCSBT\", \"Status\": \"IUU Listed\", \"Date listed\": \"2026-05-25\", \"Reason\": \"Cross-listing\", \"Delisted\": \"\", \"Delisted Reason\": \"\"}, {\"RFMO\": \"SIOFA\", \"Status\": \"IUU Listed\", \"Date listed\": \"2026-05-15\", \"Reason\": \"Cross-listing\", \"Delisted\": \"\", \"Delisted Reason\": \"\"}, {\"RFMO\": \"SPRFMO\", \"Status\": \"IUU Listed\", \"Date listed\": \"2026-03-02\", \"Reason\": \"Unauthorised bunkering\", \"Delisted\": \"\", \"Delisted Reason\": \"\"}]", "Name": "XING FA", "RFMO Vessel Name": "", "IMO Number": "8550740", "Reg. No.": "010120125023", "Vessel Type": "Chemical/Products Tanker, Chemical Tanker, Tanker", "Gear Type": "Unknown", "Current Flag": "Sao Tome and Principe", "IRCS": "S9Z6", "MMSI No.": "668116259", "Gross Tonnage": "4237.000", "Deadweight": "6988", "Length": "114.500", "Depth": "8.200", "Year of Build": "200307", "Built in": "China, People's Republic Of, CHINA", "Current Owner": "Redbay Trade International Co Ltd; Gold Charm International Enterprise Ltd", "Operator": "Gold Charm International Enterprise Ltd", "Last known position": "Arabian Sea", "Position date": "2026-01-03", "Status": "Broken Up", "Status Date": "2026-03-06", "Service Provider*": "", "SIOFA": "IUU Listed 2026-05-15 Cross-listing", "SPRFMO": "IUU Listed 2026-03-02 Unauthorised bunkering", "page": "https://iuu-vessels.org/Vessel/GetVessel/76cebabf-1072-4057-9d9a-5fd9884446ba", "placed at": "the place the list names, Arabian Sea, by OpenStreetMap's Nominatim (not a reported coordinate)"}}, {"type": "Feature", "geometry": {"type": "Point", "coordinates": [99.8395, 10.0922]}, "properties": {"Name History": "[{\"From\": \"\", \"To\": \"\", \"Name\": \"CHOTCHAINAVEE 35\"}]", "Flag History": "[{\"From\": \"2017-02-02\", \"To\": \"\", \"Flag\": \"Thailand\"}, {\"From\": \"\", \"To\": \"\", \"Flag\": \"Djibouti\"}]", "Owner History": "[{\"From\": \"\", \"To\": \"\", \"Owner\": \"Green Laurel International SARL\"}]", "Operator History": "[]", "IRCS History": "[]", "National Reg No": "[]", "RFMO History": "[{\"RFMO\": \"GFCM\", \"Status\": \"IUU Listed\", \"Date listed\": \"2023-11-10\", \"Reason\": \"Cross-listing\", \"Delisted\": \"\", \"Delisted Reason\": \"\"}, {\"RFMO\": \"NAFO\", \"Status\": \"IUU Listed\", \"Date listed\": \"2023-10-11\", \"Reason\": \"Cross-listing\", \"Delisted\": \"\", \"Delisted Reason\": \"\"}, {\"RFMO\": \"CCSBT\", \"Status\": \"IUU Listed\", \"Date listed\": \"2020-02-26\", \"Reason\": \"Cross-listing\", \"Delisted\": \"\", \"Delisted Reason\": \"\"}, {\"RFMO\": \"SIOFA\", \"Status\": \"IUU Listed\", \"Date listed\": \"2020\", \"Reason\": \"Cross-listing\", \"Delisted\": \"\", \"Delisted Reason\": \"\"}, {\"RFMO\": \"ICCAT\", \"Status\": \"IUU Listed\", \"Date listed\": \"2019-06-01\", \"Reason\": \"Cross-listing\", \"Delisted\": \"\", \"Delisted Reason\": \"\"}, {\"RFMO\": \"IOTC\", \"Status\": \"IUU Listed\", \"Date listed\": \"2019-06\", \"Reason\": \"\", \"Delisted\": \"\", \"Delisted Reason\": \"\"}, {\"RFMO\": \"NEAFC\", \"Status\": \"IUU Listed\", \"Date listed\": \"2019-06\", \"Reason\": \"Cross-listing\", \"Delisted\": \"\", \"Delisted Reason\": \"\"}]", "Name": "CHOTCHAINAVEE 35", "RFMO Vessel Name": "CHOTCHAINAVEE 35", "IMO Number": "", "Reg. No.": "", "Vessel Type": "Fishing Vessel, Trawler", "Gear Type": "Trawls", "Current Flag": "", "IRCS": "", "MMSI No.": "567000035", "Gross Tonnage": "", "Deadweight": "", "Length": "", "Depth": "", "Year of Build": "", "Built in": "", "Current Owner": "Green Laurel International SARL", "Operator": "", "Last known position": "Ko Tao, Thailand / Gulf Of Thailand", "Position date": "2026-09-26", "Status": "", "Status Date": "", "Service Provider*": "", "NAFO": "IUU Listed 2023-10-11 Cross-listing", "CCSBT": "IUU Listed 2020-02-26 Cross-listing", "SIOFA": "IUU Listed 2020 Cross-listing", "ICCAT": "IUU Listed 2019-06-01 Cross-listing", "IOTC": "IUU Listed 2019-06", "NEAFC": "IUU Listed 2019-06 Cross-listing", "Comments": "This vessel was added to the IOTC and ICCAT IUU Lists in June 2019 due to its involvement in IUU fishing in Somalia and vessel identification fraud. This vessels flag history and other vessel details are unclear. Through January-February 2017, this vessel was identified on AIS, alongside 5 other vessels, transiting through the Indian Ocean on course to Djibouti and Puntland. Throughout this voyage, all 6 vessels shifted between displaying Thailand and Djibouti details on AIS. AIS data shows this vessel displaying a Thailand flag on 2 February 2017. Other sources suggest all 6 vessels were Djibouti flagged in the first quarter of 2017. All 6 vessels, including CHOTCHAINAVEE 35 were observed on AIS trawl fishing within the Somalia EEZ between March and May 2017. Trawl fishing was prohibited by Somali law and Puntland at the time. The CHOTCHAINAVEE 35 left the Somali EEZ mid-April 2017, arrived in Samut Sakhon, Thailand, on 6 May 2017 and was subsequently detained and inspected. Inspections found vessel with double the catch limit of 270,000 kg of fish and had no VMS system onboard. This vessel possessed a Puntland fishing license but had no authorisation to fish by the Somali government. This vessel was owned by Thai company Green Laurel International SARL and beneficially owned by SVG Fisheries Development at the time of compliance issues. Due to an inability of this vessels owner to provide clear evidence to show the catch onboard this vessel was obtained legally, Thailand’s criminal court found this vessel and its owners guilty of illegal fishing in Somalia and issued a $16 million fine. These legal proceedings also uncovered operational and ownership connections between this vessel and 2 others, CHOTPATTANA 51 and 55. This vessel had its Djibouti flag revoked on 1 June 2017, thus was stateless when compliance issues occurred in 2017. Sources indicate this vessel may have reflagged to Somalia in February 2018.", "page": "https://iuu-vessels.org/Vessel/GetVessel/7f4369ce-7c47-46a5-82a2-51cf8805c5af", "placed at": "the place the list names, Ko Tao, Thailand, by OpenStreetMap's Nominatim (not a reported coordinate)"}}, {"type": "Feature", "geometry": {"type": "Point", "coordinates": [111.7831, 22.0958]}, "properties": {"Name History": "[{\"From\": \"\", \"To\": \"\", \"Name\": \"YUANDA 6\"}]", "Flag History": "[{\"From\": \"\", \"To\": \"\", \"Flag\": \"China\"}]", "Owner History": "[]", "Operator History": "[]", "IRCS History": "[]", "National Reg No": "[]", "RFMO History": "[{\"RFMO\": \"NAFO\", \"Status\": \"IUU Listed\", \"Date listed\": \"2023-10-11\", \"Reason\": \"Cross-listing\", \"Delisted\": \"\", \"Delisted Reason\": \"\"}, {\"RFMO\": \"IOTC\", \"Status\": \"IUU Listed\", \"Date listed\": \"2021-06-09\", \"Reason\": \"Cross-listing\", \"Delisted\": \"\", \"Delisted Reason\": \"\"}, {\"RFMO\": \"SIOFA\", \"Status\": \"IUU Listed\", \"Date listed\": \"2020\", \"Reason\": \"Cross-listing\", \"Delisted\": \"\", \"Delisted Reason\": \"\"}, {\"RFMO\": \"NEAFC\", \"Status\": \"IUU Listed\", \"Date listed\": \"2019\", \"Reason\": \"Cross-listing\", \"Delisted\": \"\", \"Delisted Reason\": \"\"}, {\"RFMO\": \"NPFC\", \"Status\": \"IUU Listed\", \"Date listed\": \"2019\", \"Reason\": \"A Japanese patrol vessel sighted this vessel conducting fishing operation in the Convention area at 25°45'9N, 147°07'06E on April 15, 2019. This nameless vessel (assumed “YUANDA6” from the vessel’s MMSI 412356488) was operating and running away\", \"Delisted\": \"\", \"Delisted Reason\": \"\"}]", "Name": "YUANDA 6", "RFMO Vessel Name": "YUANDA 6", "IMO Number": "", "Reg. No.": "", "Vessel Type": "Fishing Vessel", "Gear Type": "", "Current Flag": "China", "IRCS": "", "MMSI No.": "412356488", "Gross Tonnage": "", "Deadweight": "", "Length": "", "Depth": "", "Year of Build": "", "Built in": "", "Current Owner": "", "Operator": "", "Last known position": "Yangjiang, China / South China Sea", "Position date": "2023-08-09", "Status": "", "Status Date": "", "Service Provider*": "", "IOTC": "IUU Listed 2021-06-09 Cross-listing", "SIOFA": "IUU Listed 2020 Cross-listing", "NEAFC": "IUU Listed 2019 Cross-listing", "NPFC": "IUU Listed 2019 A Japanese patrol vessel sighted this vessel conducting fishing operation in the Convention area at 25°45'9N, 147°07'06E on April 15, 2019. This nameless vessel (assumed “YUANDA6” from the vessel’s MMSI 412356488) was operating and running away", "Comments": "A Japanese patrol vessel sighted this vessel conducting fishing operations in the NPFC Convention area at 25˚45'9N, 147˚07'06E on April 15, 2019. This nameless vessel (assumed to be YUANDA 6 based on the vessel’s MMSI 412356488) raised a China flag and fled as the Japanese patrol vessel approached. Owner and operator of this vessel is unknown at and from the time of IUU activity. This vessel was included in the NPFC IUU List on 10 March 2020 for harvesting species covered by the Convention in the Convention Area without NPFC authorisation.", "page": "https://iuu-vessels.org/Vessel/GetVessel/806c10d7-e042-425b-908a-60ce6d414202", "placed at": "the place the list names, Yangjiang, China, by OpenStreetMap's Nominatim (not a reported coordinate)"}}, {"type": "Feature", "geometry": {"type": "Point", "coordinates": [122.1153, 37.5121]}, "properties": {"Name History": "[{\"From\": \"2017-01-01\", \"To\": \"\", \"Name\": \"LU RONG YUAN YU 815\"}, {\"From\": \"\", \"To\": \"2017-01-01\", \"Name\": \"LU RONG YUAN YU 106, LU RONG YUAN YU 106, LURONGYUANYU106\"}]", "Flag History": "[{\"From\": \"\", \"To\": \"\", \"Flag\": \"China\"}]", "Owner History": "[{\"From\": \"2018-03-12\", \"To\": \"\", \"Owner\": \"Shandong Lanyue Ocean Fishery Co Ltd\"}, {\"From\": \"\", \"To\": \"2018-03-12\", \"Owner\": \"BLUE OCEAN FISHERY(PVT)LTD\"}]", "Operator History": "[{\"From\": \"\", \"To\": \"\", \"Operator\": \"Shandong Lanyue Ocean Fishery Co Ltd\"}]", "IRCS History": "[{\"From\": \"\", \"To\": \"\", \"IRCS\": \"BBFB6\"}]", "National Reg No": "[{\"From\": \"2018-03-12\", \"To\": \"\", \"Reg.No\": \"3710822013040012\"}, {\"From\": \"\", \"To\": \"\", \"Reg.No\": \"(LU)CHUANDENG(JI)(2017)FT-200112\"}]", "RFMO History": "[{\"RFMO\": \"NAFO\", \"Status\": \"IUU Listed\", \"Date listed\": \"2023-10-11\", \"Reason\": \"Cross-listing\", \"Delisted\": \"\", \"Delisted Reason\": \"\"}, {\"RFMO\": \"IOTC\", \"Status\": \"IUU Listed\", \"Date listed\": \"2019-12\", \"Reason\": \"Cross-listing\", \"Delisted\": \"\", \"Delisted Reason\": \"\"}, {\"RFMO\": \"NEAFC\", \"Status\": \"IUU Listed\", \"Date listed\": \"2019\", \"Reason\": \"Cross-listing\", \"Delisted\": \"\", \"Delisted Reason\": \"\"}, {\"RFMO\": \"SIOFA\", \"Status\": \"IUU Listed\", \"Date listed\": \"2019\", \"Reason\": \"Cross-listing\", \"Delisted\": \"\", \"Delisted Reason\": \"\"}, {\"RFMO\": \"NPFC\", \"Status\": \"IUU Listed\", \"Date listed\": \"2018-01\", \"Reason\": \"\", \"Delisted\": \"\", \"Delisted Reason\": \"\"}]", "Name": "LU RONG YUAN YU 815", "RFMO Vessel Name": "LU RONG YUAN YU 106", "IMO Number": "8799932", "Reg. No.": "(LU)CHUANDENG(JI)(2017)FT-200112, 3710822013040012", "Vessel Type": "Fishing Vessel, Unknown", "Gear Type": "Purse seine, Trawl unspecified", "Current Flag": "China", "IRCS": "BBFB6", "MMSI No.": "412328748", "Gross Tonnage": "651.000", "Deadweight": "", "Length": "49.500, 49.560", "Depth": "4.200", "Year of Build": "201304", "Built in": "China, People's Republic Of", "Current Owner": "Shandong Lanyue Ocean Fishery Co Ltd", "Operator": "Shandong Lanyue Ocean Fishery Co Ltd", "Last known position": "Weihai, China / Yellow Sea", "Position date": "2024-07-30", "Status": "In Service/Commission", "Status Date": "2013-04-29", "Service Provider*": "", "IOTC": "IUU Listed 2019-12 Cross-listing", "NEAFC": "IUU Listed 2019 Cross-listing", "SIOFA": "IUU Listed 2019 Cross-listing", "NPFC": "IUU Listed 2018-01", "Comments": "While LU RONG YUAN YU 106 is registered as one purse seine vessel in the NPFC list, two vessels with the identical name but different vessel types were seen operating in the NPFC Convention Area. LU RONG YUAN YU 106 was seen at 40˚30.4'N, 149˚ 34'E on 29 May 2016 operating lift nets. LU RONG YUAN YU 106 was seen at 40˚17.6'N, 148˚33'E on the same day operating stern trawl. The two fishing vessels with duplicate names LU RONG YUAN YU 106 were also seen transhipping with a carrier vessel MIN FU DING YU LENG 08888 at 42˚16.4'N, 151˚21.4'E on 8 October 2016. Images show Port of Shidao displayed on the vessels. This vessel was included in the NPFC IUU list on 13 November 2017. NPFC considers any vessel using the name LU RONG YUAN YU 106 to be operating illegally. The trawler with this name that was IUU listed by NPFC is a match on name and MMSI to the previous identity of IMO 8799932, and the photo of the IUU listed vessel also appears to be a match for available photos of IMO 8799932", "page": "https://iuu-vessels.org/Vessel/GetVessel/9214ba84-adf7-4f93-836e-3cd637fcec60", "placed at": "the place the list names, Weihai, China, by OpenStreetMap's Nominatim (not a reported coordinate)"}}, {"type": "Feature", "geometry": {"type": "Point", "coordinates": [79.9834, 6.4756]}, "properties": {"Name History": "[{\"From\": \"\", \"To\": \"\", \"Name\": \"HAMBAN TOTA EXPRESS\"}]", "Flag History": "[{\"From\": \"\", \"To\": \"\", \"Flag\": \"Sri Lanka\"}]", "Owner History": "[{\"From\": \"2021-05-05\", \"To\": \"\", \"Owner\": \"M MILHAN, m.milhan\"}, {\"From\": \"2023-12-04\", \"To\": \"\", \"Owner\": \"Rptd Sold Sri Lanka\"}, {\"From\": \"\", \"To\": \"2021-05-05\", \"Owner\": \"1. DIRECTOR GENERAL, DPT OF FISHERIES AND AQUATIC RESOURCES 2.M MILHAN\"}]", "Operator History": "[{\"From\": \"2023-12-04\", \"To\": \"\", \"Operator\": \"Rptd Sold Sri Lanka\"}, {\"From\": \"\", \"To\": \"\", \"Operator\": \"M MILHAN, m.milhan\"}]", "IRCS History": "[{\"From\": \"\", \"To\": \"\", \"IRCS\": \"4SF5385\"}]", "National Reg No": "[{\"From\": \"\", \"To\": \"\", \"Reg.No\": \"IMULA1053TLE\"}]", "RFMO History": "[{\"RFMO\": \"NAFO\", \"Status\": \"IUU Listed\", \"Date listed\": \"2024-11-06\", \"Reason\": \"Cross-listing\", \"Delisted\": \"\", \"Delisted Reason\": \"\"}, {\"RFMO\": \"ICCAT\", \"Status\": \"IUU Listed\", \"Date listed\": \"2024-07-27\", \"Reason\": \"Cross-listing\", \"Delisted\": \"\", \"Delisted Reason\": \"\"}, {\"RFMO\": \"CCSBT\", \"Status\": \"IUU Listed\", \"Date listed\": \"2024-07-25\", \"Reason\": \"Cross-listing\", \"Delisted\": \"\", \"Delisted Reason\": \"\"}, {\"RFMO\": \"SIOFA\", \"Status\": \"IUU Listed\", \"Date listed\": \"2024-06-27\", \"Reason\": \"Cross-listing\", \"Delisted\": \"\", \"Delisted Reason\": \"\"}, {\"RFMO\": \"NEAFC\", \"Status\": \"IUU Listed\", \"Date listed\": \"2024-06-06\", \"Reason\": \"Cross-listing\", \"Delisted\": \"\", \"Delisted Reason\": \"\"}, {\"RFMO\": \"IOTC\", \"Status\": \"IUU Listed\", \"Date listed\": \"2024-05-23\", \"Reason\": \"Not on Record of Authorised Vessels (RAV). Fishing in a coastal State's waters without authorization.\", \"Delisted\": \"\", \"Delisted Reason\": \"\"}]", "Name": "HAMBAN TOTA EXPRESS", "RFMO Vessel Name": "", "IMO Number": "8450835", "Reg. No.": "IMULA1053TLE", "Vessel Type": "Fishing Vessel", "Gear Type": "Gillnets, Unknown, Longline, Driftnets", "Current Flag": "Sri Lanka", "IRCS": "4SF5385", "MMSI No.": "417105347", "Gross Tonnage": "63.900, 34.610, 35.770, 36.000", "Deadweight": "", "Length": "17.800, 17.850, 18.130, 18.100", "Depth": "2.590", "Year of Build": "201801", "Built in": "Sri Lanka", "Current Owner": "M MILHAN, m.milhan", "Operator": "M MILHAN, m.milhan; Rptd Sold Sri Lanka", "Last known position": "Beruwala, Sri Lanka / Gulf Of Mannar", "Position date": "2023-07-18", "Status": "In Service/Commission", "Status Date": "2018-01-01", "Service Provider*": "", "ICCAT": "IUU Listed 2024-07-27 Cross-listing", "CCSBT": "IUU Listed 2024-07-25 Cross-listing", "SIOFA": "IUU Listed 2024-06-27 Cross-listing", "NEAFC": "IUU Listed 2024-06-06 Cross-listing", "IOTC": "IUU Listed 2024-05-23 Not on Record of Authorised Vessels (RAV). Fishing in a coastal State's waters without authorization.", "Comments": "On the 19 October 2023, the vessel IMULA1053TLE (HAMBAN TOTA EXPRESS) was boarded and inspected by the Seychelles Coast Guard in the Seychelles EEZ. This vessel was found to have fished with prohibited gear and without authorisation in the Seychelles EEZ. This vessel also held no logbook or functioning VMS system onboard. This vessel was included in the IOTC IUU List on 23 May 2024 with the name HAMBANTOTA EXPRESS, Sri Lanka flag and M MILHAN ownership. The vessel is sometimes referred to by its national registration number, IMULA1053TLE.", "page": "https://iuu-vessels.org/Vessel/GetVessel/9baea913-8d92-46d2-883a-b5b35cd1ebc1", "placed at": "the place the list names, Beruwala, Sri Lanka, by OpenStreetMap's Nominatim (not a reported coordinate)"}}, {"type": "Feature", "geometry": {"type": "Point", "coordinates": [0.0, -72.8439]}, "properties": {"Name History": "[{\"From\": \"\", \"To\": \"\", \"Name\": \"LU RONG YU 612\"}]", "Flag History": "[{\"From\": \"\", \"To\": \"\", \"Flag\": \"China\"}]", "Owner History": "[]", "Operator History": "[]", "IRCS History": "[]", "National Reg No": "[]", "RFMO History": "[{\"RFMO\": \"NAFO\", \"Status\": \"IUU Listed\", \"Date listed\": \"2023-12-19\", \"Reason\": \"Cross-listing\", \"Delisted\": \"\", \"Delisted Reason\": \"\"}, {\"RFMO\": \"IOTC\", \"Status\": \"IUU Listed\", \"Date listed\": \"2019-12\", \"Reason\": \"Cross-listing\", \"Delisted\": \"\", \"Delisted Reason\": \"\"}, {\"RFMO\": \"SIOFA\", \"Status\": \"IUU Listed\", \"Date listed\": \"2019\", \"Reason\": \"Cross-listing\", \"Delisted\": \"\", \"Delisted Reason\": \"\"}, {\"RFMO\": \"NPFC\", \"Status\": \"IUU Listed\", \"Date listed\": \"2018-11-17\", \"Reason\": \"\", \"Delisted\": \"\", \"Delisted Reason\": \"\"}, {\"RFMO\": \"NEAFC\", \"Status\": \"IUU Listed\", \"Date listed\": \"2018-11\", \"Reason\": \"Cross-listing\", \"Delisted\": \"\", \"Delisted Reason\": \"\"}]", "Name": "LU RONG YU 612", "RFMO Vessel Name": "LU RONG●YU 612", "IMO Number": "", "Reg. No.": "", "Vessel Type": "", "Gear Type": "", "Current Flag": "China", "IRCS": "", "MMSI No.": "412328746", "Gross Tonnage": "651.000", "Deadweight": "", "Length": "", "Depth": "", "Year of Build": "", "Built in": "", "Current Owner": "", "Operator": "", "Last known position": "Antarctica", "Position date": "2023-08-07", "Status": "", "Status Date": "", "Service Provider*": "", "IOTC": "IUU Listed 2019-12 Cross-listing", "SIOFA": "IUU Listed 2019 Cross-listing", "NPFC": "IUU Listed 2018-11-17", "NEAFC": "IUU Listed 2018-11 Cross-listing", "Comments": "This vessel was included in the NPFC IUU vessel list on 19 August 2018 for harvesting species covered by the NPFC in the Convention Area without authorisation. A Japanese patrol vessel sighted this vessel drifting in the Convention area at 39˚50.00'N, 147˚1.8'E on 21 July 2017. The vessel was photographed at the time displaying the name LU RONG YU 612 on the side of the vessel. However, AIS information showed this vessels name as LU LONG YUAN YU 108. This vessel held a China flag at the time of IUU activity.", "page": "https://iuu-vessels.org/Vessel/GetVessel/9cb71cf0-7bad-45cb-a713-d20fbdec73e3", "placed at": "the place the list names, Antarctica, by OpenStreetMap's Nominatim (not a reported coordinate)"}}, {"type": "Feature", "geometry": {"type": "Point", "coordinates": [56.4598, 24.7442]}, "properties": {"Name History": "[{\"From\": \"2023-03-27\", \"To\": \"\", \"Name\": \"RIWA\"}, {\"From\": \"2010-06\", \"To\": \"2023-03-27\", \"Name\": \"GLORIWAVE\"}, {\"From\": \"\", \"To\": \"2010-06\", \"Name\": \"STOLT HIKAWA\"}]", "Flag History": "[{\"From\": \"2022-12\", \"To\": \"2023-11\", \"Flag\": \"Togo\"}, {\"From\": \"2022-09\", \"To\": \"2022-12\", \"Flag\": \"Palau\"}, {\"From\": \"2010-06\", \"To\": \"2022-09\", \"Flag\": \"Sierra Leone\"}, {\"From\": \"2003-12\", \"To\": \"2010-06\", \"Flag\": \"Unknown\"}, {\"From\": \"\", \"To\": \"2003-12\", \"Flag\": \"Liberia\"}]", "Owner History": "[{\"From\": \"2010-06-11\", \"To\": \"\", \"Owner\": \"Stukita Shipping Co Ltd\"}, {\"From\": \"\", \"To\": \"2010-06-11\", \"Owner\": \"Stolt Hikawa BV\"}]", "Operator History": "[{\"From\": \"2010-06-11\", \"To\": \"\", \"Operator\": \"JSC Fortune Tanker (ZAO Fortuna Tanker)\"}, {\"From\": \"2008-03-24\", \"To\": \"2010-06-11\", \"Operator\": \"Stolt Tankers BV\"}, {\"From\": \"2003-10-22\", \"To\": \"2008-03-24\", \"Operator\": \"Stolt-Nielsen Singapore Pte Ltd\"}, {\"From\": \"\", \"To\": \"2003-10-22\", \"Operator\": \"Stolt-Nielsen Transportation Group Ltd (Stolt Parcel Tankers Division)\"}]", "IRCS History": "[{\"From\": \"2023-03-27\", \"To\": \"\", \"IRCS\": \"5VIR8\"}, {\"From\": \"2022-10-24\", \"To\": \"2023-03-27\", \"IRCS\": \"T8A4017\"}, {\"From\": \"\", \"To\": \"2022-10-24\", \"IRCS\": \"9LC2077\"}]", "National Reg No": "[{\"From\": \"2022-10-24\", \"To\": \"2023-03-27\", \"Reg.No\": \"P046623\"}, {\"From\": \"\", \"To\": \"2022-10-24\", \"Reg.No\": \"SL100498\"}]", "RFMO History": "[{\"RFMO\": \"IOTC\", \"Status\": \"IUU Listed\", \"Date listed\": \"2024-05-23\", \"Reason\": \"Cross-listing\", \"Delisted\": \"\", \"Delisted Reason\": \"\"}, {\"RFMO\": \"NAFO\", \"Status\": \"IUU Listed\", \"Date listed\": \"2023-10-11\", \"Reason\": \"Cross-listing\", \"Delisted\": \"\", \"Delisted Reason\": \"\"}, {\"RFMO\": \"SIOFA\", \"Status\": \"IUU Listed\", \"Date listed\": \"2023-07-26\", \"Reason\": \"Cross-listing\", \"Delisted\": \"\", \"Delisted Reason\": \"\"}, {\"RFMO\": \"NEAFC\", \"Status\": \"IUU Listed\", \"Date listed\": \"2023-07-26\", \"Reason\": \"Cross-listing\", \"Delisted\": \"\", \"Delisted Reason\": \"\"}, {\"RFMO\": \"NPFC\", \"Status\": \"IUU Listed\", \"Date listed\": \"2023-07-26\", \"Reason\": \"This vessel was observed conducting unauthorized bunkering activities in the NPFC Convention Area on June 26, 2022.\", \"Delisted\": \"\", \"Delisted Reason\": \"\"}]", "Name": "RIWA", "RFMO Vessel Name": "", "IMO Number": "9017666", "Reg. No.": "", "Vessel Type": "Products Tanker, Chemical Tanker", "Gear Type": "", "Current Flag": "", "IRCS": "5VIR8", "MMSI No.": "671384100", "Gross Tonnage": "4529.000", "Deadweight": "8080", "Length": "108.000", "Depth": "8.900", "Year of Build": "199202", "Built in": "Usuki, Oita, Japan", "Current Owner": "Stukita Shipping Co Ltd", "Operator": "JSC Fortune Tanker (ZAO Fortuna Tanker)", "Last known position": "Shinas, Oman / Gulf Of Oman", "Position date": "2026-09-28", "Status": "In Service/commission", "Status Date": "1992-02-26", "Service Provider*": "", "NAFO": "IUU Listed 2023-10-11 Cross-listing", "SIOFA": "IUU Listed 2023-07-26 Cross-listing", "NEAFC": "IUU Listed 2023-07-26 Cross-listing", "NPFC": "IUU Listed 2023-07-26 This vessel was observed conducting unauthorized bunkering activities in the NPFC Convention Area on June 26, 2022.", "Comments": "This vessel was observed conducting unauthorized bunkering activities in the NPFC Convention Area on 26 June 2022. This vessel was included in the NPFC IUU Vessel list on 26 July 2023 under the vessel name GLORIWAVE Sierra Leone flag and ownership of Stukita Shipping Co Ltd. Reports suggest this vessel has since reflagged to Palau followed by Togo and renamed to RIWA following IUU listing.", "page": "https://iuu-vessels.org/Vessel/GetVessel/b28da04b-13f0-416c-9794-2b953c0d4fd7", "placed at": "the place the list names, Shinas, Oman, by OpenStreetMap's Nominatim (not a reported coordinate)"}}, {"type": "Feature", "geometry": {"type": "Point", "coordinates": [121.4164, 28.6582]}, "properties": {"Name History": "[{\"From\": \"\", \"To\": \"\", \"Name\": \"LU RONG YUAN YU YUN 958\"}]", "Flag History": "[{\"From\": \"\", \"To\": \"\", \"Flag\": \"China\"}]", "Owner History": "[]", "Operator History": "[]", "IRCS History": "[]", "National Reg No": "[]", "RFMO History": "[{\"RFMO\": \"NAFO\", \"Status\": \"IUU Listed\", \"Date listed\": \"2023-10-11\", \"Reason\": \"Cross-listing\", \"Delisted\": \"\", \"Delisted Reason\": \"\"}, {\"RFMO\": \"IOTC\", \"Status\": \"IUU Listed\", \"Date listed\": \"2019-12\", \"Reason\": \"Cross-listing\", \"Delisted\": \"\", \"Delisted Reason\": \"\"}, {\"RFMO\": \"NEAFC\", \"Status\": \"IUU Listed\", \"Date listed\": \"2019\", \"Reason\": \"Cross-listing\", \"Delisted\": \"\", \"Delisted Reason\": \"\"}, {\"RFMO\": \"SIOFA\", \"Status\": \"IUU Listed\", \"Date listed\": \"2019\", \"Reason\": \"Cross-listing\", \"Delisted\": \"\", \"Delisted Reason\": \"\"}, {\"RFMO\": \"NPFC\", \"Status\": \"IUU Listed\", \"Date listed\": \"2018-11-17\", \"Reason\": \"\", \"Delisted\": \"\", \"Delisted Reason\": \"\"}]", "Name": "LU RONG YUAN YU YUN 958", "RFMO Vessel Name": "LU RONG YUAN YU YUN 958", "IMO Number": "", "Reg. No.": "", "Vessel Type": "Fish carrier", "Gear Type": "", "Current Flag": "China", "IRCS": "", "MMSI No.": "412452812", "Gross Tonnage": "", "Deadweight": "", "Length": "", "Depth": "", "Year of Build": "", "Built in": "", "Current Owner": "", "Operator": "", "Last known position": "Taizhou, China / East China Sea", "Position date": "2026-10-02", "Status": "", "Status Date": "", "Service Provider*": "", "IOTC": "IUU Listed 2019-12 Cross-listing", "NEAFC": "IUU Listed 2019 Cross-listing", "SIOFA": "IUU Listed 2019 Cross-listing", "NPFC": "IUU Listed 2018-11-17", "Comments": "This vessel was first included on the NPFC IUU List on 19 August 2018 for operating in the Convention Area without authorisation. A Japanese patrol sighted this fishing vessel operating in the Convention area at 39˚50.9'N, 147˚4.3'E on 21 July 2017. Photographs taken on a Japanese patrol show this vessel using the China flag and displaying the port of registry as Shidao. AIS information showed that the vessel name is LU RONG YUAN YU YUN 958. Vessel ownership is unknown. China removed this vessel from their official registry in 2018 in response to IUU activity, making the vessel stateless.", "page": "https://iuu-vessels.org/Vessel/GetVessel/c1a4b5cc-47fe-4c26-a436-0a1710fc3107", "placed at": "the place the list names, Taizhou, China, by OpenStreetMap's Nominatim (not a reported coordinate)"}}, {"type": "Feature", "geometry": {"type": "Point", "coordinates": [103.8125, 1.1719]}, "properties": {"Name History": "[{\"From\": \"2018-06-18\", \"To\": \"\", \"Name\": \"HE LI 1 HAO\"}, {\"From\": \"\", \"To\": \"2018-06-18\", \"Name\": \"SINAR ABADI 69\"}]", "Flag History": "[{\"From\": \"2018-05\", \"To\": \"2021-04\", \"Flag\": \"Panama\"}, {\"From\": \"\", \"To\": \"2018-05\", \"Flag\": \"Indonesia\"}]", "Owner History": "[{\"From\": \"2018-06-18\", \"To\": \"\", \"Owner\": \"Ginsil Holding Singapore Pte Ltd, Ginsil Holding (Singapore) Pte Ltd\"}, {\"From\": \"\", \"To\": \"2018-06-18\", \"Owner\": \"PT Tuna Permata Rezeki, TUNA PERMATA REZEKI, PT\"}]", "Operator History": "[{\"From\": \"2018-06-18\", \"To\": \"\", \"Operator\": \"Ginsil Holding Singapore Pte Ltd, Ginsil Holding (Singapore) Pte Ltd\"}, {\"From\": \"\", \"To\": \"2018-06-18\", \"Operator\": \"PT Tuna Permata Rezeki, TUNA PERMATA REZEKI, PT\"}]", "IRCS History": "[{\"From\": \"2018-06-18\", \"To\": \"2021-05-17\", \"IRCS\": \"HP7651\"}, {\"From\": \"\", \"To\": \"2018-06-18\", \"IRCS\": \"JZTU\"}]", "National Reg No": "[{\"From\": \"2019-01-28\", \"To\": \"2021-05-17\", \"Reg.No\": \"50579PEXT\"}, {\"From\": \"\", \"To\": \"2018-06-18\", \"Reg.No\": \"2014 No. 3956/N\"}]", "RFMO History": "[{\"RFMO\": \"GFCM\", \"Status\": \"IUU Listed\", \"Date listed\": \"2023-11-10\", \"Reason\": \"Cross-listing\", \"Delisted\": \"\", \"Delisted Reason\": \"\"}, {\"RFMO\": \"NAFO\", \"Status\": \"IUU Listed\", \"Date listed\": \"2023-10-11\", \"Reason\": \"Cross-listing\", \"Delisted\": \"\", \"Delisted Reason\": \"\"}, {\"RFMO\": \"SIOFA\", \"Status\": \"IUU Listed\", \"Date listed\": \"2023-07-11\", \"Reason\": \"Cross-listing\", \"Delisted\": \"\", \"Delisted Reason\": \"\"}, {\"RFMO\": \"CCSBT\", \"Status\": \"IUU Listed\", \"Date listed\": \"2023-07-11\", \"Reason\": \"Cross-listing\", \"Delisted\": \"\", \"Delisted Reason\": \"\"}, {\"RFMO\": \"ICCAT\", \"Status\": \"IUU Listed\", \"Date listed\": \"2023-05-25\", \"Reason\": \"Cross-listing\", \"Delisted\": \"\", \"Delisted Reason\": \"\"}, {\"RFMO\": \"IOTC\", \"Status\": \"IUU Listed\", \"Date listed\": \"2023-05-10\", \"Reason\": \"Interruption in the transmitting of VMS data during the indicated period, carried out operations within the Exclusive Economic Zone of Oman on November 20, 2018 and maintained operations at coordinates 17°39'10.8 N and 61°33'32.4.\", \"Delisted\": \"\", \"Delisted Reason\": \"\"}]", "Name": "HE LI 1 HAO", "RFMO Vessel Name": "", "IMO Number": "8524492", "Reg. No.": "", "Vessel Type": "Fishing Vessel, Unknown", "Gear Type": "", "Current Flag": "", "IRCS": "", "MMSI No.": "677051100", "Gross Tonnage": "596.000", "Deadweight": "", "Length": "56.900", "Depth": "4.600", "Year of Build": "201402", "Built in": "China, People's Republic Of", "Current Owner": "Ginsil Holding Singapore Pte Ltd, Ginsil Holding (Singapore) Pte Ltd", "Operator": "Ginsil Holding Singapore Pte Ltd, Ginsil Holding (Singapore) Pte Ltd", "Last known position": "Singapore Strait", "Position date": "2026-09-30", "Status": "In Service/Commission", "Status Date": "2014-02-20", "Service Provider*": "", "NAFO": "IUU Listed 2023-10-11 Cross-listing", "SIOFA": "IUU Listed 2023-07-11 Cross-listing", "CCSBT": "IUU Listed 2023-07-11 Cross-listing", "ICCAT": "IUU Listed 2023-05-25 Cross-listing", "IOTC": "IUU Listed 2023-05-10 Interruption in the transmitting of VMS data during the indicated period, carried out operations within the Exclusive Economic Zone of Oman on November 20, 2018 and maintained operations at coordinates 17°39'10.8 N and 61°33'32.4.", "Comments": "This vessel was initially named SINAR ABADI 69 and flagged to Indonesia but reflagged to Panam and renamed to HE LI 1 HAO in June 2018. Panama removed this vessel form the Panama registry in April 2021 and the vessel has held an unknown flag since. This vessel was observed through AIS, operating within Oman’s EEZ on November 20 - 21, December 5 and December 14, 2018. It is unclear if fishing activity or transshipment activity occurred in the Oman EEZ. Between October 2018 and May 2019, the vessel operated in the North Indian Ocean close to the Oman border. AIS tracks for this time period indicate potential fishing and transhipment activity. HE LI 1 HAO was not authorised by IOTC at the time. This vessel was IOTC IUU listed in May 2023 for “interruptions in the transmitting of VMS data during the indicated period, carried out operations within the Exclusive Economic Zone of Oman on November 20, 2018”. At the time of IOTC IUU listing, this vessel was named HE LI 1 HAO, held an unknown flag and was under ownership of Ginsil Holding Singapore Pte.", "page": "https://iuu-vessels.org/Vessel/GetVessel/cea27ac6-7c70-4fc6-8b40-b8b74e0d9658", "placed at": "the place the list names, Singapore Strait, by OpenStreetMap's Nominatim (not a reported coordinate)"}}, {"type": "Feature", "geometry": {"type": "Point", "coordinates": [117.9647, 37.3821]}, "properties": {"Name History": "[{\"From\": \"2017-01-01\", \"To\": \"\", \"Name\": \"LU RONG YUAN YU 811\"}, {\"From\": \"\", \"To\": \"2017-01-01\", \"Name\": \"LU RONG YUAN YU 102, LU RONG YUAN YU 102, LURONGYUANYU102\"}]", "Flag History": "[{\"From\": \"\", \"To\": \"\", \"Flag\": \"China\"}]", "Owner History": "[{\"From\": \"\", \"To\": \"\", \"Owner\": \"Shandong Lanyue Ocean Fishery Co Ltd\"}]", "Operator History": "[{\"From\": \"\", \"To\": \"\", \"Operator\": \"Shandong Lanyue Ocean Fishery Co Ltd\"}]", "IRCS History": "[{\"From\": \"\", \"To\": \"\", \"IRCS\": \"BBDP2\"}]", "National Reg No": "[{\"From\": \"\", \"To\": \"\", \"Reg.No\": \"(LU)CHUANDENG(JI)(2017)FT-200109\"}]", "RFMO History": "[{\"RFMO\": \"NAFO\", \"Status\": \"IUU Listed\", \"Date listed\": \"2023-10-11\", \"Reason\": \"Cross-listing\", \"Delisted\": \"\", \"Delisted Reason\": \"\"}, {\"RFMO\": \"IOTC\", \"Status\": \"IUU Listed\", \"Date listed\": \"2019-12\", \"Reason\": \"Cross-listing\", \"Delisted\": \"\", \"Delisted Reason\": \"\"}, {\"RFMO\": \"SIOFA\", \"Status\": \"IUU Listed\", \"Date listed\": \"2019\", \"Reason\": \"Cross-listing\", \"Delisted\": \"\", \"Delisted Reason\": \"\"}, {\"RFMO\": \"NPFC\", \"Status\": \"IUU Listed\", \"Date listed\": \"2018-01\", \"Reason\": \"\", \"Delisted\": \"\", \"Delisted Reason\": \"\"}]", "Name": "LU RONG YUAN YU 811", "RFMO Vessel Name": "LU RONG YUAN YU 102", "IMO Number": "8524973", "Reg. No.": "(LU)CHUANDENG(JI)(2017)FT-200109", "Vessel Type": "Fishing Vessel", "Gear Type": "Trawl unspecified, Purse seine", "Current Flag": "China", "IRCS": "BBDP2", "MMSI No.": "412328752", "Gross Tonnage": "800.000, 651.000", "Deadweight": "", "Length": "49.560", "Depth": "4.200", "Year of Build": "201304", "Built in": "China, People's Republic Of", "Current Owner": "Shandong Lanyue Ocean Fishery Co Ltd", "Operator": "Shandong Lanyue Ocean Fishery Co Ltd", "Last known position": "Binzhou, China / Bohai Sea", "Position date": "2026-09-16", "Status": "In Service/Commission", "Status Date": "2013-04-07", "Service Provider*": "", "IOTC": "IUU Listed 2019-12 Cross-listing", "SIOFA": "IUU Listed 2019 Cross-listing", "NPFC": "IUU Listed 2018-01", "Comments": "Two different vessels using the name LU RONG YUAN YU 102 were sighted in the NPFC area. NPFC considers any vessel using that name to be IUU. The trawler with this name that was IUU listed by NPFC is a match on name and MMSI to the previous identity of IMO 8524973, and the photo of the IUU listed vessel also appears to be a match for available photos of IMO 8524973", "page": "https://iuu-vessels.org/Vessel/GetVessel/db709c98-dcc9-4490-90d6-58ac9d827faa", "placed at": "the place the list names, Binzhou, China, by OpenStreetMap's Nominatim (not a reported coordinate)"}}, {"type": "Feature", "geometry": {"type": "Point", "coordinates": [108.9237, 34.5412]}, "properties": {"Name History": "[{\"From\": \"\", \"To\": \"\", \"Name\": \"LU RONG YUAN YU 787\"}]", "Flag History": "[{\"From\": \"\", \"To\": \"\", \"Flag\": \"China\"}]", "Owner History": "[{\"From\": \"\", \"To\": \"\", \"Owner\": \"Shidao Group\"}]", "Operator History": "[]", "IRCS History": "[]", "National Reg No": "[]", "RFMO History": "[{\"RFMO\": \"NAFO\", \"Status\": \"IUU Listed\", \"Date listed\": \"2023-10-11\", \"Reason\": \"Cross-listing\", \"Delisted\": \"\", \"Delisted Reason\": \"\"}, {\"RFMO\": \"IOTC\", \"Status\": \"IUU Listed\", \"Date listed\": \"2019-12\", \"Reason\": \"Cross-listing\", \"Delisted\": \"\", \"Delisted Reason\": \"\"}, {\"RFMO\": \"NEAFC\", \"Status\": \"IUU Listed\", \"Date listed\": \"2019\", \"Reason\": \"Cross-listing\", \"Delisted\": \"\", \"Delisted Reason\": \"\"}, {\"RFMO\": \"SIOFA\", \"Status\": \"IUU Listed\", \"Date listed\": \"2019\", \"Reason\": \"Cross-listing\", \"Delisted\": \"\", \"Delisted Reason\": \"\"}, {\"RFMO\": \"NPFC\", \"Status\": \"IUU Listed\", \"Date listed\": \"2018-11-17\", \"Reason\": \"\", \"Delisted\": \"\", \"Delisted Reason\": \"\"}]", "Name": "LU RONG YUAN YU 787", "RFMO Vessel Name": "LU RONG YUAN YU 787", "IMO Number": "", "Reg. No.": "", "Vessel Type": "Fishing Vessel", "Gear Type": "", "Current Flag": "China", "IRCS": "", "MMSI No.": "413800814", "Gross Tonnage": "", "Deadweight": "", "Length": "", "Depth": "", "Year of Build": "", "Built in": "", "Current Owner": "Shidao Group", "Operator": "", "Last known position": "China / Bohai Sea", "Position date": "2026-10-01", "Status": "", "Status Date": "", "Service Provider*": "", "IOTC": "IUU Listed 2019-12 Cross-listing", "NEAFC": "IUU Listed 2019 Cross-listing", "SIOFA": "IUU Listed 2019 Cross-listing", "NPFC": "IUU Listed 2018-11-17", "Comments": "This vessel was first included in the NPFC IUU list on 19 August 2018. This vessel was sighted by Japanese authorities drifting in the Convention Area at 39˚49.7'N, 147˚2.8'E on 21 July 2017 and at 41˚3.3'N, 150˚22.1'E on 2 August 2017. This vessel was flying a China flag at the time of sighting and was owned by Shidao Group Co., Ltd based in China. This vessel was inspected by China on 9 October 2017 and removed from China registry soon after. Japanese authorities suggest this vessel operates in cooperation with LU RONG YUAN YU 797. This vessel was last observed on 15 January 2021 anchored close to shore near the port of Hong Kong.", "page": "https://iuu-vessels.org/Vessel/GetVessel/f4081c41-9c14-43ef-9479-ff9805c1a579", "placed at": "the place the list names, China, by OpenStreetMap's Nominatim (not a reported coordinate)"}}]}