{"type":"FeatureCollection","name":"Earth's tipping points: each system, how close it is, and the regions each would hit (Global Tipping Points Report 2025)","overlays":[],"filters":[{"label":"Show","values":[{"k":"show:regions","label":"Regions, shaded by impact","n":26},{"k":"show:systems","label":"Tipping systems","n":21}]},{"label":"Tipping systems","values":[{"k":"dom:cryo","label":"Cryosphere","n":9},{"k":"dom:bios","label":"Biosphere","n":4},{"k":"dom:ocea","label":"Ocean and atmosphere circulations","n":8},{"k":"close:yes","label":"Closest to tipping (marked A to E on the report's map)","n":4}]}],"colourings":[{"k":"n_major","prop":"n_major","label":"How many tipping points would hit it with major impacts or worse","note":"Counted for this map from Table 2.4.3: Major, the red with no legend entry, and Critical.","scores":[0,1,2,3,4,5,6,7],"colours":["#D6EEF6","#C6E7F0","#8FD6E8","#6FC2DA","#3FA9C2","#2275A8","#13447A","#0C2E5E"],"labels":["0","1","2","3","4","5","6","7"]},{"k":"m0","prop":"m0","label":"Impact of AMOC collapse","note":"Table 2.4.3 (p.149), the report's colours redrawn in this map's blues.","scores":[0,1,2,3,4],"colours":["#D6EEF6","#6FC2DA","#2275A8","#13447A","#0C2E5E"],"labels":["Low","Moderate","Major","Red (no legend entry)","Critical"]},{"k":"m1","prop":"m1","label":"Impact of ice sheet loss","note":"Table 2.4.3 (p.149), the report's colours redrawn in this map's blues.","scores":[0,1,2,3,4],"colours":["#D6EEF6","#6FC2DA","#2275A8","#13447A","#0C2E5E"],"labels":["Low","Moderate","Major","Red (no legend entry)","Critical"]},{"k":"m2","prop":"m2","label":"Impact of subpolar gyre (SPG) collapse","note":"Table 2.4.3 (p.149), the report's colours redrawn in this map's blues.","scores":[0,1,2,3,4],"colours":["#D6EEF6","#6FC2DA","#2275A8","#13447A","#0C2E5E"],"labels":["Low","Moderate","Major","Red (no legend entry)","Critical"]},{"k":"m3","prop":"m3","label":"Impact of permafrost thaw","note":"Table 2.4.3 (p.149), the report's colours redrawn in this map's blues.","scores":[0,1,2,3,4],"colours":["#D6EEF6","#6FC2DA","#2275A8","#13447A","#0C2E5E"],"labels":["Low","Moderate","Major","Red (no legend entry)","Critical"]},{"k":"m4","prop":"m4","label":"Impact of boreal forest shifts","note":"Table 2.4.3 (p.149), the report's colours redrawn in this map's blues.","scores":[0,1,2,3,4],"colours":["#D6EEF6","#6FC2DA","#2275A8","#13447A","#0C2E5E"],"labels":["Low","Moderate","Major","Red (no legend entry)","Critical"]},{"k":"m5","prop":"m5","label":"Impact of monsoon disruption","note":"Table 2.4.3 (p.149), the report's colours redrawn in this map's blues.","scores":[0,1,2,3,4],"colours":["#D6EEF6","#6FC2DA","#2275A8","#13447A","#0C2E5E"],"labels":["Low","Moderate","Major","Red (no legend entry)","Critical"]},{"k":"m6","prop":"m6","label":"Impact of coral reef die-off","note":"Table 2.4.3 (p.149), the report's colours redrawn in this map's blues.","scores":[0,1,2,3,4],"colours":["#D6EEF6","#6FC2DA","#2275A8","#13447A","#0C2E5E"],"labels":["Low","Moderate","Major","Red (no legend entry)","Critical"]},{"k":"m7","prop":"m7","label":"Impact of Amazon dieback","note":"Table 2.4.3 (p.149), the report's colours redrawn in this map's blues.","scores":[0,1,2,3,4],"colours":["#D6EEF6","#6FC2DA","#2275A8","#13447A","#0C2E5E"],"labels":["Low","Moderate","Major","Red (no legend entry)","Critical"]},{"k":"m8","prop":"m8","label":"Impact of mountain glacier loss","note":"Table 2.4.3 (p.149), the report's colours redrawn in this map's blues.","scores":[0,1,2,3,4],"colours":["#D6EEF6","#6FC2DA","#2275A8","#13447A","#0C2E5E"],"labels":["Low","Moderate","Major","Red (no legend entry)","Critical"]}],"features":[{"type":"Feature","geometry":{"type":"Polygon","coordinates":[[[-105.0,60.0],[-168.022,60.0],[-168.022,72.554],[-105.0,72.554],[-105.0,60.0]]]},"properties":{"k":"20802bfc6c052eeb","n":"Alaska/NW Canada (ALA)","t":1,"p":1,"f":"|show:regions|","m0":1,"m1":2,"m2":0,"m3":3,"m4":3,"m5":0,"m6":0,"m7":0,"m8":3,"n_major":4}},{"type":"Feature","geometry":{"type":"Polygon","coordinates":[[[-10.0,50.0],[-105.0,50.0],[-105.0,85.0],[-10.0,85.0],[-10.0,50.0]]]},"properties":{"k":"e0236da2eb8a3270","n":"Eastern Canada / Greenland (CGI)","t":1,"p":1,"f":"|show:regions|","m0":2,"m1":3,"m2":2,"m3":3,"m4":3,"m5":0,"m6":0,"m7":0,"m8":3,"n_major":6}},{"type":"Feature","geometry":{"type":"Polygon","coordinates":[[[-105.0,28.566],[-130.0,28.566],[-130.0,60.0],[-105.0,60.0],[-105.0,28.566]]]},"properties":{"k":"fa18bba8eaffa7db","n":"Western N. America (WNA)","t":1,"p":1,"f":"|show:regions|","m0":1,"m1":3,"m2":0,"m3":1,"m4":2,"m5":3,"m6":0,"m7":0,"m8":2,"n_major":4}},{"type":"Feature","geometry":{"type":"Polygon","coordinates":[[[-85.0,50.0],[-85.0,28.566],[-105.0,28.566],[-105.0,50.0],[-85.0,50.0]]]},"properties":{"k":"99b53c7e86070161","n":"Central N. America (CNA)","t":1,"p":1,"f":"|show:regions|","m0":1,"m1":0,"m2":0,"m3":1,"m4":1,"m5":2,"m6":0,"m7":0,"m8":0,"n_major":1}},{"type":"Feature","geometry":{"type":"Polygon","coordinates":[[[-60.0,25.0],[-85.0,25.0],[-85.0,50.0],[-60.0,50.0],[-60.0,25.0]]]},"properties":{"k":"76242df5c0a36029","n":"Eastern N. America (ENA)","t":1,"p":1,"f":"|show:regions|","m0":3,"m1":3,"m2":1,"m3":0,"m4":2,"m5":0,"m6":2,"m7":0,"m8":0,"n_major":4}},{"type":"Feature","geometry":{"type":"Polygon","coordinates":[[[-68.8,11.439],[-79.729,-1.239],[-118.323,28.566],[-90.315,28.566],[-68.8,11.439]]]},"properties":{"k":"90ab2c7624f4070e","n":"Central America (CAM)","t":1,"p":1,"f":"|show:regions|","m0":3,"m1":3,"m2":0,"m3":0,"m4":0,"m5":3,"m6":3,"m7":1,"m8":0,"n_major":4}},{"type":"Feature","geometry":{"type":"Polygon","coordinates":[[[-66.377,-20.0],[-79.729,-1.239],[-68.8,11.439],[-50.0,11.439],[-50.0,-20.0],[-66.377,-20.0]]]},"properties":{"k":"3b0d3969214012a6","n":"Amazon (AMZ)","t":1,"p":1,"f":"|show:regions|","m0":2,"m1":2,"m2":0,"m3":0,"m4":0,"m5":3,"m6":0,"m7":3,"m8":0,"n_major":4}},{"type":"Feature","geometry":{"type":"Polygon","coordinates":[[[-34.0,-20.0],[-50.0,-20.0],[-50.0,0.0],[-34.0,0.0],[-34.0,-20.0]]]},"properties":{"k":"660b1f9c7c3d2d64","n":"Northeast Brazil (NEB)","t":1,"p":1,"f":"|show:regions|","m0":2,"m1":3,"m2":0,"m3":0,"m4":0,"m5":3,"m6":3,"m7":2,"m8":0,"n_major":5}},{"type":"Feature","geometry":{"type":"Polygon","coordinates":[[[-79.729,-1.239],[-66.377,-20.0],[-72.141,-50.0],[-67.348,-56.704],[-82.022,-56.704],[-82.022,0.53],[-79.729,-1.239]]]},"properties":{"k":"1d1a50ee77f6be24","n":"West Coast S. America (WSA)","t":1,"p":1,"f":"|show:regions|","m0":1,"m1":2,"m2":0,"m3":1,"m4":0,"m5":2,"m6":1,"m7":3,"m8":4,"n_major":4}},{"type":"Feature","geometry":{"type":"Polygon","coordinates":[[[-39.376,-20.0],[-39.376,-56.704],[-67.348,-56.704],[-72.141,-50.0],[-66.377,-20.0],[-39.376,-20.0]]]},"properties":{"k":"d238997a13517eba","n":"Southeast S. America (SSA)","t":1,"p":1,"f":"|show:regions|","m0":2,"m1":3,"m2":0,"m3":0,"m4":0,"m5":2,"m6":0,"m7":3,"m8":0,"n_major":4}},{"type":"Feature","geometry":{"type":"Polygon","coordinates":[[[-10.0,48.0],[-10.0,75.0],[40.0,75.0],[40.0,61.32],[-10.0,48.0]]]},"properties":{"k":"d6de9d84b3a5a868","n":"Northern Europe (NEU)","t":1,"p":1,"f":"|show:regions|","m0":3,"m1":2,"m2":3,"m3":2,"m4":3,"m5":0,"m6":0,"m7":0,"m8":2,"n_major":6}},{"type":"Feature","geometry":{"type":"Polygon","coordinates":[[[-10.0,45.0],[-10.0,48.0],[40.0,61.32],[40.0,45.0],[-10.0,45.0]]]},"properties":{"k":"7511ebf0dd4c4eb5","n":"Central Europe (CEU)","t":1,"p":1,"f":"|show:regions|","m0":2,"m1":2,"m2":2,"m3":0,"m4":2,"m5":0,"m6":0,"m7":0,"m8":0,"n_major":4}},{"type":"Feature","geometry":{"type":"Polygon","coordinates":[[[-10.0,30.0],[-10.0,45.0],[40.0,45.0],[40.0,30.0],[-10.0,30.0]]]},"properties":{"k":"996c700291eabd89","n":"Southern Europe (MED)","t":1,"p":1,"f":"|show:regions|","m0":2,"m1":3,"m2":1,"m3":0,"m4":0,"m5":0,"m6":0,"m7":0,"m8":0,"n_major":2}},{"type":"Feature","geometry":{"type":"Polygon","coordinates":[[[-20.0,15.0],[-20.0,30.0],[40.0,30.0],[40.0,15.0],[-20.0,15.0]]]},"properties":{"k":"316ef48412502458","n":"Sahara (SAH)","t":1,"p":1,"f":"|show:regions|"}},{"type":"Feature","geometry":{"type":"Polygon","coordinates":[[[-20.0,-11.365],[-20.0,15.0],[25.0,15.0],[25.0,-11.365],[-20.0,-11.365]]]},"properties":{"k":"4f5747ddbd187fcb","n":"West Africa (WAF)","t":1,"p":1,"f":"|show:regions|","m0":3,"m1":3,"m2":1,"m3":0,"m4":0,"m5":3,"m6":2,"m7":0,"m8":0,"n_major":4}},{"type":"Feature","geometry":{"type":"Polygon","coordinates":[[[25.0,-11.365],[25.0,15.0],[51.99,15.0],[51.99,-11.365],[25.0,-11.365]]]},"properties":{"k":"c031b6664b4a7dfd","n":"East Africa (EAF)","t":1,"p":1,"f":"|show:regions|","m0":2,"m1":2,"m2":0,"m3":0,"m4":0,"m5":3,"m6":3,"m7":0,"m8":0,"n_major":4}},{"type":"Feature","geometry":{"type":"Polygon","coordinates":[[[-10.0,-35.0],[-10.0,-11.365],[51.99,-11.365],[51.99,-35.0],[-10.0,-35.0]]]},"properties":{"k":"ed4914ac6373e39e","n":"Southern Africa (SAF)","t":1,"p":1,"f":"|show:regions|","m0":1,"m1":2,"m2":0,"m3":0,"m4":0,"m5":2,"m6":2,"m7":0,"m8":0,"n_major":3}},{"type":"Feature","geometry":{"type":"Polygon","coordinates":[[[40.0,50.0],[40.0,70.0],[180.0,70.0],[180.0,50.0],[40.0,50.0]]]},"properties":{"k":"9f7299f77c175acc","n":"North Asia (NAS)","t":1,"p":1,"f":"|show:regions|","m0":2,"m1":2,"m2":0,"m3":3,"m4":3,"m5":0,"m6":0,"m7":0,"m8":0,"n_major":4}},{"type":"Feature","geometry":{"type":"Polygon","coordinates":[[[40.0,15.0],[40.0,50.0],[60.0,50.0],[60.0,15.0],[40.0,15.0]]]},"properties":{"k":"e2215999ba4dfd56","n":"West Asia (WAS)","t":1,"p":1,"f":"|show:regions|","m0":2,"m1":3,"m2":0,"m3":1,"m4":0,"m5":2,"m6":3,"m7":0,"m8":2,"n_major":5}},{"type":"Feature","geometry":{"type":"Polygon","coordinates":[[[60.0,30.0],[60.0,50.0],[75.0,50.0],[75.0,30.0],[60.0,30.0]]]},"properties":{"k":"ba999871a7cbc6ae","n":"Central Asia (CAS)","t":1,"p":1,"f":"|show:regions|","m0":1,"m1":0,"m2":0,"m3":2,"m4":2,"m5":2,"m6":0,"m7":0,"m8":2,"n_major":4}},{"type":"Feature","geometry":{"type":"Polygon","coordinates":[[[75.0,30.0],[75.0,50.0],[100.0,50.0],[100.0,30.0],[75.0,30.0]]]},"properties":{"k":"d5f5cea8bfeac264","n":"Tibetan Plateau (TIB)","t":1,"p":1,"f":"|show:regions|","m0":0,"m1":0,"m2":0,"m3":3,"m4":2,"m5":3,"m6":0,"m7":2,"m8":3,"n_major":5}},{"type":"Feature","geometry":{"type":"Polygon","coordinates":[[[100.0,20.0],[100.0,50.0],[145.0,50.0],[145.0,20.0],[100.0,20.0]]]},"properties":{"k":"93dbaba37829b440","n":"East Asia (EAS)","t":1,"p":1,"f":"|show:regions|","m0":2,"m1":3,"m2":0,"m3":2,"m4":2,"m5":3,"m6":3,"m7":1,"m8":0,"n_major":6}},{"type":"Feature","geometry":{"type":"Polygon","coordinates":[[[60.0,5.0],[60.0,30.0],[100.0,30.0],[100.0,20.0],[95.0,20.0],[95.0,5.0],[60.0,5.0]]]},"properties":{"k":"5e8842ea5772c8e9","n":"South Asia (SAS)","t":1,"p":1,"f":"|show:regions|","m0":3,"m1":3,"m2":0,"m3":2,"m4":0,"m5":3,"m6":3,"m7":1,"m8":2,"n_major":6}},{"type":"Feature","geometry":{"type":"Polygon","coordinates":[[[95.0,-10.0],[95.0,20.0],[155.0,20.0],[155.0,-10.0],[95.0,-10.0]]]},"properties":{"k":"52ea7d0ee8cf068f","n":"Southeast Asia (SEA)","t":1,"p":1,"f":"|show:regions|","m0":2,"m1":3,"m2":0,"m3":0,"m4":0,"m5":3,"m6":3,"m7":1,"m8":0,"n_major":4}},{"type":"Feature","geometry":{"type":"Polygon","coordinates":[[[110.0,-30.0],[110.0,-10.0],[155.0,-10.0],[155.0,-30.0],[110.0,-30.0]]]},"properties":{"k":"374cea284cd21cb3","n":"North Australia (NAU)","t":1,"p":1,"f":"|show:regions|","m0":1,"m1":2,"m2":0,"m3":0,"m4":0,"m5":3,"m6":3,"m7":1,"m8":0,"n_major":3}},{"type":"Feature","geometry":{"type":"Polygon","coordinates":[[[110.0,-50.0],[110.0,-30.0],[180.0,-30.0],[180.0,-50.0],[110.0,-50.0]]]},"properties":{"k":"baf0da1a44960363","n":"South Australia (SAU)","t":1,"p":1,"f":"|show:regions|","m0":0,"m1":2,"m2":0,"m3":0,"m4":0,"m5":0,"m6":2,"m7":0,"m8":0,"n_major":2}},{"type":"Feature","geometry":{"type":"Point","coordinates":[-40,72.5]},"properties":{"k":"50927ad7d57fd10c","n":"Greenland Ice Sheet","c":"#8FD6E8","r":9,"s":"#E8F1F4","w":2,"o":0.95,"t":1,"p":1,"f":"|show:systems|dom:cryo|close:yes|"}},{"type":"Feature","geometry":{"type":"Point","coordinates":[-110,-79]},"properties":{"k":"af007bd5359c0134","n":"West Antarctic Ice Sheet","c":"#8FD6E8","r":9,"s":"#E8F1F4","w":2,"o":0.95,"t":1,"p":1,"f":"|show:systems|dom:cryo|close:yes|"}},{"type":"Feature","geometry":{"type":"Point","coordinates":[120,-70]},"properties":{"k":"68c36fd970b45dd3","n":"Marine basins of East Antarctica","c":"#8FD6E8","r":6.5,"s":"#08203F","w":1.2,"o":0.95,"t":1,"p":1,"f":"|show:systems|dom:cryo|"}},{"type":"Feature","geometry":{"type":"Point","coordinates":[50,-80]},"properties":{"k":"b9f6b5e8b54b934c","n":"Non-marine East Antarctica","c":"#8FD6E8","r":6.5,"s":"#08203F","w":1.2,"o":0.95,"t":1,"p":1,"f":"|show:systems|dom:cryo|"}},{"type":"Feature","geometry":{"type":"Point","coordinates":[-10,84]},"properties":{"k":"fd50597713893ca9","n":"Arctic summer sea ice","c":"#8FD6E8","r":6.5,"s":"#08203F","w":1.2,"o":0.95,"t":1,"p":1,"f":"|show:systems|dom:cryo|"}},{"type":"Feature","geometry":{"type":"Point","coordinates":[-160,80]},"properties":{"k":"9c22e3074ea131b2","n":"Arctic winter sea ice","c":"#8FD6E8","r":6.5,"s":"#08203F","w":1.2,"o":0.95,"t":1,"p":1,"f":"|show:systems|dom:cryo|"}},{"type":"Feature","geometry":{"type":"Point","coordinates":[40,76]},"properties":{"k":"c54898d3bc752758","n":"Barents Sea ice","c":"#8FD6E8","r":6.5,"s":"#08203F","w":1.2,"o":0.95,"t":1,"p":1,"f":"|show:systems|dom:cryo|"}},{"type":"Feature","geometry":{"type":"Point","coordinates":[-20,-62]},"properties":{"k":"11c98b12eb2f85cb","n":"Antarctic / Southern Ocean sea ice","c":"#8FD6E8","r":6.5,"s":"#08203F","w":1.2,"o":0.95,"t":1,"p":1,"f":"|show:systems|dom:cryo|"}},{"type":"Feature","geometry":{"type":"Point","coordinates":[125,66]},"properties":{"k":"a5c0d23e4a017610","n":"Permafrost","c":"#8FD6E8","r":9,"s":"#E8F1F4","w":2,"o":0.95,"t":1,"p":1,"f":"|show:systems|dom:cryo|close:yes|"}},{"type":"Feature","geometry":{"type":"Point","coordinates":[-62,-4]},"properties":{"k":"f3e34e4f95e3fe34","n":"Amazon rainforest","c":"#3FA9C2","r":6.5,"s":"#08203F","w":1.2,"o":0.95,"t":1,"p":1,"f":"|show:systems|dom:bios|"}},{"type":"Feature","geometry":{"type":"Point","coordinates":[22,0]},"properties":{"k":"88e877443155e5c1","n":"Congo rainforest","c":"#3FA9C2","r":6.5,"s":"#08203F","w":1.2,"o":0.95,"t":1,"p":1,"f":"|show:systems|dom:bios|"}},{"type":"Feature","geometry":{"type":"Point","coordinates":[114,1]},"properties":{"k":"0c735f9d5a90b952","n":"Southeast Asian rainforest","c":"#3FA9C2","r":6.5,"s":"#08203F","w":1.2,"o":0.95,"t":1,"p":1,"f":"|show:systems|dom:bios|"}},{"type":"Feature","geometry":{"type":"Point","coordinates":[95,61]},"properties":{"k":"c689daaf3cc5f2e2","n":"Boreal forests (dieback, and northern expansion)","c":"#3FA9C2","r":6.5,"s":"#08203F","w":1.2,"o":0.95,"t":1,"p":1,"f":"|show:systems|dom:bios|"}},{"type":"Feature","geometry":{"type":"Point","coordinates":[-38,38]},"properties":{"k":"e523844f69d91682","n":"Atlantic Meridional Overturning Circulation (AMOC)","c":"#2275A8","r":6.5,"s":"#08203F","w":1.2,"o":0.95,"t":1,"p":1,"f":"|show:systems|dom:ocea|"}},{"type":"Feature","geometry":{"type":"Point","coordinates":[-45,58]},"properties":{"k":"a4febd0bc895b118","n":"Deep convection in the North Atlantic Subpolar Gyre (SPG)","c":"#2275A8","r":9,"s":"#E8F1F4","w":2,"o":0.95,"t":1,"p":1,"f":"|show:systems|dom:ocea|close:yes|"}},{"type":"Feature","geometry":{"type":"Point","coordinates":[-45,-68]},"properties":{"k":"c1afe907345b1607","n":"Southern Ocean overturning","c":"#2275A8","r":6.5,"s":"#08203F","w":1.2,"o":0.95,"t":1,"p":1,"f":"|show:systems|dom:ocea|"}},{"type":"Feature","geometry":{"type":"Point","coordinates":[0,13]},"properties":{"k":"cbb9ef82697c5977","n":"West African monsoon","c":"#2275A8","r":6.5,"s":"#08203F","w":1.2,"o":0.95,"t":1,"p":1,"f":"|show:systems|dom:ocea|"}},{"type":"Feature","geometry":{"type":"Point","coordinates":[79,22]},"properties":{"k":"36e44e93f4f7368e","n":"Indian summer monsoon","c":"#2275A8","r":6.5,"s":"#08203F","w":1.2,"o":0.95,"t":1,"p":1,"f":"|show:systems|dom:ocea|"}},{"type":"Feature","geometry":{"type":"Point","coordinates":[-55,-14]},"properties":{"k":"39e8b810d6011e7e","n":"South American monsoon","c":"#2275A8","r":6.5,"s":"#08203F","w":1.2,"o":0.95,"t":1,"p":1,"f":"|show:systems|dom:ocea|"}},{"type":"Feature","geometry":{"type":"Point","coordinates":[114,30]},"properties":{"k":"d681e3a1771a9056","n":"East Asian summer monsoon","c":"#2275A8","r":6.5,"s":"#08203F","w":1.2,"o":0.95,"t":1,"p":1,"f":"|show:systems|dom:ocea|"}},{"type":"Feature","geometry":{"type":"Point","coordinates":[-140,0]},"properties":{"k":"f65af3a9abf82ddc","n":"El Niño Southern Oscillation (ENSO)","c":"#2275A8","r":6.5,"s":"#08203F","w":1.2,"o":0.95,"t":1,"p":1,"f":"|show:systems|dom:ocea|"}}]}