{"type": "FeatureCollection", "features": [{"type": "Feature", "geometry": {"type": "Point", "coordinates": [-117.57443, 34.02045]}, "properties": {"name": "BlueTriton Brands (Arrowhead; formerly Nestlé Waters North America)", "group": "Bottled water", "place": "Strawberry Canyon, San Bernardino National Forest, California, USA", "what": "In September 2023 California's State Water Resources Control Board ordered the company to stop taking water at 10 of its 13 tunnels and boreholes in the San Bernardino National Forest, finding it held no water right there. Strawberry Creek feeds the Santa Ana River, a source of municipal water for about 750,000 people.", "year": 2023, "source": "https://www.waterboards.ca.gov/press_room/press_releases/2023/pr-bluetriton-ruling.html", "placed at": "the named place, by OpenStreetMap's Nominatim (not the exact site)"}}, {"type": "Feature", "geometry": {"type": "Point", "coordinates": [-113.82937, 33.9391]}, "properties": {"name": "Fondomonte Arizona (Almarai)", "group": "Farming for export", "place": "Butler Valley, La Paz County, Arizona, USA", "what": "In October 2023 Arizona's governor cancelled one of the company's state land leases in Butler Valley and said three more would not be renewed, over groundwater pumped without limit or charge to grow alfalfa shipped to feed dairy cattle in Saudi Arabia.", "year": 2023, "source": "https://www.ksat.com/news/national/2023/10/03/arizona-to-cancel-leases-allowing-saudi-owned-farm-access-to-states-groundwater/", "placed at": "the named place, by OpenStreetMap's Nominatim (not the exact site)"}}]}