{"type":"FeatureCollection","name":"Who corporatized holidays: made a holiday a company's own custom, or invented one to sell (compiled from Wikipedia, histories and reporting)","overlays":[],"filters":[],"features":[{"type":"Feature","geometry":{"type":"Point","coordinates":[-71.8023,42.2626]},"properties":{"k":"3dc347e9217687c6","n":"Esther Howland (New England Valentine Company)","c":"#59CFBF","r":6.5,"s":"#081018","w":1.5,"o":0.95,"t":1,"p":1,"f":"|"}},{"type":"Feature","geometry":{"type":"Point","coordinates":[-1.931,52.429]},"properties":{"k":"d4df028c46e48763","n":"Cadbury","c":"#59CECF","r":6.5,"s":"#081018","w":1.5,"o":0.95,"t":1,"p":1,"f":"|"}},{"type":"Feature","geometry":{"type":"Point","coordinates":[-71.0377,42.08]},"properties":{"k":"5d838deec097bbf1","n":"Edgar's Department Store (James Edgar)","c":"#59C6CF","r":6.5,"s":"#081018","w":1.5,"o":0.95,"t":1,"p":1,"f":"|"}},{"type":"Feature","geometry":{"type":"Point","coordinates":[-73.9864,40.7565]},"properties":{"k":"a988f156b8052d35","n":"The New York Times (Adolph Ochs)","c":"#59BDCF","r":6.5,"s":"#081018","w":1.5,"o":0.95,"t":1,"p":1,"f":"|"}},{"type":"Feature","geometry":{"type":"Point","coordinates":[-71.4162,42.2793]},"properties":{"k":"f33734443cb99e58","n":"Dennison Manufacturing Company","c":"#59BACF","r":6.5,"s":"#081018","w":1.5,"o":0.95,"t":1,"p":1,"f":"|"}},{"type":"Feature","geometry":{"type":"Point","coordinates":[-83.082002,42.331906]},"properties":{"k":"7021e458b8126d19","n":"Florists' Telegraph Delivery (FTD)","c":"#59BACF","r":6.5,"s":"#081018","w":1.5,"o":0.95,"t":1,"p":1,"f":"|"}},{"type":"Feature","geometry":{"type":"Point","coordinates":[-81.6944,41.4993]},"properties":{"k":"77a2f5d62531f958","n":"Cleveland confectioners' committee (C. C. Hartzell)","c":"#59B4CF","r":6.5,"s":"#081018","w":1.5,"o":0.95,"t":1,"p":1,"f":"|"}},{"type":"Feature","geometry":{"type":"Point","coordinates":[-73.989,40.7508]},"properties":{"k":"f688fae1c72144f1","n":"Macy's","c":"#59B2CF","r":6.5,"s":"#081018","w":1.5,"o":0.95,"t":1,"p":1,"f":"|"}},{"type":"Feature","geometry":{"type":"Point","coordinates":[-84.3963,33.771]},"properties":{"k":"1f6184d1ad8fcd0c","n":"The Coca-Cola Company","c":"#59AECF","r":6.5,"s":"#081018","w":1.5,"o":0.95,"t":1,"p":1,"f":"|"}},{"type":"Feature","geometry":{"type":"Point","coordinates":[-74.016,40.8976]},"properties":{"k":"c9b79f91372a329a","n":"Maxwell House and Joseph Jacobs Advertising","c":"#59ADCF","r":6.5,"s":"#081018","w":1.5,"o":0.95,"t":1,"p":1,"f":"|"}},{"type":"Feature","geometry":{"type":"Point","coordinates":[135.169982,34.679988]},"properties":{"k":"e9c782d50fa4979e","n":"Morozoff","c":"#59ABCF","r":6.5,"s":"#081018","w":1.5,"o":0.95,"t":1,"p":1,"f":"|"}},{"type":"Feature","geometry":{"type":"Point","coordinates":[-77.059,38.905]},"properties":{"k":"803a9368823a5511","n":"National Confectioners Association","c":"#59AACF","r":6.5,"s":"#081018","w":1.5,"o":0.95,"t":1,"p":1,"f":"|"}},{"type":"Feature","geometry":{"type":"Point","coordinates":[-74.006,40.7128]},"properties":{"k":"c66615896ca70f2c","n":"Father's Day Council (New York Associated Men's Wear Retailers)","c":"#59AACF","r":6.5,"s":"#081018","w":1.5,"o":0.95,"t":1,"p":1,"f":"|"}},{"type":"Feature","geometry":{"type":"Point","coordinates":[-87.6437,41.8966]},"properties":{"k":"0062db2919f3e038","n":"Montgomery Ward","c":"#59A9CF","r":6.5,"s":"#081018","w":1.5,"o":0.95,"t":1,"p":1,"f":"|"}},{"type":"Feature","geometry":{"type":"Point","coordinates":[-82.991956,39.98192]},"properties":{"k":"88656b47f0ee9623","n":"Federated Department Stores (Fred Lazarus Jr.; now Macy's, Inc.)","c":"#59A9CF","r":6.5,"s":"#081018","w":1.5,"o":0.95,"t":1,"p":1,"f":"|"}},{"type":"Feature","geometry":{"type":"Point","coordinates":[-77.0091,38.8899]},"properties":{"k":"ef7adad4d4c4bbd9","n":"US candy makers","c":"#59A3CF","r":6.5,"s":"#081018","w":1.5,"o":0.95,"t":1,"p":1,"f":"|"}},{"type":"Feature","geometry":{"type":"Point","coordinates":[-73.201907,41.181925]},"properties":{"k":"a38c4fda35c0a2db","n":"Dictaphone Corporation (C. King Woodbridge)","c":"#59A2CF","r":6.5,"s":"#081018","w":1.5,"o":0.95,"t":1,"p":1,"f":"|"}},{"type":"Feature","geometry":{"type":"Point","coordinates":[-73.981963,40.751925]},"properties":{"k":"faddfd385f40cd9e","n":"Young & Rubicam (Harry F. Klemfuss)","c":"#59A2CF","r":6.5,"s":"#081018","w":1.5,"o":0.95,"t":1,"p":1,"f":"|"}},{"type":"Feature","geometry":{"type":"Point","coordinates":[139.749462,35.686963]},"properties":{"k":"719de556e13f41cb","n":"Mary's Chocolate","c":"#599ECF","r":6.5,"s":"#081018","w":1.5,"o":0.95,"t":1,"p":1,"f":"|"}},{"type":"Feature","geometry":{"type":"Point","coordinates":[139.622,35.466]},"properties":{"k":"68e16f1d82823c73","n":"KFC Japan","c":"#5995CF","r":6.5,"s":"#081018","w":1.5,"o":0.95,"t":1,"p":1,"f":"|"}},{"type":"Feature","geometry":{"type":"Point","coordinates":[130.4017,33.59]},"properties":{"k":"3b836293fed1543a","n":"Ishimuramanseido","c":"#5993CF","r":6.5,"s":"#081018","w":1.5,"o":0.95,"t":1,"p":1,"f":"|"}},{"type":"Feature","geometry":{"type":"Point","coordinates":[-99.132934,19.444388]},"properties":{"k":"c663e93bb6b4548e","n":"Grupo Modelo (maker of Corona)","c":"#5991CF","r":6.5,"s":"#081018","w":1.5,"o":0.95,"t":1,"p":1,"f":"|"}},{"type":"Feature","geometry":{"type":"Point","coordinates":[-98.509251,29.489279]},"properties":{"k":"0e7f930af0b57787","n":"The Gambrinus Company","c":"#598CCF","r":6.5,"s":"#081018","w":1.5,"o":0.95,"t":1,"p":1,"f":"|"}},{"type":"Feature","geometry":{"type":"Point","coordinates":[126.978,37.5665]},"properties":{"k":"62d948d618967d2e","n":"Lotte","c":"#5987CF","r":6.5,"s":"#081018","w":1.5,"o":0.95,"t":1,"p":1,"f":"|"}},{"type":"Feature","geometry":{"type":"Point","coordinates":[-77.028,38.9008]},"properties":{"k":"0d71f99ba310a8f0","n":"National Retail Federation (Shop.org)","c":"#5983CF","r":6.5,"s":"#081018","w":1.5,"o":0.95,"t":1,"p":1,"f":"|"}},{"type":"Feature","geometry":{"type":"Point","coordinates":[120.026,30.281]},"properties":{"k":"893b7791fe17e85b","n":"Alibaba Group","c":"#5980CF","r":6.5,"s":"#081018","w":1.5,"o":0.95,"t":1,"p":1,"f":"|"}},{"type":"Feature","geometry":{"type":"Point","coordinates":[-6.2867,53.3434]},"properties":{"k":"58aedff1b39e72fb","n":"Diageo (Guinness)","c":"#5980CF","r":6.5,"s":"#081018","w":1.5,"o":0.95,"t":1,"p":1,"f":"|"}},{"type":"Feature","geometry":{"type":"Point","coordinates":[-74.0154,40.7146]},"properties":{"k":"e44caed0d2fc1c9f","n":"American Express","c":"#5980CF","r":6.5,"s":"#081018","w":1.5,"o":0.95,"t":1,"p":1,"f":"|"}},{"type":"Feature","geometry":{"type":"Point","coordinates":[113.9345,22.5404]},"properties":{"k":"f3ec46f28f136aef","n":"Tencent (WeChat)","c":"#597DCF","r":6.5,"s":"#081018","w":1.5,"o":0.95,"t":1,"p":1,"f":"|"}},{"type":"Feature","geometry":{"type":"Point","coordinates":[-122.3395,47.6156]},"properties":{"k":"7d7af5edeb6a185e","n":"Amazon","c":"#597DCF","r":6.5,"s":"#081018","w":1.5,"o":0.95,"t":1,"p":1,"f":"|"}},{"type":"Feature","geometry":{"type":"Point","coordinates":[-99.1677,19.427]},"properties":{"k":"cbd3c412595d48a5","n":"Mexico's tourism board and the James Bond film Spectre","c":"#597CCF","r":6.5,"s":"#081018","w":1.5,"o":0.95,"t":1,"p":1,"f":"|"}}]}