{"type":"FeatureCollection","name":"\u4e2d\u56fd\u7cae\u4ed3 China Grain Storage","overlays":[],"features":[{"type":"Feature","geometry":{"type":"Point","coordinates":[126.65,45.75]},"properties":{"k":"9aeb3bd495961221","c":"#BD7F7F","r":12.0,"n":"Harbin Sinograin Central Depot","p":1}},{"type":"Feature","geometry":{"type":"Point","coordinates":[130.32,46.8]},"properties":{"k":"fe6da58ee7bdf3a7","c":"#BD7F7F","r":12.0,"n":"Jiamusi Sinograin Depot","p":1}},{"type":"Feature","geometry":{"type":"Point","coordinates":[123.95,47.35]},"properties":{"k":"95f990b559dd42cc","c":"#BD7F7F","r":12.0,"n":"Qiqihar Direct Library","p":1}},{"type":"Feature","geometry":{"type":"Point","coordinates":[125.1,46.58]},"properties":{"k":"7ea503b2866c02d9","c":"#BD967F","r":12.0,"n":"Daqing Sinograin Depot","p":1}},{"type":"Feature","geometry":{"type":"Point","coordinates":[130.3,47.35]},"properties":{"k":"fc14e018d3439923","c":"#BD967F","r":12.0,"n":"Hegang Direct Library","p":1}},{"type":"Feature","geometry":{"type":"Point","coordinates":[126.98,46.65]},"properties":{"k":"1296845fd2bdadf8","c":"#BD7F7F","r":12.0,"n":"Suihua Central Reserve","p":1}},{"type":"Feature","geometry":{"type":"Point","coordinates":[129.6,44.58]},"properties":{"k":"38d8b866a09266af","c":"#BD967F","r":12.0,"n":"Mudanjiang Depot","p":1}},{"type":"Feature","geometry":{"type":"Point","coordinates":[125.32,43.88]},"properties":{"k":"4fc37b7ef68ad7aa","c":"#BD7F7F","r":12.0,"n":"Changchun Central Reserve","p":1}},{"type":"Feature","geometry":{"type":"Point","coordinates":[126.55,43.84]},"properties":{"k":"036b66e56e778e9d","c":"#BD7F7F","r":12.0,"n":"Jilin City Direct Library","p":1}},{"type":"Feature","geometry":{"type":"Point","coordinates":[124.37,43.17]},"properties":{"k":"c61b06da340b4d3c","c":"#BD967F","r":12.0,"n":"Siping Sinograin Depot","p":1}},{"type":"Feature","geometry":{"type":"Point","coordinates":[125.13,42.9]},"properties":{"k":"1e5417621051bc79","c":"#BD967F","r":12.0,"n":"Liaoyuan Direct Library","p":1}},{"type":"Feature","geometry":{"type":"Point","coordinates":[124.82,45.12]},"properties":{"k":"4b9a77a2925b54cc","c":"#BD7F7F","r":12.0,"n":"Songyuan Grain Reserve","p":1}},{"type":"Feature","geometry":{"type":"Point","coordinates":[123.43,41.8]},"properties":{"k":"872811b972d96471","c":"#BD7F7F","r":12.0,"n":"Shenyang Sinograin Depot","p":1}},{"type":"Feature","geometry":{"type":"Point","coordinates":[121.815,38.977]},"properties":{"k":"c4390c7b1ebf59d5","c":"#7F96BD","r":12.0,"n":"Dalian Beiliang Grain Terminal","p":1}},{"type":"Feature","geometry":{"type":"Point","coordinates":[122.99,41.11]},"properties":{"k":"fee492c8fbe3ecfc","c":"#BD967F","r":12.0,"n":"Anshan Direct Library","p":1}},{"type":"Feature","geometry":{"type":"Point","coordinates":[123.92,41.88]},"properties":{"k":"471dc53f2e90b2bc","c":"#BD967F","r":12.0,"n":"Fushun Central Reserve","p":1}},{"type":"Feature","geometry":{"type":"Point","coordinates":[124.38,40.13]},"properties":{"k":"e193886afb50eb47","c":"#BD967F","r":12.0,"n":"Dandong Border Depot","p":1}},{"type":"Feature","geometry":{"type":"Point","coordinates":[122.28,40.67]},"properties":{"k":"42a526463788182a","c":"#7F96BD","r":12.0,"n":"Yingkou Port Grain Terminal","p":1}},{"type":"Feature","geometry":{"type":"Point","coordinates":[117.75,39]},"properties":{"k":"97175697d34b6b0a","c":"#7F96BD","r":12.0,"n":"Tianjin Port Grain Terminal","p":1}},{"type":"Feature","geometry":{"type":"Point","coordinates":[117.13,39.22]},"properties":{"k":"2be4c93d76eb0228","c":"#BD7F7F","r":12.0,"n":"Tianjin Beichen Reserve","p":1}},{"type":"Feature","geometry":{"type":"Point","coordinates":[114.48,38.05]},"properties":{"k":"3e45dd88196e0de7","c":"#BD7F7F","r":12.0,"n":"Shijiazhuang Central Reserve","p":1}},{"type":"Feature","geometry":{"type":"Point","coordinates":[118.18,39.63]},"properties":{"k":"42bbe03eac859e90","c":"#BD7F7F","r":12.0,"n":"Tangshan Direct Library","p":1}},{"type":"Feature","geometry":{"type":"Point","coordinates":[119.6,39.93]},"properties":{"k":"1117a9a19450941d","c":"#7F96BD","r":12.0,"n":"Qinhuangdao Strategic Reserve","p":1}},{"type":"Feature","geometry":{"type":"Point","coordinates":[114.48,36.6]},"properties":{"k":"7c053a0abcb4745b","c":"#BD967F","r":12.0,"n":"Handan Grain Center","p":1}},{"type":"Feature","geometry":{"type":"Point","coordinates":[115.47,38.87]},"properties":{"k":"94aa1f9e3c637e78","c":"#BD7F7F","r":12.0,"n":"Baoding Central Reserve","p":1}},{"type":"Feature","geometry":{"type":"Point","coordinates":[113.63,34.75]},"properties":{"k":"387ceeaa68409364","c":"#BD7F7F","r":12.0,"n":"Zhengzhou Central Reserve","p":1}},{"type":"Feature","geometry":{"type":"Point","coordinates":[115.03,35.7]},"properties":{"k":"7cb1d1f15e77ba7c","c":"#BD7F7F","r":12.0,"n":"Puyang Sinograin Warehouse","p":1}},{"type":"Feature","geometry":{"type":"Point","coordinates":[112.45,34.62]},"properties":{"k":"0397ecc38e0ed687","c":"#BD7F7F","r":12.0,"n":"Luoyang Direct Library","p":1}},{"type":"Feature","geometry":{"type":"Point","coordinates":[114.35,34.8]},"properties":{"k":"0e1492f0e922e0f7","c":"#BD7F7F","r":12.0,"n":"Kaifeng Grain Reserve","p":1}},{"type":"Feature","geometry":{"type":"Point","coordinates":[114.35,36.1]},"properties":{"k":"4d907fd1ceb4ab4c","c":"#BD967F","r":12.0,"n":"Anyang Central Depot","p":1}},{"type":"Feature","geometry":{"type":"Point","coordinates":[112.53,33]},"properties":{"k":"1841d6f1ec8b789d","c":"#BD967F","r":12.0,"n":"Nanyang Direct Library","p":1}},{"type":"Feature","geometry":{"type":"Point","coordinates":[114.65,33.63]},"properties":{"k":"3dc830be35843b7e","c":"#BD7F7F","r":12.0,"n":"Zhoukou Sinograin Depot","p":1}},{"type":"Feature","geometry":{"type":"Point","coordinates":[115.65,34.42]},"properties":{"k":"35a585dfeee9c721","c":"#BD7F7F","r":12.0,"n":"Shangqiu Grain Center","p":1}},{"type":"Feature","geometry":{"type":"Point","coordinates":[117.12,36.65]},"properties":{"k":"1f82c9591e2e7d7d","c":"#BD7F7F","r":12.0,"n":"Jinan Central Reserve","p":1}},{"type":"Feature","geometry":{"type":"Point","coordinates":[120.38,36.07]},"properties":{"k":"f890d1138125ee74","c":"#7F96BD","r":12.0,"n":"Qingdao Port Terminal","p":1}},{"type":"Feature","geometry":{"type":"Point","coordinates":[121.45,37.47]},"properties":{"k":"bf6a101d4d604094","c":"#BD967F","r":12.0,"n":"Yantai Direct Library","p":1}},{"type":"Feature","geometry":{"type":"Point","coordinates":[119.1,36.72]},"properties":{"k":"948fc48417dabae7","c":"#BD7F7F","r":12.0,"n":"Weifang Grain Center","p":1}},{"type":"Feature","geometry":{"type":"Point","coordinates":[116.58,35.42]},"properties":{"k":"fb3bd80539090f89","c":"#BD7F7F","r":12.0,"n":"Jining Central Reserve","p":1}},{"type":"Feature","geometry":{"type":"Point","coordinates":[116.3,37.45]},"properties":{"k":"9bfee4cffe6d1150","c":"#BD967F","r":12.0,"n":"Dezhou Direct Library","p":1}},{"type":"Feature","geometry":{"type":"Point","coordinates":[118.35,35.1]},"properties":{"k":"509f5c589398b2af","c":"#BD7F7F","r":12.0,"n":"Linyi Grain Reserve","p":1}},{"type":"Feature","geometry":{"type":"Point","coordinates":[119.52,35.42]},"properties":{"k":"fcc85503a1ee3d8a","c":"#7F96BD","r":12.0,"n":"Rizhao Port Depot","p":1}},{"type":"Feature","geometry":{"type":"Point","coordinates":[118.78,32.05]},"properties":{"k":"4823849f5ae3ec39","c":"#BD7F7F","r":12.0,"n":"Nanjing Central Reserve","p":1}},{"type":"Feature","geometry":{"type":"Point","coordinates":[117.18,34.27]},"properties":{"k":"652e2a68a5b62b2f","c":"#BD7F7F","r":12.0,"n":"Xuzhou Direct Library","p":1}},{"type":"Feature","geometry":{"type":"Point","coordinates":[120.58,31.3]},"properties":{"k":"e8e9fb6bb29bb64c","c":"#BD967F","r":12.0,"n":"Suzhou Grain Center","p":1}},{"type":"Feature","geometry":{"type":"Point","coordinates":[120.9,32.03]},"properties":{"k":"343e398a5c384613","c":"#7F96BD","r":12.0,"n":"Nantong Port Depot","p":1}},{"type":"Feature","geometry":{"type":"Point","coordinates":[119.42,32.4]},"properties":{"k":"7669f24c71a7490d","c":"#BD967F","r":12.0,"n":"Yangzhou Direct Library","p":1}},{"type":"Feature","geometry":{"type":"Point","coordinates":[119.45,32.2]},"properties":{"k":"25d3511b890977f4","c":"#BD967F","r":12.0,"n":"Zhenjiang Central Reserve","p":1}},{"type":"Feature","geometry":{"type":"Point","coordinates":[119.22,34.6]},"properties":{"k":"894b03347bc9a5df","c":"#7F96BD","r":12.0,"n":"Lianyungang Port Terminal","p":1}},{"type":"Feature","geometry":{"type":"Point","coordinates":[119.02,33.6]},"properties":{"k":"042d9bfc0bd28ede","c":"#BD967F","r":12.0,"n":"Huai an Grain Reserve","p":1}},{"type":"Feature","geometry":{"type":"Point","coordinates":[120.15,33.35]},"properties":{"k":"7273a0132ddc3ca2","c":"#BD967F","r":12.0,"n":"Yancheng Direct Library","p":1}},{"type":"Feature","geometry":{"type":"Point","coordinates":[121.8,31.33]},"properties":{"k":"ef8bc3b86761a966","c":"#7F96BD","r":12.0,"n":"Shanghai Port Terminal","p":1}},{"type":"Feature","geometry":{"type":"Point","coordinates":[121.48,31.4]},"properties":{"k":"64f92037c14ef004","c":"#BD7F7F","r":12.0,"n":"Shanghai Baoshan Depot","p":1}},{"type":"Feature","geometry":{"type":"Point","coordinates":[120.17,30.25]},"properties":{"k":"04ab178e6f879ebb","c":"#BD7F7F","r":12.0,"n":"Hangzhou Central Reserve","p":1}},{"type":"Feature","geometry":{"type":"Point","coordinates":[121.55,29.87]},"properties":{"k":"c5a3c46d8bf936c5","c":"#7F96BD","r":12.0,"n":"Ningbo Port Terminal","p":1}},{"type":"Feature","geometry":{"type":"Point","coordinates":[120.75,30.75]},"properties":{"k":"7a0a68a9920a4646","c":"#BD967F","r":12.0,"n":"Jiaxing Direct Library","p":1}},{"type":"Feature","geometry":{"type":"Point","coordinates":[120.65,28]},"properties":{"k":"79ffd11761f129dc","c":"#BD967F","r":12.0,"n":"Wenzhou Grain Center","p":1}},{"type":"Feature","geometry":{"type":"Point","coordinates":[117.23,31.82]},"properties":{"k":"eed7736cac9a1a58","c":"#BD7F7F","r":12.0,"n":"Hefei Central Reserve","p":1}},{"type":"Feature","geometry":{"type":"Point","coordinates":[118.38,31.35]},"properties":{"k":"dec303f406183cc8","c":"#BD7F7F","r":12.0,"n":"Wuhu Direct Library","p":1}},{"type":"Feature","geometry":{"type":"Point","coordinates":[117.38,32.93]},"properties":{"k":"d5ff16fe9bfbd7b2","c":"#BD967F","r":12.0,"n":"Bengbu Grain Center","p":1}},{"type":"Feature","geometry":{"type":"Point","coordinates":[117.05,30.53]},"properties":{"k":"72b9b51d727c372a","c":"#BD967F","r":12.0,"n":"Anqing Central Reserve","p":1}},{"type":"Feature","geometry":{"type":"Point","coordinates":[119.3,26.08]},"properties":{"k":"0988be77ced12ff4","c":"#BD7F7F","r":12.0,"n":"Fuzhou Central Reserve","p":1}},{"type":"Feature","geometry":{"type":"Point","coordinates":[118.08,24.48]},"properties":{"k":"0261e4ad6bf3d198","c":"#7F96BD","r":12.0,"n":"Xiamen Port Terminal","p":1}},{"type":"Feature","geometry":{"type":"Point","coordinates":[118.6,24.9]},"properties":{"k":"a97cc334e8ac33d1","c":"#BD967F","r":12.0,"n":"Quanzhou Grain Depot","p":1}},{"type":"Feature","geometry":{"type":"Point","coordinates":[115.85,28.68]},"properties":{"k":"f195024e5e689bce","c":"#BD7F7F","r":12.0,"n":"Nanchang Central Reserve","p":1}},{"type":"Feature","geometry":{"type":"Point","coordinates":[116,29.7]},"properties":{"k":"ad8ab2353bd8489f","c":"#BD7F7F","r":12.0,"n":"Jiujiang Direct Library","p":1}},{"type":"Feature","geometry":{"type":"Point","coordinates":[114.93,25.83]},"properties":{"k":"97c8f74e1fdf1254","c":"#BD967F","r":12.0,"n":"Ganzhou Grain Center","p":1}},{"type":"Feature","geometry":{"type":"Point","coordinates":[114.27,30.58]},"properties":{"k":"0ff09844271d1cb3","c":"#BD7F7F","r":12.0,"n":"Wuhan Central Reserve","p":1}},{"type":"Feature","geometry":{"type":"Point","coordinates":[111.28,30.7]},"properties":{"k":"9cbaa34dfd00a2d1","c":"#BD7F7F","r":12.0,"n":"Yichang Direct Library","p":1}},{"type":"Feature","geometry":{"type":"Point","coordinates":[112.12,32.02]},"properties":{"k":"fcfe8c73ac287ad9","c":"#BD7F7F","r":12.0,"n":"Xiangyang Grain Center","p":1}},{"type":"Feature","geometry":{"type":"Point","coordinates":[112.23,30.35]},"properties":{"k":"8b6da178d74a2a11","c":"#BD967F","r":12.0,"n":"Jingzhou Central Reserve","p":1}},{"type":"Feature","geometry":{"type":"Point","coordinates":[112.93,28.23]},"properties":{"k":"a4f61d3337ffeaa1","c":"#BD7F7F","r":12.0,"n":"Changsha Central Reserve","p":1}},{"type":"Feature","geometry":{"type":"Point","coordinates":[113.13,29.37]},"properties":{"k":"c2512e355bd92020","c":"#BD7F7F","r":12.0,"n":"Yueyang Direct Library","p":1}},{"type":"Feature","geometry":{"type":"Point","coordinates":[112.57,26.9]},"properties":{"k":"b0213033a05c4f8f","c":"#BD967F","r":12.0,"n":"Hengyang Grain Center","p":1}},{"type":"Feature","geometry":{"type":"Point","coordinates":[111.68,29.05]},"properties":{"k":"ee4599c34dc320ce","c":"#BD967F","r":12.0,"n":"Changde Central Reserve","p":1}},{"type":"Feature","geometry":{"type":"Point","coordinates":[113.6,23.1]},"properties":{"k":"a8726df5771611a5","c":"#7F96BD","r":12.0,"n":"Guangzhou Port Terminal","p":1}},{"type":"Feature","geometry":{"type":"Point","coordinates":[114.05,22.55]},"properties":{"k":"c8cf05b03920c4b4","c":"#7F96BD","r":12.0,"n":"Shenzhen Port Depot","p":1}},{"type":"Feature","geometry":{"type":"Point","coordinates":[110.35,21.27]},"properties":{"k":"f23735c4d55bdd36","c":"#7F96BD","r":12.0,"n":"Zhanjiang Port Terminal","p":1}},{"type":"Feature","geometry":{"type":"Point","coordinates":[113.12,23.03]},"properties":{"k":"5b9e3e26b52ba7ba","c":"#BD967F","r":12.0,"n":"Foshan Grain Center","p":1}},{"type":"Feature","geometry":{"type":"Point","coordinates":[108.37,22.82]},"properties":{"k":"184c944a64d2f19c","c":"#BD7F7F","r":12.0,"n":"Nanning Central Reserve","p":1}},{"type":"Feature","geometry":{"type":"Point","coordinates":[109.1,21.48]},"properties":{"k":"3be7704914334207","c":"#7F96BD","r":12.0,"n":"Beihai Port Depot","p":1}},{"type":"Feature","geometry":{"type":"Point","coordinates":[109.42,24.33]},"properties":{"k":"650ea65c815de87d","c":"#BD967F","r":12.0,"n":"Liuzhou Direct Library","p":1}},{"type":"Feature","geometry":{"type":"Point","coordinates":[110.32,20.05]},"properties":{"k":"270ca57d74d15323","c":"#BD7F7F","r":12.0,"n":"Haikou Central Reserve","p":1}},{"type":"Feature","geometry":{"type":"Point","coordinates":[109.52,18.25]},"properties":{"k":"73e6628496b03c1d","c":"#BD967F","r":12.0,"n":"Sanya Grain Depot","p":1}},{"type":"Feature","geometry":{"type":"Point","coordinates":[104.07,30.67]},"properties":{"k":"bdc793738b88eb6c","c":"#BD7F7F","r":12.0,"n":"Chengdu Central Reserve","p":1}},{"type":"Feature","geometry":{"type":"Point","coordinates":[104.73,31.47]},"properties":{"k":"ca10910fc63916b5","c":"#BD967F","r":12.0,"n":"Mianyang Direct Library","p":1}},{"type":"Feature","geometry":{"type":"Point","coordinates":[105.43,28.88]},"properties":{"k":"0016446e67062164","c":"#BD967F","r":12.0,"n":"Luzhou Grain Center","p":1}},{"type":"Feature","geometry":{"type":"Point","coordinates":[106.08,30.8]},"properties":{"k":"7e1c7506d6dceefa","c":"#BD967F","r":12.0,"n":"Nanchong Central Reserve","p":1}},{"type":"Feature","geometry":{"type":"Point","coordinates":[106.63,26.65]},"properties":{"k":"b17c5144eedb9b4d","c":"#BD7F7F","r":12.0,"n":"Guiyang Central Reserve","p":1}},{"type":"Feature","geometry":{"type":"Point","coordinates":[106.92,27.7]},"properties":{"k":"5a82f771066edda2","c":"#BD967F","r":12.0,"n":"Zunyi Direct Library","p":1}},{"type":"Feature","geometry":{"type":"Point","coordinates":[102.72,25.05]},"properties":{"k":"40e849b16ea347b8","c":"#BD7F7F","r":12.0,"n":"Kunming Central Reserve","p":1}},{"type":"Feature","geometry":{"type":"Point","coordinates":[103.8,25.5]},"properties":{"k":"9fd3157dbb90fd44","c":"#BD967F","r":12.0,"n":"Qujing Grain Center","p":1}},{"type":"Feature","geometry":{"type":"Point","coordinates":[108.93,34.27]},"properties":{"k":"b79137cc8101340f","c":"#BD7F7F","r":12.0,"n":"Xi an Central Reserve","p":1}},{"type":"Feature","geometry":{"type":"Point","coordinates":[107.13,34.37]},"properties":{"k":"0d3df772aad0fb6f","c":"#BD967F","r":12.0,"n":"Baoji Direct Library","p":1}},{"type":"Feature","geometry":{"type":"Point","coordinates":[108.72,34.33]},"properties":{"k":"e63d822ee3c99eaa","c":"#BD967F","r":12.0,"n":"Xianyang Grain Center","p":1}},{"type":"Feature","geometry":{"type":"Point","coordinates":[103.83,36.05]},"properties":{"k":"a976b7cd06b96d76","c":"#BD7F7F","r":12.0,"n":"Lanzhou Central Reserve","p":1}},{"type":"Feature","geometry":{"type":"Point","coordinates":[105.72,34.58]},"properties":{"k":"7797edcf29db7d20","c":"#BD967F","r":12.0,"n":"Tianshui Direct Library","p":1}},{"type":"Feature","geometry":{"type":"Point","coordinates":[101.78,36.62]},"properties":{"k":"9c66a6240613ae12","c":"#BD7F7F","r":12.0,"n":"Xining Central Reserve","p":1}},{"type":"Feature","geometry":{"type":"Point","coordinates":[106.23,38.48]},"properties":{"k":"1647d0373110b681","c":"#BD7F7F","r":12.0,"n":"Yinchuan Central Reserve","p":1}},{"type":"Feature","geometry":{"type":"Point","coordinates":[106.38,39.23]},"properties":{"k":"5b3fe8e28f3e4926","c":"#BD967F","r":12.0,"n":"Shizuishan Direct Library","p":1}},{"type":"Feature","geometry":{"type":"Point","coordinates":[87.62,43.83]},"properties":{"k":"a15854f96d25912a","c":"#BD7F7F","r":12.0,"n":"Urumqi Central Reserve","p":1}},{"type":"Feature","geometry":{"type":"Point","coordinates":[84.9,44.43]},"properties":{"k":"399ca6229be3bf90","c":"#BD967F","r":12.0,"n":"Kuitun Grain Center","p":1}},{"type":"Feature","geometry":{"type":"Point","coordinates":[75.98,39.47]},"properties":{"k":"22f76572d21ff7b3","c":"#BD967F","r":12.0,"n":"Kashgar Direct Library","p":1}},{"type":"Feature","geometry":{"type":"Point","coordinates":[111.65,40.82]},"properties":{"k":"b4a297fc27e1e00b","c":"#BD7F7F","r":12.0,"n":"Hohhot Central Reserve","p":1}},{"type":"Feature","geometry":{"type":"Point","coordinates":[109.83,40.65]},"properties":{"k":"eadedcbb5440b709","c":"#BD7F7F","r":12.0,"n":"Baotou Grain Center","p":1}},{"type":"Feature","geometry":{"type":"Point","coordinates":[122.27,43.62]},"properties":{"k":"a21e6c348858d329","c":"#BD967F","r":12.0,"n":"Tongliao Direct Library","p":1}},{"type":"Feature","geometry":{"type":"Point","coordinates":[106.55,29.57]},"properties":{"k":"9e53a19d790893eb","c":"#BD7F7F","r":12.0,"n":"Chongqing Central Reserve","p":1}},{"type":"Feature","geometry":{"type":"Point","coordinates":[91.13,29.65]},"properties":{"k":"55f6dd858a1a39a6","c":"#BD7F7F","r":12.0,"n":"Lhasa Central Reserve","p":1}}]}