{"type":"FeatureCollection","name":"Global Banking Dynasties","overlays":[],"features":[{"type":"Feature","geometry":{"type":"Point","coordinates":[11.2558,43.7696]},"properties":{"k":"b35870c1b1225ab8","c":"#65343C","r":6.0,"s":"#FFFFFF","w":1,"o":0.8,"n":"Bardi","p":1}},{"type":"Feature","geometry":{"type":"Point","coordinates":[-0.1278,51.5074]},"properties":{"k":"1db15098126f4e78","c":"#65343C","r":6.0,"s":"#FFFFFF","w":1,"o":0.8,"n":"Bardi","p":1}},{"type":"Feature","geometry":{"type":"Point","coordinates":[2.3522,48.8566]},"properties":{"k":"ff81ecb6abb6c27a","c":"#65343C","r":6.0,"s":"#FFFFFF","w":1,"o":0.8,"n":"Bardi","p":1}},{"type":"Feature","geometry":{"type":"Point","coordinates":[14.2681,40.8518]},"properties":{"k":"b78b5c4c8a0aa43e","c":"#65343C","r":6.0,"s":"#FFFFFF","w":1,"o":0.8,"n":"Bardi","p":1}},{"type":"Feature","geometry":{"type":"Point","coordinates":[3.2247,51.2093]},"properties":{"k":"16a394f14c80fc29","c":"#65343C","r":6.0,"s":"#FFFFFF","w":1,"o":0.8,"n":"Bardi","p":1}},{"type":"Feature","geometry":{"type":"Point","coordinates":[4.8055,43.9493]},"properties":{"k":"ef6329b58ddce816","c":"#65343C","r":6.0,"s":"#FFFFFF","w":1,"o":0.8,"n":"Bardi","p":1}},{"type":"Feature","geometry":{"type":"Point","coordinates":[11.2558,43.7696]},"properties":{"k":"92e3790ac489aa92","c":"#733B44","r":6.0,"s":"#FFFFFF","w":1,"o":0.8,"n":"Peruzzi","p":1}},{"type":"Feature","geometry":{"type":"Point","coordinates":[-0.1278,51.5074]},"properties":{"k":"802b5844fc1aaddb","c":"#733B44","r":6.0,"s":"#FFFFFF","w":1,"o":0.8,"n":"Peruzzi","p":1}},{"type":"Feature","geometry":{"type":"Point","coordinates":[2.3522,48.8566]},"properties":{"k":"3cef92e9d9711682","c":"#733B44","r":6.0,"s":"#FFFFFF","w":1,"o":0.8,"n":"Peruzzi","p":1}},{"type":"Feature","geometry":{"type":"Point","coordinates":[14.2681,40.8518]},"properties":{"k":"2e09df0f34b37d68","c":"#733B44","r":6.0,"s":"#FFFFFF","w":1,"o":0.8,"n":"Peruzzi","p":1}},{"type":"Feature","geometry":{"type":"Point","coordinates":[3.2247,51.2093]},"properties":{"k":"281c339b21f064d4","c":"#733B44","r":6.0,"s":"#FFFFFF","w":1,"o":0.8,"n":"Peruzzi","p":1}},{"type":"Feature","geometry":{"type":"Point","coordinates":[4.8055,43.9493]},"properties":{"k":"aeeb700af1868e5f","c":"#733B44","r":6.0,"s":"#FFFFFF","w":1,"o":0.8,"n":"Peruzzi","p":1}},{"type":"Feature","geometry":{"type":"Point","coordinates":[11.2558,43.7696]},"properties":{"k":"c0588306e30c8aed","c":"#8B555C","r":6.0,"s":"#FFFFFF","w":1,"o":0.8,"n":"Medici","p":1}},{"type":"Feature","geometry":{"type":"Point","coordinates":[12.4964,41.9028]},"properties":{"k":"f6feaba5523baead","c":"#8B555C","r":6.0,"s":"#FFFFFF","w":1,"o":0.8,"n":"Medici","p":1}},{"type":"Feature","geometry":{"type":"Point","coordinates":[12.3155,45.4408]},"properties":{"k":"b4f35301dd8ce23e","c":"#8B555C","r":6.0,"s":"#FFFFFF","w":1,"o":0.8,"n":"Medici","p":1}},{"type":"Feature","geometry":{"type":"Point","coordinates":[9.19,45.4642]},"properties":{"k":"b6235f9d1445dc17","c":"#8B555C","r":6.0,"s":"#FFFFFF","w":1,"o":0.8,"n":"Medici","p":1}},{"type":"Feature","geometry":{"type":"Point","coordinates":[6.1432,46.2044]},"properties":{"k":"b0ddd7810c100d60","c":"#8B555C","r":6.0,"s":"#FFFFFF","w":1,"o":0.8,"n":"Medici","p":1}},{"type":"Feature","geometry":{"type":"Point","coordinates":[4.8357,45.764]},"properties":{"k":"f4da7fcb7dd8fc95","c":"#8B555C","r":6.0,"s":"#FFFFFF","w":1,"o":0.8,"n":"Medici","p":1}},{"type":"Feature","geometry":{"type":"Point","coordinates":[3.2247,51.2093]},"properties":{"k":"86a5fa5f1b6d66a1","c":"#8B555C","r":6.0,"s":"#FFFFFF","w":1,"o":0.8,"n":"Medici","p":1}},{"type":"Feature","geometry":{"type":"Point","coordinates":[-0.1278,51.5074]},"properties":{"k":"d48aab69798ed031","c":"#8B555C","r":6.0,"s":"#FFFFFF","w":1,"o":0.8,"n":"Medici","p":1}},{"type":"Feature","geometry":{"type":"Point","coordinates":[10.8978,48.3705]},"properties":{"k":"4c6c198eb1471da9","c":"#9B7D82","r":6.0,"s":"#FFFFFF","w":1,"o":0.8,"n":"Fugger","p":1}},{"type":"Feature","geometry":{"type":"Point","coordinates":[4.4025,51.2194]},"properties":{"k":"289ac624a0b77e49","c":"#9B7D82","r":6.0,"s":"#FFFFFF","w":1,"o":0.8,"n":"Fugger","p":1}},{"type":"Feature","geometry":{"type":"Point","coordinates":[12.4964,41.9028]},"properties":{"k":"8155d4d77888a51d","c":"#9B7D82","r":6.0,"s":"#FFFFFF","w":1,"o":0.8,"n":"Fugger","p":1}},{"type":"Feature","geometry":{"type":"Point","coordinates":[16.3738,48.2082]},"properties":{"k":"fa72caf5878b765e","c":"#9B7D82","r":6.0,"s":"#FFFFFF","w":1,"o":0.8,"n":"Fugger","p":1}},{"type":"Feature","geometry":{"type":"Point","coordinates":[12.3155,45.4408]},"properties":{"k":"eaf6c8e2b980ee87","c":"#9B7D82","r":6.0,"s":"#FFFFFF","w":1,"o":0.8,"n":"Fugger","p":1}},{"type":"Feature","geometry":{"type":"Point","coordinates":[-9.1393,38.7223]},"properties":{"k":"16933b335a852ba3","c":"#9B7D82","r":6.0,"s":"#FFFFFF","w":1,"o":0.8,"n":"Fugger","p":1}},{"type":"Feature","geometry":{"type":"Point","coordinates":[-3.7038,40.4168]},"properties":{"k":"162cd5a1f3f70ed4","c":"#9B7D82","r":6.0,"s":"#FFFFFF","w":1,"o":0.8,"n":"Fugger","p":1}},{"type":"Feature","geometry":{"type":"Point","coordinates":[10.8978,48.3705]},"properties":{"k":"8b9fb38536b07193","c":"#AB8D92","r":6.0,"s":"#FFFFFF","w":1,"o":0.8,"n":"Welser","p":1}},{"type":"Feature","geometry":{"type":"Point","coordinates":[4.4025,51.2194]},"properties":{"k":"01a3e2485dd3af2e","c":"#AB8D92","r":6.0,"s":"#FFFFFF","w":1,"o":0.8,"n":"Welser","p":1}},{"type":"Feature","geometry":{"type":"Point","coordinates":[-5.9845,37.3891]},"properties":{"k":"3cf017a197b730db","c":"#AB8D92","r":6.0,"s":"#FFFFFF","w":1,"o":0.8,"n":"Welser","p":1}},{"type":"Feature","geometry":{"type":"Point","coordinates":[10.8978,48.3705]},"properties":{"k":"6e46b0a76f7d9970","c":"#8B7D7F","r":6.0,"s":"#FFFFFF","w":1,"o":0.8,"n":"Hochstetter","p":1}},{"type":"Feature","geometry":{"type":"Point","coordinates":[4.4025,51.2194]},"properties":{"k":"533f4982c8b1119f","c":"#8B7D7F","r":6.0,"s":"#FFFFFF","w":1,"o":0.8,"n":"Hochstetter","p":1}},{"type":"Feature","geometry":{"type":"Point","coordinates":[12.4964,41.9028]},"properties":{"k":"d82a7444da7f19c9","c":"#8B7D7F","r":6.0,"s":"#FFFFFF","w":1,"o":0.8,"n":"Hochstetter","p":1}},{"type":"Feature","geometry":{"type":"Point","coordinates":[12.3155,45.4408]},"properties":{"k":"86ea6f4647149355","c":"#8B7D7F","r":6.0,"s":"#FFFFFF","w":1,"o":0.8,"n":"Hochstetter","p":1}},{"type":"Feature","geometry":{"type":"Point","coordinates":[139.6503,35.6762]},"properties":{"k":"986252bf1069a901","c":"#7B5F64","r":6.0,"s":"#FFFFFF","w":1,"o":0.8,"n":"Mitsui","p":1}},{"type":"Feature","geometry":{"type":"Point","coordinates":[135.5023,34.6937]},"properties":{"k":"d1000aeb5b99ad98","c":"#7B5F64","r":6.0,"s":"#FFFFFF","w":1,"o":0.8,"n":"Mitsui","p":1}},{"type":"Feature","geometry":{"type":"Point","coordinates":[121.4737,31.2304]},"properties":{"k":"ee3d9b5e122e10ff","c":"#7B5F64","r":6.0,"s":"#FFFFFF","w":1,"o":0.8,"n":"Mitsui","p":1}},{"type":"Feature","geometry":{"type":"Point","coordinates":[126.978,37.5665]},"properties":{"k":"503ae72f329d2182","c":"#7B5F64","r":6.0,"s":"#FFFFFF","w":1,"o":0.8,"n":"Mitsui","p":1}},{"type":"Feature","geometry":{"type":"Point","coordinates":[114.1694,22.3193]},"properties":{"k":"8d1530fffa11134c","c":"#7B5F64","r":6.0,"s":"#FFFFFF","w":1,"o":0.8,"n":"Mitsui","p":1}},{"type":"Feature","geometry":{"type":"Point","coordinates":[-0.1278,51.5074]},"properties":{"k":"e3fffaf1988ea869","c":"#7B5F64","r":6.0,"s":"#FFFFFF","w":1,"o":0.8,"n":"Mitsui","p":1}},{"type":"Feature","geometry":{"type":"Point","coordinates":[-74.006,40.7128]},"properties":{"k":"3ef5ca1841ba2bd1","c":"#7B5F64","r":6.0,"s":"#FFFFFF","w":1,"o":0.8,"n":"Mitsui","p":1}},{"type":"Feature","geometry":{"type":"Point","coordinates":[4.9041,52.3676]},"properties":{"k":"99def95cbf163b90","c":"#7B6F6F","r":6.0,"s":"#FFFFFF","w":1,"o":0.8,"n":"Hope","p":1}},{"type":"Feature","geometry":{"type":"Point","coordinates":[-0.1278,51.5074]},"properties":{"k":"4368f372caf1413b","c":"#7B6F6F","r":6.0,"s":"#FFFFFF","w":1,"o":0.8,"n":"Hope","p":1}},{"type":"Feature","geometry":{"type":"Point","coordinates":[2.3522,48.8566]},"properties":{"k":"dfd8e34d73eb490e","c":"#7B6F6F","r":6.0,"s":"#FFFFFF","w":1,"o":0.8,"n":"Hope","p":1}},{"type":"Feature","geometry":{"type":"Point","coordinates":[8.6821,50.1109]},"properties":{"k":"f0c4fccc9fdeaab6","c":"#6B4F54","r":6.0,"s":"#FFFFFF","w":1,"o":0.8,"n":"Rothschild","p":1}},{"type":"Feature","geometry":{"type":"Point","coordinates":[-0.1278,51.5074]},"properties":{"k":"c909def8353f03aa","c":"#6B4F54","r":6.0,"s":"#FFFFFF","w":1,"o":0.8,"n":"Rothschild","p":1}},{"type":"Feature","geometry":{"type":"Point","coordinates":[2.3522,48.8566]},"properties":{"k":"a657bc14764cdc4d","c":"#6B4F54","r":6.0,"s":"#FFFFFF","w":1,"o":0.8,"n":"Rothschild","p":1}},{"type":"Feature","geometry":{"type":"Point","coordinates":[16.3738,48.2082]},"properties":{"k":"0d1452ff76411fbc","c":"#6B4F54","r":6.0,"s":"#FFFFFF","w":1,"o":0.8,"n":"Rothschild","p":1}},{"type":"Feature","geometry":{"type":"Point","coordinates":[14.2681,40.8518]},"properties":{"k":"fa6e562f607db220","c":"#6B4F54","r":6.0,"s":"#FFFFFF","w":1,"o":0.8,"n":"Rothschild","p":1}},{"type":"Feature","geometry":{"type":"Point","coordinates":[13.405,52.52]},"properties":{"k":"4eaa8421d99f9c01","c":"#6B4F54","r":6.0,"s":"#FFFFFF","w":1,"o":0.8,"n":"Rothschild","p":1}},{"type":"Feature","geometry":{"type":"Point","coordinates":[-74.006,40.7128]},"properties":{"k":"193cc6f05b2bd21b","c":"#6B4F54","r":6.0,"s":"#FFFFFF","w":1,"o":0.8,"n":"Rothschild","p":1}},{"type":"Feature","geometry":{"type":"Point","coordinates":[6.1432,46.2044]},"properties":{"k":"55299b7dff6a1fe1","c":"#6B4F54","r":6.0,"s":"#FFFFFF","w":1,"o":0.8,"n":"Rothschild","p":1}},{"type":"Feature","geometry":{"type":"Point","coordinates":[8.5417,47.3769]},"properties":{"k":"4d611a5d546fb9c9","c":"#6B4F54","r":6.0,"s":"#FFFFFF","w":1,"o":0.8,"n":"Rothschild","p":1}},{"type":"Feature","geometry":{"type":"Point","coordinates":[-0.1278,51.5074]},"properties":{"k":"85d4c17a06245542","c":"#8B6F74","r":6.0,"s":"#FFFFFF","w":1,"o":0.8,"n":"Barings","p":1}},{"type":"Feature","geometry":{"type":"Point","coordinates":[-71.0589,42.3601]},"properties":{"k":"39a6b7b41cd2703c","c":"#8B6F74","r":6.0,"s":"#FFFFFF","w":1,"o":0.8,"n":"Barings","p":1}},{"type":"Feature","geometry":{"type":"Point","coordinates":[-58.3816,-34.6037]},"properties":{"k":"2dd9cbb957539d19","c":"#8B6F74","r":6.0,"s":"#FFFFFF","w":1,"o":0.8,"n":"Barings","p":1}},{"type":"Feature","geometry":{"type":"Point","coordinates":[114.1694,22.3193]},"properties":{"k":"730147b88add83a0","c":"#8B6F74","r":6.0,"s":"#FFFFFF","w":1,"o":0.8,"n":"Barings","p":1}},{"type":"Feature","geometry":{"type":"Point","coordinates":[121.4737,31.2304]},"properties":{"k":"20e4a963e164ff4a","c":"#8B6F74","r":6.0,"s":"#FFFFFF","w":1,"o":0.8,"n":"Barings","p":1}},{"type":"Feature","geometry":{"type":"Point","coordinates":[8.2711,50]},"properties":{"k":"397e413414428d5f","c":"#7B5F64","r":6.0,"s":"#FFFFFF","w":1,"o":0.8,"n":"Bischoffsheim","p":1}},{"type":"Feature","geometry":{"type":"Point","coordinates":[2.3522,48.8566]},"properties":{"k":"950722d422010937","c":"#7B5F64","r":6.0,"s":"#FFFFFF","w":1,"o":0.8,"n":"Bischoffsheim","p":1}},{"type":"Feature","geometry":{"type":"Point","coordinates":[4.3517,50.8503]},"properties":{"k":"77184721076b72f4","c":"#7B5F64","r":6.0,"s":"#FFFFFF","w":1,"o":0.8,"n":"Bischoffsheim","p":1}},{"type":"Feature","geometry":{"type":"Point","coordinates":[-0.1278,51.5074]},"properties":{"k":"16c982de39bf2bd5","c":"#7B5F64","r":6.0,"s":"#FFFFFF","w":1,"o":0.8,"n":"Bischoffsheim","p":1}},{"type":"Feature","geometry":{"type":"Point","coordinates":[6.1432,46.2044]},"properties":{"k":"acab95a2ea4f9e23","c":"#8B7F7F","r":6.0,"s":"#FFFFFF","w":1,"o":0.8,"n":"Mallet","p":1}},{"type":"Feature","geometry":{"type":"Point","coordinates":[2.3522,48.8566]},"properties":{"k":"4b4b310b86f564e9","c":"#8B7F7F","r":6.0,"s":"#FFFFFF","w":1,"o":0.8,"n":"Mallet","p":1}},{"type":"Feature","geometry":{"type":"Point","coordinates":[-0.1278,51.5074]},"properties":{"k":"70820a64a8dd3d2c","c":"#8B7F7F","r":6.0,"s":"#FFFFFF","w":1,"o":0.8,"n":"Mallet","p":1}},{"type":"Feature","geometry":{"type":"Point","coordinates":[2.3522,48.8566]},"properties":{"k":"973f4a750a59b917","c":"#6B5F5F","r":6.0,"s":"#FFFFFF","w":1,"o":0.8,"n":"Fould","p":1}},{"type":"Feature","geometry":{"type":"Point","coordinates":[-0.1278,51.5074]},"properties":{"k":"18502b31f7027ea5","c":"#6B5F5F","r":6.0,"s":"#FFFFFF","w":1,"o":0.8,"n":"Fould","p":1}},{"type":"Feature","geometry":{"type":"Point","coordinates":[4.3517,50.8503]},"properties":{"k":"bd789c1e2ad0af3d","c":"#6B5F5F","r":6.0,"s":"#FFFFFF","w":1,"o":0.8,"n":"Fould","p":1}},{"type":"Feature","geometry":{"type":"Point","coordinates":[8.6821,50.1109]},"properties":{"k":"60a090278c71aa9f","c":"#6B5F5F","r":6.0,"s":"#FFFFFF","w":1,"o":0.8,"n":"Fould","p":1}},{"type":"Feature","geometry":{"type":"Point","coordinates":[9.9937,53.5511]},"properties":{"k":"2b393957940fc359","c":"#6B7B8D","r":6.0,"s":"#FFFFFF","w":1,"o":0.8,"n":"Warburg","p":1}},{"type":"Feature","geometry":{"type":"Point","coordinates":[4.9041,52.3676]},"properties":{"k":"707aa4797f47db9f","c":"#6B7B8D","r":6.0,"s":"#FFFFFF","w":1,"o":0.8,"n":"Warburg","p":1}},{"type":"Feature","geometry":{"type":"Point","coordinates":[-0.1278,51.5074]},"properties":{"k":"1178b15cbcbe9ce4","c":"#6B7B8D","r":6.0,"s":"#FFFFFF","w":1,"o":0.8,"n":"Warburg","p":1}},{"type":"Feature","geometry":{"type":"Point","coordinates":[-74.006,40.7128]},"properties":{"k":"f55175f840fe5620","c":"#6B7B8D","r":6.0,"s":"#FFFFFF","w":1,"o":0.8,"n":"Warburg","p":1}},{"type":"Feature","geometry":{"type":"Point","coordinates":[6.1432,46.2044]},"properties":{"k":"076ca3362a25af44","c":"#8B9B9B","r":6.0,"s":"#FFFFFF","w":1,"o":0.8,"n":"Pictet","p":1}},{"type":"Feature","geometry":{"type":"Point","coordinates":[8.5417,47.3769]},"properties":{"k":"b7ecac97e3685b08","c":"#8B9B9B","r":6.0,"s":"#FFFFFF","w":1,"o":0.8,"n":"Pictet","p":1}},{"type":"Feature","geometry":{"type":"Point","coordinates":[2.3522,48.8566]},"properties":{"k":"76284a5800d205e5","c":"#8B9B9B","r":6.0,"s":"#FFFFFF","w":1,"o":0.8,"n":"Pictet","p":1}},{"type":"Feature","geometry":{"type":"Point","coordinates":[-0.1278,51.5074]},"properties":{"k":"97f727629f199984","c":"#8B9B9B","r":6.0,"s":"#FFFFFF","w":1,"o":0.8,"n":"Pictet","p":1}},{"type":"Feature","geometry":{"type":"Point","coordinates":[6.1319,49.6116]},"properties":{"k":"c37126afd540f346","c":"#8B9B9B","r":6.0,"s":"#FFFFFF","w":1,"o":0.8,"n":"Pictet","p":1}},{"type":"Feature","geometry":{"type":"Point","coordinates":[103.8198,1.3521]},"properties":{"k":"4a77c071cb1fbe14","c":"#8B9B9B","r":6.0,"s":"#FFFFFF","w":1,"o":0.8,"n":"Pictet","p":1}},{"type":"Feature","geometry":{"type":"Point","coordinates":[114.1694,22.3193]},"properties":{"k":"314aee5a9b73734b","c":"#8B9B9B","r":6.0,"s":"#FFFFFF","w":1,"o":0.8,"n":"Pictet","p":1}},{"type":"Feature","geometry":{"type":"Point","coordinates":[55.2708,25.2048]},"properties":{"k":"9bde5305d705edb1","c":"#8B9B9B","r":6.0,"s":"#FFFFFF","w":1,"o":0.8,"n":"Pictet","p":1}},{"type":"Feature","geometry":{"type":"Point","coordinates":[-74.006,40.7128]},"properties":{"k":"6cf3b3d6b1c808cc","c":"#5B6B7D","r":6.0,"s":"#FFFFFF","w":1,"o":0.8,"n":"Morgan","p":1}},{"type":"Feature","geometry":{"type":"Point","coordinates":[-0.1278,51.5074]},"properties":{"k":"87c5c06085fd06f7","c":"#5B6B7D","r":6.0,"s":"#FFFFFF","w":1,"o":0.8,"n":"Morgan","p":1}},{"type":"Feature","geometry":{"type":"Point","coordinates":[2.3522,48.8566]},"properties":{"k":"712fac24ff1a998a","c":"#5B6B7D","r":6.0,"s":"#FFFFFF","w":1,"o":0.8,"n":"Morgan","p":1}},{"type":"Feature","geometry":{"type":"Point","coordinates":[-75.1652,39.9526]},"properties":{"k":"84a955ef871fc998","c":"#5B6B7D","r":6.0,"s":"#FFFFFF","w":1,"o":0.8,"n":"Morgan","p":1}},{"type":"Feature","geometry":{"type":"Point","coordinates":[-71.0589,42.3601]},"properties":{"k":"aea9d3551294f6e3","c":"#5B6B7D","r":6.0,"s":"#FFFFFF","w":1,"o":0.8,"n":"Morgan","p":1}},{"type":"Feature","geometry":{"type":"Point","coordinates":[-87.6298,41.8781]},"properties":{"k":"8ed1f0dde9d450fb","c":"#5B6B7D","r":6.0,"s":"#FFFFFF","w":1,"o":0.8,"n":"Morgan","p":1}},{"type":"Feature","geometry":{"type":"Point","coordinates":[-75.1652,39.9526]},"properties":{"k":"97ed8e975ddc9492","c":"#7B8B9D","r":6.0,"s":"#FFFFFF","w":1,"o":0.8,"n":"Brown Brothers","p":1}},{"type":"Feature","geometry":{"type":"Point","coordinates":[-74.006,40.7128]},"properties":{"k":"3fbd1dfb01dd5f3f","c":"#7B8B9D","r":6.0,"s":"#FFFFFF","w":1,"o":0.8,"n":"Brown Brothers","p":1}},{"type":"Feature","geometry":{"type":"Point","coordinates":[-71.0589,42.3601]},"properties":{"k":"ee6ad57b8f98fbeb","c":"#7B8B9D","r":6.0,"s":"#FFFFFF","w":1,"o":0.8,"n":"Brown Brothers","p":1}},{"type":"Feature","geometry":{"type":"Point","coordinates":[-76.6122,39.2904]},"properties":{"k":"15cd325f4505d33c","c":"#7B8B9D","r":6.0,"s":"#FFFFFF","w":1,"o":0.8,"n":"Brown Brothers","p":1}},{"type":"Feature","geometry":{"type":"Point","coordinates":[-0.1278,51.5074]},"properties":{"k":"d219c741240f1343","c":"#7B8B9D","r":6.0,"s":"#FFFFFF","w":1,"o":0.8,"n":"Brown Brothers","p":1}},{"type":"Feature","geometry":{"type":"Point","coordinates":[12.5683,55.6761]},"properties":{"k":"49b1d094b8c633c2","c":"#8B9BAD","r":6.0,"s":"#FFFFFF","w":1,"o":0.8,"n":"Hambros","p":1}},{"type":"Feature","geometry":{"type":"Point","coordinates":[-0.1278,51.5074]},"properties":{"k":"e175009dfaecbab1","c":"#8B9BAD","r":6.0,"s":"#FFFFFF","w":1,"o":0.8,"n":"Hambros","p":1}},{"type":"Feature","geometry":{"type":"Point","coordinates":[2.3522,48.8566]},"properties":{"k":"32d6e7ec4a35a7e4","c":"#7D8B8B","r":6.0,"s":"#FFFFFF","w":1,"o":0.8,"n":"Lazard","p":1}},{"type":"Feature","geometry":{"type":"Point","coordinates":[-0.1278,51.5074]},"properties":{"k":"137f981588ffcf4d","c":"#7D8B8B","r":6.0,"s":"#FFFFFF","w":1,"o":0.8,"n":"Lazard","p":1}},{"type":"Feature","geometry":{"type":"Point","coordinates":[-74.006,40.7128]},"properties":{"k":"dc00dbccf65b7b38","c":"#7D8B8B","r":6.0,"s":"#FFFFFF","w":1,"o":0.8,"n":"Lazard","p":1}},{"type":"Feature","geometry":{"type":"Point","coordinates":[-74.006,40.7128]},"properties":{"k":"9a7794b4fd8d5e34","c":"#8B9BAD","r":6.0,"s":"#FFFFFF","w":1,"o":0.8,"n":"Lehman","p":1}},{"type":"Feature","geometry":{"type":"Point","coordinates":[-0.1278,51.5074]},"properties":{"k":"c2efd19a126e701b","c":"#8B9BAD","r":6.0,"s":"#FFFFFF","w":1,"o":0.8,"n":"Lehman","p":1}},{"type":"Feature","geometry":{"type":"Point","coordinates":[139.6503,35.6762]},"properties":{"k":"daba2b59958afee2","c":"#8B9BAD","r":6.0,"s":"#FFFFFF","w":1,"o":0.8,"n":"Lehman","p":1}},{"type":"Feature","geometry":{"type":"Point","coordinates":[114.1694,22.3193]},"properties":{"k":"dd9305646894f45d","c":"#8B9BAD","r":6.0,"s":"#FFFFFF","w":1,"o":0.8,"n":"Lehman","p":1}},{"type":"Feature","geometry":{"type":"Point","coordinates":[139.6503,35.6762]},"properties":{"k":"77e1d2774ffb2ef4","c":"#7B8B9D","r":6.0,"s":"#FFFFFF","w":1,"o":0.8,"n":"Yasuda","p":1}},{"type":"Feature","geometry":{"type":"Point","coordinates":[135.5023,34.6937]},"properties":{"k":"a1e9a6fc4405ca6e","c":"#7B8B9D","r":6.0,"s":"#FFFFFF","w":1,"o":0.8,"n":"Yasuda","p":1}},{"type":"Feature","geometry":{"type":"Point","coordinates":[126.978,37.5665]},"properties":{"k":"72708925648860b9","c":"#7B8B9D","r":6.0,"s":"#FFFFFF","w":1,"o":0.8,"n":"Yasuda","p":1}},{"type":"Feature","geometry":{"type":"Point","coordinates":[121.4737,31.2304]},"properties":{"k":"876a66732f4da295","c":"#7B8B9D","r":6.0,"s":"#FFFFFF","w":1,"o":0.8,"n":"Yasuda","p":1}},{"type":"Feature","geometry":{"type":"Point","coordinates":[-74.006,40.7128]},"properties":{"k":"8bfdd0f9aabd72b7","c":"#7B8B9D","r":6.0,"s":"#FFFFFF","w":1,"o":0.8,"n":"Schiff/Kuhn Loeb","p":1}},{"type":"Feature","geometry":{"type":"Point","coordinates":[-0.1278,51.5074]},"properties":{"k":"9769c51d35dfb713","c":"#7B8B9D","r":6.0,"s":"#FFFFFF","w":1,"o":0.8,"n":"Schiff/Kuhn Loeb","p":1}},{"type":"Feature","geometry":{"type":"Point","coordinates":[2.3522,48.8566]},"properties":{"k":"aadf2fc3edad95c9","c":"#7B8B9D","r":6.0,"s":"#FFFFFF","w":1,"o":0.8,"n":"Schiff/Kuhn Loeb","p":1}},{"type":"Feature","geometry":{"type":"Point","coordinates":[8.6821,50.1109]},"properties":{"k":"d8a96859951d83ef","c":"#7B8B9D","r":6.0,"s":"#FFFFFF","w":1,"o":0.8,"n":"Schiff/Kuhn Loeb","p":1}},{"type":"Feature","geometry":{"type":"Point","coordinates":[-74.006,40.7128]},"properties":{"k":"5181ca80feadfe49","c":"#8D9B9B","r":6.0,"s":"#FFFFFF","w":1,"o":0.8,"n":"Goldman Sachs","p":1}},{"type":"Feature","geometry":{"type":"Point","coordinates":[-0.1278,51.5074]},"properties":{"k":"ddb1550573bb5b45","c":"#8D9B9B","r":6.0,"s":"#FFFFFF","w":1,"o":0.8,"n":"Goldman Sachs","p":1}},{"type":"Feature","geometry":{"type":"Point","coordinates":[139.6503,35.6762]},"properties":{"k":"8a31019665a72b1b","c":"#8D9B9B","r":6.0,"s":"#FFFFFF","w":1,"o":0.8,"n":"Goldman Sachs","p":1}},{"type":"Feature","geometry":{"type":"Point","coordinates":[114.1694,22.3193]},"properties":{"k":"69e6e08335dc4f95","c":"#8D9B9B","r":6.0,"s":"#FFFFFF","w":1,"o":0.8,"n":"Goldman Sachs","p":1}},{"type":"Feature","geometry":{"type":"Point","coordinates":[8.6821,50.1109]},"properties":{"k":"09fcd3c0f7801c26","c":"#8D9B9B","r":6.0,"s":"#FFFFFF","w":1,"o":0.8,"n":"Goldman Sachs","p":1}},{"type":"Feature","geometry":{"type":"Point","coordinates":[103.8198,1.3521]},"properties":{"k":"5ce551d2829dbc21","c":"#8D9B9B","r":6.0,"s":"#FFFFFF","w":1,"o":0.8,"n":"Goldman Sachs","p":1}},{"type":"Feature","geometry":{"type":"Point","coordinates":[72.8777,19.076]},"properties":{"k":"285976cff6061793","c":"#8D9B9B","r":6.0,"s":"#FFFFFF","w":1,"o":0.8,"n":"Goldman Sachs","p":1}},{"type":"Feature","geometry":{"type":"Point","coordinates":[-74.006,40.7128]},"properties":{"k":"01c041b17d87fc59","c":"#6B7B8D","r":6.0,"s":"#FFFFFF","w":1,"o":0.8,"n":"Rockefeller","p":1}},{"type":"Feature","geometry":{"type":"Point","coordinates":[-81.6944,41.4993]},"properties":{"k":"0879d8fb36152b82","c":"#6B7B8D","r":6.0,"s":"#FFFFFF","w":1,"o":0.8,"n":"Rockefeller","p":1}},{"type":"Feature","geometry":{"type":"Point","coordinates":[-87.6298,41.8781]},"properties":{"k":"f75509623b4cebcc","c":"#6B7B8D","r":6.0,"s":"#FFFFFF","w":1,"o":0.8,"n":"Rockefeller","p":1}},{"type":"Feature","geometry":{"type":"Point","coordinates":[-0.1278,51.5074]},"properties":{"k":"991645814aa87e09","c":"#6B7B8D","r":6.0,"s":"#FFFFFF","w":1,"o":0.8,"n":"Rockefeller","p":1}},{"type":"Feature","geometry":{"type":"Point","coordinates":[2.3522,48.8566]},"properties":{"k":"a261d8526d656238","c":"#6B7B8D","r":6.0,"s":"#FFFFFF","w":1,"o":0.8,"n":"Rockefeller","p":1}},{"type":"Feature","geometry":{"type":"Point","coordinates":[6.9603,50.9375]},"properties":{"k":"7b40c7d91b2bb387","c":"#9B7D82","r":6.0,"s":"#FFFFFF","w":1,"o":0.8,"n":"Oppenheimer","p":1}},{"type":"Feature","geometry":{"type":"Point","coordinates":[-0.1278,51.5074]},"properties":{"k":"692ce1feb823b8ed","c":"#9B7D82","r":6.0,"s":"#FFFFFF","w":1,"o":0.8,"n":"Oppenheimer","p":1}},{"type":"Feature","geometry":{"type":"Point","coordinates":[4.9041,52.3676]},"properties":{"k":"052b97bb23de01fd","c":"#9B7D82","r":6.0,"s":"#FFFFFF","w":1,"o":0.8,"n":"Oppenheimer","p":1}},{"type":"Feature","geometry":{"type":"Point","coordinates":[28.0473,-26.2041]},"properties":{"k":"748fffe63919aa56","c":"#9B7D82","r":6.0,"s":"#FFFFFF","w":1,"o":0.8,"n":"Oppenheimer","p":1}},{"type":"Feature","geometry":{"type":"Point","coordinates":[24.7499,-28.7282]},"properties":{"k":"fb15839f4781a31f","c":"#9B7D82","r":6.0,"s":"#FFFFFF","w":1,"o":0.8,"n":"Oppenheimer","p":1}}]}