{"type":"FeatureCollection","name":"Methane plumes from waste sites (Carbon Mapper)","overlays":[],"features":[{"type":"Feature","geometry":{"type":"Point","coordinates":[-121.917,37.418]},"properties":{"k":"2f74ab80e5989f84","c":"#6D6A5E","r":9.0,"n":"Newby Island Landfill","p":1}},{"type":"Feature","geometry":{"type":"Point","coordinates":[-117.449,34.058]},"properties":{"k":"544580259ac4b714","c":"#6D6A5E","r":9.0,"n":"San Timoteo Landfill","p":1}},{"type":"Feature","geometry":{"type":"Point","coordinates":[-117.315,33.946]},"properties":{"k":"de7729812035bb4c","c":"#6D6A5E","r":9.0,"n":"Badlands Landfill","p":1}},{"type":"Feature","geometry":{"type":"Point","coordinates":[-122.13,37.505]},"properties":{"k":"c5239bab093311e7","c":"#6D6A5E","r":9.0,"n":"Tri-Cities Landfill","p":1}},{"type":"Feature","geometry":{"type":"Point","coordinates":[-117.556,34.012]},"properties":{"k":"e32fdab2c751a85b","c":"#6D6A5E","r":9.0,"n":"Mid-Valley Sanitary Landfill","p":1}},{"type":"Feature","geometry":{"type":"Point","coordinates":[50.55,26.05]},"properties":{"k":"b9ed86a558d03030","c":"#6D6A5E","r":9.0,"n":"Waste Facility","p":1}},{"type":"Feature","geometry":{"type":"Point","coordinates":[51.44,25.34]},"properties":{"k":"11a30b645062d8bd","c":"#6D6A5E","r":9.0,"n":"Waste Facility","p":1}},{"type":"Feature","geometry":{"type":"Point","coordinates":[44.37,33.3]},"properties":{"k":"ccc741e2ab35c49e","c":"#6D6A5E","r":9.0,"n":"Al-Nahrawan Waste Site","p":1}},{"type":"Feature","geometry":{"type":"Point","coordinates":[77.32,28.57]},"properties":{"k":"d91a57641bdb6a8c","c":"#6D6A5E","r":9.0,"n":"Ghazipur Landfill","p":1}},{"type":"Feature","geometry":{"type":"Point","coordinates":[72.92,19.06]},"properties":{"k":"824ab2a396fe6501","c":"#6D6A5E","r":9.0,"n":"Deonar Dumping Ground","p":1}},{"type":"Feature","geometry":{"type":"Point","coordinates":[-46.56,-23.55]},"properties":{"k":"7e478bc6ad7b3c3b","c":"#6D6A5E","r":9.0,"n":"CTL Caieiras Landfill","p":1}},{"type":"Feature","geometry":{"type":"Point","coordinates":[106.93,-6.22]},"properties":{"k":"e22abd07e3d23fc1","c":"#6D6A5E","r":9.0,"n":"Bantar Gebang Landfill","p":1}},{"type":"Feature","geometry":{"type":"Point","coordinates":[31.35,30.08]},"properties":{"k":"bc9070c77e604c21","c":"#6D6A5E","r":9.0,"n":"15th of May Landfill","p":1}},{"type":"Feature","geometry":{"type":"Point","coordinates":[34.57,31.65]},"properties":{"k":"33cea05cfea50c59","c":"#6D6A5E","r":9.0,"n":"Waste Facility","p":1}},{"type":"Feature","geometry":{"type":"Point","coordinates":[36.86,-1.29]},"properties":{"k":"e76bb93b7613e057","c":"#6D6A5E","r":9.0,"n":"Dandora Dumpsite","p":1}},{"type":"Feature","geometry":{"type":"Point","coordinates":[121.06,14.66]},"properties":{"k":"d670f0728d427ff6","c":"#6D6A5E","r":9.0,"n":"Rodriguez Landfill","p":1}}]}