{"type":"FeatureCollection","name":"Forest 500: Worst Soy Financial Institutions (2024)","overlays":[],"filters":[],"features":[{"type":"Feature","geometry":{"type":"Point","coordinates":[-77.0365,38.8977]},"properties":{"k":"af732ca87250ec63","c":"#BD7F7F","r":8.0,"s":"#FFFFFF","w":2,"o":0.85,"n":"Affiliated Managers Group","p":1}},{"type":"Feature","geometry":{"type":"Point","coordinates":[-76.89002367219524,39.01225561255223]},"properties":{"k":"0f18b91037c777a3","c":"#874545","r":8.0,"s":"#FFFFFF","w":2,"o":0.85,"n":"American Century Investments","p":1}},{"type":"Feature","geometry":{"type":"Point","coordinates":[-0.1278,51.5074]},"properties":{"k":"d540bedff8f5227a","c":"#A85760","r":8.0,"s":"#FFFFFF","w":2,"o":0.85,"n":"Aviva","p":1}},{"type":"Feature","geometry":{"type":"Point","coordinates":[106.8456,-6.2088]},"properties":{"k":"43dd36c713d4ac4c","c":"#874545","r":8.0,"s":"#FFFFFF","w":2,"o":0.85,"n":"Bank Negara Indonesia","p":1}},{"type":"Feature","geometry":{"type":"Point","coordinates":[116.4074,39.9042]},"properties":{"k":"4de0af0d98e0eb10","c":"#874545","r":8.0,"s":"#FFFFFF","w":2,"o":0.85,"n":"Bank of China","p":1}},{"type":"Feature","geometry":{"type":"Point","coordinates":[116.46541580679074,39.87575618664454]},"properties":{"k":"17e456c98777f0fd","c":"#874545","r":8.0,"s":"#FFFFFF","w":2,"o":0.85,"n":"Bank of Communications","p":1}},{"type":"Feature","geometry":{"type":"Point","coordinates":[-77.13412015951118,39.10473778670014]},"properties":{"k":"8235a60f92986df0","c":"#874545","r":8.0,"s":"#FFFFFF","w":2,"o":0.85,"n":"Berkshire Hathaway","p":1}},{"type":"Feature","geometry":{"type":"Point","coordinates":[-76.80261240501338,39.31767958744518]},"properties":{"k":"3c4e12c8a61ceb6f","c":"#A85762","r":8.0,"s":"#FFFFFF","w":2,"o":0.85,"n":"BlackRock","p":1}},{"type":"Feature","geometry":{"type":"Point","coordinates":[-75.6972,45.4215]},"properties":{"k":"e74d521c00801667","c":"#874545","r":8.0,"s":"#FFFFFF","w":2,"o":0.85,"n":"CI Financial","p":1}},{"type":"Feature","geometry":{"type":"Point","coordinates":[-75.74312127109772,45.485616626746726]},"properties":{"k":"e0a12f184d85bbde","c":"#A85760","r":8.0,"s":"#FFFFFF","w":2,"o":0.85,"n":"CIBC","p":1}},{"type":"Feature","geometry":{"type":"Point","coordinates":[116.65449211293449,39.945486814208216]},"properties":{"k":"f5957182588691d2","c":"#874545","r":8.0,"s":"#FFFFFF","w":2,"o":0.85,"n":"CITIC","p":1}},{"type":"Feature","geometry":{"type":"Point","coordinates":[116.02919669037718,39.753664256914305]},"properties":{"k":"b9a0d26f1cb94fd3","c":"#874545","r":8.0,"s":"#FFFFFF","w":2,"o":0.85,"n":"CSC Financial","p":1}},{"type":"Feature","geometry":{"type":"Point","coordinates":[-77.12758584286274,39.151212377668685]},"properties":{"k":"f7dd6d37d54b05ad","c":"#A85760","r":8.0,"s":"#FFFFFF","w":2,"o":0.85,"n":"California State Teachers' Retirement System (CalSTRS)","p":1}},{"type":"Feature","geometry":{"type":"Point","coordinates":[-75.4872583184874,45.589806406576876]},"properties":{"k":"4645202efa88c3b9","c":"#874545","r":8.0,"s":"#FFFFFF","w":2,"o":0.85,"n":"Canada Pension Plan Investment Board","p":1}},{"type":"Feature","geometry":{"type":"Point","coordinates":[-77.2503246623817,38.635631245777965]},"properties":{"k":"61ba4446a8a727fb","c":"#874545","r":8.0,"s":"#FFFFFF","w":2,"o":0.85,"n":"Capital Group","p":1}},{"type":"Feature","geometry":{"type":"Point","coordinates":[-76.72642962529855,38.629135843683684]},"properties":{"k":"9effc099b35c7364","c":"#874545","r":8.0,"s":"#FFFFFF","w":2,"o":0.85,"n":"Charles Schwab","p":1}},{"type":"Feature","geometry":{"type":"Point","coordinates":[116.51503912161706,40.2306347347245]},"properties":{"k":"9295cc202c35e654","c":"#A85762","r":8.0,"s":"#FFFFFF","w":2,"o":0.85,"n":"China Construction Bank","p":1}},{"type":"Feature","geometry":{"type":"Point","coordinates":[117.0369203188973,40.21161439512961]},"properties":{"k":"d4e881b69d79211b","c":"#874545","r":8.0,"s":"#FFFFFF","w":2,"o":0.85,"n":"China Development Bank","p":1}},{"type":"Feature","geometry":{"type":"Point","coordinates":[115.72642335922536,39.239931517016586]},"properties":{"k":"c457c6798a6b0ddd","c":"#A85762","r":8.0,"s":"#FFFFFF","w":2,"o":0.85,"n":"China Everbright","p":1}},{"type":"Feature","geometry":{"type":"Point","coordinates":[116.93020845220012,39.00260956530685]},"properties":{"k":"30341dd75ca80177","c":"#874545","r":8.0,"s":"#FFFFFF","w":2,"o":0.85,"n":"China Guangfa Bank","p":1}},{"type":"Feature","geometry":{"type":"Point","coordinates":[116.84971599669332,39.666884953602604]},"properties":{"k":"372818412dcd228a","c":"#874545","r":8.0,"s":"#FFFFFF","w":2,"o":0.85,"n":"China Merchants Bank","p":1}},{"type":"Feature","geometry":{"type":"Point","coordinates":[116.80052070363851,39.99533328303226]},"properties":{"k":"30dac31a6f43a682","c":"#874545","r":8.0,"s":"#FFFFFF","w":2,"o":0.85,"n":"China Minsheng Banking","p":1}},{"type":"Feature","geometry":{"type":"Point","coordinates":[2.3522,48.8566]},"properties":{"k":"f84fb73c66c71ae3","c":"#874545","r":8.0,"s":"#FFFFFF","w":2,"o":0.85,"n":"Cr\u00e9dit Mutuel","p":1}},{"type":"Feature","geometry":{"type":"Point","coordinates":[-77.26155564138239,39.60318862716494]},"properties":{"k":"11eef34449f205a8","c":"#A85762","r":8.0,"s":"#FFFFFF","w":2,"o":0.85,"n":"Dimensional Fund Advisors","p":1}},{"type":"Feature","geometry":{"type":"Point","coordinates":[-77.61245840949589,38.49488882694515]},"properties":{"k":"a2a7555eb6dbfb44","c":"#874545","r":8.0,"s":"#FFFFFF","w":2,"o":0.85,"n":"Equitable Holdings","p":1}},{"type":"Feature","geometry":{"type":"Point","coordinates":[-76.4416646543961,40.040170402193205]},"properties":{"k":"4b25b3dd72fc24ea","c":"#874545","r":8.0,"s":"#FFFFFF","w":2,"o":0.85,"n":"Farm Credit Services Commercial Finance Group","p":1}},{"type":"Feature","geometry":{"type":"Point","coordinates":[-76.4943004002026,40.041922751619566]},"properties":{"k":"42e3684ccd7ab82a","c":"#874545","r":8.0,"s":"#FFFFFF","w":2,"o":0.85,"n":"Fisher Investments","p":1}},{"type":"Feature","geometry":{"type":"Point","coordinates":[13.405,52.52]},"properties":{"k":"2ae2a370aab4d2dc","c":"#874545","r":8.0,"s":"#FFFFFF","w":2,"o":0.85,"n":"Flossbach & von Storch","p":1}},{"type":"Feature","geometry":{"type":"Point","coordinates":[-77.8069834367727,39.76800330907621]},"properties":{"k":"84c4d4ab3932b8b8","c":"#874545","r":8.0,"s":"#FFFFFF","w":2,"o":0.85,"n":"Franklin Resources","p":1}},{"type":"Feature","geometry":{"type":"Point","coordinates":[-78.5820390682162,39.410715234812386]},"properties":{"k":"0cabeea3c36c7635","c":"#874545","r":8.0,"s":"#FFFFFF","w":2,"o":0.85,"n":"GQG Partners","p":1}},{"type":"Feature","geometry":{"type":"Point","coordinates":[-76.74243831828265,37.561247445446]},"properties":{"k":"51577904d9304c80","c":"#BD7F7F","r":8.0,"s":"#FFFFFF","w":2,"o":0.85,"n":"Geode Capital Holdings","p":1}},{"type":"Feature","geometry":{"type":"Point","coordinates":[139.6503,35.6762]},"properties":{"k":"9fd34bd72b513771","c":"#874545","r":8.0,"s":"#FFFFFF","w":2,"o":0.85,"n":"Government Pension Investment Fund (GPIF)","p":1}},{"type":"Feature","geometry":{"type":"Point","coordinates":[-58.3816,-34.6037]},"properties":{"k":"ccbfe325d781e8fb","c":"#874545","r":8.0,"s":"#FFFFFF","w":2,"o":0.85,"n":"Grupo Financiero Galicia","p":1}},{"type":"Feature","geometry":{"type":"Point","coordinates":[116.23570541961962,38.90808967760969]},"properties":{"k":"a51740093c3eb145","c":"#874545","r":8.0,"s":"#FFFFFF","w":2,"o":0.85,"n":"Industrial Bank Company","p":1}},{"type":"Feature","geometry":{"type":"Point","coordinates":[115.6315780842439,41.524948119514846]},"properties":{"k":"1dee61bad47b79ab","c":"#874545","r":8.0,"s":"#FFFFFF","w":2,"o":0.85,"n":"Industrial and Commercial Bank of China","p":1}},{"type":"Feature","geometry":{"type":"Point","coordinates":[-77.65234756432716,38.13474074888713]},"properties":{"k":"693aa0267f052eeb","c":"#A85762","r":8.0,"s":"#FFFFFF","w":2,"o":0.85,"n":"Invesco","p":1}},{"type":"Feature","geometry":{"type":"Point","coordinates":[126.978,37.5665]},"properties":{"k":"4211c291974c51b0","c":"#A85762","r":8.0,"s":"#FFFFFF","w":2,"o":0.85,"n":"KB Financial Group","p":1}},{"type":"Feature","geometry":{"type":"Point","coordinates":[-64.782,32.2949]},"properties":{"k":"63cdf14ae12ec849","c":"#874545","r":8.0,"s":"#FFFFFF","w":2,"o":0.85,"n":"Lazard","p":1}},{"type":"Feature","geometry":{"type":"Point","coordinates":[77.209,28.6139]},"properties":{"k":"32388a6b904de35d","c":"#874545","r":8.0,"s":"#FFFFFF","w":2,"o":0.85,"n":"Life Insurance Corporation of India","p":1}},{"type":"Feature","geometry":{"type":"Point","coordinates":[-75.41732345172643,45.21347542644781]},"properties":{"k":"1d13efaed498d0c5","c":"#A85762","r":8.0,"s":"#FFFFFF","w":2,"o":0.85,"n":"Manulife Financial","p":1}},{"type":"Feature","geometry":{"type":"Point","coordinates":[-75.52642719682827,44.82477223017172]},"properties":{"k":"a9d2b25a3f79b6fb","c":"#874545","r":8.0,"s":"#FFFFFF","w":2,"o":0.85,"n":"Mawer Investment Management","p":1}},{"type":"Feature","geometry":{"type":"Point","coordinates":[126.94911936691912,37.47804044499225]},"properties":{"k":"bf7c48b448f6dc01","c":"#874545","r":8.0,"s":"#FFFFFF","w":2,"o":0.85,"n":"Mirae Asset Financial Group","p":1}},{"type":"Feature","geometry":{"type":"Point","coordinates":[-76.25680010549021,44.89172750296102]},"properties":{"k":"b8a547562fa197e5","c":"#874545","r":8.0,"s":"#FFFFFF","w":2,"o":0.85,"n":"National Bank of Canada","p":1}},{"type":"Feature","geometry":{"type":"Point","coordinates":[126.8540640705711,37.541018473668935]},"properties":{"k":"5ac724bd822ca3a4","c":"#874545","r":8.0,"s":"#FFFFFF","w":2,"o":0.85,"n":"National Pension Service","p":1}},{"type":"Feature","geometry":{"type":"Point","coordinates":[-77.24234560409548,40.096635079008806]},"properties":{"k":"c57b5c73182035bc","c":"#BD7F7F","r":8.0,"s":"#FFFFFF","w":2,"o":0.85,"n":"Neuberger Berman","p":1}},{"type":"Feature","geometry":{"type":"Point","coordinates":[-79.04311881343044,36.85592332663499]},"properties":{"k":"38e78ce393524c8c","c":"#874545","r":8.0,"s":"#FFFFFF","w":2,"o":0.85,"n":"PNC Financial Services","p":1}},{"type":"Feature","geometry":{"type":"Point","coordinates":[139.66427091234846,35.70562882613107]},"properties":{"k":"691adde2fc447c2d","c":"#874545","r":8.0,"s":"#FFFFFF","w":2,"o":0.85,"n":"Pension Fund Association for Local Government Officials","p":1}},{"type":"Feature","geometry":{"type":"Point","coordinates":[7.4474,46.9481]},"properties":{"k":"03f81e703f6ec333","c":"#874545","r":8.0,"s":"#FFFFFF","w":2,"o":0.85,"n":"Pictet","p":1}},{"type":"Feature","geometry":{"type":"Point","coordinates":[116.81013723002641,38.16985178192574]},"properties":{"k":"9ac4de22f918b9a3","c":"#874545","r":8.0,"s":"#FFFFFF","w":2,"o":0.85,"n":"Ping An Insurance Group","p":1}},{"type":"Feature","geometry":{"type":"Point","coordinates":[117.26939245598037,38.439235725817184]},"properties":{"k":"b4a5dd234f17349e","c":"#874545","r":8.0,"s":"#FFFFFF","w":2,"o":0.85,"n":"Postal Savings Bank of China","p":1}},{"type":"Feature","geometry":{"type":"Point","coordinates":[-76.10824451487564,45.00714932242875]},"properties":{"k":"33935c23506e97ef","c":"#874545","r":8.0,"s":"#FFFFFF","w":2,"o":0.85,"n":"Power Corporation of Canada","p":1}},{"type":"Feature","geometry":{"type":"Point","coordinates":[-79.23829669808717,40.55712800280205]},"properties":{"k":"e46dc7162536ac4e","c":"#874545","r":8.0,"s":"#FFFFFF","w":2,"o":0.85,"n":"Principal Financial Group","p":1}},{"type":"Feature","geometry":{"type":"Point","coordinates":[-77.38138118954065,40.37980438416247]},"properties":{"k":"3fbe74a09e13947c","c":"#874545","r":8.0,"s":"#FFFFFF","w":2,"o":0.85,"n":"Prudential Financial (US)","p":1}},{"type":"Feature","geometry":{"type":"Point","coordinates":[51.531,25.2854]},"properties":{"k":"11bcab224d7433eb","c":"#874545","r":8.0,"s":"#FFFFFF","w":2,"o":0.85,"n":"Qatar Investment Authority","p":1}},{"type":"Feature","geometry":{"type":"Point","coordinates":[-79.85316096779717,40.25043959608763]},"properties":{"k":"0a6d01cce5e4b0ee","c":"#874545","r":8.0,"s":"#FFFFFF","w":2,"o":0.85,"n":"Raymond James Financial","p":1}},{"type":"Feature","geometry":{"type":"Point","coordinates":[-74.86842613966775,45.27527765125723]},"properties":{"k":"963b952b2b174b3f","c":"#BD7F7F","r":8.0,"s":"#FFFFFF","w":2,"o":0.85,"n":"Royal Bank of Canada","p":1}},{"type":"Feature","geometry":{"type":"Point","coordinates":[-47.9218,-15.8267]},"properties":{"k":"a8c0801502c577a0","c":"#A85762","r":8.0,"s":"#FFFFFF","w":2,"o":0.85,"n":"Safra Group","p":1}},{"type":"Feature","geometry":{"type":"Point","coordinates":[7.442349522794486,47.03354343683374]},"properties":{"k":"ac175d39f609b23f","c":"#874545","r":8.0,"s":"#FFFFFF","w":2,"o":0.85,"n":"Schweizerische Nationalbank","p":1}},{"type":"Feature","geometry":{"type":"Point","coordinates":[114.95756546910691,38.54311591994068]},"properties":{"k":"3faaeb471649934d","c":"#874545","r":8.0,"s":"#FFFFFF","w":2,"o":0.85,"n":"Shanghai Pudong Development Bank","p":1}},{"type":"Feature","geometry":{"type":"Point","coordinates":[100.5018,13.7563]},"properties":{"k":"f1e4858973a6ab4e","c":"#A85762","r":8.0,"s":"#FFFFFF","w":2,"o":0.85,"n":"Siam Commercial Bank","p":1}},{"type":"Feature","geometry":{"type":"Point","coordinates":[77.08106879327931,28.69103723143434]},"properties":{"k":"dfa76806037bf84b","c":"#A85762","r":8.0,"s":"#FFFFFF","w":2,"o":0.85,"n":"State Bank of India","p":1}},{"type":"Feature","geometry":{"type":"Point","coordinates":[-76.08834148121373,36.15174371084046]},"properties":{"k":"d0a95da6198a562b","c":"#874545","r":8.0,"s":"#FFFFFF","w":2,"o":0.85,"n":"State Farm","p":1}},{"type":"Feature","geometry":{"type":"Point","coordinates":[-75.84481155036983,46.365743509439376]},"properties":{"k":"c3f76defcbfa483d","c":"#A85762","r":8.0,"s":"#FFFFFF","w":2,"o":0.85,"n":"Sun Life Financial","p":1}},{"type":"Feature","geometry":{"type":"Point","coordinates":[-77.16221329909641,39.592992224254175]},"properties":{"k":"a6a88674f8b0acc6","c":"#A85760","r":8.0,"s":"#FFFFFF","w":2,"o":0.85,"n":"T. Rowe Price","p":1}},{"type":"Feature","geometry":{"type":"Point","coordinates":[-78.43821984401525,41.011202943061214]},"properties":{"k":"89a73e1121aa2b07","c":"#874545","r":8.0,"s":"#FFFFFF","w":2,"o":0.85,"n":"TIAA","p":1}},{"type":"Feature","geometry":{"type":"Point","coordinates":[-80.21827086210195,40.4099137033229]},"properties":{"k":"d24d73814b3ba128","c":"#874545","r":8.0,"s":"#FFFFFF","w":2,"o":0.85,"n":"Toyota Financial Services Securities","p":1}},{"type":"Feature","geometry":{"type":"Point","coordinates":[-77.36074002299964,39.00254321300943]},"properties":{"k":"5f1a7dcb0c8c3829","c":"#A85762","r":8.0,"s":"#FFFFFF","w":2,"o":0.85,"n":"Truist Financial","p":1}},{"type":"Feature","geometry":{"type":"Point","coordinates":[-79.3516709134753,38.37920449977902]},"properties":{"k":"cf82bb8e327f01e8","c":"#874545","r":8.0,"s":"#FFFFFF","w":2,"o":0.85,"n":"Vanguard","p":1}},{"type":"Feature","geometry":{"type":"Point","coordinates":[-80.79648241943491,39.840028245720745]},"properties":{"k":"d246f6acc0cf75d2","c":"#874545","r":8.0,"s":"#FFFFFF","w":2,"o":0.85,"n":"Wellington Management","p":1}},{"type":"Feature","geometry":{"type":"Point","coordinates":[101.6869,3.139]},"properties":{"k":"de8c89d67cd0a2a7","c":"#874545","r":8.0,"s":"#FFFFFF","w":2,"o":0.85,"n":"Yayasan Pelaburan Bumiputra","p":1}}]}