{"type":"FeatureCollection","name":"World Advertising 2026 — Companies & Owners","overlays":[],"filters":[{"label":"Type","rows":true,"values":[{"k":"Ad-tech & measurement","label":"Ad-tech & measurement","n":7},{"k":"Agency holding group","label":"Agency holding group","n":8},{"k":"Digital ad platform","label":"Digital ad platform","n":21},{"k":"Out-of-home & audio","label":"Out-of-home & audio","n":10},{"k":"Retail / commerce media","label":"Retail / commerce media","n":14},{"k":"TV / streaming ad seller","label":"TV / streaming ad seller","n":21},{"k":"Owners: Family / founder-controlled","label":"Owners: Family / founder-controlled","n":31},{"k":"Owners: Government / state","label":"Owners: Government / state","n":1},{"k":"Owners: Institutional / fund","label":"Owners: Institutional / fund","n":4},{"k":"Owners: Public company / platform","label":"Owners: Public company / platform","n":12}]}],"features":[{"type":"Feature","geometry":{"type":"Point","coordinates":[-122.0841,37.422]},"properties":{"k":"5e86f57a0c2826a4","c":"#C7A35A","r":18.0,"s":"#070B10","w":1,"o":0.82,"n":"Alphabet (Google, YouTube)","f":"|Digital ad platform|","p":1}},{"type":"Feature","geometry":{"type":"Point","coordinates":[-122.1484,37.4848]},"properties":{"k":"1581236d15edeaad","c":"#C7A35A","r":15.62,"s":"#070B10","w":1,"o":0.82,"n":"Meta (Facebook, Instagram)","f":"|Digital ad platform|","p":1}},{"type":"Feature","geometry":{"type":"Point","coordinates":[-73.987,40.748]},"properties":{"k":"24020b0450f9157f","c":"#A986C2","r":13.0,"s":"#070B10","w":1,"o":0.82,"n":"Omnicom (incl. Interpublic)","f":"|Agency holding group|","p":1}},{"type":"Feature","geometry":{"type":"Point","coordinates":[2.332,48.8704]},"properties":{"k":"e802743a440bbdb8","c":"#A986C2","r":11.94,"s":"#070B10","w":1,"o":0.82,"n":"Publicis Groupe","f":"|Agency holding group|","p":1}},{"type":"Feature","geometry":{"type":"Point","coordinates":[116.481,39.9897]},"properties":{"k":"6ab89ff5dc7ad33b","c":"#C7A35A","r":11.59,"s":"#070B10","w":1,"o":0.82,"n":"ByteDance (TikTok, Douyin)","f":"|Digital ad platform|","p":1}},{"type":"Feature","geometry":{"type":"Point","coordinates":[-0.119,51.516]},"properties":{"k":"6115b9ee98ae5589","c":"#A986C2","r":11.35,"s":"#070B10","w":1,"o":0.82,"n":"WPP","f":"|Agency holding group|","p":1}},{"type":"Feature","geometry":{"type":"Point","coordinates":[-122.3366,47.6228]},"properties":{"k":"cbb55d42c349a2f8","c":"#5FA98A","r":10.77,"s":"#070B10","w":1,"o":0.82,"n":"Amazon Ads","f":"|Retail / commerce media|","p":1}},{"type":"Feature","geometry":{"type":"Point","coordinates":[139.763,35.671]},"properties":{"k":"221d79bc5fb6b6aa","c":"#A986C2","r":9.69,"s":"#070B10","w":1,"o":0.82,"n":"Dentsu","f":"|Agency holding group|","p":1}},{"type":"Feature","geometry":{"type":"Point","coordinates":[120.193,30.19]},"properties":{"k":"3c4a56864b1143fc","c":"#5FA98A","r":8.93,"s":"#070B10","w":1,"o":0.82,"n":"Alibaba","f":"|Retail / commerce media|","p":1}},{"type":"Feature","geometry":{"type":"Point","coordinates":[121.4737,31.2304]},"properties":{"k":"4fe355fc3d097c35","c":"#5FA98A","r":8.93,"s":"#070B10","w":1,"o":0.82,"n":"PDD / Temu (Pinduoduo)","f":"|Retail / commerce media|","p":1}},{"type":"Feature","geometry":{"type":"Point","coordinates":[-122.1284,47.6396]},"properties":{"k":"089b271bf881b3e6","c":"#C7A35A","r":8.02,"s":"#070B10","w":1,"o":0.82,"n":"Microsoft (Bing, LinkedIn, Xandr)","f":"|Digital ad platform|","p":1}},{"type":"Feature","geometry":{"type":"Point","coordinates":[2.239,48.892]},"properties":{"k":"08198b2618c4f37e","c":"#A986C2","r":8.02,"s":"#070B10","w":1,"o":0.82,"n":"Havas","f":"|Agency holding group|","p":1}},{"type":"Feature","geometry":{"type":"Point","coordinates":[-6.267,53.344]},"properties":{"k":"f20797c4dba14ebe","c":"#A986C2","r":7.91,"s":"#070B10","w":1,"o":0.82,"n":"Accenture Song","f":"|Agency holding group|","p":1}},{"type":"Feature","geometry":{"type":"Point","coordinates":[113.934,22.5403]},"properties":{"k":"995766ec30b4efae","c":"#C7A35A","r":7.67,"s":"#070B10","w":1,"o":0.82,"n":"Tencent","f":"|Digital ad platform|","p":1}},{"type":"Feature","geometry":{"type":"Point","coordinates":[139.729,35.665]},"properties":{"k":"a8da556922c232a8","c":"#A986C2","r":7.55,"s":"#070B10","w":1,"o":0.82,"n":"Hakuhodo DY","f":"|Agency holding group|","p":1}},{"type":"Feature","geometry":{"type":"Point","coordinates":[116.301,40.057]},"properties":{"k":"2b10672260c8645c","c":"#C7A35A","r":7.29,"s":"#070B10","w":1,"o":0.82,"n":"Baidu","f":"|Digital ad platform|","p":1}},{"type":"Feature","geometry":{"type":"Point","coordinates":[-122.009,37.3349]},"properties":{"k":"60d50b97e42a8fa6","c":"#C7A35A","r":7.0,"s":"#070B10","w":1,"o":0.82,"n":"Apple (App Store ads)","f":"|Digital ad platform|","p":1}},{"type":"Feature","geometry":{"type":"Point","coordinates":[116.45,39.99]},"properties":{"k":"fd90e99cd0350a54","c":"#C7A35A","r":6.85,"s":"#070B10","w":1,"o":0.82,"n":"Kuaishou","f":"|Digital ad platform|","p":1}},{"type":"Feature","geometry":{"type":"Point","coordinates":[-118.3247,34.1561]},"properties":{"k":"9827960795867b97","c":"#6699C9","r":6.85,"s":"#070B10","w":1,"o":0.82,"n":"Disney (ESPN, ABC, Hulu)","f":"|TV / streaming ad seller|","p":1}},{"type":"Feature","geometry":{"type":"Point","coordinates":[116.481,39.996]},"properties":{"k":"4cd1c1505aab3c53","c":"#5FA98A","r":6.85,"s":"#070B10","w":1,"o":0.82,"n":"JD.com (JD Ads)","f":"|Retail / commerce media|","p":1}},{"type":"Feature","geometry":{"type":"Point","coordinates":[-73.9817,40.7589]},"properties":{"k":"6dd7e57cd1629b40","c":"#6699C9","r":6.56,"s":"#070B10","w":1,"o":0.82,"n":"NBCUniversal (Comcast)","f":"|TV / streaming ad seller|","p":1}},{"type":"Feature","geometry":{"type":"Point","coordinates":[-122.0253,37.417]},"properties":{"k":"913f605d5ad61c24","c":"#C7A35A","r":6.22,"s":"#070B10","w":1,"o":0.82,"n":"Yahoo","f":"|Digital ad platform|","p":1}},{"type":"Feature","geometry":{"type":"Point","coordinates":[-74.0019,40.7538]},"properties":{"k":"5cfd823f7d11b756","c":"#6699C9","r":6.22,"s":"#070B10","w":1,"o":0.82,"n":"Warner Bros. Discovery","f":"|TV / streaming ad seller|","p":1}},{"type":"Feature","geometry":{"type":"Point","coordinates":[116.413,40.041]},"properties":{"k":"bd3ac67946c72463","c":"#5FA98A","r":6.22,"s":"#070B10","w":1,"o":0.82,"n":"Meituan","f":"|Retail / commerce media|","p":1}},{"type":"Feature","geometry":{"type":"Point","coordinates":[-73.97,40.76]},"properties":{"k":"3141e74b06b41783","c":"#A986C2","r":6.12,"s":"#070B10","w":1,"o":0.82,"n":"Stagwell","f":"|Agency holding group|","p":1}},{"type":"Feature","geometry":{"type":"Point","coordinates":[-73.9772,40.7637]},"properties":{"k":"4c2ffcbe4493c256","c":"#6699C9","r":6.01,"s":"#070B10","w":1,"o":0.82,"n":"Paramount Skydance","f":"|TV / streaming ad seller|","p":1}},{"type":"Feature","geometry":{"type":"Point","coordinates":[-73.982,40.7589]},"properties":{"k":"08797ce01039c229","c":"#6699C9","r":6.01,"s":"#070B10","w":1,"o":0.82,"n":"Fox Corporation","f":"|TV / streaming ad seller|","p":1}},{"type":"Feature","geometry":{"type":"Point","coordinates":[-118.4978,34.0086]},"properties":{"k":"17b4dff8811f4029","c":"#C7A35A","r":6.01,"s":"#070B10","w":1,"o":0.82,"n":"Snap (Snapchat)","f":"|Digital ad platform|","p":1}},{"type":"Feature","geometry":{"type":"Point","coordinates":[37.588,55.734]},"properties":{"k":"6b1e1ad813d321aa","c":"#C7A35A","r":6.01,"s":"#070B10","w":1,"o":0.82,"n":"Yandex","f":"|Digital ad platform|","p":1}},{"type":"Feature","geometry":{"type":"Point","coordinates":[139.731,35.666]},"properties":{"k":"cdd313e1f5cca444","c":"#C7A35A","r":6.01,"s":"#070B10","w":1,"o":0.82,"n":"LY Corp (Yahoo Japan, LINE)","f":"|Digital ad platform|","p":1}},{"type":"Feature","geometry":{"type":"Point","coordinates":[-94.216,36.365]},"properties":{"k":"4d5d26595b849403","c":"#5FA98A","r":5.92,"s":"#070B10","w":1,"o":0.82,"n":"Walmart Connect","f":"|Retail / commerce media|","p":1}},{"type":"Feature","geometry":{"type":"Point","coordinates":[2.269,48.884]},"properties":{"k":"cbad95a8af9ef369","c":"#CF6A5E","r":5.85,"s":"#070B10","w":1,"o":0.82,"n":"JCDecaux","f":"|Out-of-home & audio|","p":1}},{"type":"Feature","geometry":{"type":"Point","coordinates":[11.664,48.19]},"properties":{"k":"2b8d0150166f4cf6","c":"#6699C9","r":5.8,"s":"#070B10","w":1,"o":0.82,"n":"ProSiebenSat.1","f":"|TV / streaming ad seller|","p":1}},{"type":"Feature","geometry":{"type":"Point","coordinates":[-98.504,29.476]},"properties":{"k":"d0a3e166126df9b0","c":"#CF6A5E","r":5.77,"s":"#070B10","w":1,"o":0.82,"n":"iHeartMedia","f":"|Out-of-home & audio|","p":1}},{"type":"Feature","geometry":{"type":"Point","coordinates":[-122.389,37.772]},"properties":{"k":"5e7d59fccccac5ae","c":"#C7A35A","r":5.72,"s":"#070B10","w":1,"o":0.82,"n":"Pinterest","f":"|Digital ad platform|","p":1}},{"type":"Feature","geometry":{"type":"Point","coordinates":[-121.975,37.397]},"properties":{"k":"9e93c66c635c0d29","c":"#6699C9","r":5.7,"s":"#070B10","w":1,"o":0.82,"n":"Roku","f":"|TV / streaming ad seller|","p":1}},{"type":"Feature","geometry":{"type":"Point","coordinates":[116.321,39.923]},"properties":{"k":"0382e234f3f7ffad","c":"#6699C9","r":5.7,"s":"#070B10","w":1,"o":0.82,"n":"CCTV / China Media Group","f":"|TV / streaming ad seller|","p":1}},{"type":"Feature","geometry":{"type":"Point","coordinates":[-73.978,40.757]},"properties":{"k":"f1e1eac921fb55a9","c":"#8AA0B2","r":5.64,"s":"#070B10","w":1,"o":0.82,"n":"Nielsen","f":"|Ad-tech & measurement|","p":1}},{"type":"Feature","geometry":{"type":"Point","coordinates":[-99.275,19.39]},"properties":{"k":"5d2b23faf353f79f","c":"#6699C9","r":5.56,"s":"#070B10","w":1,"o":0.82,"n":"TelevisaUnivision","f":"|TV / streaming ad seller|","p":1}},{"type":"Feature","geometry":{"type":"Point","coordinates":[-43.201,-22.951]},"properties":{"k":"931104decffe75b8","c":"#6699C9","r":5.56,"s":"#070B10","w":1,"o":0.82,"n":"Grupo Globo","f":"|TV / streaming ad seller|","p":1}},{"type":"Feature","geometry":{"type":"Point","coordinates":[127.105,37.359]},"properties":{"k":"d543c3926f56515e","c":"#C7A35A","r":5.56,"s":"#070B10","w":1,"o":0.82,"n":"Naver","f":"|Digital ad platform|","p":1}},{"type":"Feature","geometry":{"type":"Point","coordinates":[103.851,1.284]},"properties":{"k":"f07261c82f01d8b7","c":"#5FA98A","r":5.56,"s":"#070B10","w":1,"o":0.82,"n":"Sea / Shopee","f":"|Retail / commerce media|","p":1}},{"type":"Feature","geometry":{"type":"Point","coordinates":[-96.969,32.873]},"properties":{"k":"1df6157bcf6eacde","c":"#6699C9","r":5.56,"s":"#070B10","w":1,"o":0.82,"n":"Nexstar / NewsNation","f":"|TV / streaming ad seller|","p":1}},{"type":"Feature","geometry":{"type":"Point","coordinates":[-122.417,37.7758]},"properties":{"k":"d0da6a5beb298a5f","c":"#C7A35A","r":5.44,"s":"#070B10","w":1,"o":0.82,"n":"X (Twitter)","f":"|Digital ad platform|","p":1}},{"type":"Feature","geometry":{"type":"Point","coordinates":[-76.658,39.49]},"properties":{"k":"67cb40a80f09e85a","c":"#6699C9","r":5.44,"s":"#070B10","w":1,"o":0.82,"n":"Sinclair","f":"|TV / streaming ad seller|","p":1}},{"type":"Feature","geometry":{"type":"Point","coordinates":[-77.23,38.92]},"properties":{"k":"4ea945befa3e3126","c":"#6699C9","r":5.44,"s":"#070B10","w":1,"o":0.82,"n":"TEGNA","f":"|TV / streaming ad seller|","p":1}},{"type":"Feature","geometry":{"type":"Point","coordinates":[139.759,35.689]},"properties":{"k":"60b84f5bde4b53f1","c":"#6699C9","r":5.44,"s":"#070B10","w":1,"o":0.82,"n":"Nippon TV","f":"|TV / streaming ad seller|","p":1}},{"type":"Feature","geometry":{"type":"Point","coordinates":[-119.229,34.274]},"properties":{"k":"c37474368316832b","c":"#8AA0B2","r":5.41,"s":"#070B10","w":1,"o":0.82,"n":"The Trade Desk","f":"|Ad-tech & measurement|","p":1}},{"type":"Feature","geometry":{"type":"Point","coordinates":[-0.128,51.508]},"properties":{"k":"c2032590a493b78b","c":"#6699C9","r":5.37,"s":"#070B10","w":1,"o":0.82,"n":"ITV","f":"|TV / streaming ad seller|","p":1}},{"type":"Feature","geometry":{"type":"Point","coordinates":[-91.187,30.451]},"properties":{"k":"1f2dbc28d81c732e","c":"#CF6A5E","r":5.34,"s":"#070B10","w":1,"o":0.82,"n":"Lamar Advertising","f":"|Out-of-home & audio|","p":1}},{"type":"Feature","geometry":{"type":"Point","coordinates":[-73.997,40.748]},"properties":{"k":"6e1bf69bfb336b38","c":"#CF6A5E","r":5.27,"s":"#070B10","w":1,"o":0.82,"n":"SiriusXM","f":"|Out-of-home & audio|","p":1}},{"type":"Feature","geometry":{"type":"Point","coordinates":[18.059,59.3346]},"properties":{"k":"5137355f52369b03","c":"#CF6A5E","r":5.27,"s":"#070B10","w":1,"o":0.82,"n":"Spotify","f":"|Out-of-home & audio|","p":1}},{"type":"Feature","geometry":{"type":"Point","coordinates":[-121.9637,37.258]},"properties":{"k":"dadf591a8cdefef9","c":"#6699C9","r":5.27,"s":"#070B10","w":1,"o":0.82,"n":"Netflix Ads","f":"|TV / streaming ad seller|","p":1}},{"type":"Feature","geometry":{"type":"Point","coordinates":[6.1319,49.6116]},"properties":{"k":"7445f93419488ebf","c":"#6699C9","r":5.27,"s":"#070B10","w":1,"o":0.82,"n":"RTL Group","f":"|TV / streaming ad seller|","p":1}},{"type":"Feature","geometry":{"type":"Point","coordinates":[139.73,35.636]},"properties":{"k":"1215472d21ca7d9b","c":"#5FA98A","r":5.27,"s":"#070B10","w":1,"o":0.82,"n":"Rakuten","f":"|Retail / commerce media|","p":1}},{"type":"Feature","geometry":{"type":"Point","coordinates":[127.112,37.392]},"properties":{"k":"d8803dfafa3516b5","c":"#C7A35A","r":5.27,"s":"#070B10","w":1,"o":0.82,"n":"Kakao","f":"|Digital ad platform|","p":1}},{"type":"Feature","geometry":{"type":"Point","coordinates":[6.958,50.942]},"properties":{"k":"ba56d36fd20b78e2","c":"#CF6A5E","r":5.27,"s":"#070B10","w":1,"o":0.82,"n":"Ströer","f":"|Out-of-home & audio|","p":1}},{"type":"Feature","geometry":{"type":"Point","coordinates":[121.476,31.224]},"properties":{"k":"d7bf0c0ca319d5f6","c":"#CF6A5E","r":5.27,"s":"#070B10","w":1,"o":0.82,"n":"Focus Media","f":"|Out-of-home & audio|","p":1}},{"type":"Feature","geometry":{"type":"Point","coordinates":[2.33,48.873]},"properties":{"k":"4943c76cde6615dc","c":"#8AA0B2","r":5.27,"s":"#070B10","w":1,"o":0.82,"n":"Criteo","f":"|Ad-tech & measurement|","p":1}},{"type":"Feature","geometry":{"type":"Point","coordinates":[139.777,35.626]},"properties":{"k":"1f010d5c10797370","c":"#6699C9","r":5.27,"s":"#070B10","w":1,"o":0.82,"n":"Fuji Media Holdings","f":"|TV / streaming ad seller|","p":1}},{"type":"Feature","geometry":{"type":"Point","coordinates":[2.251,48.833]},"properties":{"k":"1415e01b3d8d4f55","c":"#6699C9","r":5.27,"s":"#070B10","w":1,"o":0.82,"n":"TF1","f":"|TV / streaming ad seller|","p":1}},{"type":"Feature","geometry":{"type":"Point","coordinates":[-122.337,47.61]},"properties":{"k":"8d673365f96ee722","c":"#C7A35A","r":5.27,"s":"#070B10","w":1,"o":0.82,"n":"Zillow","f":"|Digital ad platform|","p":1}},{"type":"Feature","geometry":{"type":"Point","coordinates":[-73.992,40.751]},"properties":{"k":"ade8df003bbc203d","c":"#CF6A5E","r":5.2,"s":"#070B10","w":1,"o":0.82,"n":"Outfront Media","f":"|Out-of-home & audio|","p":1}},{"type":"Feature","geometry":{"type":"Point","coordinates":[-73.992,40.739]},"properties":{"k":"f42f161ce87c6749","c":"#C7A35A","r":5.16,"s":"#070B10","w":1,"o":0.82,"n":"Taboola","f":"|Digital ad platform|","p":1}},{"type":"Feature","geometry":{"type":"Point","coordinates":[-121.929,37.298]},"properties":{"k":"6414b556137800d5","c":"#5FA98A","r":5.12,"s":"#070B10","w":1,"o":0.82,"n":"eBay Ads","f":"|Retail / commerce media|","p":1}},{"type":"Feature","geometry":{"type":"Point","coordinates":[127.004,37.505]},"properties":{"k":"9f0a27a08743e026","c":"#5FA98A","r":5.12,"s":"#070B10","w":1,"o":0.82,"n":"Coupang","f":"|Retail / commerce media|","p":1}},{"type":"Feature","geometry":{"type":"Point","coordinates":[-122.418,37.7752]},"properties":{"k":"b1baacf4d1d8a672","c":"#5FA98A","r":5.12,"s":"#070B10","w":1,"o":0.82,"n":"Uber Advertising","f":"|Retail / commerce media|","p":1}},{"type":"Feature","geometry":{"type":"Point","coordinates":[-73.983,40.77]},"properties":{"k":"4abcae0571769978","c":"#6699C9","r":5.12,"s":"#070B10","w":1,"o":0.82,"n":"AMC Networks","f":"|TV / streaming ad seller|","p":1}},{"type":"Feature","geometry":{"type":"Point","coordinates":[-98.5,29.49]},"properties":{"k":"352d8ee126ce132b","c":"#CF6A5E","r":5.12,"s":"#070B10","w":1,"o":0.82,"n":"Clear Channel Outdoor","f":"|Out-of-home & audio|","p":1}},{"type":"Feature","geometry":{"type":"Point","coordinates":[116.331,39.975]},"properties":{"k":"a8ab81e7a4fbd8e5","c":"#C7A35A","r":5.12,"s":"#070B10","w":1,"o":0.82,"n":"Weibo","f":"|Digital ad platform|","p":1}},{"type":"Feature","geometry":{"type":"Point","coordinates":[127.053,37.257]},"properties":{"k":"a18ad6bea142aacf","c":"#6699C9","r":5.12,"s":"#070B10","w":1,"o":0.82,"n":"Samsung Ads","f":"|TV / streaming ad seller|","p":1}},{"type":"Feature","geometry":{"type":"Point","coordinates":[-122.3927,37.7785]},"properties":{"k":"542c4efd707d3e5a","c":"#C7A35A","r":5.08,"s":"#070B10","w":1,"o":0.82,"n":"Reddit","f":"|Digital ad platform|","p":1}},{"type":"Feature","geometry":{"type":"Point","coordinates":[-122.399,37.786]},"properties":{"k":"feaeca6c846eeb5c","c":"#C7A35A","r":5.08,"s":"#070B10","w":1,"o":0.82,"n":"Yelp","f":"|Digital ad platform|","p":1}},{"type":"Feature","geometry":{"type":"Point","coordinates":[-56.1645,-34.9011]},"properties":{"k":"b2d1a27a70a57b69","c":"#5FA98A","r":5.04,"s":"#070B10","w":1,"o":0.82,"n":"MercadoLibre (Mercado Ads)","f":"|Retail / commerce media|","p":1}},{"type":"Feature","geometry":{"type":"Point","coordinates":[-122.395,37.778]},"properties":{"k":"74c65730f27bcbe5","c":"#5FA98A","r":5.0,"s":"#070B10","w":1,"o":0.82,"n":"DoorDash Ads","f":"|Retail / commerce media|","p":1}},{"type":"Feature","geometry":{"type":"Point","coordinates":[-122.39,37.79]},"properties":{"k":"224291141fcce0fd","c":"#5FA98A","r":5.0,"s":"#070B10","w":1,"o":0.82,"n":"Instacart (Carrot Ads)","f":"|Retail / commerce media|","p":1}},{"type":"Feature","geometry":{"type":"Point","coordinates":[-75.164,39.952]},"properties":{"k":"7ca745909eb67c18","c":"#CF6A5E","r":5.0,"s":"#070B10","w":1,"o":0.82,"n":"Audacy","f":"|Out-of-home & audio|","p":1}},{"type":"Feature","geometry":{"type":"Point","coordinates":[-73.992,40.743]},"properties":{"k":"4a1a4b53acb637f9","c":"#8AA0B2","r":5.0,"s":"#070B10","w":1,"o":0.82,"n":"DoubleVerify","f":"|Ad-tech & measurement|","p":1}},{"type":"Feature","geometry":{"type":"Point","coordinates":[-118.49,34.02]},"properties":{"k":"f76211fdd052c409","c":"#8AA0B2","r":5.0,"s":"#070B10","w":1,"o":0.82,"n":"Magnite","f":"|Ad-tech & measurement|","p":1}},{"type":"Feature","geometry":{"type":"Point","coordinates":[-77.339,38.956]},"properties":{"k":"a5b82ccacef430f8","c":"#8AA0B2","r":5.0,"s":"#070B10","w":1,"o":0.82,"n":"Comscore","f":"|Ad-tech & measurement|","p":1}},{"type":"Feature","geometry":{"type":"Point","coordinates":[-122.26,37.523]},"properties":{"k":"ab0fb442e7a5b138","c":"#8AA0B2","r":5.0,"s":"#070B10","w":1,"o":0.82,"n":"PubMatic","f":"|Ad-tech & measurement|","p":1}},{"type":"Feature","geometry":{"type":"Point","coordinates":[-122.0841,37.422]},"properties":{"k":"957d35892f4f5892","c":"#5FA98A","r":12.0,"s":"#070B10","w":1,"o":0.82,"n":"Larry Page & Sergey Brin (Alphabet)","f":"|Owners: Family / founder-controlled|","p":1}},{"type":"Feature","geometry":{"type":"Point","coordinates":[-122.1484,37.4848]},"properties":{"k":"e3449d3ff9a397d9","c":"#5FA98A","r":12.0,"s":"#070B10","w":1,"o":0.82,"n":"Mark Zuckerberg (Meta)","f":"|Owners: Family / founder-controlled|","p":1}},{"type":"Feature","geometry":{"type":"Point","coordinates":[-74.001,40.7531]},"properties":{"k":"82b3c3cb772602c2","c":"#6699C9","r":12.0,"s":"#070B10","w":1,"o":0.82,"n":"Index-fund 'Big Three'","f":"|Owners: Institutional / fund|","p":1}},{"type":"Feature","geometry":{"type":"Point","coordinates":[116.3975,39.9087]},"properties":{"k":"526afc9ff4d5e706","c":"#CF6A5E","r":9.5,"s":"#070B10","w":1,"o":0.82,"n":"Chinese state","f":"|Owners: Government / state|","p":1}},{"type":"Feature","geometry":{"type":"Point","coordinates":[116.481,39.9897]},"properties":{"k":"2e8ed086410bd9a5","c":"#5FA98A","r":9.5,"s":"#070B10","w":1,"o":0.82,"n":"Zhang Yiming (ByteDance)","f":"|Owners: Family / founder-controlled|","p":1}},{"type":"Feature","geometry":{"type":"Point","coordinates":[-122.3366,47.6228]},"properties":{"k":"1e66d6bd45a96ecd","c":"#C7A35A","r":9.5,"s":"#070B10","w":1,"o":0.82,"n":"Amazon / Jeff Bezos","f":"|Owners: Public company / platform|","p":1}},{"type":"Feature","geometry":{"type":"Point","coordinates":[-122.1284,47.6396]},"properties":{"k":"ab542052064e1307","c":"#C7A35A","r":9.5,"s":"#070B10","w":1,"o":0.82,"n":"Microsoft","f":"|Owners: Public company / platform|","p":1}},{"type":"Feature","geometry":{"type":"Point","coordinates":[-122.009,37.3349]},"properties":{"k":"ff095e27f9768960","c":"#C7A35A","r":9.5,"s":"#070B10","w":1,"o":0.82,"n":"Apple","f":"|Owners: Public company / platform|","p":1}},{"type":"Feature","geometry":{"type":"Point","coordinates":[-118.3247,34.1561]},"properties":{"k":"3c162ce0ad38f8f1","c":"#C7A35A","r":9.5,"s":"#070B10","w":1,"o":0.82,"n":"Disney","f":"|Owners: Public company / platform|","p":1}},{"type":"Feature","geometry":{"type":"Point","coordinates":[-73.987,40.748]},"properties":{"k":"d23d018e42f917b2","c":"#C7A35A","r":7.5,"s":"#070B10","w":1,"o":0.82,"n":"Omnicom","f":"|Owners: Public company / platform|","p":1}},{"type":"Feature","geometry":{"type":"Point","coordinates":[2.332,48.8704]},"properties":{"k":"167dcaec6e76e3b0","c":"#5FA98A","r":7.5,"s":"#070B10","w":1,"o":0.82,"n":"Badinter family (Publicis)","f":"|Owners: Family / founder-controlled|","p":1}},{"type":"Feature","geometry":{"type":"Point","coordinates":[-0.119,51.516]},"properties":{"k":"27aca914c1b6bc33","c":"#C7A35A","r":7.5,"s":"#070B10","w":1,"o":0.82,"n":"WPP","f":"|Owners: Public company / platform|","p":1}},{"type":"Feature","geometry":{"type":"Point","coordinates":[139.763,35.671]},"properties":{"k":"836a84d1215a6fdb","c":"#C7A35A","r":7.5,"s":"#070B10","w":1,"o":0.82,"n":"Dentsu","f":"|Owners: Public company / platform|","p":1}},{"type":"Feature","geometry":{"type":"Point","coordinates":[121.4737,31.2304]},"properties":{"k":"5b6e7484a2d36a8c","c":"#5FA98A","r":7.5,"s":"#070B10","w":1,"o":0.82,"n":"Colin Huang (PDD / Temu)","f":"|Owners: Family / founder-controlled|","p":1}},{"type":"Feature","geometry":{"type":"Point","coordinates":[2.279,48.854]},"properties":{"k":"8878afc5fdcf6676","c":"#5FA98A","r":7.5,"s":"#070B10","w":1,"o":0.82,"n":"Bolloré family","f":"|Owners: Family / founder-controlled|","p":1}},{"type":"Feature","geometry":{"type":"Point","coordinates":[-6.267,53.344]},"properties":{"k":"00097e99f9349bd5","c":"#C7A35A","r":7.5,"s":"#070B10","w":1,"o":0.82,"n":"Accenture","f":"|Owners: Public company / platform|","p":1}},{"type":"Feature","geometry":{"type":"Point","coordinates":[113.934,22.5403]},"properties":{"k":"ce3cb3caaaa9e3bc","c":"#C7A35A","r":7.5,"s":"#070B10","w":1,"o":0.82,"n":"Ma Huateng / Tencent","f":"|Owners: Public company / platform|","p":1}},{"type":"Feature","geometry":{"type":"Point","coordinates":[116.301,40.057]},"properties":{"k":"c0dd68197a86d2d8","c":"#5FA98A","r":7.5,"s":"#070B10","w":1,"o":0.82,"n":"Robin Li (Baidu)","f":"|Owners: Family / founder-controlled|","p":1}},{"type":"Feature","geometry":{"type":"Point","coordinates":[-73.9817,40.7589]},"properties":{"k":"6844d7277e1a1634","c":"#5FA98A","r":7.5,"s":"#070B10","w":1,"o":0.82,"n":"Roberts family (Comcast/NBCU)","f":"|Owners: Family / founder-controlled|","p":1}},{"type":"Feature","geometry":{"type":"Point","coordinates":[-73.976,40.7575]},"properties":{"k":"aebef4dda5122d77","c":"#6699C9","r":7.5,"s":"#070B10","w":1,"o":0.82,"n":"Apollo (Yahoo)","f":"|Owners: Institutional / fund|","p":1}},{"type":"Feature","geometry":{"type":"Point","coordinates":[-74.0019,40.7538]},"properties":{"k":"3232725acd4137f1","c":"#C7A35A","r":7.5,"s":"#070B10","w":1,"o":0.82,"n":"Warner Bros. Discovery","f":"|Owners: Public company / platform|","p":1}},{"type":"Feature","geometry":{"type":"Point","coordinates":[-73.982,40.7589]},"properties":{"k":"494bd626ab71cb53","c":"#5FA98A","r":7.5,"s":"#070B10","w":1,"o":0.82,"n":"Murdoch family (Fox)","f":"|Owners: Family / founder-controlled|","p":1}},{"type":"Feature","geometry":{"type":"Point","coordinates":[-73.9772,40.7637]},"properties":{"k":"e367175165eb140e","c":"#5FA98A","r":7.5,"s":"#070B10","w":1,"o":0.82,"n":"Paramount Skydance (Ellison)","f":"|Owners: Family / founder-controlled|","p":1}},{"type":"Feature","geometry":{"type":"Point","coordinates":[37.588,55.734]},"properties":{"k":"4b92d37a8b8cd943","c":"#6699C9","r":7.5,"s":"#070B10","w":1,"o":0.82,"n":"Yandex (Russian consortium)","f":"|Owners: Institutional / fund|","p":1}},{"type":"Feature","geometry":{"type":"Point","coordinates":[139.731,35.666]},"properties":{"k":"5a1ffe3a821e94b4","c":"#C7A35A","r":7.5,"s":"#070B10","w":1,"o":0.82,"n":"SoftBank & Naver (LY Corp)","f":"|Owners: Public company / platform|","p":1}},{"type":"Feature","geometry":{"type":"Point","coordinates":[-94.216,36.365]},"properties":{"k":"7ef364b76129ba51","c":"#5FA98A","r":7.5,"s":"#070B10","w":1,"o":0.82,"n":"Walton family (Walmart Connect)","f":"|Owners: Family / founder-controlled|","p":1}},{"type":"Feature","geometry":{"type":"Point","coordinates":[2.269,48.884]},"properties":{"k":"bebd86c2ba7b9c74","c":"#5FA98A","r":7.5,"s":"#070B10","w":1,"o":0.82,"n":"Decaux family (JCDecaux)","f":"|Owners: Family / founder-controlled|","p":1}},{"type":"Feature","geometry":{"type":"Point","coordinates":[9.279,45.498]},"properties":{"k":"c6b28043f78c80e6","c":"#5FA98A","r":7.5,"s":"#070B10","w":1,"o":0.82,"n":"Berlusconi family (MFE)","f":"|Owners: Family / founder-controlled|","p":1}},{"type":"Feature","geometry":{"type":"Point","coordinates":[-121.975,37.397]},"properties":{"k":"5babc6748a44a77a","c":"#5FA98A","r":7.5,"s":"#070B10","w":1,"o":0.82,"n":"Anthony Wood (Roku)","f":"|Owners: Family / founder-controlled|","p":1}},{"type":"Feature","geometry":{"type":"Point","coordinates":[-99.275,19.39]},"properties":{"k":"c074159cae012cd1","c":"#5FA98A","r":7.5,"s":"#070B10","w":1,"o":0.82,"n":"Azcárraga family (TelevisaUnivision)","f":"|Owners: Family / founder-controlled|","p":1}},{"type":"Feature","geometry":{"type":"Point","coordinates":[-43.201,-22.951]},"properties":{"k":"629e046d0720a755","c":"#5FA98A","r":7.5,"s":"#070B10","w":1,"o":0.82,"n":"Marinho family (Globo)","f":"|Owners: Family / founder-controlled|","p":1}},{"type":"Feature","geometry":{"type":"Point","coordinates":[-119.229,34.274]},"properties":{"k":"043f1cc93149a030","c":"#5FA98A","r":7.5,"s":"#070B10","w":1,"o":0.82,"n":"Jeff Green (The Trade Desk)","f":"|Owners: Family / founder-controlled|","p":1}},{"type":"Feature","geometry":{"type":"Point","coordinates":[116.481,39.996]},"properties":{"k":"7784993617813c78","c":"#5FA98A","r":5.5,"s":"#070B10","w":1,"o":0.82,"n":"Richard Liu (JD.com)","f":"|Owners: Family / founder-controlled|","p":1}},{"type":"Feature","geometry":{"type":"Point","coordinates":[116.413,40.041]},"properties":{"k":"2d5e5d8c8fb60efd","c":"#5FA98A","r":5.5,"s":"#070B10","w":1,"o":0.82,"n":"Wang Xing (Meituan)","f":"|Owners: Family / founder-controlled|","p":1}},{"type":"Feature","geometry":{"type":"Point","coordinates":[-73.97,40.76]},"properties":{"k":"da8cfea91cabd9e8","c":"#5FA98A","r":5.5,"s":"#070B10","w":1,"o":0.82,"n":"Mark Penn (Stagwell)","f":"|Owners: Family / founder-controlled|","p":1}},{"type":"Feature","geometry":{"type":"Point","coordinates":[-98.504,29.476]},"properties":{"k":"6d6ebb589ae00209","c":"#C7A35A","r":5.5,"s":"#070B10","w":1,"o":0.82,"n":"iHeartMedia","f":"|Owners: Public company / platform|","p":1}},{"type":"Feature","geometry":{"type":"Point","coordinates":[103.851,1.284]},"properties":{"k":"592bdeaf4953952a","c":"#5FA98A","r":5.5,"s":"#070B10","w":1,"o":0.82,"n":"Forrest Li (Sea / Shopee)","f":"|Owners: Family / founder-controlled|","p":1}},{"type":"Feature","geometry":{"type":"Point","coordinates":[-76.658,39.49]},"properties":{"k":"c86c3e053caa27a0","c":"#5FA98A","r":5.5,"s":"#070B10","w":1,"o":0.82,"n":"Smith family (Sinclair)","f":"|Owners: Family / founder-controlled|","p":1}},{"type":"Feature","geometry":{"type":"Point","coordinates":[-122.417,37.7758]},"properties":{"k":"0bedc1285541693a","c":"#5FA98A","r":5.5,"s":"#070B10","w":1,"o":0.82,"n":"Elon Musk (X / xAI)","f":"|Owners: Family / founder-controlled|","p":1}},{"type":"Feature","geometry":{"type":"Point","coordinates":[139.759,35.689]},"properties":{"k":"79076008c4c48a07","c":"#5FA98A","r":5.5,"s":"#070B10","w":1,"o":0.82,"n":"Shoriki family (Nippon TV)","f":"|Owners: Family / founder-controlled|","p":1}},{"type":"Feature","geometry":{"type":"Point","coordinates":[-91.187,30.451]},"properties":{"k":"c4a75385fa20a570","c":"#5FA98A","r":5.5,"s":"#070B10","w":1,"o":0.82,"n":"Reilly family (Lamar)","f":"|Owners: Family / founder-controlled|","p":1}},{"type":"Feature","geometry":{"type":"Point","coordinates":[-104.9878,39.6478]},"properties":{"k":"7e0d2b55452375ea","c":"#5FA98A","r":5.5,"s":"#070B10","w":1,"o":0.82,"n":"Liberty Media / Malone (SiriusXM)","f":"|Owners: Family / founder-controlled|","p":1}},{"type":"Feature","geometry":{"type":"Point","coordinates":[8.385,51.907]},"properties":{"k":"c7d228e0647b0731","c":"#5FA98A","r":5.5,"s":"#070B10","w":1,"o":0.82,"n":"Mohn family (Bertelsmann / RTL)","f":"|Owners: Family / founder-controlled|","p":1}},{"type":"Feature","geometry":{"type":"Point","coordinates":[139.73,35.636]},"properties":{"k":"aabb186f250aa643","c":"#5FA98A","r":5.5,"s":"#070B10","w":1,"o":0.82,"n":"Hiroshi Mikitani (Rakuten)","f":"|Owners: Family / founder-controlled|","p":1}},{"type":"Feature","geometry":{"type":"Point","coordinates":[2.251,48.833]},"properties":{"k":"6f35410710f3d4ad","c":"#5FA98A","r":5.5,"s":"#070B10","w":1,"o":0.82,"n":"Bouygues family (TF1)","f":"|Owners: Family / founder-controlled|","p":1}},{"type":"Feature","geometry":{"type":"Point","coordinates":[-73.992,40.739]},"properties":{"k":"9ef94aa782336361","c":"#5FA98A","r":5.5,"s":"#070B10","w":1,"o":0.82,"n":"Adam Singolda (Taboola)","f":"|Owners: Family / founder-controlled|","p":1}},{"type":"Feature","geometry":{"type":"Point","coordinates":[-56.1645,-34.9011]},"properties":{"k":"88dec0f95b85f7a4","c":"#5FA98A","r":5.5,"s":"#070B10","w":1,"o":0.82,"n":"Marcos Galperin (MercadoLibre)","f":"|Owners: Family / founder-controlled|","p":1}},{"type":"Feature","geometry":{"type":"Point","coordinates":[-73.978,40.757]},"properties":{"k":"ff6a9beccea71478","c":"#6699C9","r":5.5,"s":"#070B10","w":1,"o":0.82,"n":"Elliott & Brookfield (Nielsen)","f":"|Owners: Institutional / fund|","p":1}}],"tabs":{"cos":{"title":"The World's Largest Advertising Companies","about":"Sized by share of the ~$1.1 trillion global ad market. These entries capture roughly 79% of all ad spend; the rest is a long tail of smaller publishers, regional broadcasters and print. <span class=\"mono\">(2026)</span>","size":"Marker size = share of the ~$1.1T global ad market (2024-25). Platforms, retail-media, TV/streaming and out-of-home CAPTURE ad spend as revenue; agency groups DIRECT client media spend (shown, but not added to the captured total); ad-tech enables it. Figures from WARC, GroupM, eMarketer and company reports."},"own":{"title":"Who Owns the World's Advertising","about":"The founders, families, states, funds and public companies behind the ad money. Together they control most of the ~$1.1T market. Sized by breadth of advertising control. <span class=\"mono\">(2026)</span>","size":"Marker size = approximate breadth of advertising control. Founder-families control the dominant platforms; index funds are the largest shareholders of the listed ones; the Chinese state oversees its platforms; agency groups direct (not capture) media spend."}}}