{"type":"FeatureCollection","name":"The Insentient 2026","overlays":[],"filters":[],"features":[{"type":"Feature","geometry":{"type":"Point","coordinates":[-0.1276,51.5072]},"properties":{"k":"72a36f5083e44b9d","c":"#B87C75","r":12.0,"s":"#070B10","w":1,"o":0.82,"n":"De Beers (Anglo American)","p":1}},{"type":"Feature","geometry":{"type":"Point","coordinates":[2.3068,48.8721]},"properties":{"k":"d0bae49bf454344e","c":"#BD7F9D","r":12.0,"s":"#070B10","w":1,"o":0.82,"n":"LVMH","p":1}},{"type":"Feature","geometry":{"type":"Point","coordinates":[-8.49,43.31]},"properties":{"k":"496482a7b5a0f3be","c":"#BD7F9D","r":12.0,"s":"#070B10","w":1,"o":0.82,"n":"Inditex (Zara)","p":1}},{"type":"Feature","geometry":{"type":"Point","coordinates":[6.1432,46.2044]},"properties":{"k":"6a1fd09d467696aa","c":"#B87C75","r":12.0,"s":"#070B10","w":1,"o":0.82,"n":"Richemont","p":1}},{"type":"Feature","geometry":{"type":"Point","coordinates":[2.318,48.855]},"properties":{"k":"f278529b00f5da01","c":"#BD7F9D","r":12.0,"s":"#070B10","w":1,"o":0.82,"n":"Kering","p":1}},{"type":"Feature","geometry":{"type":"Point","coordinates":[-81.5639,28.385]},"properties":{"k":"39bcd603aeb166ef","c":"#7B3F49","r":12.0,"s":"#070B10","w":1,"o":0.82,"n":"Walt Disney (Experiences)","p":1}},{"type":"Feature","geometry":{"type":"Point","coordinates":[6.84,46.46]},"properties":{"k":"ddb9d4c9351a12f8","c":"#7699B9","r":12.0,"s":"#070B10","w":1,"o":0.82,"n":"Nestl\u00e9 / Perrier","p":1}},{"type":"Feature","geometry":{"type":"Point","coordinates":[2.334,48.858]},"properties":{"k":"f01e7f6fa00a1177","c":"#7699B9","r":12.0,"s":"#070B10","w":1,"o":0.82,"n":"Danone (Evian)","p":1}},{"type":"Feature","geometry":{"type":"Point","coordinates":[-0.558,51.319]},"properties":{"k":"191bdc418ee64538","c":"#B46D75","r":12.0,"s":"#070B10","w":1,"o":0.82,"n":"Linde","p":1}},{"type":"Feature","geometry":{"type":"Point","coordinates":[-80.186,25.778]},"properties":{"k":"ff941d3645146037","c":"#A37FBD","r":12.0,"s":"#070B10","w":1,"o":0.82,"n":"Carnival Corporation","p":1}},{"type":"Feature","geometry":{"type":"Point","coordinates":[-118.4,34.07]},"properties":{"k":"18ef1940cbdb63d2","c":"#7B3F49","r":12.0,"s":"#070B10","w":1,"o":0.82,"n":"Live Nation","p":1}},{"type":"Feature","geometry":{"type":"Point","coordinates":[9.127,55.732]},"properties":{"k":"e9dc9fc28aa240a2","c":"#8AA0B2","r":12.0,"s":"#070B10","w":1,"o":0.82,"n":"The LEGO Group","p":1}},{"type":"Feature","geometry":{"type":"Point","coordinates":[-121.963,37.233]},"properties":{"k":"2da863576e96e750","c":"#5FA98A","r":12.0,"s":"#070B10","w":1,"o":0.82,"n":"Netflix","p":1}},{"type":"Feature","geometry":{"type":"Point","coordinates":[103.8198,1.3521]},"properties":{"k":"37624811f6d456f7","c":"#BD7F9D","r":9.5,"s":"#070B10","w":1,"o":0.82,"n":"Shein","p":1}},{"type":"Feature","geometry":{"type":"Point","coordinates":[2.321,48.87]},"properties":{"k":"a311ac2cf0cddf51","c":"#BD7F9D","r":9.5,"s":"#070B10","w":1,"o":0.82,"n":"Herm\u00e8s","p":1}},{"type":"Feature","geometry":{"type":"Point","coordinates":[18.0649,59.3326]},"properties":{"k":"5d49ce75cb3ebf55","c":"#BD7F9D","r":9.5,"s":"#070B10","w":1,"o":0.82,"n":"H&M","p":1}},{"type":"Feature","geometry":{"type":"Point","coordinates":[-104.9903,39.7392]},"properties":{"k":"a102d067ccda2ffb","c":"#B87C75","r":9.5,"s":"#070B10","w":1,"o":0.82,"n":"Newmont","p":1}},{"type":"Feature","geometry":{"type":"Point","coordinates":[-118.411,34.056]},"properties":{"k":"e73c7ca4b4da02b5","c":"#7699B9","r":9.5,"s":"#070B10","w":1,"o":0.82,"n":"The Wonderful Company (Fiji)","p":1}},{"type":"Feature","geometry":{"type":"Point","coordinates":[-80.176,25.772]},"properties":{"k":"3a220e453b7bdde5","c":"#A37FBD","r":9.5,"s":"#070B10","w":1,"o":0.82,"n":"Royal Caribbean","p":1}},{"type":"Feature","geometry":{"type":"Point","coordinates":[114.1745,22.2796]},"properties":{"k":"f0783c7ced069993","c":"#B87C75","r":9.5,"s":"#070B10","w":1,"o":0.82,"n":"Chow Tai Fook","p":1}},{"type":"Feature","geometry":{"type":"Point","coordinates":[-122.6784,45.5152]},"properties":{"k":"c8fa692a03b96e40","c":"#BD7F9D","r":9.5,"s":"#070B10","w":1,"o":0.82,"n":"Nike","p":1}},{"type":"Feature","geometry":{"type":"Point","coordinates":[-84.392,33.763]},"properties":{"k":"95a5525271e85457","c":"#7699B9","r":9.5,"s":"#070B10","w":1,"o":0.82,"n":"Coca-Cola (Smartwater)","p":1}},{"type":"Feature","geometry":{"type":"Point","coordinates":[10.864,44.532]},"properties":{"k":"3f67affdc5d22b03","c":"#A37FBD","r":9.5,"s":"#070B10","w":1,"o":0.82,"n":"Ferrari","p":1}},{"type":"Feature","geometry":{"type":"Point","coordinates":[-81.519,41.0814]},"properties":{"k":"7fb045e70b01eb53","c":"#B87C75","r":9.5,"s":"#070B10","w":1,"o":0.82,"n":"Signet Jewelers","p":1}},{"type":"Feature","geometry":{"type":"Point","coordinates":[-73.714,41.027]},"properties":{"k":"275abf1704609986","c":"#7699B9","r":9.5,"s":"#070B10","w":1,"o":0.82,"n":"PepsiCo (Aquafina)","p":1}},{"type":"Feature","geometry":{"type":"Point","coordinates":[2.31,48.877]},"properties":{"k":"c23589d79d704f16","c":"#B46D75","r":9.5,"s":"#070B10","w":1,"o":0.82,"n":"Air Liquide","p":1}},{"type":"Feature","geometry":{"type":"Point","coordinates":[-0.14,51.5085]},"properties":{"k":"86d1f84867286e2d","c":"#7B3F49","r":9.5,"s":"#070B10","w":1,"o":0.82,"n":"Christie\u2019s","p":1}},{"type":"Feature","geometry":{"type":"Point","coordinates":[12.5683,55.6761]},"properties":{"k":"4fc93504814b2135","c":"#B87C75","r":9.5,"s":"#070B10","w":1,"o":0.82,"n":"Pandora","p":1}},{"type":"Feature","geometry":{"type":"Point","coordinates":[5.4697,51.4416]},"properties":{"k":"a5e53c4b5e04a00b","c":"#B46D75","r":9.5,"s":"#070B10","w":1,"o":0.82,"n":"Signify (Philips)","p":1}},{"type":"Feature","geometry":{"type":"Point","coordinates":[-73.963,40.769]},"properties":{"k":"04f25f88414731c8","c":"#7B3F49","r":9.5,"s":"#070B10","w":1,"o":0.82,"n":"Sotheby\u2019s","p":1}},{"type":"Feature","geometry":{"type":"Point","coordinates":[-118.416,33.92]},"properties":{"k":"b441a92f5881b526","c":"#8AA0B2","r":9.5,"s":"#070B10","w":1,"o":0.82,"n":"Mattel","p":1}},{"type":"Feature","geometry":{"type":"Point","coordinates":[6.137,46.205]},"properties":{"k":"9efa8df0c23658df","c":"#B87C75","r":9.5,"s":"#070B10","w":1,"o":0.82,"n":"Rolex","p":1}},{"type":"Feature","geometry":{"type":"Point","coordinates":[-75.49,40.608]},"properties":{"k":"d43cd6611fde9a42","c":"#B46D75","r":9.5,"s":"#070B10","w":1,"o":0.82,"n":"Air Products","p":1}},{"type":"Feature","geometry":{"type":"Point","coordinates":[116.48,39.99]},"properties":{"k":"471d418599a50ee6","c":"#8AA0B2","r":9.5,"s":"#070B10","w":1,"o":0.82,"n":"Pop Mart","p":1}},{"type":"Feature","geometry":{"type":"Point","coordinates":[-80.137,26.122]},"properties":{"k":"504a8205aec90a84","c":"#5FA98A","r":9.5,"s":"#070B10","w":1,"o":0.82,"n":"Marathon Digital","p":1}},{"type":"Feature","geometry":{"type":"Point","coordinates":[-122.3255,37.563]},"properties":{"k":"1498a1468068d2ec","c":"#5FA98A","r":9.5,"s":"#070B10","w":1,"o":0.82,"n":"Roblox","p":1}},{"type":"Feature","geometry":{"type":"Point","coordinates":[-78.78,35.84]},"properties":{"k":"7b6bc1d0ae73d3c6","c":"#5FA98A","r":9.5,"s":"#070B10","w":1,"o":0.82,"n":"Epic Games (Fortnite)","p":1}},{"type":"Feature","geometry":{"type":"Point","coordinates":[18.064,59.332]},"properties":{"k":"7fd4c5afaa222a44","c":"#5FA98A","r":9.5,"s":"#070B10","w":1,"o":0.82,"n":"Spotify","p":1}},{"type":"Feature","geometry":{"type":"Point","coordinates":[8.65,53.17]},"properties":{"k":"6fdcfc538b79c72f","c":"#A37FBD","r":7.5,"s":"#070B10","w":1,"o":0.82,"n":"L\u00fcrssen","p":1}},{"type":"Feature","geometry":{"type":"Point","coordinates":[11.13,44.665]},"properties":{"k":"578f3388b7062865","c":"#A37FBD","r":7.5,"s":"#070B10","w":1,"o":0.82,"n":"Lamborghini (VW)","p":1}},{"type":"Feature","geometry":{"type":"Point","coordinates":[-122.235,47.381]},"properties":{"k":"75322dac3182832e","c":"#A37FBD","r":7.5,"s":"#070B10","w":1,"o":0.82,"n":"Blue Origin","p":1}},{"type":"Feature","geometry":{"type":"Point","coordinates":[-73.556,45.556]},"properties":{"k":"a88a492dd1821ef4","c":"#7B3F49","r":7.5,"s":"#070B10","w":1,"o":0.82,"n":"Cirque du Soleil","p":1}},{"type":"Feature","geometry":{"type":"Point","coordinates":[-106.774,32.312]},"properties":{"k":"3360a4f4bad84b9c","c":"#A37FBD","r":7.5,"s":"#070B10","w":1,"o":0.82,"n":"Virgin Galactic","p":1}},{"type":"Feature","geometry":{"type":"Point","coordinates":[-122.202,47.979]},"properties":{"k":"c41467e879639aca","c":"#8AA0B2","r":7.5,"s":"#070B10","w":1,"o":0.82,"n":"Funko","p":1}},{"type":"Feature","geometry":{"type":"Point","coordinates":[-80.192,25.762]},"properties":{"k":"523411c53fe5447d","c":"#5FA98A","r":7.5,"s":"#070B10","w":1,"o":0.82,"n":"Yuga Labs (Bored Ape)","p":1}},{"type":"Feature","geometry":{"type":"Point","coordinates":[139.777,35.625]},"properties":{"k":"1d2fb11749bceec2","c":"#7B3F49","r":7.5,"s":"#070B10","w":1,"o":0.82,"n":"teamLab","p":1}},{"type":"Feature","geometry":{"type":"Point","coordinates":[-71.382,41.877]},"properties":{"k":"e2784308d0b6d753","c":"#8AA0B2","r":7.5,"s":"#070B10","w":1,"o":0.82,"n":"Hasbro","p":1}},{"type":"Feature","geometry":{"type":"Point","coordinates":[-72.943,40.757]},"properties":{"k":"4b1c329aa2217734","c":"#B46D75","r":5.5,"s":"#070B10","w":1,"o":0.82,"n":"Fireworks by Grucci","p":1}}]}