{"type":"FeatureCollection","name":"Who Owns the","overlays":[],"filters":[],"features":[{"type":"Feature","geometry":{"type":"Point","coordinates":[6.985,51.0307]},"properties":{"k":"c57dfb5c189a3d9d","c":"#3A713D","r":8.0,"s":"#FFFFFF","w":2,"o":0.95,"n":"Bayer","p":1}},{"type":"Feature","geometry":{"type":"Point","coordinates":[-90.39751204743223,38.6627]},"properties":{"k":"d947bbeff6f5ea11","c":"#3A713D","r":4.5,"s":"#FFFFFF","w":1.4,"o":0.82,"n":"Bayer","p":1}},{"type":"Feature","geometry":{"type":"Point","coordinates":[-86.2664,39.7872]},"properties":{"k":"b45b166ad9379d52","c":"#3A713D","r":8.0,"s":"#FFFFFF","w":2,"o":0.95,"n":"Corteva","p":1}},{"type":"Feature","geometry":{"type":"Point","coordinates":[7.5906,47.555]},"properties":{"k":"7362d421b2086186","c":"#3A713D","r":8.0,"s":"#FFFFFF","w":2,"o":0.95,"n":"Syngenta","p":1}},{"type":"Feature","geometry":{"type":"Point","coordinates":[116.56697680432463,39.9088]},"properties":{"k":"f17b5eb3345a0185","c":"#3A713D","r":4.5,"s":"#FFFFFF","w":1.4,"o":0.82,"n":"Syngenta","p":1}},{"type":"Feature","geometry":{"type":"Point","coordinates":[-106.6345,52.117]},"properties":{"k":"37b6b9490bff5942","c":"#3A713D","r":8.0,"s":"#FFFFFF","w":2,"o":0.95,"n":"Nutrien","p":1}},{"type":"Feature","geometry":{"type":"Point","coordinates":[-93.32685162742864,44.969]},"properties":{"k":"50982ca023265692","c":"#814249","r":8.0,"s":"#FFFFFF","w":2,"o":0.95,"n":"Cargill","p":1}},{"type":"Feature","geometry":{"type":"Point","coordinates":[0.08106434610166988,51.5074]},"properties":{"k":"4b0fe8637b2b76fa","c":"#814249","r":4.5,"s":"#FFFFFF","w":1.4,"o":0.82,"n":"Cargill","p":1}},{"type":"Feature","geometry":{"type":"Point","coordinates":[-46.54314018822588,-23.595]},"properties":{"k":"2c6fc2f6f93901d0","c":"#814249","r":4.5,"s":"#FFFFFF","w":1.4,"o":0.82,"n":"Cargill","p":1}},{"type":"Feature","geometry":{"type":"Point","coordinates":[-87.45737777273438,41.8869]},"properties":{"k":"730b136272ff3b38","c":"#814249","r":8.0,"s":"#FFFFFF","w":2,"o":0.95,"n":"ADM","p":1}},{"type":"Feature","geometry":{"type":"Point","coordinates":[6.517311476197436,46.4583]},"properties":{"k":"61d26cf68a5a6a82","c":"#814249","r":4.5,"s":"#FFFFFF","w":1.4,"o":0.82,"n":"ADM","p":1}},{"type":"Feature","geometry":{"type":"Point","coordinates":[103.98013294103096,1.2897]},"properties":{"k":"555ed5bff3fc743b","c":"#814249","r":4.5,"s":"#FFFFFF","w":1.4,"o":0.82,"n":"ADM","p":1}},{"type":"Feature","geometry":{"type":"Point","coordinates":[-46.5966685370266,-23.53107611844575]},"properties":{"k":"2e69ea1decbea0c3","c":"#814249","r":4.5,"s":"#FFFFFF","w":1.4,"o":0.82,"n":"ADM","p":1}},{"type":"Feature","geometry":{"type":"Point","coordinates":[-90.74358888251737,38.6631]},"properties":{"k":"8528af2dad633325","c":"#814249","r":8.0,"s":"#FFFFFF","w":2,"o":0.95,"n":"Bunge","p":1}},{"type":"Feature","geometry":{"type":"Point","coordinates":[6.331037454152306,46.2044]},"properties":{"k":"e5490fa7547c62ad","c":"#814249","r":4.5,"s":"#FFFFFF","w":1.4,"o":0.82,"n":"Bunge","p":1}},{"type":"Feature","geometry":{"type":"Point","coordinates":[6.280632018691229,46.30082388155425]},"properties":{"k":"bbebdbbd5561e0c5","c":"#814249","r":8.0,"s":"#FFFFFF","w":2,"o":0.95,"n":"Louis Dreyfus","p":1}},{"type":"Feature","geometry":{"type":"Point","coordinates":[-46.654,-23.433]},"properties":{"k":"bb34a3e164f4796f","c":"#814249","r":4.5,"s":"#FFFFFF","w":1.4,"o":0.82,"n":"Louis Dreyfus","p":1}},{"type":"Feature","geometry":{"type":"Point","coordinates":[116.22802319567536,39.9088]},"properties":{"k":"42768a485dfa55ac","c":"#814249","r":8.0,"s":"#FFFFFF","w":2,"o":0.95,"n":"COFCO","p":1}},{"type":"Feature","geometry":{"type":"Point","coordinates":[103.91601632521954,1.3965833024919772]},"properties":{"k":"e8320537fb75e9a3","c":"#814249","r":4.5,"s":"#FFFFFF","w":1.4,"o":0.82,"n":"COFCO","p":1}},{"type":"Feature","geometry":{"type":"Point","coordinates":[103.78058388772675,1.3881833024919772]},"properties":{"k":"904ef3a8efa761d9","c":"#814249","r":8.0,"s":"#FFFFFF","w":2,"o":0.95,"n":"Wilmar","p":1}},{"type":"Feature","geometry":{"type":"Point","coordinates":[-46.83994769984011,-23.42137611844575]},"properties":{"k":"f6720a1327fc5528","c":"#894C46","r":8.0,"s":"#FFFFFF","w":2,"o":0.95,"n":"JBS","p":1}},{"type":"Feature","geometry":{"type":"Point","coordinates":[-104.7091,40.4221]},"properties":{"k":"76f502a6d402b9c9","c":"#894C46","r":4.5,"s":"#FFFFFF","w":1.4,"o":0.82,"n":"JBS","p":1}},{"type":"Feature","geometry":{"type":"Point","coordinates":[-93.9674812410646,36.2099]},"properties":{"k":"5bb21dd979584e1b","c":"#894C46","r":8.0,"s":"#FFFFFF","w":2,"o":0.95,"n":"Tyson Foods","p":1}},{"type":"Feature","geometry":{"type":"Point","coordinates":[114.1747,22.2783]},"properties":{"k":"8a29ab5d356f3fa7","c":"#894C46","r":8.0,"s":"#FFFFFF","w":2,"o":0.95,"n":"WH Group","p":1}},{"type":"Feature","geometry":{"type":"Point","coordinates":[-76.6316,36.9899]},"properties":{"k":"9db8179c964f02c9","c":"#894C46","r":4.5,"s":"#FFFFFF","w":1.4,"o":0.82,"n":"WH Group","p":1}},{"type":"Feature","geometry":{"type":"Point","coordinates":[-46.98735928003402,-23.5018]},"properties":{"k":"3f21408296db1fea","c":"#894C46","r":8.0,"s":"#FFFFFF","w":2,"o":0.95,"n":"BRF","p":1}},{"type":"Feature","geometry":{"type":"Point","coordinates":[-46.79731462382964,-23.69292388155425]},"properties":{"k":"123088b69314b079","c":"#894C46","r":8.0,"s":"#FFFFFF","w":2,"o":0.95,"n":"Marfrig","p":1}},{"type":"Feature","geometry":{"type":"Point","coordinates":[6.8421,46.4577]},"properties":{"k":"dbadd52b65f0e18c","c":"#476B8A","r":8.0,"s":"#FFFFFF","w":2,"o":0.95,"n":"Nestl\u00e9","p":1}},{"type":"Feature","geometry":{"type":"Point","coordinates":[-76.92400035591469,38.8816]},"properties":{"k":"74c7b6dd1d72f9f2","c":"#476B8A","r":4.5,"s":"#FFFFFF","w":1.4,"o":0.82,"n":"Nestl\u00e9","p":1}},{"type":"Feature","geometry":{"type":"Point","coordinates":[103.72186702830548,1.2903]},"properties":{"k":"2e79340d7f645e53","c":"#476B8A","r":4.5,"s":"#FFFFFF","w":1.4,"o":0.82,"n":"Nestl\u00e9","p":1}},{"type":"Feature","geometry":{"type":"Point","coordinates":[-73.7006,41.029]},"properties":{"k":"a245ad86c73d80c2","c":"#476B8A","r":8.0,"s":"#FFFFFF","w":2,"o":0.95,"n":"PepsiCo","p":1}},{"type":"Feature","geometry":{"type":"Point","coordinates":[55.2708,25.2048]},"properties":{"k":"67442fb78f65da3a","c":"#476B8A","r":4.5,"s":"#FFFFFF","w":1.4,"o":0.82,"n":"PepsiCo","p":1}},{"type":"Feature","geometry":{"type":"Point","coordinates":[-98.9953469988174,19.4326]},"properties":{"k":"54d49bf37af5d8ca","c":"#476B8A","r":4.5,"s":"#FFFFFF","w":1.4,"o":0.82,"n":"PepsiCo","p":1}},{"type":"Feature","geometry":{"type":"Point","coordinates":[121.62573090751712,31.2304]},"properties":{"k":"2250caeb0b859993","c":"#476B8A","r":4.5,"s":"#FFFFFF","w":1.4,"o":0.82,"n":"PepsiCo","p":1}},{"type":"Feature","geometry":{"type":"Point","coordinates":[-84.3921,33.7676]},"properties":{"k":"a06cad2a659a51da","c":"#476B8A","r":8.0,"s":"#FFFFFF","w":2,"o":0.95,"n":"Coca-Cola","p":1}},{"type":"Feature","geometry":{"type":"Point","coordinates":[-0.0632573675355732,51.631037347118365]},"properties":{"k":"d80c2e2f95273db5","c":"#476B8A","r":4.5,"s":"#FFFFFF","w":1.4,"o":0.82,"n":"Coca-Cola","p":1}},{"type":"Feature","geometry":{"type":"Point","coordinates":[-99.2021265005913,19.545183302491978]},"properties":{"k":"d8becf533124ee93","c":"#476B8A","r":4.5,"s":"#FFFFFF","w":1.4,"o":0.82,"n":"Coca-Cola","p":1}},{"type":"Feature","geometry":{"type":"Point","coordinates":[-87.53459079962089,41.99808330249198]},"properties":{"k":"b3683a8e7d0f704e","c":"#476B8A","r":8.0,"s":"#FFFFFF","w":2,"o":0.95,"n":"Mondel\u0113z","p":1}},{"type":"Feature","geometry":{"type":"Point","coordinates":[8.5417,47.3769]},"properties":{"k":"c9215aec918c0750","c":"#476B8A","r":4.5,"s":"#FFFFFF","w":1.4,"o":0.82,"n":"Mondel\u0113z","p":1}},{"type":"Feature","geometry":{"type":"Point","coordinates":[103.78688351415275,1.177716697508023]},"properties":{"k":"270c691dee910222","c":"#476B8A","r":4.5,"s":"#FFFFFF","w":1.4,"o":0.82,"n":"Mondel\u0113z","p":1}},{"type":"Feature","geometry":{"type":"Point","coordinates":[-77.09244323170896,39.04258330249198]},"properties":{"k":"8d3275ae31389743","c":"#476B8A","r":8.0,"s":"#FFFFFF","w":2,"o":0.95,"n":"Mars","p":1}},{"type":"Feature","geometry":{"type":"Point","coordinates":[-0.38612144199633075,51.5105]},"properties":{"k":"033c21d91839c27a","c":"#476B8A","r":4.5,"s":"#FFFFFF","w":1.4,"o":0.82,"n":"Mars","p":1}},{"type":"Feature","geometry":{"type":"Point","coordinates":[4.557608387555995,50.8503]},"properties":{"k":"bae441a5636ee43e","c":"#476B8A","r":4.5,"s":"#FFFFFF","w":1.4,"o":0.82,"n":"Mars","p":1}},{"type":"Feature","geometry":{"type":"Point","coordinates":[-93.54734837257136,44.969]},"properties":{"k":"58775ab1291f56d1","c":"#476B8A","r":8.0,"s":"#FFFFFF","w":2,"o":0.95,"n":"General Mills","p":1}},{"type":"Feature","geometry":{"type":"Point","coordinates":[6.2333,46.5133]},"properties":{"k":"4fb7f37eced1a53a","c":"#476B8A","r":4.5,"s":"#FFFFFF","w":1.4,"o":0.82,"n":"General Mills","p":1}},{"type":"Feature","geometry":{"type":"Point","coordinates":[2.498643876272967,48.8716]},"properties":{"k":"65cfc836e884ef39","c":"#476B8A","r":8.0,"s":"#FFFFFF","w":2,"o":0.95,"n":"Danone","p":1}},{"type":"Feature","geometry":{"type":"Point","coordinates":[103.91691648584725,1.1777166975080229]},"properties":{"k":"1f6388e21072ab7e","c":"#476B8A","r":4.5,"s":"#FFFFFF","w":1.4,"o":0.82,"n":"Danone","p":1}},{"type":"Feature","geometry":{"type":"Point","coordinates":[-46.6333,-23.6805]},"properties":{"k":"6bd409b967ec8de8","c":"#476B8A","r":4.5,"s":"#FFFFFF","w":1.4,"o":0.82,"n":"Danone","p":1}},{"type":"Feature","geometry":{"type":"Point","coordinates":[-0.30468185223015093,51.585712082798025]},"properties":{"k":"bebd323bfae718d5","c":"#476B8A","r":8.0,"s":"#FFFFFF","w":2,"o":0.95,"n":"Assoc. British Foods","p":1}},{"type":"Feature","geometry":{"type":"Point","coordinates":[-87.70860838045488,41.99748330249198]},"properties":{"k":"28b7eed0eb7feb42","c":"#476B8A","r":8.0,"s":"#FFFFFF","w":2,"o":0.95,"n":"Kraft Heinz","p":1}},{"type":"Feature","geometry":{"type":"Point","coordinates":[-79.9956,40.4419]},"properties":{"k":"30dfff4ee44bd06f","c":"#476B8A","r":4.5,"s":"#FFFFFF","w":1.4,"o":0.82,"n":"Kraft Heinz","p":1}},{"type":"Feature","geometry":{"type":"Point","coordinates":[5.117007746492906,52.3676]},"properties":{"k":"fe09a20918a7f170","c":"#476B8A","r":4.5,"s":"#FFFFFF","w":1.4,"o":0.82,"n":"Kraft Heinz","p":1}},{"type":"Feature","geometry":{"type":"Point","coordinates":[8.0353,44.7009]},"properties":{"k":"366c4afe89553be2","c":"#476B8A","r":8.0,"s":"#FFFFFF","w":2,"o":0.95,"n":"Ferrero","p":1}},{"type":"Feature","geometry":{"type":"Point","coordinates":[6.3325279010951245,49.6116]},"properties":{"k":"525a662580113b90","c":"#476B8A","r":4.5,"s":"#FFFFFF","w":1.4,"o":0.82,"n":"Ferrero","p":1}},{"type":"Feature","geometry":{"type":"Point","coordinates":[-74.4257,40.8579]},"properties":{"k":"f97af04d0080f49f","c":"#476B8A","r":4.5,"s":"#FFFFFF","w":1.4,"o":0.82,"n":"Ferrero","p":1}},{"type":"Feature","geometry":{"type":"Point","coordinates":[-96.82,33.1003]},"properties":{"k":"423bc049499ccb17","c":"#476B8A","r":8.0,"s":"#FFFFFF","w":2,"o":0.95,"n":"Keurig Dr Pepper","p":1}},{"type":"Feature","geometry":{"type":"Point","coordinates":[-71.01926204091608,42.5048]},"properties":{"k":"3dde6425105e8d16","c":"#476B8A","r":4.5,"s":"#FFFFFF","w":1.4,"o":0.82,"n":"Keurig Dr Pepper","p":1}},{"type":"Feature","geometry":{"type":"Point","coordinates":[-75.119,39.929]},"properties":{"k":"59fda374d4859ec9","c":"#476B8A","r":8.0,"s":"#FFFFFF","w":2,"o":0.95,"n":"Campbell's","p":1}},{"type":"Feature","geometry":{"type":"Point","coordinates":[-87.81321320807602,41.8836]},"properties":{"k":"c63e2d69313a1099","c":"#476B8A","r":8.0,"s":"#FFFFFF","w":2,"o":0.95,"n":"Conagra","p":1}},{"type":"Feature","geometry":{"type":"Point","coordinates":[-81.7646,40.8423]},"properties":{"k":"f95b9abb3e3990e1","c":"#476B8A","r":8.0,"s":"#FFFFFF","w":2,"o":0.95,"n":"J.M. Smucker","p":1}},{"type":"Feature","geometry":{"type":"Point","coordinates":[-92.9747,43.6694]},"properties":{"k":"241f5bab866a8ad5","c":"#476B8A","r":8.0,"s":"#FFFFFF","w":2,"o":0.95,"n":"Hormel","p":1}},{"type":"Feature","geometry":{"type":"Point","coordinates":[-0.27468927066051735,51.434887917201976]},"properties":{"k":"5456441b514b2816","c":"#476B8A","r":8.0,"s":"#FFFFFF","w":2,"o":0.95,"n":"Unilever","p":1}},{"type":"Feature","geometry":{"type":"Point","coordinates":[4.6884991787577475,51.9244]},"properties":{"k":"0176d052a41d258e","c":"#476B8A","r":4.5,"s":"#FFFFFF","w":1.4,"o":0.82,"n":"Unilever","p":1}},{"type":"Feature","geometry":{"type":"Point","coordinates":[72.8777,19.076]},"properties":{"k":"b18582acf6dd7e01","c":"#476B8A","r":4.5,"s":"#FFFFFF","w":1.4,"o":0.82,"n":"Unilever","p":1}},{"type":"Feature","geometry":{"type":"Point","coordinates":[4.840586858470766,52.42168330249198]},"properties":{"k":"0eec179b8b4dd8b6","c":"#476B8A","r":8.0,"s":"#FFFFFF","w":2,"o":0.95,"n":"Magnum Ice Cream Co.","p":1}},{"type":"Feature","geometry":{"type":"Point","coordinates":[-0.97,51.4575]},"properties":{"k":"bc0ee6bb6ff434ee","c":"#476B8A","r":4.5,"s":"#FFFFFF","w":1.4,"o":0.82,"n":"Magnum Ice Cream Co.","p":1}},{"type":"Feature","geometry":{"type":"Point","coordinates":[-82.448,27.962]},"properties":{"k":"36c693a61507de4e","c":"#476B8A","r":8.0,"s":"#FFFFFF","w":2,"o":0.95,"n":"Primo Brands","p":1}},{"type":"Feature","geometry":{"type":"Point","coordinates":[-87.73726073113997,41.737416697508024]},"properties":{"k":"e904ad0124762fa4","c":"#476B8A","r":8.0,"s":"#FFFFFF","w":2,"o":0.95,"n":"Tropicana Brands Grp","p":1}},{"type":"Feature","geometry":{"type":"Point","coordinates":[4.089211762434405,52.0705]},"properties":{"k":"b94a362bf386e453","c":"#476B8A","r":8.0,"s":"#FFFFFF","w":2,"o":0.95,"n":"Lipton Teas & Infusions","p":1}},{"type":"Feature","geometry":{"type":"Point","coordinates":[-94.38063744703472,36.3641]},"properties":{"k":"05b9c38df50f21e7","c":"#87519D","r":8.0,"s":"#FFFFFF","w":2,"o":0.95,"n":"Walmart","p":1}},{"type":"Feature","geometry":{"type":"Point","coordinates":[-99.2021265005913,19.320016697508024]},"properties":{"k":"53337248f463481e","c":"#87519D","r":4.5,"s":"#FFFFFF","w":1.4,"o":0.82,"n":"Walmart","p":1}},{"type":"Feature","geometry":{"type":"Point","coordinates":[-122.0269,47.5468]},"properties":{"k":"4374d232673b39ac","c":"#87519D","r":8.0,"s":"#FFFFFF","w":2,"o":0.95,"n":"Costco","p":1}},{"type":"Feature","geometry":{"type":"Point","coordinates":[9.208,49.1486]},"properties":{"k":"6d4147fb1d35fa91","c":"#87519D","r":8.0,"s":"#FFFFFF","w":2,"o":0.95,"n":"Schwarz Group","p":1}},{"type":"Feature","geometry":{"type":"Point","coordinates":[-84.5067,39.1023]},"properties":{"k":"06ab6eb4012872b9","c":"#87519D","r":8.0,"s":"#FFFFFF","w":2,"o":0.95,"n":"Kroger","p":1}},{"type":"Feature","geometry":{"type":"Point","coordinates":[4.720373947325371,52.32631669750802]},"properties":{"k":"d3c11b6129087371","c":"#87519D","r":8.0,"s":"#FFFFFF","w":2,"o":0.95,"n":"Ahold Delhaize","p":1}},{"type":"Feature","geometry":{"type":"Point","coordinates":[-71.0023,42.2529]},"properties":{"k":"05f458d7850477eb","c":"#87519D","r":4.5,"s":"#FFFFFF","w":1.4,"o":0.82,"n":"Ahold Delhaize","p":1}},{"type":"Feature","geometry":{"type":"Point","coordinates":[2.2654,48.859700000000004]},"properties":{"k":"3bdcb4148d2fa4cf","c":"#87519D","r":8.0,"s":"#FFFFFF","w":2,"o":0.95,"n":"Carrefour","p":1}},{"type":"Feature","geometry":{"type":"Point","coordinates":[-46.533023952388234,-23.64242388155425]},"properties":{"k":"3982ec0001c136ed","c":"#87519D","r":4.5,"s":"#FFFFFF","w":1.4,"o":0.82,"n":"Carrefour","p":1}},{"type":"Feature","geometry":{"type":"Point","coordinates":[-0.2061,51.8008]},"properties":{"k":"1185f7045df4f9ba","c":"#87519D","r":8.0,"s":"#FFFFFF","w":2,"o":0.95,"n":"Tesco","p":1}},{"type":"Feature","geometry":{"type":"Point","coordinates":[-95.5654,29.7958]},"properties":{"k":"52f8ed2ebfdda40c","c":"#8B6348","r":8.0,"s":"#FFFFFF","w":2,"o":0.95,"n":"Sysco","p":1}},{"type":"Feature","geometry":{"type":"Point","coordinates":[-0.704314337329352,51.387]},"properties":{"k":"665dbf7d7ab895e8","c":"#8B6348","r":8.0,"s":"#FFFFFF","w":2,"o":0.95,"n":"Compass Group","p":1}},{"type":"Feature","geometry":{"type":"Point","coordinates":[-80.8431,35.2271]},"properties":{"k":"a9583c7522c71dfe","c":"#8B6348","r":4.5,"s":"#FFFFFF","w":1.4,"o":0.82,"n":"Compass Group","p":1}},{"type":"Feature","geometry":{"type":"Point","coordinates":[-87.56598902303267,41.774216697508024]},"properties":{"k":"c6946b84d5740079","c":"#8B6348","r":8.0,"s":"#FFFFFF","w":2,"o":0.95,"n":"McDonald's","p":1}},{"type":"Feature","geometry":{"type":"Point","coordinates":[-0.06325736753557325,51.38376265288163]},"properties":{"k":"1f908bacec842021","c":"#8B6348","r":4.5,"s":"#FFFFFF","w":1.4,"o":0.82,"n":"McDonald's","p":1}},{"type":"Feature","geometry":{"type":"Point","coordinates":[-85.648,38.221]},"properties":{"k":"3c1a9d787887d3cb","c":"#8B6348","r":8.0,"s":"#FFFFFF","w":2,"o":0.95,"n":"Yum! Brands","p":1}},{"type":"Feature","geometry":{"type":"Point","coordinates":[-79.387,43.6481]},"properties":{"k":"7d736f9781638645","c":"#8B6348","r":8.0,"s":"#FFFFFF","w":2,"o":0.95,"n":"Restaurant Brands Intl","p":1}},{"type":"Feature","geometry":{"type":"Point","coordinates":[-122.14267997631084,47.5805]},"properties":{"k":"973644cb75ff23f3","c":"#8B6348","r":8.0,"s":"#FFFFFF","w":2,"o":0.95,"n":"Starbucks","p":1}},{"type":"Feature","geometry":{"type":"Point","coordinates":[121.32166909248286,31.2304]},"properties":{"k":"2cd4dfc9c1dc2bb6","c":"#8B6348","r":4.5,"s":"#FFFFFF","w":1.4,"o":0.82,"n":"Starbucks","p":1}},{"type":"Feature","geometry":{"type":"Point","coordinates":[-75.5022,40.0451]},"properties":{"k":"5e29c71b59da5d54","c":"#364C63","r":8.0,"s":"#FFFFFF","w":2,"o":0.95,"n":"Vanguard","p":1}},{"type":"Feature","geometry":{"type":"Point","coordinates":[-73.80697458650302,40.7589]},"properties":{"k":"8898a525804fee42","c":"#364C63","r":8.0,"s":"#FFFFFF","w":2,"o":0.95,"n":"BlackRock","p":1}},{"type":"Feature","geometry":{"type":"Point","coordinates":[-71.22891815622626,42.3554]},"properties":{"k":"80815711d5d626c6","c":"#364C63","r":8.0,"s":"#FFFFFF","w":2,"o":0.95,"n":"State Street","p":1}},{"type":"Feature","geometry":{"type":"Point","coordinates":[-95.992,41.2335]},"properties":{"k":"c81d75a0074ae67c","c":"#364C63","r":8.0,"s":"#FFFFFF","w":2,"o":0.95,"n":"Berkshire Hathaway","p":1}},{"type":"Feature","geometry":{"type":"Point","coordinates":[6.031586049452438,49.72418330249198]},"properties":{"k":"98fd896224fdc2d8","c":"#364C63","r":8.0,"s":"#FFFFFF","w":2,"o":0.95,"n":"JAB Holding","p":1}},{"type":"Feature","geometry":{"type":"Point","coordinates":[-74.1556150871877,40.7549]},"properties":{"k":"bd0d1246ae1e6f4c","c":"#364C63","r":8.0,"s":"#FFFFFF","w":2,"o":0.95,"n":"3G Capital","p":1}},{"type":"Feature","geometry":{"type":"Point","coordinates":[2.110163233955782,48.8698]},"properties":{"k":"8368d6df95d046fb","c":"#364C63","r":8.0,"s":"#FFFFFF","w":2,"o":0.95,"n":"PAI Partners","p":1}},{"type":"Feature","geometry":{"type":"Point","coordinates":[6.029689342164978,49.49741669750802]},"properties":{"k":"4dd363e674288dc7","c":"#364C63","r":8.0,"s":"#FFFFFF","w":2,"o":0.95,"n":"CVC Capital","p":1}},{"type":"Feature","geometry":{"type":"Point","coordinates":[5.955362545847694,46.2044]},"properties":{"k":"feb277e6c9641bf1","c":"#904A66","r":8.0,"s":"#FFFFFF","w":2,"o":0.95,"n":"IFBA","p":1}},{"type":"Feature","geometry":{"type":"Point","coordinates":[-77.19029782435841,38.992483302491976]},"properties":{"k":"48356ad6422d62a8","c":"#904A66","r":8.0,"s":"#FFFFFF","w":2,"o":0.95,"n":"Consumer Brands Assoc.","p":1}},{"type":"Feature","geometry":{"type":"Point","coordinates":[-77.20914902654023,38.9026]},"properties":{"k":"bd951d45add866e3","c":"#904A66","r":8.0,"s":"#FFFFFF","w":2,"o":0.95,"n":"American Beverage Assoc.","p":1}},{"type":"Feature","geometry":{"type":"Point","coordinates":[-77.13352674851228,38.79191669750802]},"properties":{"k":"86f5b25b97b4d580","c":"#904A66","r":8.0,"s":"#FFFFFF","w":2,"o":0.95,"n":"Meat Institute","p":1}},{"type":"Feature","geometry":{"type":"Point","coordinates":[4.145791612444005,50.8503]},"properties":{"k":"f91cc4affd412048","c":"#904A66","r":8.0,"s":"#FFFFFF","w":2,"o":0.95,"n":"CropLife Intl","p":1}},{"type":"Feature","geometry":{"type":"Point","coordinates":[6.047126609390175,46.31792388155425]},"properties":{"k":"10d0569bca86968f","c":"#4E5896","r":8.0,"s":"#FFFFFF","w":2,"o":0.95,"n":"WEF","p":1}},{"type":"Feature","geometry":{"type":"Point","coordinates":[2.273,48.6945]},"properties":{"k":"61092316d05c4fb5","c":"#4E5896","r":8.0,"s":"#FFFFFF","w":2,"o":0.95,"n":"Consumer Goods Forum","p":1}},{"type":"Feature","geometry":{"type":"Point","coordinates":[12.664012934790831,41.8835]},"properties":{"k":"a8d11b5e90bb9ec2","c":"#4E5896","r":8.0,"s":"#FFFFFF","w":2,"o":0.95,"n":"Codex Alimentarius","p":1}},{"type":"Feature","geometry":{"type":"Point","coordinates":[12.310399361606951,41.879]},"properties":{"k":"9e2ffff684c67504","c":"#4E5896","r":8.0,"s":"#FFFFFF","w":2,"o":0.95,"n":"FAO","p":1}},{"type":"Feature","geometry":{"type":"Point","coordinates":[5.95206262796693,46.2336]},"properties":{"k":"760988a49f0162c0","c":"#4E5896","r":8.0,"s":"#FFFFFF","w":2,"o":0.95,"n":"WHO","p":1}},{"type":"Feature","geometry":{"type":"Point","coordinates":[6.016630482041648,46.13247611844575]},"properties":{"k":"30122d90437d3da6","c":"#4E5896","r":8.0,"s":"#FFFFFF","w":2,"o":0.95,"n":"WTO","p":1}},{"type":"Feature","geometry":{"type":"Point","coordinates":[6.137,46.098]},"properties":{"k":"4ec0139cdd33d463","c":"#4E5896","r":8.0,"s":"#FFFFFF","w":2,"o":0.95,"n":"GAIN","p":1}},{"type":"Feature","geometry":{"type":"Point","coordinates":[6.282858869864868,46.12807611844575]},"properties":{"k":"bdb134a15f2a6511","c":"#4E5896","r":8.0,"s":"#FFFFFF","w":2,"o":0.95,"n":"SUN Movement","p":1}},{"type":"Feature","geometry":{"type":"Point","coordinates":[-76.95947266323094,38.792416697508024]},"properties":{"k":"10427d767517cf26","c":"#4E5896","r":8.0,"s":"#FFFFFF","w":2,"o":0.95,"n":"ILSI / IAFNS","p":1}},{"type":"Feature","geometry":{"type":"Point","coordinates":[101.71,3.15]},"properties":{"k":"8800c10184add7ab","c":"#4E5896","r":8.0,"s":"#FFFFFF","w":2,"o":0.95,"n":"RSPO","p":1}},{"type":"Feature","geometry":{"type":"Point","coordinates":[-122.54389141029347,47.627]},"properties":{"k":"00404b14b3c47c47","c":"#4E5896","r":8.0,"s":"#FFFFFF","w":2,"o":0.95,"n":"Gates Foundation","p":1}},{"type":"Feature","geometry":{"type":"Point","coordinates":[36.817,-1.286]},"properties":{"k":"7f7bff05765355a9","c":"#4E5896","r":8.0,"s":"#FFFFFF","w":2,"o":0.95,"n":"AGRA","p":1}}]}