{"type":"FeatureCollection","name":"Global Subsistence Cultures","overlays":[],"filters":[],"features":[{"type":"Feature","geometry":{"type":"Point","coordinates":[35,-3.7]},"properties":{"k":"81812c1b4c8f2f96","c":"#B5756E","r":6.0,"s":"#FFFFFF","w":2,"o":0.85,"n":"Hadza","p":1}},{"type":"Feature","geometry":{"type":"Point","coordinates":[20.5,-20.5]},"properties":{"k":"7b368653520ebd2c","c":"#B5756E","r":6.0,"s":"#FFFFFF","w":2,"o":0.85,"n":"!Kung San","p":1}},{"type":"Feature","geometry":{"type":"Point","coordinates":[20,-19.5]},"properties":{"k":"9b2b40175c5ca638","c":"#B5756E","r":6.0,"s":"#FFFFFF","w":2,"o":0.85,"n":"Ju/'hoansi","p":1}},{"type":"Feature","geometry":{"type":"Point","coordinates":[23,-22]},"properties":{"k":"8ee99ffbe68e158f","c":"#B5756E","r":6.0,"s":"#FFFFFF","w":2,"o":0.85,"n":"G/wi and G//ana","p":1}},{"type":"Feature","geometry":{"type":"Point","coordinates":[21.5,-18]},"properties":{"k":"942006ebbe97d361","c":"#B5756E","r":6.0,"s":"#FFFFFF","w":2,"o":0.85,"n":"Khwe","p":1}},{"type":"Feature","geometry":{"type":"Point","coordinates":[20.5,-26.5]},"properties":{"k":"e1525c7f1387d94c","c":"#B5756E","r":6.0,"s":"#FFFFFF","w":2,"o":0.85,"n":"\u2260Khomani San","p":1}},{"type":"Feature","geometry":{"type":"Point","coordinates":[27.5,1.5]},"properties":{"k":"0e69e5654016cad3","c":"#B5756E","r":6.0,"s":"#FFFFFF","w":2,"o":0.85,"n":"Mbuti Pygmies","p":1}},{"type":"Feature","geometry":{"type":"Point","coordinates":[28.5,1.8]},"properties":{"k":"40df91d5bd36e165","c":"#B5756E","r":6.0,"s":"#FFFFFF","w":2,"o":0.85,"n":"Efe Pygmies","p":1}},{"type":"Feature","geometry":{"type":"Point","coordinates":[13.5,3]},"properties":{"k":"21dc1f7473c4c966","c":"#B5756E","r":6.0,"s":"#FFFFFF","w":2,"o":0.85,"n":"Baka Pygmies - Cameroon","p":1}},{"type":"Feature","geometry":{"type":"Point","coordinates":[12.5,-1]},"properties":{"k":"9cbd1c77f4a25472","c":"#B5756E","r":6.0,"s":"#FFFFFF","w":2,"o":0.85,"n":"Baka Pygmies - Gabon","p":1}},{"type":"Feature","geometry":{"type":"Point","coordinates":[18,4]},"properties":{"k":"e52f2b7a3d569591","c":"#B5756E","r":6.0,"s":"#FFFFFF","w":2,"o":0.85,"n":"Aka Pygmies","p":1}},{"type":"Feature","geometry":{"type":"Point","coordinates":[29.5,-2]},"properties":{"k":"124e8596f89c061a","c":"#B5756E","r":6.0,"s":"#FFFFFF","w":2,"o":0.85,"n":"Twa Pygmies - Rwanda","p":1}},{"type":"Feature","geometry":{"type":"Point","coordinates":[30,-3.5]},"properties":{"k":"52c6725b68a54d2d","c":"#B5756E","r":6.0,"s":"#FFFFFF","w":2,"o":0.85,"n":"Twa Pygmies - Burundi","p":1}},{"type":"Feature","geometry":{"type":"Point","coordinates":[29.8,-1]},"properties":{"k":"2121b1ed50781d41","c":"#B5756E","r":6.0,"s":"#FFFFFF","w":2,"o":0.85,"n":"Batwa - Uganda","p":1}},{"type":"Feature","geometry":{"type":"Point","coordinates":[-46.5,-3.5]},"properties":{"k":"4f745eae98eb9c15","c":"#AB5C77","r":6.0,"s":"#FFFFFF","w":2,"o":0.85,"n":"Aw\u00e1 - Uncontacted","p":1}},{"type":"Feature","geometry":{"type":"Point","coordinates":[-46.3,-3.8]},"properties":{"k":"044c68d5c27bb2bf","c":"#B5756E","r":6.0,"s":"#FFFFFF","w":2,"o":0.85,"n":"Aw\u00e1 - Contacted","p":1}},{"type":"Feature","geometry":{"type":"Point","coordinates":[-72.5,2.2]},"properties":{"k":"9eccbf3aa36e3a77","c":"#B5756E","r":6.0,"s":"#FFFFFF","w":2,"o":0.85,"n":"Nukak","p":1}},{"type":"Feature","geometry":{"type":"Point","coordinates":[-69.5,0.5]},"properties":{"k":"1af767611445533d","c":"#B5756E","r":6.0,"s":"#FFFFFF","w":2,"o":0.85,"n":"Maku (Hupd'\u00e4h)","p":1}},{"type":"Feature","geometry":{"type":"Point","coordinates":[-70,0.8]},"properties":{"k":"b746a761982a833f","c":"#B5756E","r":6.0,"s":"#FFFFFF","w":2,"o":0.85,"n":"Yuhup Maku","p":1}},{"type":"Feature","geometry":{"type":"Point","coordinates":[-65.5,-0.5]},"properties":{"k":"9fe3e2ce7fc49a81","c":"#B5756E","r":6.0,"s":"#FFFFFF","w":2,"o":0.85,"n":"Nad\u00ebb","p":1}},{"type":"Feature","geometry":{"type":"Point","coordinates":[-64.8,-0.3]},"properties":{"k":"c9a12ddf1d45432c","c":"#B5756E","r":6.0,"s":"#FFFFFF","w":2,"o":0.85,"n":"D\u00e2w","p":1}},{"type":"Feature","geometry":{"type":"Point","coordinates":[-62,-7.5]},"properties":{"k":"24dd2f90c14faa0f","c":"#B5756E","r":6.0,"s":"#FFFFFF","w":2,"o":0.85,"n":"Pirah\u00e3","p":1}},{"type":"Feature","geometry":{"type":"Point","coordinates":[-60,-20.5]},"properties":{"k":"6770401e9ffe76ea","c":"#AB5C77","r":6.0,"s":"#FFFFFF","w":2,"o":0.85,"n":"Ayoreo - Isolated","p":1}},{"type":"Feature","geometry":{"type":"Point","coordinates":[-60.5,-20]},"properties":{"k":"0e690e248dca221d","c":"#B5756E","r":6.0,"s":"#FFFFFF","w":2,"o":0.85,"n":"Ayoreo - Contacted","p":1}},{"type":"Feature","geometry":{"type":"Point","coordinates":[-55,-25.5]},"properties":{"k":"5c6962a32713286f","c":"#B5756E","r":6.0,"s":"#FFFFFF","w":2,"o":0.85,"n":"Ach\u00e9","p":1}},{"type":"Feature","geometry":{"type":"Point","coordinates":[-63.5,-14]},"properties":{"k":"d5e2291bc5ca01c8","c":"#B5756E","r":6.0,"s":"#FFFFFF","w":2,"o":0.85,"n":"Sirion\u00f3","p":1}},{"type":"Feature","geometry":{"type":"Point","coordinates":[-71,-10.5]},"properties":{"k":"df98cf43f115ca66","c":"#B5756E","r":6.0,"s":"#FFFFFF","w":2,"o":0.85,"n":"Yaminahua","p":1}},{"type":"Feature","geometry":{"type":"Point","coordinates":[-72,-6]},"properties":{"k":"f33483497fda781e","c":"#AB5C77","r":6.0,"s":"#FFFFFF","w":2,"o":0.85,"n":"Vale do Javari - Multiple Groups","p":1}},{"type":"Feature","geometry":{"type":"Point","coordinates":[-71.5,-6.5]},"properties":{"k":"ad2d0dbf2bcd7f1e","c":"#B5756E","r":6.0,"s":"#FFFFFF","w":2,"o":0.85,"n":"Korubo - Contacted","p":1}},{"type":"Feature","geometry":{"type":"Point","coordinates":[-70.5,-5.8]},"properties":{"k":"d88b9b8b8b578939","c":"#B5756E","r":6.0,"s":"#FFFFFF","w":2,"o":0.85,"n":"Matis","p":1}},{"type":"Feature","geometry":{"type":"Point","coordinates":[-60,-10]},"properties":{"k":"08a23eb55ce1f22d","c":"#AB5C77","r":6.0,"s":"#FFFFFF","w":2,"o":0.85,"n":"Kawahiva","p":1}},{"type":"Feature","geometry":{"type":"Point","coordinates":[-61,-12.5]},"properties":{"k":"2bdff115e7fae507","c":"#AB5C77","r":6.0,"s":"#FFFFFF","w":2,"o":0.85,"n":"Massaco","p":1}},{"type":"Feature","geometry":{"type":"Point","coordinates":[-61.5,-9.5]},"properties":{"k":"73e1c4678b6cc599","c":"#AB5C77","r":6.0,"s":"#FFFFFF","w":2,"o":0.85,"n":"Piripkura","p":1}},{"type":"Feature","geometry":{"type":"Point","coordinates":[-64,-7.5]},"properties":{"k":"a77fa0e58211c224","c":"#AB5C77","r":6.0,"s":"#FFFFFF","w":2,"o":0.85,"n":"Hi-Merim\u00e3","p":1}},{"type":"Feature","geometry":{"type":"Point","coordinates":[-64.5,2]},"properties":{"k":"f849a5c0666105dd","c":"#AB5C77","r":6.0,"s":"#FFFFFF","w":2,"o":0.85,"n":"Yanomami Uncontacted","p":1}},{"type":"Feature","geometry":{"type":"Point","coordinates":[-71,-12]},"properties":{"k":"69754fa7cb70634c","c":"#AB5C77","r":6.0,"s":"#FFFFFF","w":2,"o":0.85,"n":"Mashco-Piro","p":1}},{"type":"Feature","geometry":{"type":"Point","coordinates":[-73.5,-8]},"properties":{"k":"04d022488933d7a6","c":"#AB5C77","r":6.0,"s":"#FFFFFF","w":2,"o":0.85,"n":"Isconahua","p":1}},{"type":"Feature","geometry":{"type":"Point","coordinates":[-75.5,-8.5]},"properties":{"k":"f43ae9808d281d32","c":"#AB5C77","r":6.0,"s":"#FFFFFF","w":2,"o":0.85,"n":"Cacataibo Uncontacted","p":1}},{"type":"Feature","geometry":{"type":"Point","coordinates":[-72.5,-11.5]},"properties":{"k":"e4e61dc1b95960f7","c":"#AB5C77","r":6.0,"s":"#FFFFFF","w":2,"o":0.85,"n":"Nahua Uncontacted","p":1}},{"type":"Feature","geometry":{"type":"Point","coordinates":[-72.5,-10]},"properties":{"k":"783c82802de88ec3","c":"#AB5C77","r":6.0,"s":"#FFFFFF","w":2,"o":0.85,"n":"Murunahua","p":1}},{"type":"Feature","geometry":{"type":"Point","coordinates":[-76,-0.8]},"properties":{"k":"c646e09834f28b25","c":"#AB5C77","r":6.0,"s":"#FFFFFF","w":2,"o":0.85,"n":"Tagaeri","p":1}},{"type":"Feature","geometry":{"type":"Point","coordinates":[-75.8,-1]},"properties":{"k":"bd6b7a4f6be5c79b","c":"#AB5C77","r":6.0,"s":"#FFFFFF","w":2,"o":0.85,"n":"Taromenane","p":1}},{"type":"Feature","geometry":{"type":"Point","coordinates":[129,-24]},"properties":{"k":"f110596acc10c024","c":"#B5756E","r":6.0,"s":"#FFFFFF","w":2,"o":0.85,"n":"Pintupi","p":1}},{"type":"Feature","geometry":{"type":"Point","coordinates":[128,-23]},"properties":{"k":"297a8b9fec6277a5","c":"#B5756E","r":6.0,"s":"#FFFFFF","w":2,"o":0.85,"n":"Pintupi Nine","p":1}},{"type":"Feature","geometry":{"type":"Point","coordinates":[127.5,-26.5]},"properties":{"k":"16674698ffa7f2e6","c":"#B5756E","r":6.0,"s":"#FFFFFF","w":2,"o":0.85,"n":"Spinifex People","p":1}},{"type":"Feature","geometry":{"type":"Point","coordinates":[122,-23.5]},"properties":{"k":"9b6c9abf6e6d260c","c":"#B5756E","r":6.0,"s":"#FFFFFF","w":2,"o":0.85,"n":"Martu","p":1}},{"type":"Feature","geometry":{"type":"Point","coordinates":[127,-26]},"properties":{"k":"74e6e7bf5c54eb17","c":"#B5756E","r":6.0,"s":"#FFFFFF","w":2,"o":0.85,"n":"Ngaanyatjarra","p":1}},{"type":"Feature","geometry":{"type":"Point","coordinates":[133,-20.5]},"properties":{"k":"5fde4df9111c6c0b","c":"#B5756E","r":6.0,"s":"#FFFFFF","w":2,"o":0.85,"n":"Warlpiri (Traditional)","p":1}},{"type":"Feature","geometry":{"type":"Point","coordinates":[134.5,-22.5]},"properties":{"k":"14dd5b0fe92a54db","c":"#B5756E","r":6.0,"s":"#FFFFFF","w":2,"o":0.85,"n":"Anmatyerre","p":1}},{"type":"Feature","geometry":{"type":"Point","coordinates":[133.9,-23.7]},"properties":{"k":"70d5f11d53891f03","c":"#B5756E","r":6.0,"s":"#FFFFFF","w":2,"o":0.85,"n":"Arrernte (Traditional)","p":1}},{"type":"Feature","geometry":{"type":"Point","coordinates":[131.5,-26.5]},"properties":{"k":"cc77be9a102b8e7a","c":"#B5756E","r":6.0,"s":"#FFFFFF","w":2,"o":0.85,"n":"Pitjantjatjara","p":1}},{"type":"Feature","geometry":{"type":"Point","coordinates":[132,-27]},"properties":{"k":"c22ee76e23a00173","c":"#B5756E","r":6.0,"s":"#FFFFFF","w":2,"o":0.85,"n":"Yankunytjatjara","p":1}},{"type":"Feature","geometry":{"type":"Point","coordinates":[131,-26.5]},"properties":{"k":"8add1bbe74ce6e00","c":"#B5756E","r":6.0,"s":"#FFFFFF","w":2,"o":0.85,"n":"Anangu (APY Lands)","p":1}},{"type":"Feature","geometry":{"type":"Point","coordinates":[135,-12]},"properties":{"k":"917f2af9820f9e63","c":"#9B5750","r":6.0,"s":"#FFFFFF","w":2,"o":0.85,"n":"Yolngu - Northeast Arnhem","p":1}},{"type":"Feature","geometry":{"type":"Point","coordinates":[136.5,-12.3]},"properties":{"k":"a828165fa303bd97","c":"#3E786D","r":6.0,"s":"#FFFFFF","w":2,"o":0.85,"n":"Yolngu - Coastal Groups","p":1}},{"type":"Feature","geometry":{"type":"Point","coordinates":[130.5,-11.5]},"properties":{"k":"f247c959fa1d6d22","c":"#9B5750","r":6.0,"s":"#FFFFFF","w":2,"o":0.85,"n":"Tiwi","p":1}},{"type":"Feature","geometry":{"type":"Point","coordinates":[131,-12.5]},"properties":{"k":"4ed07aa2d2c5bd94","c":"#9B5750","r":6.0,"s":"#FFFFFF","w":2,"o":0.85,"n":"Larrakia","p":1}},{"type":"Feature","geometry":{"type":"Point","coordinates":[132.8,-13.8]},"properties":{"k":"b840d9b44db90cf1","c":"#9B5750","r":6.0,"s":"#FFFFFF","w":2,"o":0.85,"n":"Jawoyn","p":1}},{"type":"Feature","geometry":{"type":"Point","coordinates":[133,-12.8]},"properties":{"k":"a2829f836ae5d6ec","c":"#9B5750","r":6.0,"s":"#FFFFFF","w":2,"o":0.85,"n":"Gunwinggu","p":1}},{"type":"Feature","geometry":{"type":"Point","coordinates":[134.5,-12.2]},"properties":{"k":"e691e084cb169812","c":"#9B5750","r":6.0,"s":"#FFFFFF","w":2,"o":0.85,"n":"Burarra","p":1}},{"type":"Feature","geometry":{"type":"Point","coordinates":[136.5,-13.9]},"properties":{"k":"cd08aef9d381ed98","c":"#9B5750","r":6.0,"s":"#FFFFFF","w":2,"o":0.85,"n":"Anindilyakwa","p":1}},{"type":"Feature","geometry":{"type":"Point","coordinates":[123,-16.5]},"properties":{"k":"565fc88c6ebeeeb9","c":"#3E786D","r":6.0,"s":"#FFFFFF","w":2,"o":0.85,"n":"Bardi","p":1}},{"type":"Feature","geometry":{"type":"Point","coordinates":[122.2,-18]},"properties":{"k":"c309a61878546723","c":"#3E786D","r":6.0,"s":"#FFFFFF","w":2,"o":0.85,"n":"Yawuru","p":1}},{"type":"Feature","geometry":{"type":"Point","coordinates":[121.5,-19.5]},"properties":{"k":"9ceb77da3daffccb","c":"#9B5750","r":6.0,"s":"#FFFFFF","w":2,"o":0.85,"n":"Karajarri","p":1}},{"type":"Feature","geometry":{"type":"Point","coordinates":[124.5,-18]},"properties":{"k":"83a7327df62eac5d","c":"#9B5750","r":6.0,"s":"#FFFFFF","w":2,"o":0.85,"n":"Nyikina","p":1}},{"type":"Feature","geometry":{"type":"Point","coordinates":[125.5,-14.8]},"properties":{"k":"83a735005e34bddd","c":"#9B5750","r":6.0,"s":"#FFFFFF","w":2,"o":0.85,"n":"Wunambal","p":1}},{"type":"Feature","geometry":{"type":"Point","coordinates":[142.2,-10.2]},"properties":{"k":"401ff6fc8c4eafa2","c":"#3E786D","r":6.0,"s":"#FFFFFF","w":2,"o":0.85,"n":"Torres Strait Islanders","p":1}},{"type":"Feature","geometry":{"type":"Point","coordinates":[92.23,11.55]},"properties":{"k":"7bc1e1781612f750","c":"#AB5C77","r":6.0,"s":"#FFFFFF","w":2,"o":0.85,"n":"Sentinelese","p":1}},{"type":"Feature","geometry":{"type":"Point","coordinates":[92.65,11.85]},"properties":{"k":"14d0111d2d228b5b","c":"#9B5750","r":6.0,"s":"#FFFFFF","w":2,"o":0.85,"n":"Jarawa","p":1}},{"type":"Feature","geometry":{"type":"Point","coordinates":[92.7,11.6]},"properties":{"k":"623aa21a25e032ec","c":"#9B5750","r":6.0,"s":"#FFFFFF","w":2,"o":0.85,"n":"Great Andamanese","p":1}},{"type":"Feature","geometry":{"type":"Point","coordinates":[92.55,11.5]},"properties":{"k":"6d9b359bed71558e","c":"#9B5750","r":6.0,"s":"#FFFFFF","w":2,"o":0.85,"n":"Onge","p":1}},{"type":"Feature","geometry":{"type":"Point","coordinates":[93.8,7.9]},"properties":{"k":"b854d6d882ba684d","c":"#9B5750","r":6.0,"s":"#FFFFFF","w":2,"o":0.85,"n":"Shompen","p":1}},{"type":"Feature","geometry":{"type":"Point","coordinates":[82.2,29.3]},"properties":{"k":"85f369e0e1267d94","c":"#B5756E","r":6.0,"s":"#FFFFFF","w":2,"o":0.85,"n":"Raute","p":1}},{"type":"Feature","geometry":{"type":"Point","coordinates":[78.5,16.5]},"properties":{"k":"6d4818d6ce6ffcf0","c":"#B5756E","r":6.0,"s":"#FFFFFF","w":2,"o":0.85,"n":"Chenchu","p":1}},{"type":"Feature","geometry":{"type":"Point","coordinates":[76.5,11.5]},"properties":{"k":"00dbe362e0397bf0","c":"#B5756E","r":6.0,"s":"#FFFFFF","w":2,"o":0.85,"n":"Kattunayakan","p":1}},{"type":"Feature","geometry":{"type":"Point","coordinates":[76.6,11.3]},"properties":{"k":"3b3d42b12de7c31a","c":"#9B5750","r":6.0,"s":"#FFFFFF","w":2,"o":0.85,"n":"Kurumbas","p":1}},{"type":"Feature","geometry":{"type":"Point","coordinates":[76.4,11.4]},"properties":{"k":"124315ff33477245","c":"#B5756E","r":6.0,"s":"#FFFFFF","w":2,"o":0.85,"n":"Cholanaickan","p":1}},{"type":"Feature","geometry":{"type":"Point","coordinates":[76.8,10.5]},"properties":{"k":"8ace15cc0cdb2ebc","c":"#9B5750","r":6.0,"s":"#FFFFFF","w":2,"o":0.85,"n":"Kadar","p":1}},{"type":"Feature","geometry":{"type":"Point","coordinates":[77,9]},"properties":{"k":"1928966e389fb17d","c":"#B5756E","r":6.0,"s":"#FFFFFF","w":2,"o":0.85,"n":"Hill Pandaram","p":1}},{"type":"Feature","geometry":{"type":"Point","coordinates":[77.5,10]},"properties":{"k":"e092ae0637eb95d4","c":"#B5756E","r":6.0,"s":"#FFFFFF","w":2,"o":0.85,"n":"Paliyan","p":1}},{"type":"Feature","geometry":{"type":"Point","coordinates":[81,7.8]},"properties":{"k":"5c2136a8b93401bd","c":"#B5756E","r":6.0,"s":"#FFFFFF","w":2,"o":0.85,"n":"Vedda","p":1}},{"type":"Feature","geometry":{"type":"Point","coordinates":[115,3]},"properties":{"k":"198f10e2965a04c4","c":"#B5756E","r":6.0,"s":"#FFFFFF","w":2,"o":0.85,"n":"Penan - Eastern","p":1}},{"type":"Feature","geometry":{"type":"Point","coordinates":[114,4]},"properties":{"k":"04c96fc58b2fa11e","c":"#B5756E","r":6.0,"s":"#FFFFFF","w":2,"o":0.85,"n":"Penan - Western","p":1}},{"type":"Feature","geometry":{"type":"Point","coordinates":[113.8,3.2]},"properties":{"k":"1b64bd1033809de1","c":"#B5756E","r":6.0,"s":"#FFFFFF","w":2,"o":0.85,"n":"Punan Bah","p":1}},{"type":"Feature","geometry":{"type":"Point","coordinates":[101.5,19.5]},"properties":{"k":"d46cbac8da3ef266","c":"#B5756E","r":6.0,"s":"#FFFFFF","w":2,"o":0.85,"n":"Mlabri","p":1}},{"type":"Feature","geometry":{"type":"Point","coordinates":[101.5,6.5]},"properties":{"k":"43f9ea569c318624","c":"#B5756E","r":6.0,"s":"#FFFFFF","w":2,"o":0.85,"n":"Maniq","p":1}},{"type":"Feature","geometry":{"type":"Point","coordinates":[102.3,4.8]},"properties":{"k":"467af3b720a0c6e0","c":"#B5756E","r":6.0,"s":"#FFFFFF","w":2,"o":0.85,"n":"Batek","p":1}},{"type":"Feature","geometry":{"type":"Point","coordinates":[101.2,5.5]},"properties":{"k":"8dbcab44064c5f14","c":"#B5756E","r":6.0,"s":"#FFFFFF","w":2,"o":0.85,"n":"Jahai","p":1}},{"type":"Feature","geometry":{"type":"Point","coordinates":[101.1,4.9]},"properties":{"k":"683ac43478ca1279","c":"#9B5750","r":6.0,"s":"#FFFFFF","w":2,"o":0.85,"n":"Lanoh","p":1}},{"type":"Feature","geometry":{"type":"Point","coordinates":[100.6,6.3]},"properties":{"k":"2ce4a8eae5aeadaf","c":"#9B5750","r":6.0,"s":"#FFFFFF","w":2,"o":0.85,"n":"Kensiu","p":1}},{"type":"Feature","geometry":{"type":"Point","coordinates":[101.8,5.2]},"properties":{"k":"e15edbfb2cb32c64","c":"#B5756E","r":6.0,"s":"#FFFFFF","w":2,"o":0.85,"n":"Menriq","p":1}},{"type":"Feature","geometry":{"type":"Point","coordinates":[122.1,16.2]},"properties":{"k":"4e105916f340382d","c":"#9B5750","r":6.0,"s":"#FFFFFF","w":2,"o":0.85,"n":"Agta - Casiguran","p":1}},{"type":"Feature","geometry":{"type":"Point","coordinates":[122,17.5]},"properties":{"k":"797cffba6cf2d86e","c":"#9B5750","r":6.0,"s":"#FFFFFF","w":2,"o":0.85,"n":"Agta - Dupaningan","p":1}},{"type":"Feature","geometry":{"type":"Point","coordinates":[120.4,15.1]},"properties":{"k":"dc4d3f5b5abef36b","c":"#9B5750","r":6.0,"s":"#FFFFFF","w":2,"o":0.85,"n":"Aeta - Pinatubo","p":1}},{"type":"Feature","geometry":{"type":"Point","coordinates":[120.5,14.7]},"properties":{"k":"d97ff08d84f97fec","c":"#9B5750","r":6.0,"s":"#FFFFFF","w":2,"o":0.85,"n":"Aeta - Bataan","p":1}},{"type":"Feature","geometry":{"type":"Point","coordinates":[122,11.5]},"properties":{"k":"8094534afafd1a5b","c":"#9B5750","r":6.0,"s":"#FFFFFF","w":2,"o":0.85,"n":"Ati","p":1}},{"type":"Feature","geometry":{"type":"Point","coordinates":[125.5,9.5]},"properties":{"k":"0ea9f2e9d30934d3","c":"#9B5750","r":6.0,"s":"#FFFFFF","w":2,"o":0.85,"n":"Mamanwa","p":1}},{"type":"Feature","geometry":{"type":"Point","coordinates":[123,9]},"properties":{"k":"97ee4b9a7fd0ed1c","c":"#9B5750","r":6.0,"s":"#FFFFFF","w":2,"o":0.85,"n":"Badjao (Forest)","p":1}},{"type":"Feature","geometry":{"type":"Point","coordinates":[139.5,-5]},"properties":{"k":"e9dac133fd4f0f91","c":"#9B5750","r":6.0,"s":"#FFFFFF","w":2,"o":0.85,"n":"Korowai","p":1}},{"type":"Feature","geometry":{"type":"Point","coordinates":[139.7,-5.2]},"properties":{"k":"81e58ef4a41da97f","c":"#9B5750","r":6.0,"s":"#FFFFFF","w":2,"o":0.85,"n":"Kombai","p":1}},{"type":"Feature","geometry":{"type":"Point","coordinates":[138.5,-5.5]},"properties":{"k":"480592f89d2bf5c0","c":"#9B5750","r":6.0,"s":"#FFFFFF","w":2,"o":0.85,"n":"Asmat - Interior","p":1}},{"type":"Feature","geometry":{"type":"Point","coordinates":[137,-4]},"properties":{"k":"279d9c5358456dd2","c":"#AB5C77","r":6.0,"s":"#FFFFFF","w":2,"o":0.85,"n":"West Papua Uncontacted","p":1}},{"type":"Feature","geometry":{"type":"Point","coordinates":[43.5,-22.5]},"properties":{"k":"92fd97f082d54ece","c":"#498D80","r":6.0,"s":"#FFFFFF","w":2,"o":0.85,"n":"Vezo","p":1}},{"type":"Feature","geometry":{"type":"Point","coordinates":[43.7,-23]},"properties":{"k":"17de244e33f734a2","c":"#B5756E","r":6.0,"s":"#FFFFFF","w":2,"o":0.85,"n":"Mikea","p":1}},{"type":"Feature","geometry":{"type":"Point","coordinates":[98,10]},"properties":{"k":"d7b73d377784420d","c":"#498D80","r":6.0,"s":"#FFFFFF","w":2,"o":0.85,"n":"Moken - Myanmar","p":1}},{"type":"Feature","geometry":{"type":"Point","coordinates":[98.3,9]},"properties":{"k":"9c9a4c37fac76c58","c":"#498D80","r":6.0,"s":"#FFFFFF","w":2,"o":0.85,"n":"Moken - Thailand","p":1}},{"type":"Feature","geometry":{"type":"Point","coordinates":[120.8,5.5]},"properties":{"k":"b2da24ccd68a9d95","c":"#498D80","r":6.0,"s":"#FFFFFF","w":2,"o":0.85,"n":"Bajau Laut - Sulu","p":1}},{"type":"Feature","geometry":{"type":"Point","coordinates":[123,0.5]},"properties":{"k":"0fb84d54c94740a6","c":"#498D80","r":6.0,"s":"#FFFFFF","w":2,"o":0.85,"n":"Bajau Laut - Sulawesi","p":1}},{"type":"Feature","geometry":{"type":"Point","coordinates":[119.8,5]},"properties":{"k":"2076853a655212ba","c":"#498D80","r":6.0,"s":"#FFFFFF","w":2,"o":0.85,"n":"Sama Dilaut","p":1}},{"type":"Feature","geometry":{"type":"Point","coordinates":[103.8,1.2]},"properties":{"k":"78f41d20265d74ce","c":"#498D80","r":6.0,"s":"#FFFFFF","w":2,"o":0.85,"n":"Orang Laut - Riau","p":1}},{"type":"Feature","geometry":{"type":"Point","coordinates":[104,1.4]},"properties":{"k":"77026016859a8297","c":"#498D80","r":6.0,"s":"#FFFFFF","w":2,"o":0.85,"n":"Orang Laut - Johor","p":1}},{"type":"Feature","geometry":{"type":"Point","coordinates":[98,7.8]},"properties":{"k":"14efcf51ddc65d56","c":"#498D80","r":6.0,"s":"#FFFFFF","w":2,"o":0.85,"n":"Salone","p":1}},{"type":"Feature","geometry":{"type":"Point","coordinates":[-2,17]},"properties":{"k":"13de4c35592e88ea","c":"#AA5B64","r":6.0,"s":"#FFFFFF","w":2,"o":0.85,"n":"Tuareg - Mali","p":1}},{"type":"Feature","geometry":{"type":"Point","coordinates":[8,18]},"properties":{"k":"a4fc0928531bd450","c":"#AA5B64","r":6.0,"s":"#FFFFFF","w":2,"o":0.85,"n":"Tuareg - Niger","p":1}},{"type":"Feature","geometry":{"type":"Point","coordinates":[5,23]},"properties":{"k":"3dffaa280ccc5e8a","c":"#AA5B64","r":6.0,"s":"#FFFFFF","w":2,"o":0.85,"n":"Tuareg - Algeria","p":1}},{"type":"Feature","geometry":{"type":"Point","coordinates":[14,26]},"properties":{"k":"83e1bbe084f0077d","c":"#AA5B64","r":6.0,"s":"#FFFFFF","w":2,"o":0.85,"n":"Tuareg - Libya","p":1}},{"type":"Feature","geometry":{"type":"Point","coordinates":[9,14]},"properties":{"k":"c8183db6b6676ac8","c":"#AA5B64","r":6.0,"s":"#FFFFFF","w":2,"o":0.85,"n":"Wodaabe Fulani","p":1}},{"type":"Feature","geometry":{"type":"Point","coordinates":[8,11]},"properties":{"k":"143b40a3e9050420","c":"#AA5B64","r":6.0,"s":"#FFFFFF","w":2,"o":0.85,"n":"Fulani - Nigeria","p":1}},{"type":"Feature","geometry":{"type":"Point","coordinates":[13,9]},"properties":{"k":"f38da410454ef27e","c":"#AA5B64","r":6.0,"s":"#FFFFFF","w":2,"o":0.85,"n":"Fulani - Cameroon","p":1}},{"type":"Feature","geometry":{"type":"Point","coordinates":[-1.5,12.5]},"properties":{"k":"f62ceb738733fd42","c":"#AA5B64","r":6.0,"s":"#FFFFFF","w":2,"o":0.85,"n":"Fulani - Burkina Faso","p":1}},{"type":"Feature","geometry":{"type":"Point","coordinates":[42,25]},"properties":{"k":"8a55956261820a11","c":"#AA5B64","r":6.0,"s":"#FFFFFF","w":2,"o":0.85,"n":"Bedouin - Saudi Arabia","p":1}},{"type":"Feature","geometry":{"type":"Point","coordinates":[37,30]},"properties":{"k":"617962b30df19c8e","c":"#AA5B64","r":6.0,"s":"#FFFFFF","w":2,"o":0.85,"n":"Bedouin - Jordan","p":1}},{"type":"Feature","geometry":{"type":"Point","coordinates":[34,29]},"properties":{"k":"bf07ede6684dcee4","c":"#AA5B64","r":6.0,"s":"#FFFFFF","w":2,"o":0.85,"n":"Bedouin - Sinai","p":1}},{"type":"Feature","geometry":{"type":"Point","coordinates":[34.8,30.5]},"properties":{"k":"2d2b1a65fa445b37","c":"#AA5B64","r":6.0,"s":"#FFFFFF","w":2,"o":0.85,"n":"Bedouin - Negev","p":1}},{"type":"Feature","geometry":{"type":"Point","coordinates":[13.5,-19]},"properties":{"k":"ab075c3ab1fd787d","c":"#AA5B64","r":6.0,"s":"#FFFFFF","w":2,"o":0.85,"n":"Himba","p":1}},{"type":"Feature","geometry":{"type":"Point","coordinates":[16,-20]},"properties":{"k":"72fa7a8f0f6b506e","c":"#AA5B64","r":6.0,"s":"#FFFFFF","w":2,"o":0.85,"n":"Herero","p":1}},{"type":"Feature","geometry":{"type":"Point","coordinates":[41,11.5]},"properties":{"k":"19700bf7c3c51bca","c":"#AA5B64","r":6.0,"s":"#FFFFFF","w":2,"o":0.85,"n":"Afar","p":1}},{"type":"Feature","geometry":{"type":"Point","coordinates":[46,7]},"properties":{"k":"91b066113ac09fad","c":"#AA5B64","r":6.0,"s":"#FFFFFF","w":2,"o":0.85,"n":"Somali Nomads","p":1}},{"type":"Feature","geometry":{"type":"Point","coordinates":[38.5,4]},"properties":{"k":"47f9ac1b635c451d","c":"#AA5B64","r":6.0,"s":"#FFFFFF","w":2,"o":0.85,"n":"Borana","p":1}},{"type":"Feature","geometry":{"type":"Point","coordinates":[36.5,-1.5]},"properties":{"k":"9c1e98acaa37040e","c":"#AA5B64","r":6.0,"s":"#FFFFFF","w":2,"o":0.85,"n":"Maasai - Kenya","p":1}},{"type":"Feature","geometry":{"type":"Point","coordinates":[36,-3]},"properties":{"k":"bf229c4c4f772e23","c":"#AA5B64","r":6.0,"s":"#FFFFFF","w":2,"o":0.85,"n":"Maasai - Tanzania","p":1}},{"type":"Feature","geometry":{"type":"Point","coordinates":[37,1.5]},"properties":{"k":"fc1a18d07e8ab37d","c":"#AA5B64","r":6.0,"s":"#FFFFFF","w":2,"o":0.85,"n":"Samburu","p":1}},{"type":"Feature","geometry":{"type":"Point","coordinates":[37.8,2.3]},"properties":{"k":"cc6178fe3c980ec1","c":"#AA5B64","r":6.0,"s":"#FFFFFF","w":2,"o":0.85,"n":"Rendille","p":1}},{"type":"Feature","geometry":{"type":"Point","coordinates":[35.8,3]},"properties":{"k":"6a32ff85593e78a4","c":"#AA5B64","r":6.0,"s":"#FFFFFF","w":2,"o":0.85,"n":"Turkana","p":1}},{"type":"Feature","geometry":{"type":"Point","coordinates":[35.5,1.8]},"properties":{"k":"ace4b569317c236d","c":"#AA5B64","r":6.0,"s":"#FFFFFF","w":2,"o":0.85,"n":"Pokot","p":1}},{"type":"Feature","geometry":{"type":"Point","coordinates":[34.5,2.5]},"properties":{"k":"eb01e6c54e4aead8","c":"#AA5B64","r":6.0,"s":"#FFFFFF","w":2,"o":0.85,"n":"Karamojong","p":1}},{"type":"Feature","geometry":{"type":"Point","coordinates":[33.5,4.5]},"properties":{"k":"9b2a0e9c9b4aa6ca","c":"#AA5B64","r":6.0,"s":"#FFFFFF","w":2,"o":0.85,"n":"Toposa","p":1}},{"type":"Feature","geometry":{"type":"Point","coordinates":[29,7]},"properties":{"k":"e45aabb75081ad60","c":"#AA5B64","r":6.0,"s":"#FFFFFF","w":2,"o":0.85,"n":"Dinka","p":1}},{"type":"Feature","geometry":{"type":"Point","coordinates":[31,8.5]},"properties":{"k":"f5233001cfe7531d","c":"#AA5B64","r":6.0,"s":"#FFFFFF","w":2,"o":0.85,"n":"Nuer","p":1}},{"type":"Feature","geometry":{"type":"Point","coordinates":[27,11]},"properties":{"k":"394b9ece4266670b","c":"#AA5B64","r":6.0,"s":"#FFFFFF","w":2,"o":0.85,"n":"Baggara Arabs","p":1}},{"type":"Feature","geometry":{"type":"Point","coordinates":[66,33]},"properties":{"k":"b1e7fe8f1a1dc96c","c":"#AA5B64","r":6.0,"s":"#FFFFFF","w":2,"o":0.85,"n":"Kuchi - Afghanistan","p":1}},{"type":"Feature","geometry":{"type":"Point","coordinates":[67,30]},"properties":{"k":"186d2a7d513c55da","c":"#AA5B64","r":6.0,"s":"#FFFFFF","w":2,"o":0.85,"n":"Kuchi - Pakistan","p":1}},{"type":"Feature","geometry":{"type":"Point","coordinates":[64,28]},"properties":{"k":"194f7f9b1e1a8698","c":"#AA5B64","r":6.0,"s":"#FFFFFF","w":2,"o":0.85,"n":"Baloch Nomads","p":1}},{"type":"Feature","geometry":{"type":"Point","coordinates":[66.5,29]},"properties":{"k":"0a0f93c2d6c47fce","c":"#AA5B64","r":6.0,"s":"#FFFFFF","w":2,"o":0.85,"n":"Brahui","p":1}},{"type":"Feature","geometry":{"type":"Point","coordinates":[47.5,38.5]},"properties":{"k":"e3d35654b204e6ef","c":"#AA5B64","r":6.0,"s":"#FFFFFF","w":2,"o":0.85,"n":"Shahsavan","p":1}},{"type":"Feature","geometry":{"type":"Point","coordinates":[52.5,30]},"properties":{"k":"9bdab232f39fea3e","c":"#AA5B64","r":6.0,"s":"#FFFFFF","w":2,"o":0.85,"n":"Qashqai","p":1}},{"type":"Feature","geometry":{"type":"Point","coordinates":[50.5,32]},"properties":{"k":"335a1aedea8f4f95","c":"#AA5B64","r":6.0,"s":"#FFFFFF","w":2,"o":0.85,"n":"Bakhtiari","p":1}},{"type":"Feature","geometry":{"type":"Point","coordinates":[48.5,33.5]},"properties":{"k":"453724d7ea48aa12","c":"#AA5B64","r":6.0,"s":"#FFFFFF","w":2,"o":0.85,"n":"Lurs","p":1}},{"type":"Feature","geometry":{"type":"Point","coordinates":[43,36]},"properties":{"k":"b88c353f38261963","c":"#AA5B64","r":6.0,"s":"#FFFFFF","w":2,"o":0.85,"n":"Kurds - Nomadic","p":1}},{"type":"Feature","geometry":{"type":"Point","coordinates":[35,37]},"properties":{"k":"39d53d6ef46634b1","c":"#AA5B64","r":6.0,"s":"#FFFFFF","w":2,"o":0.85,"n":"Y\u00f6r\u00fck","p":1}},{"type":"Feature","geometry":{"type":"Point","coordinates":[33.5,37.5]},"properties":{"k":"30b303622c565946","c":"#AA5B64","r":6.0,"s":"#FFFFFF","w":2,"o":0.85,"n":"Sar\u0131ke\u00e7ili","p":1}},{"type":"Feature","geometry":{"type":"Point","coordinates":[105,47]},"properties":{"k":"67c8f840f07a2e0e","c":"#AA5B64","r":6.0,"s":"#FFFFFF","w":2,"o":0.85,"n":"Mongolian Herders - Mongolia","p":1}},{"type":"Feature","geometry":{"type":"Point","coordinates":[115,43]},"properties":{"k":"59c537b435d9b1bd","c":"#AA5B64","r":6.0,"s":"#FFFFFF","w":2,"o":0.85,"n":"Mongolian Herders - Inner Mongolia","p":1}},{"type":"Feature","geometry":{"type":"Point","coordinates":[89,48.5]},"properties":{"k":"f09421233282ba60","c":"#AA5B64","r":6.0,"s":"#FFFFFF","w":2,"o":0.85,"n":"Kazakh Herders - Mongolia","p":1}},{"type":"Feature","geometry":{"type":"Point","coordinates":[67,47]},"properties":{"k":"91b6161ae3dcf894","c":"#AA5B64","r":6.0,"s":"#FFFFFF","w":2,"o":0.85,"n":"Kazakh Herders - Kazakhstan","p":1}},{"type":"Feature","geometry":{"type":"Point","coordinates":[83,43.5]},"properties":{"k":"52167ad48759a77c","c":"#AA5B64","r":6.0,"s":"#FFFFFF","w":2,"o":0.85,"n":"Kazakh Herders - Xinjiang","p":1}},{"type":"Feature","geometry":{"type":"Point","coordinates":[74.5,41.5]},"properties":{"k":"281da6834671aeb5","c":"#AA5B64","r":6.0,"s":"#FFFFFF","w":2,"o":0.85,"n":"Kyrgyz - Kyrgyzstan","p":1}},{"type":"Feature","geometry":{"type":"Point","coordinates":[73.5,39]},"properties":{"k":"e99e45059fbd7695","c":"#AA5B64","r":6.0,"s":"#FFFFFF","w":2,"o":0.85,"n":"Kyrgyz - Pamir","p":1}},{"type":"Feature","geometry":{"type":"Point","coordinates":[73,37]},"properties":{"k":"9e26d51ac5c2bdb7","c":"#AA5B64","r":6.0,"s":"#FFFFFF","w":2,"o":0.85,"n":"Kyrgyz - Afghanistan","p":1}},{"type":"Feature","geometry":{"type":"Point","coordinates":[75,39]},"properties":{"k":"85733b885ae381c6","c":"#AA5B64","r":6.0,"s":"#FFFFFF","w":2,"o":0.85,"n":"Kyrgyz - Xinjiang","p":1}},{"type":"Feature","geometry":{"type":"Point","coordinates":[82,33]},"properties":{"k":"edf44a5fafa584f1","c":"#AA5B64","r":6.0,"s":"#FFFFFF","w":2,"o":0.85,"n":"Changtang Nomads - Tibet","p":1}},{"type":"Feature","geometry":{"type":"Point","coordinates":[79,33.5]},"properties":{"k":"78666d04b69cc1ca","c":"#AA5B64","r":6.0,"s":"#FFFFFF","w":2,"o":0.85,"n":"Changtang Nomads - Ladakh","p":1}},{"type":"Feature","geometry":{"type":"Point","coordinates":[91,31]},"properties":{"k":"1fe623edcb938284","c":"#AA5B64","r":6.0,"s":"#FFFFFF","w":2,"o":0.85,"n":"Drokpa - Tibet","p":1}},{"type":"Feature","geometry":{"type":"Point","coordinates":[90.2,27.8]},"properties":{"k":"3e913c333733b7ca","c":"#AA5B64","r":6.0,"s":"#FFFFFF","w":2,"o":0.85,"n":"Drokpa - Bhutan","p":1}},{"type":"Feature","geometry":{"type":"Point","coordinates":[78,30.5]},"properties":{"k":"3004a540d402fdfb","c":"#AA5B64","r":6.0,"s":"#FFFFFF","w":2,"o":0.85,"n":"Van Gujjar","p":1}},{"type":"Feature","geometry":{"type":"Point","coordinates":[76.5,32.2]},"properties":{"k":"aae0eb3547c70465","c":"#AA5B64","r":6.0,"s":"#FFFFFF","w":2,"o":0.85,"n":"Gaddis","p":1}},{"type":"Feature","geometry":{"type":"Point","coordinates":[74.5,34]},"properties":{"k":"099266eb505986c6","c":"#AA5B64","r":6.0,"s":"#FFFFFF","w":2,"o":0.85,"n":"Gujjar - Kashmir","p":1}},{"type":"Feature","geometry":{"type":"Point","coordinates":[75,33.5]},"properties":{"k":"b3b7529c6dfeb1cf","c":"#AA5B64","r":6.0,"s":"#FFFFFF","w":2,"o":0.85,"n":"Bakarwal","p":1}},{"type":"Feature","geometry":{"type":"Point","coordinates":[71,23]},"properties":{"k":"11dccc9ce9e124cb","c":"#AA5B64","r":6.0,"s":"#FFFFFF","w":2,"o":0.85,"n":"Rabari","p":1}},{"type":"Feature","geometry":{"type":"Point","coordinates":[70,68]},"properties":{"k":"ca38f9e7a62e14b2","c":"#618FAE","r":6.0,"s":"#FFFFFF","w":2,"o":0.85,"n":"Nenets - Yamal","p":1}},{"type":"Feature","geometry":{"type":"Point","coordinates":[55,67]},"properties":{"k":"4ad4029701c5e7d2","c":"#618FAE","r":6.0,"s":"#FFFFFF","w":2,"o":0.85,"n":"Nenets - European","p":1}},{"type":"Feature","geometry":{"type":"Point","coordinates":[69,62]},"properties":{"k":"a2dc8f0419577d9f","c":"#618FAE","r":6.0,"s":"#FFFFFF","w":2,"o":0.85,"n":"Khanty","p":1}},{"type":"Feature","geometry":{"type":"Point","coordinates":[63,61]},"properties":{"k":"2f50f745b425b966","c":"#618FAE","r":6.0,"s":"#FFFFFF","w":2,"o":0.85,"n":"Mansi","p":1}},{"type":"Feature","geometry":{"type":"Point","coordinates":[77,64]},"properties":{"k":"000d302c4f47c744","c":"#618FAE","r":6.0,"s":"#FFFFFF","w":2,"o":0.85,"n":"Selkup","p":1}},{"type":"Feature","geometry":{"type":"Point","coordinates":[82,69]},"properties":{"k":"66f29c9c3e85660e","c":"#618FAE","r":6.0,"s":"#FFFFFF","w":2,"o":0.85,"n":"Enets","p":1}},{"type":"Feature","geometry":{"type":"Point","coordinates":[95,73]},"properties":{"k":"96ca59557c1c76c4","c":"#618FAE","r":6.0,"s":"#FFFFFF","w":2,"o":0.85,"n":"Nganasan","p":1}},{"type":"Feature","geometry":{"type":"Point","coordinates":[105,71]},"properties":{"k":"3144b464f749f9ab","c":"#618FAE","r":6.0,"s":"#FFFFFF","w":2,"o":0.85,"n":"Dolgans","p":1}},{"type":"Feature","geometry":{"type":"Point","coordinates":[102,60]},"properties":{"k":"225e5861a82453ff","c":"#618FAE","r":6.0,"s":"#FFFFFF","w":2,"o":0.85,"n":"Evenks - Central Siberia","p":1}},{"type":"Feature","geometry":{"type":"Point","coordinates":[117,52]},"properties":{"k":"bc52d341f9cac3c5","c":"#618FAE","r":6.0,"s":"#FFFFFF","w":2,"o":0.85,"n":"Evenks - Transbaikal","p":1}},{"type":"Feature","geometry":{"type":"Point","coordinates":[129,65]},"properties":{"k":"93bbe50a4f49fd61","c":"#618FAE","r":6.0,"s":"#FFFFFF","w":2,"o":0.85,"n":"Evenks - Sakha","p":1}},{"type":"Feature","geometry":{"type":"Point","coordinates":[152,62]},"properties":{"k":"2e22ecf726e1f66f","c":"#618FAE","r":6.0,"s":"#FFFFFF","w":2,"o":0.85,"n":"Evens","p":1}},{"type":"Feature","geometry":{"type":"Point","coordinates":[172,66]},"properties":{"k":"f214f21064f00a52","c":"#618FAE","r":6.0,"s":"#FFFFFF","w":2,"o":0.85,"n":"Chukchi - Reindeer","p":1}},{"type":"Feature","geometry":{"type":"Point","coordinates":[-172,67]},"properties":{"k":"e2aae4ac2b16579c","c":"#364C63","r":6.0,"s":"#FFFFFF","w":2,"o":0.85,"n":"Chukchi - Maritime","p":1}},{"type":"Feature","geometry":{"type":"Point","coordinates":[166,60.5]},"properties":{"k":"0b8bbcdda88c4408","c":"#618FAE","r":6.0,"s":"#FFFFFF","w":2,"o":0.85,"n":"Koryaks - Reindeer","p":1}},{"type":"Feature","geometry":{"type":"Point","coordinates":[163,59.5]},"properties":{"k":"fbade526f7a37f08","c":"#364C63","r":6.0,"s":"#FFFFFF","w":2,"o":0.85,"n":"Koryaks - Maritime","p":1}},{"type":"Feature","geometry":{"type":"Point","coordinates":[158,56]},"properties":{"k":"1af93b0213d13d0c","c":"#364C63","r":6.0,"s":"#FFFFFF","w":2,"o":0.85,"n":"Itelmen","p":1}},{"type":"Feature","geometry":{"type":"Point","coordinates":[149,67]},"properties":{"k":"c3a7b4fb1a20f789","c":"#618FAE","r":6.0,"s":"#FFFFFF","w":2,"o":0.85,"n":"Yukagir","p":1}},{"type":"Feature","geometry":{"type":"Point","coordinates":[97,53]},"properties":{"k":"87da85b4ee30aca5","c":"#618FAE","r":6.0,"s":"#FFFFFF","w":2,"o":0.85,"n":"Tofa","p":1}},{"type":"Feature","geometry":{"type":"Point","coordinates":[99,52]},"properties":{"k":"d14be96c54a63bbb","c":"#618FAE","r":6.0,"s":"#FFFFFF","w":2,"o":0.85,"n":"Soyot","p":1}},{"type":"Feature","geometry":{"type":"Point","coordinates":[94.5,51.5]},"properties":{"k":"8a29e43b0c9da595","c":"#618FAE","r":6.0,"s":"#FFFFFF","w":2,"o":0.85,"n":"Tuva Herders","p":1}},{"type":"Feature","geometry":{"type":"Point","coordinates":[99.5,51.5]},"properties":{"k":"21a5a385b6716360","c":"#618FAE","r":6.0,"s":"#FFFFFF","w":2,"o":0.85,"n":"Tsaatan (Dukha)","p":1}},{"type":"Feature","geometry":{"type":"Point","coordinates":[23,69]},"properties":{"k":"1e35fdb4c0fcde35","c":"#618FAE","r":6.0,"s":"#FFFFFF","w":2,"o":0.85,"n":"Sami - Norway","p":1}},{"type":"Feature","geometry":{"type":"Point","coordinates":[18,67.5]},"properties":{"k":"a8701471edf69af4","c":"#618FAE","r":6.0,"s":"#FFFFFF","w":2,"o":0.85,"n":"Sami - Sweden","p":1}},{"type":"Feature","geometry":{"type":"Point","coordinates":[27,68.5]},"properties":{"k":"d77fa242afc3cdcd","c":"#618FAE","r":6.0,"s":"#FFFFFF","w":2,"o":0.85,"n":"Sami - Finland","p":1}},{"type":"Feature","geometry":{"type":"Point","coordinates":[38,67.5]},"properties":{"k":"51c16bdcabde38d9","c":"#618FAE","r":6.0,"s":"#FFFFFF","w":2,"o":0.85,"n":"Sami - Kola","p":1}},{"type":"Feature","geometry":{"type":"Point","coordinates":[-40,72]},"properties":{"k":"17f99e3212553384","c":"#364C63","r":6.0,"s":"#FFFFFF","w":2,"o":0.85,"n":"Kalaallit","p":1}},{"type":"Feature","geometry":{"type":"Point","coordinates":[-69,77.5]},"properties":{"k":"d549fbef4e2ad8fc","c":"#364C63","r":6.0,"s":"#FFFFFF","w":2,"o":0.85,"n":"Inughuit","p":1}},{"type":"Feature","geometry":{"type":"Point","coordinates":[-37,66]},"properties":{"k":"8b5e60cdab209a33","c":"#364C63","r":6.0,"s":"#FFFFFF","w":2,"o":0.85,"n":"Tunumiit","p":1}},{"type":"Feature","geometry":{"type":"Point","coordinates":[-85,70]},"properties":{"k":"1de214eeb3096cb6","c":"#364C63","r":6.0,"s":"#FFFFFF","w":2,"o":0.85,"n":"Inuit - Nunavut","p":1}},{"type":"Feature","geometry":{"type":"Point","coordinates":[-72,60]},"properties":{"k":"1e3ddb38a66e350f","c":"#364C63","r":6.0,"s":"#FFFFFF","w":2,"o":0.85,"n":"Inuit - Nunavik","p":1}},{"type":"Feature","geometry":{"type":"Point","coordinates":[-62,56.5]},"properties":{"k":"343fdcda009d2fc7","c":"#364C63","r":6.0,"s":"#FFFFFF","w":2,"o":0.85,"n":"Inuit - Nunatsiavut","p":1}},{"type":"Feature","geometry":{"type":"Point","coordinates":[-133,69]},"properties":{"k":"16a3c8140cc618d2","c":"#364C63","r":6.0,"s":"#FFFFFF","w":2,"o":0.85,"n":"Inuit - Inuvialuit","p":1}},{"type":"Feature","geometry":{"type":"Point","coordinates":[-92,63]},"properties":{"k":"de3a353548648a05","c":"#364C63","r":6.0,"s":"#FFFFFF","w":2,"o":0.85,"n":"Inuit - Kivalliq","p":1}},{"type":"Feature","geometry":{"type":"Point","coordinates":[-90,74]},"properties":{"k":"5267072ccfc8745f","c":"#364C63","r":6.0,"s":"#FFFFFF","w":2,"o":0.85,"n":"Inuit - Qikiqtaaluk","p":1}},{"type":"Feature","geometry":{"type":"Point","coordinates":[-108,68.5]},"properties":{"k":"7f3334896312e101","c":"#364C63","r":6.0,"s":"#FFFFFF","w":2,"o":0.85,"n":"Inuit - Kitikmeot","p":1}},{"type":"Feature","geometry":{"type":"Point","coordinates":[-156,71]},"properties":{"k":"406c563cf93c63f6","c":"#364C63","r":6.0,"s":"#FFFFFF","w":2,"o":0.85,"n":"Inupiat - North Slope","p":1}},{"type":"Feature","geometry":{"type":"Point","coordinates":[-162,67]},"properties":{"k":"d80e647900869e9a","c":"#364C63","r":6.0,"s":"#FFFFFF","w":2,"o":0.85,"n":"Inupiat - Northwest","p":1}},{"type":"Feature","geometry":{"type":"Point","coordinates":[-163,61]},"properties":{"k":"977bece09a005642","c":"#364C63","r":6.0,"s":"#FFFFFF","w":2,"o":0.85,"n":"Yup'ik - Southwest","p":1}},{"type":"Feature","geometry":{"type":"Point","coordinates":[-164.5,60]},"properties":{"k":"dbcfd9c0e03cc29c","c":"#364C63","r":6.0,"s":"#FFFFFF","w":2,"o":0.85,"n":"Cup'ik","p":1}},{"type":"Feature","geometry":{"type":"Point","coordinates":[-171.7,63.7]},"properties":{"k":"be6988f19d48b77f","c":"#364C63","r":6.0,"s":"#FFFFFF","w":2,"o":0.85,"n":"Siberian Yupik","p":1}},{"type":"Feature","geometry":{"type":"Point","coordinates":[-174,52.5]},"properties":{"k":"0f3c798958c4514c","c":"#364C63","r":6.0,"s":"#FFFFFF","w":2,"o":0.85,"n":"Aleut - Aleutian","p":1}},{"type":"Feature","geometry":{"type":"Point","coordinates":[-153,57.5]},"properties":{"k":"dafd434e38bdbf06","c":"#364C63","r":6.0,"s":"#FFFFFF","w":2,"o":0.85,"n":"Alutiiq","p":1}},{"type":"Feature","geometry":{"type":"Point","coordinates":[-134,67]},"properties":{"k":"b98dbb40262f57a5","c":"#364C63","r":6.0,"s":"#FFFFFF","w":2,"o":0.85,"n":"Gwich'in","p":1}},{"type":"Feature","geometry":{"type":"Point","coordinates":[-125,65]},"properties":{"k":"ee1de9be18309cf4","c":"#364C63","r":6.0,"s":"#FFFFFF","w":2,"o":0.85,"n":"Sahtu Dene","p":1}},{"type":"Feature","geometry":{"type":"Point","coordinates":[-117,63.5]},"properties":{"k":"00aff36af54170ff","c":"#364C63","r":6.0,"s":"#FFFFFF","w":2,"o":0.85,"n":"T\u0142\u0131\u0328ch\u01eb","p":1}},{"type":"Feature","geometry":{"type":"Point","coordinates":[-121,61.5]},"properties":{"k":"97d0a57f9cf87e61","c":"#364C63","r":6.0,"s":"#FFFFFF","w":2,"o":0.85,"n":"Dehcho Dene","p":1}},{"type":"Feature","geometry":{"type":"Point","coordinates":[-117.5,59.5]},"properties":{"k":"0faf84bdeb91e4be","c":"#364C63","r":6.0,"s":"#FFFFFF","w":2,"o":0.85,"n":"Dene Tha'","p":1}},{"type":"Feature","geometry":{"type":"Point","coordinates":[-105,59]},"properties":{"k":"30af3b9c56152c17","c":"#364C63","r":6.0,"s":"#FFFFFF","w":2,"o":0.85,"n":"Chipewyan","p":1}},{"type":"Feature","geometry":{"type":"Point","coordinates":[-78,53]},"properties":{"k":"670f6cbb0f650a4a","c":"#364C63","r":6.0,"s":"#FFFFFF","w":2,"o":0.85,"n":"Cree - Eastern","p":1}},{"type":"Feature","geometry":{"type":"Point","coordinates":[-95,55]},"properties":{"k":"3ba577f083f7e843","c":"#364C63","r":6.0,"s":"#FFFFFF","w":2,"o":0.85,"n":"Cree - Western","p":1}},{"type":"Feature","geometry":{"type":"Point","coordinates":[-66.5,55]},"properties":{"k":"5570af18afd83adf","c":"#364C63","r":6.0,"s":"#FFFFFF","w":2,"o":0.85,"n":"Naskapi","p":1}},{"type":"Feature","geometry":{"type":"Point","coordinates":[-63,54]},"properties":{"k":"a764c9ba0602b260","c":"#364C63","r":6.0,"s":"#FFFFFF","w":2,"o":0.85,"n":"Innu - Labrador","p":1}},{"type":"Feature","geometry":{"type":"Point","coordinates":[-68,52]},"properties":{"k":"25c533d26f2b4953","c":"#364C63","r":6.0,"s":"#FFFFFF","w":2,"o":0.85,"n":"Innu - Quebec","p":1}},{"type":"Feature","geometry":{"type":"Point","coordinates":[-73.5,47.5]},"properties":{"k":"6823c4a2739af89c","c":"#364C63","r":6.0,"s":"#FFFFFF","w":2,"o":0.85,"n":"Atikamekw","p":1}},{"type":"Feature","geometry":{"type":"Point","coordinates":[-78,47]},"properties":{"k":"319184d181e3042c","c":"#364C63","r":6.0,"s":"#FFFFFF","w":2,"o":0.85,"n":"Algonquin","p":1}},{"type":"Feature","geometry":{"type":"Point","coordinates":[-90,51]},"properties":{"k":"9547ac794344e6b7","c":"#364C63","r":6.0,"s":"#FFFFFF","w":2,"o":0.85,"n":"Ojibwe - Northern","p":1}},{"type":"Feature","geometry":{"type":"Point","coordinates":[-91,52.5]},"properties":{"k":"ce2687602683eede","c":"#364C63","r":6.0,"s":"#FFFFFF","w":2,"o":0.85,"n":"Oji-Cree","p":1}},{"type":"Feature","geometry":{"type":"Point","coordinates":[-155,65.5]},"properties":{"k":"f9b5dda9b1c60026","c":"#364C63","r":6.0,"s":"#FFFFFF","w":2,"o":0.85,"n":"Koyukon","p":1}},{"type":"Feature","geometry":{"type":"Point","coordinates":[-145,66.5]},"properties":{"k":"abd564b8591af3ef","c":"#364C63","r":6.0,"s":"#FFFFFF","w":2,"o":0.85,"n":"Gwich'in - Alaska","p":1}},{"type":"Feature","geometry":{"type":"Point","coordinates":[-150,65]},"properties":{"k":"a379ecdb28672b5d","c":"#364C63","r":6.0,"s":"#FFFFFF","w":2,"o":0.85,"n":"Tanana","p":1}},{"type":"Feature","geometry":{"type":"Point","coordinates":[-157.5,63.5]},"properties":{"k":"5edf8d09ac036c11","c":"#364C63","r":6.0,"s":"#FFFFFF","w":2,"o":0.85,"n":"Deg Hit'an","p":1}},{"type":"Feature","geometry":{"type":"Point","coordinates":[-159,63.5]},"properties":{"k":"610590479af681e2","c":"#364C63","r":6.0,"s":"#FFFFFF","w":2,"o":0.85,"n":"Holikachuk","p":1}},{"type":"Feature","geometry":{"type":"Point","coordinates":[-150,61]},"properties":{"k":"73efc3625aadb1a4","c":"#364C63","r":6.0,"s":"#FFFFFF","w":2,"o":0.85,"n":"Dena'ina","p":1}},{"type":"Feature","geometry":{"type":"Point","coordinates":[-145,62]},"properties":{"k":"76c81b04f9ef5778","c":"#364C63","r":6.0,"s":"#FFFFFF","w":2,"o":0.85,"n":"Ahtna","p":1}},{"type":"Feature","geometry":{"type":"Point","coordinates":[-135,58]},"properties":{"k":"3b34c06e5d783d7a","c":"#3E786D","r":6.0,"s":"#FFFFFF","w":2,"o":0.85,"n":"Tlingit","p":1}},{"type":"Feature","geometry":{"type":"Point","coordinates":[-132,53]},"properties":{"k":"e2def15661642e3d","c":"#3E786D","r":6.0,"s":"#FFFFFF","w":2,"o":0.85,"n":"Haida","p":1}},{"type":"Feature","geometry":{"type":"Point","coordinates":[-130,54.5]},"properties":{"k":"129627ea43d19050","c":"#3E786D","r":6.0,"s":"#FFFFFF","w":2,"o":0.85,"n":"Tsimshian","p":1}},{"type":"Feature","geometry":{"type":"Point","coordinates":[-127.5,55.5]},"properties":{"k":"faf1d9e746b90f3b","c":"#3E786D","r":6.0,"s":"#FFFFFF","w":2,"o":0.85,"n":"Gitxsan","p":1}},{"type":"Feature","geometry":{"type":"Point","coordinates":[-126,54.5]},"properties":{"k":"f3c0a54072493da3","c":"#3E786D","r":6.0,"s":"#FFFFFF","w":2,"o":0.85,"n":"Wet'suwet'en","p":1}},{"type":"Feature","geometry":{"type":"Point","coordinates":[-128.7,53.8]},"properties":{"k":"20953914a0cbb5d4","c":"#3E786D","r":6.0,"s":"#FFFFFF","w":2,"o":0.85,"n":"Haisla","p":1}},{"type":"Feature","geometry":{"type":"Point","coordinates":[-128,52.2]},"properties":{"k":"432097f38860a156","c":"#3E786D","r":6.0,"s":"#FFFFFF","w":2,"o":0.85,"n":"Heiltsuk","p":1}},{"type":"Feature","geometry":{"type":"Point","coordinates":[-126.5,52.4]},"properties":{"k":"618b2d6de96b281f","c":"#3E786D","r":6.0,"s":"#FFFFFF","w":2,"o":0.85,"n":"Nuxalk","p":1}},{"type":"Feature","geometry":{"type":"Point","coordinates":[-127,50.7]},"properties":{"k":"aac62477e974d406","c":"#3E786D","r":6.0,"s":"#FFFFFF","w":2,"o":0.85,"n":"Kwakwaka'wakw","p":1}},{"type":"Feature","geometry":{"type":"Point","coordinates":[-125.5,49]},"properties":{"k":"f547c8ffb27449e8","c":"#3E786D","r":6.0,"s":"#FFFFFF","w":2,"o":0.85,"n":"Nuu-chah-nulth","p":1}},{"type":"Feature","geometry":{"type":"Point","coordinates":[-123,49]},"properties":{"k":"ca88e99a9ab9ec6d","c":"#3E786D","r":6.0,"s":"#FFFFFF","w":2,"o":0.85,"n":"Coast Salish","p":1}},{"type":"Feature","geometry":{"type":"Point","coordinates":[-124.6,48.4]},"properties":{"k":"55de99841db2528c","c":"#3E786D","r":6.0,"s":"#FFFFFF","w":2,"o":0.85,"n":"Makah","p":1}},{"type":"Feature","geometry":{"type":"Point","coordinates":[-124.6,47.9]},"properties":{"k":"a231069bc1bf0b09","c":"#3E786D","r":6.0,"s":"#FFFFFF","w":2,"o":0.85,"n":"Quileute","p":1}},{"type":"Feature","geometry":{"type":"Point","coordinates":[-124.3,47.5]},"properties":{"k":"2d313019b6310545","c":"#3E786D","r":6.0,"s":"#FFFFFF","w":2,"o":0.85,"n":"Quinault","p":1}},{"type":"Feature","geometry":{"type":"Point","coordinates":[127,50.5]},"properties":{"k":"4605a10cea18db0f","c":"#95A5A6","r":6.0,"s":"#FFFFFF","w":2,"o":0.85,"n":"Oroqen (Limited)","p":1}},{"type":"Feature","geometry":{"type":"Point","coordinates":[133.5,47.6]},"properties":{"k":"d280abf42eaffa50","c":"#95A5A6","r":6.0,"s":"#FFFFFF","w":2,"o":0.85,"n":"Hezhen","p":1}},{"type":"Feature","geometry":{"type":"Point","coordinates":[98.3,27.8]},"properties":{"k":"461f93629a67c970","c":"#95A5A6","r":6.0,"s":"#FFFFFF","w":2,"o":0.85,"n":"Derung (Dulong)","p":1}},{"type":"Feature","geometry":{"type":"Point","coordinates":[-95,48]},"properties":{"k":"4334e41475c512ad","c":"#3E786D","r":6.0,"s":"#FFFFFF","w":2,"o":0.85,"n":"Ojibwe - Red Lake","p":1}},{"type":"Feature","geometry":{"type":"Point","coordinates":[-93.7,46.2]},"properties":{"k":"06aff05e6171eda8","c":"#3E786D","r":6.0,"s":"#FFFFFF","w":2,"o":0.85,"n":"Ojibwe - Mille Lacs","p":1}},{"type":"Feature","geometry":{"type":"Point","coordinates":[-89.89,45.97]},"properties":{"k":"00e7921a78e1709b","c":"#3E786D","r":6.0,"s":"#FFFFFF","w":2,"o":0.85,"n":"Ojibwe - Lac du Flambeau","p":1}},{"type":"Feature","geometry":{"type":"Point","coordinates":[-94.4,47.5]},"properties":{"k":"ce9c90e0097fe12c","c":"#3E786D","r":6.0,"s":"#FFFFFF","w":2,"o":0.85,"n":"Ojibwe - Leech Lake","p":1}},{"type":"Feature","geometry":{"type":"Point","coordinates":[-88.6,45.1]},"properties":{"k":"00a027de2d13cde8","c":"#3E786D","r":6.0,"s":"#FFFFFF","w":2,"o":0.85,"n":"Menominee","p":1}},{"type":"Feature","geometry":{"type":"Point","coordinates":[-123.7,41]},"properties":{"k":"b554835e3c88535f","c":"#3E786D","r":6.0,"s":"#FFFFFF","w":2,"o":0.85,"n":"Hoopa","p":1}},{"type":"Feature","geometry":{"type":"Point","coordinates":[-110.6,35.8]},"properties":{"k":"6e1a2abf8a0b3b94","c":"#95A5A6","r":6.0,"s":"#FFFFFF","w":2,"o":0.85,"n":"Hopi","p":1}},{"type":"Feature","geometry":{"type":"Point","coordinates":[-112,32]},"properties":{"k":"1688c5464f734df8","c":"#95A5A6","r":6.0,"s":"#FFFFFF","w":2,"o":0.85,"n":"Tohono O'odham","p":1}},{"type":"Feature","geometry":{"type":"Point","coordinates":[-109.9,33.8]},"properties":{"k":"a1088ae859f26e24","c":"#95A5A6","r":6.0,"s":"#FFFFFF","w":2,"o":0.85,"n":"White Mountain Apache","p":1}},{"type":"Feature","geometry":{"type":"Point","coordinates":[-106,35.5]},"properties":{"k":"f2207acab616b13e","c":"#95A5A6","r":6.0,"s":"#FFFFFF","w":2,"o":0.85,"n":"Pueblos (Various)","p":1}}]}