{"type":"FeatureCollection","name":"The World's Richest Dynasties & Individuals","overlays":[],"filters":[],"features":[{"type":"Feature","geometry":{"type":"Point","coordinates":[-94.2088,36.3729]},"properties":{"k":"04b6fbbb50aa0992","c":"#B16870","r":12.0,"s":"#BD7F86","w":1.5,"o":0.22,"n":"Walton family","p":1,"t":1}},{"type":"Feature","geometry":{"type":"Point","coordinates":[54.3773,24.4539]},"properties":{"k":"b59f7dec5bbd4628","c":"#B16870","r":12.0,"s":"#BD7F86","w":1.5,"o":0.22,"n":"Al Nahyan family","p":1,"t":1}},{"type":"Feature","geometry":{"type":"Point","coordinates":[46.6753,24.7136]},"properties":{"k":"a47a2770b4ed5998","c":"#B16870","r":12.0,"s":"#BD7F86","w":1.5,"o":0.22,"n":"Al Saud family","p":1,"t":1}},{"type":"Feature","geometry":{"type":"Point","coordinates":[51.531,25.2854]},"properties":{"k":"5dbcc8f1713c0193","c":"#B16870","r":12.0,"s":"#BD7F86","w":1.5,"o":0.22,"n":"Al Thani family","p":1,"t":1}},{"type":"Feature","geometry":{"type":"Point","coordinates":[2.3376,48.8606]},"properties":{"k":"0a6acc3859e7a78f","c":"#B16870","r":12.0,"s":"#BD7F86","w":1.5,"o":0.22,"n":"Herm\u00e8s (Dumas) family","p":1,"t":1}},{"type":"Feature","geometry":{"type":"Point","coordinates":[-97.3301,37.6872]},"properties":{"k":"e25ddc4677e34046","c":"#B16870","r":12.0,"s":"#BD7F86","w":1.5,"o":0.22,"n":"Koch family","p":1,"t":1}},{"type":"Feature","geometry":{"type":"Point","coordinates":[-77.1773,38.9339]},"properties":{"k":"1be51ccfcb267637","c":"#B16870","r":12.0,"s":"#BD7F86","w":1.5,"o":0.22,"n":"Mars family","p":1,"t":1}},{"type":"Feature","geometry":{"type":"Point","coordinates":[72.8777,19.076]},"properties":{"k":"a6a69a32e733a06e","c":"#B16870","r":12.0,"s":"#BD7F86","w":1.5,"o":0.22,"n":"Ambani family","p":1,"t":1}},{"type":"Feature","geometry":{"type":"Point","coordinates":[2.305,48.865]},"properties":{"k":"9e6d626a1843b7a5","c":"#B16870","r":12.0,"s":"#BD7F86","w":1.5,"o":0.22,"n":"Wertheimer family","p":1,"t":1}},{"type":"Feature","geometry":{"type":"Point","coordinates":[-79.3832,43.6532]},"properties":{"k":"8836fb10f77629a9","c":"#B16870","r":12.0,"s":"#BD7F86","w":1.5,"o":0.22,"n":"Thomson family","p":1,"t":1}},{"type":"Feature","geometry":{"type":"Point","coordinates":[-99.1332,19.4326]},"properties":{"k":"e8334fc498ab2466","c":"#B16870","r":7.0,"s":"#BD7F86","w":1.5,"o":0.05,"d":"3 3","n":"Larrea Mota Velasco family","p":1,"t":1}},{"type":"Feature","geometry":{"type":"Point","coordinates":[-70.6693,-33.4489]},"properties":{"k":"2c8eb109489a6097","c":"#B16870","r":7.0,"s":"#BD7F86","w":1.5,"o":0.05,"d":"3 3","n":"Luksic family","p":1,"t":1}},{"type":"Feature","geometry":{"type":"Point","coordinates":[9.19,45.4642]},"properties":{"k":"7b8a5a3bbd0d3770","c":"#B16870","r":7.0,"s":"#BD7F86","w":1.5,"o":0.05,"d":"3 3","n":"Del Vecchio family","p":1,"t":1}},{"type":"Feature","geometry":{"type":"Point","coordinates":[46.73,24.7536]},"properties":{"k":"c4d8c59d0f160648","c":"#B16870","r":7.0,"s":"#BD7F86","w":1.5,"o":0.05,"d":"3 3","n":"Olayan family","p":1,"t":1}},{"type":"Feature","geometry":{"type":"Point","coordinates":[-97.7431,30.2672]},"properties":{"k":"5ec658ca207d11cf","c":"#889DB4","r":12.0,"s":"#CFDAE6","w":1.25,"o":0.2,"n":"Elon Musk","p":1,"t":1}},{"type":"Feature","geometry":{"type":"Point","coordinates":[-122.143,37.4419]},"properties":{"k":"d4e21eea911ebad5","c":"#889DB4","r":12.0,"s":"#CFDAE6","w":1.25,"o":0.2,"n":"Larry Page","p":1,"t":1}},{"type":"Feature","geometry":{"type":"Point","coordinates":[-122.1141,37.3852]},"properties":{"k":"c981dcac71ae272a","c":"#889DB4","r":12.0,"s":"#CFDAE6","w":1.25,"o":0.2,"n":"Sergey Brin","p":1,"t":1}},{"type":"Feature","geometry":{"type":"Point","coordinates":[-80.1918,25.7617]},"properties":{"k":"d2a95d51d1ebe012","c":"#889DB4","r":12.0,"s":"#CFDAE6","w":1.25,"o":0.2,"n":"Jeff Bezos","p":1,"t":1}},{"type":"Feature","geometry":{"type":"Point","coordinates":[-122.1817,37.453]},"properties":{"k":"36a54b9506a771be","c":"#889DB4","r":12.0,"s":"#CFDAE6","w":1.25,"o":0.2,"n":"Mark Zuckerberg","p":1,"t":1}},{"type":"Feature","geometry":{"type":"Point","coordinates":[-156.9197,20.8283]},"properties":{"k":"120dbf24f046881c","c":"#889DB4","r":12.0,"s":"#CFDAE6","w":1.25,"o":0.2,"n":"Larry Ellison","p":1,"t":1}},{"type":"Feature","geometry":{"type":"Point","coordinates":[2.3522,48.8566]},"properties":{"k":"37d5c5dfe8b56612","c":"#889DB4","r":12.0,"s":"#CFDAE6","w":1.25,"o":0.2,"n":"Bernard Arnault & family","p":1,"t":1}},{"type":"Feature","geometry":{"type":"Point","coordinates":[-121.9552,37.3541]},"properties":{"k":"9999e1eeb2cba40f","c":"#889DB4","r":12.0,"s":"#CFDAE6","w":1.25,"o":0.2,"n":"Jensen Huang","p":1,"t":1}},{"type":"Feature","geometry":{"type":"Point","coordinates":[-95.9345,41.2565]},"properties":{"k":"a37e4676135ea8f5","c":"#889DB4","r":12.0,"s":"#CFDAE6","w":1.25,"o":0.2,"n":"Warren Buffett","p":1,"t":1}},{"type":"Feature","geometry":{"type":"Point","coordinates":[-8.4115,43.3623]},"properties":{"k":"01d005eaa2986318","c":"#889DB4","r":12.0,"s":"#CFDAE6","w":1.25,"o":0.2,"n":"Amancio Ortega","p":1,"t":1}},{"type":"Feature","geometry":{"type":"Point","coordinates":[-94.22,36.365]},"properties":{"k":"45892ca648eb50fc","c":"#889DB4","r":12.0,"s":"#CFDAE6","w":1.25,"o":0.2,"n":"Rob Walton & family","p":1,"t":1}},{"type":"Feature","geometry":{"type":"Point","coordinates":[-94.198,36.381]},"properties":{"k":"22c0867405453299","c":"#889DB4","r":12.0,"s":"#CFDAE6","w":1.25,"o":0.2,"n":"Jim Walton & family","p":1,"t":1}},{"type":"Feature","geometry":{"type":"Point","coordinates":[-97.71,30.305]},"properties":{"k":"c3a9b7b1aeafcd80","c":"#889DB4","r":12.0,"s":"#CFDAE6","w":1.25,"o":0.2,"n":"Michael Dell","p":1,"t":1}},{"type":"Feature","geometry":{"type":"Point","coordinates":[-97.3308,32.7555]},"properties":{"k":"ac77b88b7dfb0a7e","c":"#889DB4","r":12.0,"s":"#CFDAE6","w":1.25,"o":0.2,"n":"Alice Walton","p":1,"t":1}},{"type":"Feature","geometry":{"type":"Point","coordinates":[-122.23,47.636]},"properties":{"k":"be91c66b37cd019b","c":"#889DB4","r":12.0,"s":"#CFDAE6","w":1.25,"o":0.2,"n":"Steve Ballmer","p":1,"t":1}},{"type":"Feature","geometry":{"type":"Point","coordinates":[-99.1332,19.4326]},"properties":{"k":"a0306d91ea6ab294","c":"#889DB4","r":12.0,"s":"#CFDAE6","w":1.25,"o":0.2,"n":"Carlos Slim Hel\u00fa & family","p":1,"t":1}},{"type":"Feature","geometry":{"type":"Point","coordinates":[55.2708,25.2048]},"properties":{"k":"e6a12e52087bea08","c":"#889DB4","r":12.0,"s":"#CFDAE6","w":1.25,"o":0.2,"n":"Changpeng Zhao","p":1,"t":1}},{"type":"Feature","geometry":{"type":"Point","coordinates":[-74.006,40.7128]},"properties":{"k":"84fa15c9620e7ae3","c":"#889DB4","r":12.0,"s":"#CFDAE6","w":1.25,"o":0.2,"n":"Michael Bloomberg","p":1,"t":1}},{"type":"Feature","geometry":{"type":"Point","coordinates":[-122.2015,47.6101]},"properties":{"k":"4be46a935dc2bc69","c":"#889DB4","r":12.0,"s":"#CFDAE6","w":1.25,"o":0.2,"n":"Bill Gates","p":1,"t":1}},{"type":"Feature","geometry":{"type":"Point","coordinates":[2.33,48.87]},"properties":{"k":"2deba22cf52023b4","c":"#889DB4","r":12.0,"s":"#CFDAE6","w":1.25,"o":0.2,"n":"Fran\u00e7oise Bettencourt Meyers & family","p":1,"t":1}},{"type":"Feature","geometry":{"type":"Point","coordinates":[72.826,19.082]},"properties":{"k":"b876bfaae470d2b0","c":"#889DB4","r":12.0,"s":"#CFDAE6","w":1.25,"o":0.2,"n":"Mukesh Ambani","p":1,"t":1}},{"type":"Feature","geometry":{"type":"Point","coordinates":[8.9511,46.0037]},"properties":{"k":"79e23c79a19b3d47","c":"#889DB4","r":12.0,"s":"#CFDAE6","w":1.25,"o":0.2,"n":"Giancarlo Devasini","p":1,"t":1}},{"type":"Feature","geometry":{"type":"Point","coordinates":[-80.0364,26.7056]},"properties":{"k":"6da929ce95cb88ea","c":"#889DB4","r":12.0,"s":"#CFDAE6","w":1.25,"o":0.2,"n":"Thomas Peterffy","p":1,"t":1}},{"type":"Feature","geometry":{"type":"Point","coordinates":[-73.99,40.74]},"properties":{"k":"8213e85054605316","c":"#889DB4","r":12.0,"s":"#CFDAE6","w":1.25,"o":0.2,"n":"Julia Koch & family","p":1,"t":1}},{"type":"Feature","geometry":{"type":"Point","coordinates":[-97.345,37.695]},"properties":{"k":"2e3025ea588b9d75","c":"#889DB4","r":12.0,"s":"#CFDAE6","w":1.25,"o":0.2,"n":"Charles Koch & family","p":1,"t":1}},{"type":"Feature","geometry":{"type":"Point","coordinates":[116.4074,39.9042]},"properties":{"k":"7c602e3b0239dd3f","c":"#889DB4","r":12.0,"s":"#CFDAE6","w":1.25,"o":0.2,"n":"Zhang Yiming","p":1,"t":1}},{"type":"Feature","geometry":{"type":"Point","coordinates":[120.1551,30.2741]},"properties":{"k":"4179dcb8d62764aa","c":"#889DB4","r":12.0,"s":"#CFDAE6","w":1.25,"o":0.2,"n":"Zhong Shanshan","p":1,"t":1}},{"type":"Feature","geometry":{"type":"Point","coordinates":[-75.2349,40.0046]},"properties":{"k":"9a7fb1c0e015aa3f","c":"#889DB4","r":12.0,"s":"#CFDAE6","w":1.25,"o":0.2,"n":"Jeff Yass","p":1,"t":1}},{"type":"Feature","geometry":{"type":"Point","coordinates":[9.224,49.1916]},"properties":{"k":"40b87869c8474293","c":"#889DB4","r":12.0,"s":"#CFDAE6","w":1.25,"o":0.2,"n":"Dieter Schwarz","p":1,"t":1}},{"type":"Feature","geometry":{"type":"Point","coordinates":[-99.15,19.42]},"properties":{"k":"3c530bf1fa99beb0","c":"#889DB4","r":12.0,"s":"#CFDAE6","w":1.25,"o":0.2,"n":"Germ\u00e1n Larrea Mota Velasco & family","p":1,"t":1}},{"type":"Feature","geometry":{"type":"Point","coordinates":[72.5714,23.0225]},"properties":{"k":"de4bf768fcb67116","c":"#889DB4","r":12.0,"s":"#CFDAE6","w":1.25,"o":0.2,"n":"Gautam Adani","p":1,"t":1}},{"type":"Feature","geometry":{"type":"Point","coordinates":[139.6503,35.6762]},"properties":{"k":"10648cbc9e480ecc","c":"#889DB4","r":12.0,"s":"#CFDAE6","w":1.25,"o":0.2,"n":"Tadashi Yanai & family","p":1,"t":1}},{"type":"Feature","geometry":{"type":"Point","coordinates":[114.0579,22.5431]},"properties":{"k":"6dd0fdf342126608","c":"#889DB4","r":12.0,"s":"#CFDAE6","w":1.25,"o":0.2,"n":"Ma Huateng","p":1,"t":1}},{"type":"Feature","geometry":{"type":"Point","coordinates":[119.5479,26.6617]},"properties":{"k":"13715d849e8ee74d","c":"#889DB4","r":12.0,"s":"#CFDAE6","w":1.25,"o":0.2,"n":"Robin Zeng","p":1,"t":1}},{"type":"Feature","geometry":{"type":"Point","coordinates":[-70.65,-33.44]},"properties":{"k":"dab5e33a91cb9f8c","c":"#889DB4","r":12.0,"s":"#CFDAE6","w":1.25,"o":0.2,"n":"Iris Fontbona & family","p":1,"t":1}},{"type":"Feature","geometry":{"type":"Point","coordinates":[139.7454,35.6586]},"properties":{"k":"dec6a189fcdf51c8","c":"#889DB4","r":12.0,"s":"#CFDAE6","w":1.25,"o":0.2,"n":"Masayoshi Son","p":1,"t":1}},{"type":"Feature","geometry":{"type":"Point","coordinates":[-80.13,25.77]},"properties":{"k":"60889489a939dedb","c":"#889DB4","r":12.0,"s":"#CFDAE6","w":1.25,"o":0.2,"n":"Ken Griffin","p":1,"t":1}},{"type":"Feature","geometry":{"type":"Point","coordinates":[-77.77,38.864]},"properties":{"k":"768a79d36e824f69","c":"#889DB4","r":12.0,"s":"#CFDAE6","w":1.25,"o":0.2,"n":"Jacqueline Mars","p":1,"t":1}},{"type":"Feature","geometry":{"type":"Point","coordinates":[-77.16,38.93]},"properties":{"k":"09f7be731a40e2ff","c":"#889DB4","r":12.0,"s":"#CFDAE6","w":1.25,"o":0.2,"n":"John Mars","p":1,"t":1}},{"type":"Feature","geometry":{"type":"Point","coordinates":[-87.6298,41.8781]},"properties":{"k":"e992b90983771d71","c":"#889DB4","r":12.0,"s":"#CFDAE6","w":1.25,"o":0.2,"n":"Lukas Walton","p":1,"t":1}},{"type":"Feature","geometry":{"type":"Point","coordinates":[8.0353,44.7]},"properties":{"k":"fcaa2eef01fe17e0","c":"#889DB4","r":12.0,"s":"#CFDAE6","w":1.25,"o":0.2,"n":"Giovanni Ferrero","p":1,"t":1}},{"type":"Feature","geometry":{"type":"Point","coordinates":[114.1694,22.3193]},"properties":{"k":"f728ef8763d2c7c7","c":"#889DB4","r":12.0,"s":"#CFDAE6","w":1.25,"o":0.2,"n":"Li Ka-shing","p":1,"t":1}},{"type":"Feature","geometry":{"type":"Point","coordinates":[13.055,47.8095]},"properties":{"k":"e7ad61c4b30c40dc","c":"#889DB4","r":12.0,"s":"#CFDAE6","w":1.25,"o":0.2,"n":"Mark Mateschitz","p":1,"t":1}},{"type":"Feature","geometry":{"type":"Point","coordinates":[6.1432,46.2044]},"properties":{"k":"f3ab449decdfc5a4","c":"#889DB4","r":12.0,"s":"#CFDAE6","w":1.25,"o":0.2,"n":"Gianluigi Aponte","p":1,"t":1}},{"type":"Feature","geometry":{"type":"Point","coordinates":[6.153,46.212]},"properties":{"k":"206b8057a2f711b5","c":"#889DB4","r":12.0,"s":"#CFDAE6","w":1.25,"o":0.2,"n":"Rafaela Aponte-Diamant","p":1,"t":1}},{"type":"Feature","geometry":{"type":"Point","coordinates":[11.3426,44.4949]},"properties":{"k":"480d3d9bac24daa8","c":"#889DB4","r":12.0,"s":"#CFDAE6","w":1.25,"o":0.2,"n":"Andrea Pignataro","p":1,"t":1}},{"type":"Feature","geometry":{"type":"Point","coordinates":[9.9937,53.5511]},"properties":{"k":"8bdaa301211fb9ca","c":"#889DB4","r":12.0,"s":"#CFDAE6","w":1.25,"o":0.2,"n":"Klaus-Michael K\u00fchne","p":1,"t":1}},{"type":"Feature","geometry":{"type":"Point","coordinates":[-86.7816,36.1627]},"properties":{"k":"207ea456eab97e27","c":"#889DB4","r":12.0,"s":"#CFDAE6","w":1.25,"o":0.2,"n":"Thomas Frist Jr. & family","p":1,"t":1}},{"type":"Feature","geometry":{"type":"Point","coordinates":[2.31,48.852]},"properties":{"k":"129186a084629f95","c":"#889DB4","r":12.0,"s":"#CFDAE6","w":1.25,"o":0.2,"n":"Alain Wertheimer","p":1,"t":1}},{"type":"Feature","geometry":{"type":"Point","coordinates":[2.326,48.848]},"properties":{"k":"ea7ef66da332e01b","c":"#889DB4","r":12.0,"s":"#CFDAE6","w":1.25,"o":0.2,"n":"Gerard Wertheimer","p":1,"t":1}},{"type":"Feature","geometry":{"type":"Point","coordinates":[-94.2088,36.3729]},"properties":{"k":"acdc244a46176b04","c":"#B16870","r":12.0,"s":"#BD7F86","w":1.5,"o":0.22,"n":"Walton family","p":1,"t":1}},{"type":"Feature","geometry":{"type":"Point","coordinates":[-77.1773,38.9339]},"properties":{"k":"7f9a16c689394dd5","c":"#B16870","r":12.0,"s":"#BD7F86","w":1.5,"o":0.22,"n":"Mars family","p":1,"t":1}},{"type":"Feature","geometry":{"type":"Point","coordinates":[-97.3301,37.6872]},"properties":{"k":"4e27428cdd8a8cf6","c":"#B16870","r":12.0,"s":"#BD7F86","w":1.5,"o":0.22,"n":"Koch family","p":1,"t":1}},{"type":"Feature","geometry":{"type":"Point","coordinates":[-93.265,44.9778]},"properties":{"k":"8cc2b6708495e459","c":"#B16870","r":12.0,"s":"#BD7F86","w":1.5,"o":0.22,"n":"Cargill-MacMillan family","p":1,"t":1}},{"type":"Feature","geometry":{"type":"Point","coordinates":[-71.0589,42.3601]},"properties":{"k":"d0b6d164ded378f6","c":"#B16870","r":12.0,"s":"#BD7F86","w":1.5,"o":0.22,"n":"Edward Johnson family","p":1,"t":1}},{"type":"Feature","geometry":{"type":"Point","coordinates":[-87.6298,41.8781]},"properties":{"k":"c2d7c7886c46f523","c":"#B16870","r":12.0,"s":"#BD7F86","w":1.5,"o":0.22,"n":"Pritzker family","p":1,"t":1}},{"type":"Feature","geometry":{"type":"Point","coordinates":[-87.7829,42.7261]},"properties":{"k":"3911dfd4eb0b6da5","c":"#B16870","r":12.0,"s":"#BD7F86","w":1.5,"o":0.22,"n":"S.C. Johnson family","p":1,"t":1}},{"type":"Feature","geometry":{"type":"Point","coordinates":[-84.388,33.749]},"properties":{"k":"db7d66da5360ab57","c":"#B16870","r":11.8,"s":"#BD7F86","w":1.5,"o":0.22,"n":"Cathy family","p":1,"t":1}},{"type":"Feature","geometry":{"type":"Point","coordinates":[-95.3698,29.7604]},"properties":{"k":"84291a72124f363f","c":"#B16870","r":11.4,"s":"#BD7F86","w":1.5,"o":0.22,"n":"Duncan family","p":1,"t":1}},{"type":"Feature","geometry":{"type":"Point","coordinates":[-84.37,33.76]},"properties":{"k":"65f6d49e4cd3d8e7","c":"#B16870","r":11.0,"s":"#BD7F86","w":1.5,"o":0.22,"n":"Cox family","p":1,"t":1}},{"type":"Feature","geometry":{"type":"Point","coordinates":[-74.006,40.7128]},"properties":{"k":"a8e0b999ff26c35e","c":"#B16870","r":10.9,"s":"#BD7F86","w":1.5,"o":0.22,"n":"Lauder family","p":1,"t":1}},{"type":"Feature","geometry":{"type":"Point","coordinates":[-96.797,32.7767]},"properties":{"k":"25cced6f119e1542","c":"#B16870","r":10.7,"s":"#BD7F86","w":1.5,"o":0.22,"n":"Hunt family","p":1,"t":1}},{"type":"Feature","geometry":{"type":"Point","coordinates":[-74.01,40.72]},"properties":{"k":"4f9b00e285e0f5d8","c":"#B16870","r":10.6,"s":"#BD7F86","w":1.5,"o":0.22,"n":"Newhouse family","p":1,"t":1}},{"type":"Feature","geometry":{"type":"Point","coordinates":[-73.995,40.725]},"properties":{"k":"7f63d5c4c4d4784b","c":"#B16870","r":10.4,"s":"#BD7F86","w":1.5,"o":0.22,"n":"Hearst family","p":1,"t":1}},{"type":"Feature","geometry":{"type":"Point","coordinates":[-90.1994,38.627]},"properties":{"k":"dc920fe8751aebc7","c":"#B16870","r":10.0,"s":"#BD7F86","w":1.5,"o":0.22,"n":"Busch family","p":1,"t":1}},{"type":"Feature","geometry":{"type":"Point","coordinates":[-87.625,41.885]},"properties":{"k":"36801e9b6f2c1b9a","c":"#B16870","r":10.0,"s":"#BD7F86","w":1.5,"o":0.22,"n":"Reyes family","p":1,"t":1}},{"type":"Feature","geometry":{"type":"Point","coordinates":[-87.635,41.87]},"properties":{"k":"0b76e9bfb96a4617","c":"#B16870","r":10.0,"s":"#BD7F86","w":1.5,"o":0.22,"n":"Smith family","p":1,"t":1}},{"type":"Feature","geometry":{"type":"Point","coordinates":[-74.005,40.715]},"properties":{"k":"688aa2b4a1e23138","c":"#B16870","r":9.9,"s":"#BD7F86","w":1.5,"o":0.22,"n":"Millstone-Winter-Heyman families","p":1,"t":1}},{"type":"Feature","geometry":{"type":"Point","coordinates":[-90.205,38.63]},"properties":{"k":"e7fd8cc1ac7b80e2","c":"#B16870","r":9.9,"s":"#BD7F86","w":1.5,"o":0.22,"n":"Taylor family","p":1,"t":1}},{"type":"Feature","geometry":{"type":"Point","coordinates":[-98.4936,29.4241]},"properties":{"k":"ed0e6ef3b357df58","c":"#B16870","r":9.9,"s":"#BD7F86","w":1.5,"o":0.22,"n":"Butt family","p":1,"t":1}},{"type":"Feature","geometry":{"type":"Point","coordinates":[-74.012,40.708]},"properties":{"k":"45dd0bfc314832f5","c":"#B16870","r":9.8,"s":"#BD7F86","w":1.5,"o":0.22,"n":"Ziff family","p":1,"t":1}},{"type":"Feature","geometry":{"type":"Point","coordinates":[-75.5466,39.7459]},"properties":{"k":"c5a626f297fe9662","c":"#B16870","r":9.7,"s":"#BD7F86","w":1.5,"o":0.22,"n":"Du Pont family","p":1,"t":1}},{"type":"Feature","geometry":{"type":"Point","coordinates":[-75.1196,39.9259]},"properties":{"k":"abf6ad09926be10b","c":"#B16870","r":9.6,"s":"#BD7F86","w":1.5,"o":0.22,"n":"Dorrance family","p":1,"t":1}},{"type":"Feature","geometry":{"type":"Point","coordinates":[-85.7585,38.2527]},"properties":{"k":"323d5538fa74ec83","c":"#B16870","r":9.5,"s":"#BD7F86","w":1.5,"o":0.22,"n":"Brown family","p":1,"t":1}},{"type":"Feature","geometry":{"type":"Point","coordinates":[-87.7831,43.7392]},"properties":{"k":"bca051e3e69d3a59","c":"#B16870","r":9.4,"s":"#BD7F86","w":1.5,"o":0.22,"n":"Kohler family","p":1,"t":1}}]}