{"type":"FeatureCollection","name":"World Research Integrity 2026 \u2014 Who's Breaking Science","overlays":[],"filters":[],"features":[{"type":"Feature","geometry":{"type":"Point","coordinates":[-74.0324,40.744]},"properties":{"k":"1d20f8b72077ff7a","c":"#B87C75","r":12.0,"s":"#070B10","w":1,"o":0.82,"n":"Wiley / Hindawi","p":1}},{"type":"Feature","geometry":{"type":"Point","coordinates":[78.4867,17.385]},"properties":{"k":"8c04b2cbb6f7b63b","c":"#A37FBD","r":12.0,"s":"#070B10","w":1,"o":0.82,"n":"OMICS Publishing Group","p":1}},{"type":"Feature","geometry":{"type":"Point","coordinates":[-94.1266,30.0802]},"properties":{"k":"e2d663920bf7c10d","c":"#A37FBD","r":9.5,"s":"#070B10","w":1,"o":0.82,"n":"Cabells Predatory Reports","p":1}},{"type":"Feature","geometry":{"type":"Point","coordinates":[-74.4121,40.5187]},"properties":{"k":"94c612d5d874bfbe","c":"#B87C75","r":9.5,"s":"#070B10","w":1,"o":0.82,"n":"IEEE","p":1}},{"type":"Feature","geometry":{"type":"Point","coordinates":[13.405,52.52]},"properties":{"k":"7ed672f122779b4f","c":"#B87C75","r":9.5,"s":"#070B10","w":1,"o":0.82,"n":"Springer Nature","p":1}},{"type":"Feature","geometry":{"type":"Point","coordinates":[7.5886,47.5596]},"properties":{"k":"6139802510a70003","c":"#B46D75","r":9.5,"s":"#070B10","w":1,"o":0.82,"n":"MDPI","p":1}},{"type":"Feature","geometry":{"type":"Point","coordinates":[4.9041,52.3676]},"properties":{"k":"6055fe69911ce7fe","c":"#B87C75","r":9.5,"s":"#070B10","w":1,"o":0.82,"n":"Elsevier","p":1}},{"type":"Feature","geometry":{"type":"Point","coordinates":[12,24]},"properties":{"k":"3fee204af6a5a346","c":"#A37FBD","r":9.5,"s":"#070B10","w":1,"o":0.82,"n":"Beall's-listed predatory publishers","p":1}},{"type":"Feature","geometry":{"type":"Point","coordinates":[28.9784,41.0082]},"properties":{"k":"7c8c3a0c65ccb428","c":"#7699B9","r":9.5,"s":"#070B10","w":1,"o":0.82,"n":"WASET","p":1}},{"type":"Feature","geometry":{"type":"Point","coordinates":[6.6323,46.5197]},"properties":{"k":"a4a1c44ae9ca2825","c":"#B46D75","r":7.5,"s":"#070B10","w":1,"o":0.82,"n":"Frontiers","p":1}},{"type":"Feature","geometry":{"type":"Point","coordinates":[114.3055,30.5928]},"properties":{"k":"605ad9d97e037548","c":"#A37FBD","r":7.5,"s":"#070B10","w":1,"o":0.82,"n":"SCIRP (Scientific Research Publishing)","p":1}},{"type":"Feature","geometry":{"type":"Point","coordinates":[-1.288,51.671]},"properties":{"k":"6cfa95468a0b8515","c":"#B87C75","r":7.5,"s":"#070B10","w":1,"o":0.82,"n":"Taylor & Francis","p":1}},{"type":"Feature","geometry":{"type":"Point","coordinates":[-122.4194,37.7749]},"properties":{"k":"82dbb9a9b7be9317","c":"#B46D75","r":7.5,"s":"#070B10","w":1,"o":0.82,"n":"PLOS (PLOS ONE)","p":1}},{"type":"Feature","geometry":{"type":"Point","coordinates":[13.41,52.525]},"properties":{"k":"d3a3bcc120407982","c":"#B46D75","r":7.5,"s":"#070B10","w":1,"o":0.82,"n":"Scientific Reports (Springer Nature)","p":1}},{"type":"Feature","geometry":{"type":"Point","coordinates":[-89.4012,43.0731]},"properties":{"k":"d5de51eecdedfa49","c":"#B87C75","r":7.5,"s":"#070B10","w":1,"o":0.82,"n":"e-Century Publishing","p":1}},{"type":"Feature","geometry":{"type":"Point","coordinates":[-118.8376,34.1706]},"properties":{"k":"006e2b4b6a15d16a","c":"#B87C75","r":7.5,"s":"#070B10","w":1,"o":0.82,"n":"Sage","p":1}},{"type":"Feature","geometry":{"type":"Point","coordinates":[55.4209,25.3463]},"properties":{"k":"8e3c455bf8c92e85","c":"#A37FBD","r":7.5,"s":"#070B10","w":1,"o":0.82,"n":"Bentham Open","p":1}},{"type":"Feature","geometry":{"type":"Point","coordinates":[-0.1,51.5074]},"properties":{"k":"a477eb678f45b940","c":"#A37FBD","r":7.5,"s":"#070B10","w":1,"o":0.82,"n":"Allied Academies / Pulsus","p":1}},{"type":"Feature","geometry":{"type":"Point","coordinates":[23.7275,37.9838]},"properties":{"k":"511723897174e228","c":"#B87C75","r":5.5,"s":"#070B10","w":1,"o":0.82,"n":"Spandidos Publications","p":1}},{"type":"Feature","geometry":{"type":"Point","coordinates":[114.1694,22.3193]},"properties":{"k":"a1fd359da94b99c3","c":"#B87C75","r":5.5,"s":"#070B10","w":1,"o":0.82,"n":"AME Publishing Company","p":1}},{"type":"Feature","geometry":{"type":"Point","coordinates":[-74.006,40.7128]},"properties":{"k":"1bc48109538631fa","c":"#A37FBD","r":5.5,"s":"#070B10","w":1,"o":0.82,"n":"Science Publishing Group","p":1}},{"type":"Feature","geometry":{"type":"Point","coordinates":[-118.0276,34.0686]},"properties":{"k":"b4963cd43412e358","c":"#A37FBD","r":5.5,"s":"#070B10","w":1,"o":0.82,"n":"David Publishing","p":1}},{"type":"Feature","geometry":{"type":"Point","coordinates":[3.3792,6.5244]},"properties":{"k":"10098170c87ea3c4","c":"#A37FBD","r":5.5,"s":"#070B10","w":1,"o":0.82,"n":"Academic Journals","p":1}}]}