{"type":"FeatureCollection","name":"Soybean Companies","overlays":[],"features":[{"type":"Feature","geometry":{"type":"Point","coordinates":[-87.64,41.89]},"properties":{"k":"6cdf5b348c3515f2","c":"#9E5261","r":7.0,"s":"#9E5261","w":2,"o":0.7,"n":"ADM","p":1}},{"type":"Feature","geometry":{"type":"Point","coordinates":[-88.95,39.84]},"properties":{"k":"2b6340ae20635e70","c":"#9E5261","r":7.0,"s":"#9E5261","w":2,"o":0.7,"n":"ADM","p":1}},{"type":"Feature","geometry":{"type":"Point","coordinates":[6.34,46.46]},"properties":{"k":"3229a6ce00955747","c":"#9E5261","r":7.0,"s":"#9E5261","w":2,"o":0.7,"n":"ADM","p":1}},{"type":"Feature","geometry":{"type":"Point","coordinates":[103.82,1.35]},"properties":{"k":"a17ad37e5a2b17ba","c":"#9E5261","r":7.0,"s":"#9E5261","w":2,"o":0.7,"n":"ADM","p":1}},{"type":"Feature","geometry":{"type":"Point","coordinates":[-46.63,-23.55]},"properties":{"k":"25f498cdccceb65b","c":"#9E5261","r":7.0,"s":"#9E5261","w":2,"o":0.7,"n":"ADM","p":1}},{"type":"Feature","geometry":{"type":"Point","coordinates":[-90.2,38.63]},"properties":{"k":"4ed6547e0f02e998","c":"#9E5261","r":7.0,"s":"#9E5261","w":2,"o":0.7,"n":"Bunge","p":1}},{"type":"Feature","geometry":{"type":"Point","coordinates":[6.14,46.2]},"properties":{"k":"795f00b3386de2c3","c":"#9E5261","r":7.0,"s":"#9E5261","w":2,"o":0.7,"n":"Bunge","p":1}},{"type":"Feature","geometry":{"type":"Point","coordinates":[-46.63,-23.55]},"properties":{"k":"13daf8326c431bce","c":"#9E5261","r":7.0,"s":"#9E5261","w":2,"o":0.7,"n":"Bunge","p":1}},{"type":"Feature","geometry":{"type":"Point","coordinates":[-58.38,-34.6]},"properties":{"k":"7f17dba71bf59dfd","c":"#9E5261","r":7.0,"s":"#9E5261","w":2,"o":0.7,"n":"Bunge","p":1}},{"type":"Feature","geometry":{"type":"Point","coordinates":[-93.51,44.97]},"properties":{"k":"2ab0de7eb40783e7","c":"#9E5261","r":7.0,"s":"#9E5261","w":2,"o":0.7,"n":"Cargill","p":1}},{"type":"Feature","geometry":{"type":"Point","coordinates":[6.14,46.2]},"properties":{"k":"d0d1dc3e40122729","c":"#9E5261","r":7.0,"s":"#9E5261","w":2,"o":0.7,"n":"Cargill","p":1}},{"type":"Feature","geometry":{"type":"Point","coordinates":[103.82,1.35]},"properties":{"k":"97af72de1c9fc380","c":"#9E5261","r":7.0,"s":"#9E5261","w":2,"o":0.7,"n":"Cargill","p":1}},{"type":"Feature","geometry":{"type":"Point","coordinates":[121.47,31.23]},"properties":{"k":"1f3a154b6b0ade31","c":"#9E5261","r":7.0,"s":"#9E5261","w":2,"o":0.7,"n":"Cargill","p":1}},{"type":"Feature","geometry":{"type":"Point","coordinates":[4.48,51.92]},"properties":{"k":"c95f597452de2ca5","c":"#9E5261","r":7.0,"s":"#9E5261","w":2,"o":0.7,"n":"Louis Dreyfus","p":1}},{"type":"Feature","geometry":{"type":"Point","coordinates":[4.9,52.37]},"properties":{"k":"7704198919ce81f9","c":"#9E5261","r":7.0,"s":"#9E5261","w":2,"o":0.7,"n":"Louis Dreyfus","p":1}},{"type":"Feature","geometry":{"type":"Point","coordinates":[103.85,1.28]},"properties":{"k":"fa92f82c30aa7a37","c":"#9E5261","r":7.0,"s":"#9E5261","w":2,"o":0.7,"n":"Louis Dreyfus","p":1}},{"type":"Feature","geometry":{"type":"Point","coordinates":[-46.69,-23.56]},"properties":{"k":"77990b1750776749","c":"#9E5261","r":7.0,"s":"#9E5261","w":2,"o":0.7,"n":"Louis Dreyfus","p":1}},{"type":"Feature","geometry":{"type":"Point","coordinates":[6.17,46.2]},"properties":{"k":"a21f84500cf286dd","c":"#A85762","r":7.0,"s":"#A85762","w":2,"o":0.7,"n":"COFCO Intl","p":1}},{"type":"Feature","geometry":{"type":"Point","coordinates":[116.42,39.92]},"properties":{"k":"a4efaeecdb41fb77","c":"#A85762","r":7.0,"s":"#A85762","w":2,"o":0.7,"n":"COFCO Corp","p":1}},{"type":"Feature","geometry":{"type":"Point","coordinates":[-46.69,-23.57]},"properties":{"k":"25aee86335f58c93","c":"#A85762","r":7.0,"s":"#A85762","w":2,"o":0.7,"n":"COFCO Intl","p":1}},{"type":"Feature","geometry":{"type":"Point","coordinates":[-58.49,-34.55]},"properties":{"k":"780babbc0e0fb063","c":"#A85762","r":7.0,"s":"#A85762","w":2,"o":0.7,"n":"COFCO Intl","p":1}},{"type":"Feature","geometry":{"type":"Point","coordinates":[-56.1,-15.6]},"properties":{"k":"b5a30e82c39f7c9f","c":"#A85762","r":7.0,"s":"#A85762","w":2,"o":0.7,"n":"Amaggi","p":1}},{"type":"Feature","geometry":{"type":"Point","coordinates":[4.48,51.92]},"properties":{"k":"5c0abfc012f01fac","c":"#A85762","r":7.0,"s":"#A85762","w":2,"o":0.7,"n":"Amaggi","p":1}},{"type":"Feature","geometry":{"type":"Point","coordinates":[-58.38,-34.6]},"properties":{"k":"52a896ce59913618","c":"#A85762","r":7.0,"s":"#A85762","w":2,"o":0.7,"n":"Amaggi","p":1}}]}