{"type":"FeatureCollection","name":"Animal Sacrifice Map","overlays":[],"features":[{"type":"Feature","geometry":{"type":"Point","coordinates":[85.1333,27.0333]},"properties":{"k":"387539a0fabab6e3","c":"#A85761","r":6.0,"n":"Gadhimai Temple","p":1}},{"type":"Feature","geometry":{"type":"Point","coordinates":[85.2961,27.6286]},"properties":{"k":"3217795702b57a3d","c":"#A85761","r":6.0,"n":"Dakshinkali Temple","p":1}},{"type":"Feature","geometry":{"type":"Point","coordinates":[85.9248,26.7286]},"properties":{"k":"f804ee2214a87857","c":"#A85761","r":6.0,"n":"Rajdevi Temple","p":1}},{"type":"Feature","geometry":{"type":"Point","coordinates":[91.7054,26.1653]},"properties":{"k":"5a322764f7693683","c":"#A85761","r":6.0,"n":"Kamakhya Temple","p":1}},{"type":"Feature","geometry":{"type":"Point","coordinates":[84.2167,20.8333]},"properties":{"k":"49d9f9402145a72c","c":"#A85761","r":6.0,"n":"Kandhen Budhi Temple","p":1}},{"type":"Feature","geometry":{"type":"Point","coordinates":[83.9667,21.4667]},"properties":{"k":"4ef54d26bfc41ab1","c":"#A85761","r":6.0,"n":"Samaleswari Temple","p":1}},{"type":"Feature","geometry":{"type":"Point","coordinates":[76.2,10.2258]},"properties":{"k":"ca04fdf08d6a396a","c":"#A85761","r":6.0,"n":"Kodungallur Bhagavathy","p":1}},{"type":"Feature","geometry":{"type":"Point","coordinates":[76.9489,8.5078]},"properties":{"k":"6c9e865ee05dc985","c":"#A85761","r":6.0,"n":"Attukal Bhagavathy","p":1}},{"type":"Feature","geometry":{"type":"Point","coordinates":[78.4333,15.15]},"properties":{"k":"b8b4ab1dd0c483f7","c":"#A85761","r":6.0,"n":"Ahobilam Temples","p":1}},{"type":"Feature","geometry":{"type":"Point","coordinates":[88.3426,22.5186]},"properties":{"k":"f7d53ae28ac59f3d","c":"#A85761","r":6.0,"n":"Kalighat Kali Temple","p":1}},{"type":"Feature","geometry":{"type":"Point","coordinates":[87.9667,24.1167]},"properties":{"k":"d651227914c0e961","c":"#A85761","r":6.0,"n":"Tarapith Temple","p":1}},{"type":"Feature","geometry":{"type":"Point","coordinates":[91.2667,23.8333]},"properties":{"k":"5c3cdd9b24676d72","c":"#A85761","r":6.0,"n":"Durgabari Temple","p":1}},{"type":"Feature","geometry":{"type":"Point","coordinates":[88.3639,22.5726]},"properties":{"k":"1f547f7ab941b8d0","c":"#A85761","r":6.0,"n":"Durga Puja Sites","p":1}},{"type":"Feature","geometry":{"type":"Point","coordinates":[88,23.5]},"properties":{"k":"5692b77b16455953","c":"#A85761","r":6.0,"n":"Durga Puja Sites","p":1}},{"type":"Feature","geometry":{"type":"Point","coordinates":[76.1356,18.0089]},"properties":{"k":"f8e4f0b9b81d16eb","c":"#A85761","r":6.0,"n":"Tulja Bhavani Temple","p":1}},{"type":"Feature","geometry":{"type":"Point","coordinates":[76.6725,12.2714]},"properties":{"k":"5227410bd26624e8","c":"#A85761","r":6.0,"n":"Chamundeshwari Temple","p":1}},{"type":"Feature","geometry":{"type":"Point","coordinates":[71.4084,23.5204]},"properties":{"k":"f00721bffcca6b19","c":"#A85761","r":6.0,"n":"Bahuchara Mata Temple","p":1}},{"type":"Feature","geometry":{"type":"Point","coordinates":[78.8917,10.8761]},"properties":{"k":"62d890c401854f2b","c":"#A85761","r":6.0,"n":"Samayapuram Mariamman","p":1}},{"type":"Feature","geometry":{"type":"Point","coordinates":[78.12,10.05]},"properties":{"k":"fad227fa99502426","c":"#A85761","r":6.0,"n":"Kallalagar Temple","p":1}},{"type":"Feature","geometry":{"type":"Point","coordinates":[78,11]},"properties":{"k":"cdb1ea88190d0856","c":"#A85761","r":6.0,"n":"Tamil Mariamman Shrines","p":1}},{"type":"Feature","geometry":{"type":"Point","coordinates":[85.1376,25.5941]},"properties":{"k":"d3dab83e5cdd860e","c":"#A85761","r":6.0,"n":"Durga Temples","p":1}},{"type":"Feature","geometry":{"type":"Point","coordinates":[85.3096,23.3441]},"properties":{"k":"84a014352567b1a2","c":"#A85761","r":6.0,"n":"Kali Temples","p":1}},{"type":"Feature","geometry":{"type":"Point","coordinates":[72.8088,18.9744]},"properties":{"k":"a72686eb37769cbc","c":"#A85761","r":6.0,"n":"Mahalakshmi Temple","p":1}},{"type":"Feature","geometry":{"type":"Point","coordinates":[74.5865,15.9204]},"properties":{"k":"381fc03badae0c0a","c":"#A85761","r":6.0,"n":"Yellamma Temple","p":1}},{"type":"Feature","geometry":{"type":"Point","coordinates":[75.7139,15.3173]},"properties":{"k":"6c537b70fd703656","c":"#A85761","r":6.0,"n":"Renuka Temples","p":1}},{"type":"Feature","geometry":{"type":"Point","coordinates":[39.8926,21.4125]},"properties":{"k":"4dd255ed0135e093","c":"#55A659","r":6.0,"n":"Qurbani Mina","p":1}},{"type":"Feature","geometry":{"type":"Point","coordinates":[39.8262,21.4225]},"properties":{"k":"97644d228d969007","c":"#55A659","r":6.0,"n":"Qurbani Mecca","p":1}},{"type":"Feature","geometry":{"type":"Point","coordinates":[51.389,35.6892]},"properties":{"k":"b301883fd6eb1a4b","c":"#55A659","r":6.0,"n":"Eid al-Adha","p":1}},{"type":"Feature","geometry":{"type":"Point","coordinates":[51.668,32.6546]},"properties":{"k":"1ab83fa6c22fafdb","c":"#55A659","r":6.0,"n":"Eid al-Adha","p":1}},{"type":"Feature","geometry":{"type":"Point","coordinates":[44.3661,33.3152]},"properties":{"k":"eeee899925cf845e","c":"#55A659","r":6.0,"n":"Eid al-Adha","p":1}},{"type":"Feature","geometry":{"type":"Point","coordinates":[69.2075,34.5553]},"properties":{"k":"b484ef825d37d78c","c":"#55A659","r":6.0,"n":"Eid al-Adha","p":1}},{"type":"Feature","geometry":{"type":"Point","coordinates":[36.2765,33.5138]},"properties":{"k":"98ebf2b0c12d0cef","c":"#55A659","r":6.0,"n":"Eid al-Adha","p":1}},{"type":"Feature","geometry":{"type":"Point","coordinates":[35.9284,31.9454]},"properties":{"k":"2bb0b46f2a69ab3d","c":"#55A659","r":6.0,"n":"Eid al-Adha","p":1}},{"type":"Feature","geometry":{"type":"Point","coordinates":[35.5018,33.8938]},"properties":{"k":"9e2a7b6fc5043543","c":"#55A659","r":6.0,"n":"Eid al-Adha","p":1}},{"type":"Feature","geometry":{"type":"Point","coordinates":[35.2034,31.9038]},"properties":{"k":"844b83e4d90ece0e","c":"#55A659","r":6.0,"n":"Eid al-Adha","p":1}},{"type":"Feature","geometry":{"type":"Point","coordinates":[44.191,15.3694]},"properties":{"k":"93ca9b98c85a63c6","c":"#55A659","r":6.0,"n":"Eid al-Adha","p":1}},{"type":"Feature","geometry":{"type":"Point","coordinates":[58.3829,23.588]},"properties":{"k":"aa28168dc36f4e3f","c":"#55A659","r":6.0,"n":"Eid al-Adha","p":1}},{"type":"Feature","geometry":{"type":"Point","coordinates":[55.2708,25.2048]},"properties":{"k":"1018eeea99235b3b","c":"#55A659","r":6.0,"n":"Eid al-Adha","p":1}},{"type":"Feature","geometry":{"type":"Point","coordinates":[51.531,25.2854]},"properties":{"k":"2315336753516810","c":"#55A659","r":6.0,"n":"Eid al-Adha","p":1}},{"type":"Feature","geometry":{"type":"Point","coordinates":[47.9774,29.3759]},"properties":{"k":"6a928406bc603ee9","c":"#55A659","r":6.0,"n":"Eid al-Adha","p":1}},{"type":"Feature","geometry":{"type":"Point","coordinates":[50.586,26.2285]},"properties":{"k":"ac7e4b1f22425eb4","c":"#55A659","r":6.0,"n":"Eid al-Adha","p":1}},{"type":"Feature","geometry":{"type":"Point","coordinates":[31.2357,30.0444]},"properties":{"k":"36158e7206b2035e","c":"#55A659","r":6.0,"n":"Eid al-Adha","p":1}},{"type":"Feature","geometry":{"type":"Point","coordinates":[-7.5898,33.5731]},"properties":{"k":"154ae90e2fdb957a","c":"#55A659","r":6.0,"n":"Eid al-Adha","p":1}},{"type":"Feature","geometry":{"type":"Point","coordinates":[10.1815,36.8065]},"properties":{"k":"77395851ca7e0a0d","c":"#55A659","r":6.0,"n":"Eid al-Adha","p":1}},{"type":"Feature","geometry":{"type":"Point","coordinates":[3.0588,36.7538]},"properties":{"k":"8614650578ad02b2","c":"#55A659","r":6.0,"n":"Eid al-Adha","p":1}},{"type":"Feature","geometry":{"type":"Point","coordinates":[13.1913,32.8872]},"properties":{"k":"5bf25211344eef87","c":"#55A659","r":6.0,"n":"Eid al-Adha","p":1}},{"type":"Feature","geometry":{"type":"Point","coordinates":[32.5599,15.5007]},"properties":{"k":"8120b21364235336","c":"#55A659","r":6.0,"n":"Eid al-Adha","p":1}},{"type":"Feature","geometry":{"type":"Point","coordinates":[45.3182,2.0469]},"properties":{"k":"627c0b2cfa512734","c":"#55A659","r":6.0,"n":"Eid al-Adha","p":1}},{"type":"Feature","geometry":{"type":"Point","coordinates":[-15.9582,18.0735]},"properties":{"k":"17b05cdf4fee555d","c":"#55A659","r":6.0,"n":"Eid al-Adha","p":1}},{"type":"Feature","geometry":{"type":"Point","coordinates":[-17.4467,14.6928]},"properties":{"k":"de091060c4a4dffd","c":"#55A659","r":6.0,"n":"Tabaski","p":1}},{"type":"Feature","geometry":{"type":"Point","coordinates":[-8.0029,12.6392]},"properties":{"k":"d8cb3f7cf48b6471","c":"#55A659","r":6.0,"n":"Tabaski","p":1}},{"type":"Feature","geometry":{"type":"Point","coordinates":[-4.183,14.4843]},"properties":{"k":"6e111a2ddba53df7","c":"#55A659","r":6.0,"n":"Tabaski","p":1}},{"type":"Feature","geometry":{"type":"Point","coordinates":[-3.0028,16.7753]},"properties":{"k":"499165f30fbc7bf6","c":"#55A659","r":6.0,"n":"Tabaski","p":1}},{"type":"Feature","geometry":{"type":"Point","coordinates":[-16.579,13.4549]},"properties":{"k":"03c23a67f2b9cadc","c":"#55A659","r":6.0,"n":"Tobaski","p":1}},{"type":"Feature","geometry":{"type":"Point","coordinates":[-13.5784,9.6412]},"properties":{"k":"b014f64e5802361b","c":"#55A659","r":6.0,"n":"Tabaski","p":1}},{"type":"Feature","geometry":{"type":"Point","coordinates":[-1.5197,12.3714]},"properties":{"k":"4d97f2220366c8f4","c":"#55A659","r":6.0,"n":"Tabaski","p":1}},{"type":"Feature","geometry":{"type":"Point","coordinates":[-1.6297,14.1008]},"properties":{"k":"357139196822c9b9","c":"#55A659","r":6.0,"n":"Tabaski","p":1}},{"type":"Feature","geometry":{"type":"Point","coordinates":[-4.0083,5.36]},"properties":{"k":"3e01b6bf005e9740","c":"#55A659","r":6.0,"n":"Tabaski","p":1}},{"type":"Feature","geometry":{"type":"Point","coordinates":[3.3792,6.5244]},"properties":{"k":"5dec924aa01cbda1","c":"#55A659","r":6.0,"n":"Eid al-Adha","p":1}},{"type":"Feature","geometry":{"type":"Point","coordinates":[15.0557,12.1348]},"properties":{"k":"a8841ccc468a57f2","c":"#55A659","r":6.0,"n":"Eid al-Adha","p":1}},{"type":"Feature","geometry":{"type":"Point","coordinates":[2.1254,13.5116]},"properties":{"k":"cb8401afbcd43ea2","c":"#55A659","r":6.0,"n":"Eid al-Adha","p":1}},{"type":"Feature","geometry":{"type":"Point","coordinates":[39.6682,-4.0435]},"properties":{"k":"75436f052bef705d","c":"#55A659","r":6.0,"n":"Eid al-Adha","p":1}},{"type":"Feature","geometry":{"type":"Point","coordinates":[39.2083,-6.7924]},"properties":{"k":"7a49881319b89015","c":"#55A659","r":6.0,"n":"Eid al-Adha","p":1}},{"type":"Feature","geometry":{"type":"Point","coordinates":[39.2026,-6.1659]},"properties":{"k":"aea74cbd13be8dac","c":"#55A659","r":6.0,"n":"Eid al-Adha","p":1}},{"type":"Feature","geometry":{"type":"Point","coordinates":[-13.2317,8.4657]},"properties":{"k":"7602637ddcde3dfc","c":"#55A659","r":6.0,"n":"Tabaski","p":1}},{"type":"Feature","geometry":{"type":"Point","coordinates":[19.8187,41.3275]},"properties":{"k":"d9807c51f4e87e51","c":"#55A659","r":6.0,"n":"Kurban Bajram","p":1}},{"type":"Feature","geometry":{"type":"Point","coordinates":[18.4131,43.8563]},"properties":{"k":"fb27c704ab3fcd90","c":"#55A659","r":6.0,"n":"Kurban Bajram","p":1}},{"type":"Feature","geometry":{"type":"Point","coordinates":[21.1655,42.6629]},"properties":{"k":"76433d456c63e880","c":"#55A659","r":6.0,"n":"Kurban Bayrami","p":1}},{"type":"Feature","geometry":{"type":"Point","coordinates":[90.4125,23.8103]},"properties":{"k":"b442c39f15a50b75","c":"#55A659","r":6.0,"n":"Eid al-Adha","p":1}},{"type":"Feature","geometry":{"type":"Point","coordinates":[67.0011,24.8607]},"properties":{"k":"2acc1191dfcac6f6","c":"#55A659","r":6.0,"n":"Eid al-Adha","p":1}},{"type":"Feature","geometry":{"type":"Point","coordinates":[77.1025,28.7041]},"properties":{"k":"de474cb951cce2fb","c":"#55A659","r":6.0,"n":"Eid al-Adha","p":1}},{"type":"Feature","geometry":{"type":"Point","coordinates":[49.8671,40.4093]},"properties":{"k":"cfa40af22dd68654","c":"#55A659","r":6.0,"n":"Eid al-Adha","p":1}},{"type":"Feature","geometry":{"type":"Point","coordinates":[69.2401,41.2995]},"properties":{"k":"a496d9101aea8263","c":"#55A659","r":6.0,"n":"Eid al-Adha","p":1}},{"type":"Feature","geometry":{"type":"Point","coordinates":[68.7738,38.5598]},"properties":{"k":"0a6e8acf9ca1e598","c":"#55A659","r":6.0,"n":"Eid al-Adha","p":1}},{"type":"Feature","geometry":{"type":"Point","coordinates":[74.5698,42.8746]},"properties":{"k":"f0aabcdb4b4078d7","c":"#55A659","r":6.0,"n":"Eid al-Adha","p":1}},{"type":"Feature","geometry":{"type":"Point","coordinates":[76.8512,43.222]},"properties":{"k":"6c3595378a38cd80","c":"#55A659","r":6.0,"n":"Eid al-Adha","p":1}},{"type":"Feature","geometry":{"type":"Point","coordinates":[106.8456,-6.2088]},"properties":{"k":"c4aeaa671ca31737","c":"#55A659","r":6.0,"n":"Eid al-Adha","p":1}},{"type":"Feature","geometry":{"type":"Point","coordinates":[101.6869,3.139]},"properties":{"k":"a8517916dcbe8cae","c":"#55A659","r":6.0,"n":"Eid al-Adha","p":1}},{"type":"Feature","geometry":{"type":"Point","coordinates":[28.9784,41.0082]},"properties":{"k":"5c69840271e0317e","c":"#55A659","r":6.0,"n":"Kurban Bayrami","p":1}},{"type":"Feature","geometry":{"type":"Point","coordinates":[32.8597,39.9334]},"properties":{"k":"e499907bedfe64fc","c":"#55A659","r":6.0,"n":"Kurban Bayrami","p":1}},{"type":"Feature","geometry":{"type":"Point","coordinates":[114.9398,4.9031]},"properties":{"k":"e794f879bde28691","c":"#55A659","r":6.0,"n":"Eid al-Adha","p":1}},{"type":"Feature","geometry":{"type":"Point","coordinates":[73.5093,4.1755]},"properties":{"k":"362ff958d8f6706d","c":"#55A659","r":6.0,"n":"Eid al-Adha","p":1}},{"type":"Feature","geometry":{"type":"Point","coordinates":[-80.2781,25.8576]},"properties":{"k":"79c77143c00e2e60","c":"#B77873","r":6.0,"n":"Church of Lukumi","p":1}},{"type":"Feature","geometry":{"type":"Point","coordinates":[-73.8648,40.8448]},"properties":{"k":"b7883f1b11d2958a","c":"#B77873","r":6.0,"n":"Santer\u00eda Practices","p":1}},{"type":"Feature","geometry":{"type":"Point","coordinates":[-73.9442,40.6782]},"properties":{"k":"f7845a197950bb79","c":"#B77873","r":6.0,"n":"Santer\u00eda Practices","p":1}},{"type":"Feature","geometry":{"type":"Point","coordinates":[-73.9712,40.7831]},"properties":{"k":"ef23a344d28d0893","c":"#B77873","r":6.0,"n":"Santer\u00eda Practices","p":1}},{"type":"Feature","geometry":{"type":"Point","coordinates":[-80.2201,25.7653]},"properties":{"k":"d93c3f2379f7dc2d","c":"#B77873","r":6.0,"n":"Santer\u00eda District","p":1}},{"type":"Feature","geometry":{"type":"Point","coordinates":[-80.3089,25.6145]},"properties":{"k":"6430d23b290c2710","c":"#B77873","r":6.0,"n":"Santer\u00eda Practices","p":1}},{"type":"Feature","geometry":{"type":"Point","coordinates":[-98.4936,29.4241]},"properties":{"k":"a04cac7e7afeb341","c":"#B77873","r":6.0,"n":"Santer\u00eda Practices","p":1}},{"type":"Feature","geometry":{"type":"Point","coordinates":[-95.3698,29.7604]},"properties":{"k":"21c5cea69ce1c140","c":"#B77873","r":6.0,"n":"Santer\u00eda Practices","p":1}},{"type":"Feature","geometry":{"type":"Point","coordinates":[-82.3666,23.1136]},"properties":{"k":"b0d2db94b291957c","c":"#B77873","r":6.0,"n":"Santer\u00eda Practices","p":1}},{"type":"Feature","geometry":{"type":"Point","coordinates":[-81.5775,23.0414]},"properties":{"k":"35bd4424ea871f15","c":"#B77873","r":6.0,"n":"Santer\u00eda Practices","p":1}},{"type":"Feature","geometry":{"type":"Point","coordinates":[-75.8219,20.0247]},"properties":{"k":"092aed1312db11b2","c":"#B77873","r":6.0,"n":"Santer\u00eda Practices","p":1}},{"type":"Feature","geometry":{"type":"Point","coordinates":[-82.3167,23.1167]},"properties":{"k":"d2f298c761e29b20","c":"#B77873","r":6.0,"n":"Regla District","p":1}},{"type":"Feature","geometry":{"type":"Point","coordinates":[-82.3,23.1167]},"properties":{"k":"c733bd59085fe2e4","c":"#B77873","r":6.0,"n":"Guanabacoa","p":1}},{"type":"Feature","geometry":{"type":"Point","coordinates":[-96.1342,19.1738]},"properties":{"k":"4a419ab4b995bf0f","c":"#B77873","r":6.0,"n":"Santer\u00eda Practices","p":1}},{"type":"Feature","geometry":{"type":"Point","coordinates":[-35.9761,-8.2838]},"properties":{"k":"0d28b3a0c307af2b","c":"#B77873","r":6.0,"n":"Candombl\u00e9 Terreiros","p":1}},{"type":"Feature","geometry":{"type":"Point","coordinates":[-35.8811,-7.2306]},"properties":{"k":"77b2f00405009a1a","c":"#B77873","r":6.0,"n":"Candombl\u00e9 Terreiros","p":1}},{"type":"Feature","geometry":{"type":"Point","coordinates":[-38.5014,-12.9714]},"properties":{"k":"4800f0e5e10dce82","c":"#B77873","r":6.0,"n":"Terreiro Il\u00ea Oba","p":1}},{"type":"Feature","geometry":{"type":"Point","coordinates":[-43.1729,-22.9068]},"properties":{"k":"f39153bfd0cbaa50","c":"#B77873","r":6.0,"n":"Candombl\u00e9 Terreiros","p":1}},{"type":"Feature","geometry":{"type":"Point","coordinates":[-72.3074,18.5944]},"properties":{"k":"14e5cdf3950dfcb3","c":"#B77873","r":6.0,"n":"Vodou Ounf\u00f2s","p":1}},{"type":"Feature","geometry":{"type":"Point","coordinates":[-72.6876,19.4469]},"properties":{"k":"210008a59749f1a9","c":"#B77873","r":6.0,"n":"La Souvenance","p":1}},{"type":"Feature","geometry":{"type":"Point","coordinates":[-72.8667,18.4333]},"properties":{"k":"377c58c018bf5da1","c":"#B77873","r":6.0,"n":"Vodou Practices","p":1}},{"type":"Feature","geometry":{"type":"Point","coordinates":[-72.3364,19.3867]},"properties":{"k":"82a0fb38e0fbb914","c":"#B77873","r":6.0,"n":"St. John Caves","p":1}},{"type":"Feature","geometry":{"type":"Point","coordinates":[-72.0564,19.6658]},"properties":{"k":"9f58ed90f0dddadb","c":"#B77873","r":6.0,"n":"Plaine du Nord","p":1}},{"type":"Feature","geometry":{"type":"Point","coordinates":[-72.1614,18.8486]},"properties":{"k":"032925e353e48357","c":"#B77873","r":6.0,"n":"Saut d'Eau","p":1}},{"type":"Feature","geometry":{"type":"Point","coordinates":[4.55,7.4667]},"properties":{"k":"016724b500b83488","c":"#84498E","r":6.0,"n":"Ile-Ife Ifa Practices","p":1}},{"type":"Feature","geometry":{"type":"Point","coordinates":[4.55,7.7667]},"properties":{"k":"9de5a4ad705b7dc9","c":"#84498E","r":6.0,"n":"Osun-Osogbo Grove","p":1}},{"type":"Feature","geometry":{"type":"Point","coordinates":[3.3792,6.5244]},"properties":{"k":"ebd642416a4c646c","c":"#84498E","r":6.0,"n":"Yoruba Practices","p":1}},{"type":"Feature","geometry":{"type":"Point","coordinates":[3.9333,7.85]},"properties":{"k":"ad36c1fef5fe08fa","c":"#84498E","r":6.0,"n":"Yoruba Practices","p":1}},{"type":"Feature","geometry":{"type":"Point","coordinates":[2.6289,6.4969]},"properties":{"k":"2b1d248f9640e315","c":"#84498E","r":6.0,"n":"F\u00e1 Practices","p":1}},{"type":"Feature","geometry":{"type":"Point","coordinates":[2.085,6.3633]},"properties":{"k":"ff8692b6b39a0699","c":"#84498E","r":6.0,"n":"F\u00e1 Practices","p":1}},{"type":"Feature","geometry":{"type":"Point","coordinates":[2.4183,6.3654]},"properties":{"k":"a14aee637378b9e5","c":"#84498E","r":6.0,"n":"F\u00e1 Practices","p":1}},{"type":"Feature","geometry":{"type":"Point","coordinates":[-73.9422,40.6693]},"properties":{"k":"a6ac89251aa06e90","c":"#658EAF","r":6.0,"n":"Kaparot Crown Heights","p":1}},{"type":"Feature","geometry":{"type":"Point","coordinates":[-73.9973,40.6341]},"properties":{"k":"7f75a6339b3825f8","c":"#658EAF","r":6.0,"n":"Kaparot Borough Park","p":1}},{"type":"Feature","geometry":{"type":"Point","coordinates":[-73.9571,40.7081]},"properties":{"k":"6237680316cc45c7","c":"#658EAF","r":6.0,"n":"Kaparot Williamsburg","p":1}},{"type":"Feature","geometry":{"type":"Point","coordinates":[-73.9754,40.787]},"properties":{"k":"23d7a506e8d53293","c":"#658EAF","r":6.0,"n":"Kaparot Upper West","p":1}},{"type":"Feature","geometry":{"type":"Point","coordinates":[31.65,-27.8833]},"properties":{"k":"ffaf9f2cf8ee5003","c":"#B47E6D","r":6.0,"n":"Ukweshwama Festival","p":1}},{"type":"Feature","geometry":{"type":"Point","coordinates":[30.8958,-28.5305]},"properties":{"k":"c077c6e5fb825d10","c":"#B47E6D","r":6.0,"n":"Zulu Practices","p":1}},{"type":"Feature","geometry":{"type":"Point","coordinates":[26.4194,-32.2968]},"properties":{"k":"3b09a7612992caee","c":"#B47E6D","r":6.0,"n":"Xhosa Practices","p":1}},{"type":"Feature","geometry":{"type":"Point","coordinates":[34.7679,-0.0917]},"properties":{"k":"b30486f405135cba","c":"#B47E6D","r":6.0,"n":"Luo Birth Rituals","p":1}},{"type":"Feature","geometry":{"type":"Point","coordinates":[36.9566,-0.4172]},"properties":{"k":"0dbdfa0e42447395","c":"#B47E6D","r":6.0,"n":"Kikuyu Practices","p":1}},{"type":"Feature","geometry":{"type":"Point","coordinates":[32.2922,2.775]},"properties":{"k":"0b19621524ce5f8d","c":"#B47E6D","r":6.0,"n":"Acholi Reconciliation","p":1}},{"type":"Feature","geometry":{"type":"Point","coordinates":[31.2,-26.4667]},"properties":{"k":"9216aa445808e1ee","c":"#B47E6D","r":6.0,"n":"Swazi Incwala","p":1}},{"type":"Feature","geometry":{"type":"Point","coordinates":[138.115,36.0592]},"properties":{"k":"906decb687211744","c":"#AB5C77","r":6.0,"n":"Suwa Taisha","p":1}},{"type":"Feature","geometry":{"type":"Point","coordinates":[141.3469,43.0642]},"properties":{"k":"a9ba2600b8b96acf","c":"#AB5C77","r":6.0,"n":"Ainu Iomante","p":1}},{"type":"Feature","geometry":{"type":"Point","coordinates":[115.2625,-8.5069]},"properties":{"k":"d8cf330389b60ad5","c":"#48848C","r":6.0,"n":"Galungan Festival","p":1}},{"type":"Feature","geometry":{"type":"Point","coordinates":[115.2126,-8.6705]},"properties":{"k":"628e09fd2664c1c9","c":"#48848C","r":6.0,"n":"Galungan Festival","p":1}},{"type":"Feature","geometry":{"type":"Point","coordinates":[-175.1982,-21.1789]},"properties":{"k":"20084c00fafcba41","c":"#48848C","r":6.0,"n":"Ceremonial Feasts","p":1}},{"type":"Feature","geometry":{"type":"Point","coordinates":[178.4501,-18.1248]},"properties":{"k":"b9440db99f3585ba","c":"#48848C","r":6.0,"n":"Ceremonial Feasts","p":1}},{"type":"Feature","geometry":{"type":"Point","coordinates":[-171.7513,-13.8506]},"properties":{"k":"6f74c21bdf7b828e","c":"#48848C","r":6.0,"n":"Ceremonial Feasts","p":1}},{"type":"Feature","geometry":{"type":"Point","coordinates":[-155.6659,19.5429]},"properties":{"k":"5999cb69f9a6e13f","c":"#48848C","r":6.0,"n":"Heiau Sacrifices","p":1}},{"type":"Feature","geometry":{"type":"Point","coordinates":[121.0583,16.9167]},"properties":{"k":"3780d7261c1ad8f6","c":"#48848C","r":6.0,"n":"Ifugao Rituals","p":1}},{"type":"Feature","geometry":{"type":"Point","coordinates":[145.8,-5.2]},"properties":{"k":"5c15dc93f2bbadee","c":"#48848C","r":6.0,"n":"Maring Pig Festival","p":1}},{"type":"Feature","geometry":{"type":"Point","coordinates":[168.3167,-17.7333]},"properties":{"k":"6c761512ad259e31","c":"#48848C","r":6.0,"n":"Kastom Pig Sacrifice","p":1}},{"type":"Feature","geometry":{"type":"Point","coordinates":[168.1167,-16.25]},"properties":{"k":"51c143baf24e864d","c":"#48848C","r":6.0,"n":"Grade-Taking Ceremony","p":1}},{"type":"Feature","geometry":{"type":"Point","coordinates":[106.9057,47.8864]},"properties":{"k":"5a64bed67320e4b2","c":"#6E529F","r":6.0,"n":"Ovoo Ceremonies","p":1}},{"type":"Feature","geometry":{"type":"Point","coordinates":[116.475,43.6538]},"properties":{"k":"e6c1aec10960aadd","c":"#6E529F","r":6.0,"n":"Ovoo Ceremonies","p":1}},{"type":"Feature","geometry":{"type":"Point","coordinates":[103.8438,22.3364]},"properties":{"k":"50674f77973f7cf0","c":"#346560","r":6.0,"n":"Hmong/Yao Practices","p":1}},{"type":"Feature","geometry":{"type":"Point","coordinates":[104.9784,22.8231]},"properties":{"k":"6182b27a64b94375","c":"#346560","r":6.0,"n":"Hmong/Yao Practices","p":1}},{"type":"Feature","geometry":{"type":"Point","coordinates":[108.0005,14.3497]},"properties":{"k":"7e9a31ab917e88f0","c":"#346560","r":6.0,"n":"Bahnar Buffalo Ritual","p":1}},{"type":"Feature","geometry":{"type":"Point","coordinates":[108,13.9833]},"properties":{"k":"00646f3cb57a26a6","c":"#346560","r":6.0,"n":"Bahnar Buffalo Ritual","p":1}},{"type":"Feature","geometry":{"type":"Point","coordinates":[109.7389,28.3167]},"properties":{"k":"1f2fca9b2df266bb","c":"#346560","r":6.0,"n":"Miao Zhuiniu Ritual","p":1}},{"type":"Feature","geometry":{"type":"Point","coordinates":[94.5167,28.7708]},"properties":{"k":"ff4e65763f88c5c1","c":"#346560","r":6.0,"n":"Memba Rituals","p":1}},{"type":"Feature","geometry":{"type":"Point","coordinates":[126.978,37.5665]},"properties":{"k":"24ba87cc0e824114","c":"#346560","r":6.0,"n":"Mudang Kut Rituals","p":1}},{"type":"Feature","geometry":{"type":"Point","coordinates":[127.5,36.5]},"properties":{"k":"59ed8f1672049019","c":"#346560","r":6.0,"n":"Mudang Kut Rituals","p":1}},{"type":"Feature","geometry":{"type":"Point","coordinates":[21.8243,39.0742]},"properties":{"k":"d624ac7513806bda","c":"#795548","r":6.0,"n":"Kourbania Practice","p":1}},{"type":"Feature","geometry":{"type":"Point","coordinates":[26.25,39.1]},"properties":{"k":"87c47b2bf928845f","c":"#795548","r":6.0,"n":"St. Charalambos","p":1}},{"type":"Feature","geometry":{"type":"Point","coordinates":[26.3,39.25]},"properties":{"k":"1d5b4c68aaf7c37d","c":"#795548","r":6.0,"n":"Akindinoi Saints","p":1}},{"type":"Feature","geometry":{"type":"Point","coordinates":[44.4991,40.1792]},"properties":{"k":"001705e1a6dec702","c":"#B77272","r":6.0,"n":"Matagh Ceremonies","p":1}},{"type":"Feature","geometry":{"type":"Point","coordinates":[44.8192,40.1401]},"properties":{"k":"4294370215213e19","c":"#B77272","r":6.0,"n":"Geghard Monastery","p":1}},{"type":"Feature","geometry":{"type":"Point","coordinates":[44.2914,40.1638]},"properties":{"k":"6f2b24f4c510a120","c":"#B77272","r":6.0,"n":"Etchmiadzin","p":1}},{"type":"Feature","geometry":{"type":"Point","coordinates":[-118.2551,34.1425]},"properties":{"k":"5f00f922b89cd78e","c":"#B77272","r":6.0,"n":"Matagh (Diaspora)","p":1}},{"type":"Feature","geometry":{"type":"Point","coordinates":[121.0177,24.8382]},"properties":{"k":"2142774de40847e9","c":"#AB5B63","r":6.0,"n":"Shen Zhu Festival","p":1}},{"type":"Feature","geometry":{"type":"Point","coordinates":[121.2157,24.9441]},"properties":{"k":"7d66b1396961a181","c":"#AB5B63","r":6.0,"n":"Yimin Festival","p":1}},{"type":"Feature","geometry":{"type":"Point","coordinates":[102.5,37.5]},"properties":{"k":"46ff2cd55a03a192","c":"#AB5B63","r":6.0,"n":"Raza Festival","p":1}},{"type":"Feature","geometry":{"type":"Point","coordinates":[116.4066,39.8822]},"properties":{"k":"ef825f2d3105208b","c":"#AB5B63","r":6.0,"n":"Temple of Heaven","p":1}},{"type":"Feature","geometry":{"type":"Point","coordinates":[47.5079,-18.8792]},"properties":{"k":"a688c02cdb82bacb","c":"#684B36","r":6.0,"n":"Famadihana Rituals","p":1}},{"type":"Feature","geometry":{"type":"Point","coordinates":[47,-19.8]},"properties":{"k":"4b63ed2030436ccb","c":"#684B36","r":6.0,"n":"Famadihana Rituals","p":1}},{"type":"Feature","geometry":{"type":"Point","coordinates":[46.8691,-18.7669]},"properties":{"k":"b3e1fe3032f215a6","c":"#684B36","r":6.0,"n":"Circumcision Ceremonies","p":1}},{"type":"Feature","geometry":{"type":"Point","coordinates":[-71.9675,-13.5319]},"properties":{"k":"be4370f17c659176","c":"#814249","r":6.0,"n":"Pachamama Rituals","p":1}},{"type":"Feature","geometry":{"type":"Point","coordinates":[-70.0219,-15.8402]},"properties":{"k":"397039e842ccee6a","c":"#814249","r":6.0,"n":"Pachamama Rituals","p":1}},{"type":"Feature","geometry":{"type":"Point","coordinates":[-71.2436,-13.7883]},"properties":{"k":"00d4336bf2feabe7","c":"#814249","r":6.0,"n":"Pachamama Rituals","p":1}},{"type":"Feature","geometry":{"type":"Point","coordinates":[-68.15,-16.5]},"properties":{"k":"24af28c5773a9f67","c":"#814249","r":6.0,"n":"Pachamama Rituals","p":1}},{"type":"Feature","geometry":{"type":"Point","coordinates":[-74.6167,-15.4333]},"properties":{"k":"b20c5e7001803e46","c":"#814249","r":6.0,"n":"Inca Rituals","p":1}},{"type":"Feature","geometry":{"type":"Point","coordinates":[46.6753,24.7136]},"properties":{"k":"42c062b32d659840","c":"#55A659","r":6.0,"n":"Eid al-Adha","p":1}},{"type":"Feature","geometry":{"type":"Point","coordinates":[44.3319,32.0007]},"properties":{"k":"68d01ab54cd4620c","c":"#55A659","r":6.0,"n":"Eid al-Adha","p":1}},{"type":"Feature","geometry":{"type":"Point","coordinates":[-6.8416,34.0209]},"properties":{"k":"098dda3d6972c150","c":"#55A659","r":6.0,"n":"Eid al-Adha","p":1}},{"type":"Feature","geometry":{"type":"Point","coordinates":[74.3436,31.5497]},"properties":{"k":"5600e8529ea8081c","c":"#55A659","r":6.0,"n":"Eid al-Adha","p":1}},{"type":"Feature","geometry":{"type":"Point","coordinates":[72.8777,19.076]},"properties":{"k":"993c32086654737d","c":"#55A659","r":6.0,"n":"Eid al-Adha","p":1}},{"type":"Feature","geometry":{"type":"Point","coordinates":[78.4867,17.385]},"properties":{"k":"573c512002c95f9f","c":"#55A659","r":6.0,"n":"Eid al-Adha","p":1}},{"type":"Feature","geometry":{"type":"Point","coordinates":[112.7521,-7.2575]},"properties":{"k":"d8c9c2a3cc742539","c":"#55A659","r":6.0,"n":"Eid al-Adha","p":1}},{"type":"Feature","geometry":{"type":"Point","coordinates":[7.3986,9.0765]},"properties":{"k":"40630d998b2494b2","c":"#55A659","r":6.0,"n":"Eid al-Adha","p":1}},{"type":"Feature","geometry":{"type":"Point","coordinates":[36.8172,-1.2864]},"properties":{"k":"263b48646ae56b2b","c":"#55A659","r":6.0,"n":"Eid al-Adha","p":1}},{"type":"Feature","geometry":{"type":"Point","coordinates":[38.7469,9.032]},"properties":{"k":"295378b3397e98cc","c":"#55A659","r":6.0,"n":"Eid al-Adha","p":1}},{"type":"Feature","geometry":{"type":"Point","coordinates":[-82.4572,27.9506]},"properties":{"k":"0701039f352b9591","c":"#B77873","r":6.0,"n":"Santer\u00eda Practices","p":1}},{"type":"Feature","geometry":{"type":"Point","coordinates":[-118.2437,34.0522]},"properties":{"k":"b904fb336e7f7c2a","c":"#B77873","r":6.0,"n":"Santer\u00eda Practices","p":1}},{"type":"Feature","geometry":{"type":"Point","coordinates":[-74.1724,40.7357]},"properties":{"k":"7cd73ad0501df5e9","c":"#B77873","r":6.0,"n":"Santer\u00eda Practices","p":1}},{"type":"Feature","geometry":{"type":"Point","coordinates":[-80.4361,22.1465]},"properties":{"k":"904fd067ede32036","c":"#B77873","r":6.0,"n":"Santer\u00eda Practices","p":1}},{"type":"Feature","geometry":{"type":"Point","coordinates":[-77.9169,21.3809]},"properties":{"k":"d0dbe5d0ad83fd09","c":"#B77873","r":6.0,"n":"Santer\u00eda Practices","p":1}},{"type":"Feature","geometry":{"type":"Point","coordinates":[-46.6333,-23.5505]},"properties":{"k":"9c2564ea429d7ab2","c":"#B77873","r":6.0,"n":"Candombl\u00e9 Terreiros","p":1}},{"type":"Feature","geometry":{"type":"Point","coordinates":[-34.877,-8.0476]},"properties":{"k":"52cc4d9654f2da93","c":"#B77873","r":6.0,"n":"Candombl\u00e9 Terreiros","p":1}},{"type":"Feature","geometry":{"type":"Point","coordinates":[-38.5434,-3.7172]},"properties":{"k":"1a885c5945e1d56e","c":"#B77873","r":6.0,"n":"Candombl\u00e9 Terreiros","p":1}},{"type":"Feature","geometry":{"type":"Point","coordinates":[-72.535,18.2373]},"properties":{"k":"de5a85561464bc8f","c":"#B77873","r":6.0,"n":"Vodou Practices","p":1}},{"type":"Feature","geometry":{"type":"Point","coordinates":[-73.75,18.2]},"properties":{"k":"7db878f61bb4e691","c":"#B77873","r":6.0,"n":"Vodou Practices","p":1}},{"type":"Feature","geometry":{"type":"Point","coordinates":[3.947,7.3775]},"properties":{"k":"9ec7512568e00731","c":"#84498E","r":6.0,"n":"Yoruba Practices","p":1}},{"type":"Feature","geometry":{"type":"Point","coordinates":[31.0335,-17.8252]},"properties":{"k":"9de671a47f903836","c":"#B47E6D","r":6.0,"n":"Shona Practices","p":1}},{"type":"Feature","geometry":{"type":"Point","coordinates":[32.5832,-25.9655]},"properties":{"k":"6e55d68c93936d43","c":"#B47E6D","r":6.0,"n":"Traditional Practices","p":1}},{"type":"Feature","geometry":{"type":"Point","coordinates":[105.8542,21.0285]},"properties":{"k":"7d8c1dc353700016","c":"#346560","r":6.0,"n":"Shamanic Practices","p":1}},{"type":"Feature","geometry":{"type":"Point","coordinates":[107.5909,16.4637]},"properties":{"k":"24cadb108ef3273e","c":"#346560","r":6.0,"n":"Shamanic Practices","p":1}},{"type":"Feature","geometry":{"type":"Point","coordinates":[105.75,10]},"properties":{"k":"f580e48959d84648","c":"#346560","r":6.0,"n":"Shamanic Practices","p":1}},{"type":"Feature","geometry":{"type":"Point","coordinates":[108,12.25]},"properties":{"k":"450e637f0fdfacd8","c":"#346560","r":6.0,"n":"Shamanic Practices","p":1}},{"type":"Feature","geometry":{"type":"Point","coordinates":[101,25]},"properties":{"k":"50b296645981c75f","c":"#346560","r":6.0,"n":"Minority Practices","p":1}},{"type":"Feature","geometry":{"type":"Point","coordinates":[126.4983,33.489]},"properties":{"k":"4c1bf781a48661e3","c":"#346560","r":6.0,"n":"Mudang Kut","p":1}},{"type":"Feature","geometry":{"type":"Point","coordinates":[22.9444,40.6401]},"properties":{"k":"363aaee19a23dcb2","c":"#795548","r":6.0,"n":"Kourbania Practice","p":1}},{"type":"Feature","geometry":{"type":"Point","coordinates":[23.7275,37.9838]},"properties":{"k":"29cfac2e98dd73ae","c":"#795548","r":6.0,"n":"Kourbania Practice","p":1}},{"type":"Feature","geometry":{"type":"Point","coordinates":[24.8093,35.2401]},"properties":{"k":"1a207064c25666f4","c":"#795548","r":6.0,"n":"Kourbania Practice","p":1}},{"type":"Feature","geometry":{"type":"Point","coordinates":[44.7297,40.1125]},"properties":{"k":"79b1de272ae5cf48","c":"#B77272","r":6.0,"n":"Matagh Ceremonies","p":1}},{"type":"Feature","geometry":{"type":"Point","coordinates":[121.5654,25.033]},"properties":{"k":"d21aa2078df30da0","c":"#AB5B63","r":6.0,"n":"Xiahai City God","p":1}},{"type":"Feature","geometry":{"type":"Point","coordinates":[120.2133,22.9908]},"properties":{"k":"bd4a623c1e0887e3","c":"#AB5B63","r":6.0,"n":"Temple Practices","p":1}},{"type":"Feature","geometry":{"type":"Point","coordinates":[119,26]},"properties":{"k":"e976d8c20cd7ef38","c":"#AB5B63","r":6.0,"n":"Folk Religion","p":1}},{"type":"Feature","geometry":{"type":"Point","coordinates":[113.5,23]},"properties":{"k":"34bf21282e43c148","c":"#AB5B63","r":6.0,"n":"Folk Religion","p":1}},{"type":"Feature","geometry":{"type":"Point","coordinates":[46.3167,-15.7167]},"properties":{"k":"0c21869867ce445d","c":"#684B36","r":6.0,"n":"Famadihana Rituals","p":1}},{"type":"Feature","geometry":{"type":"Point","coordinates":[43.6667,-23.35]},"properties":{"k":"b781d4cd15e87646","c":"#684B36","r":6.0,"n":"Famadihana Rituals","p":1}},{"type":"Feature","geometry":{"type":"Point","coordinates":[-77.0428,-12.0464]},"properties":{"k":"638560c732c3d3cc","c":"#814249","r":6.0,"n":"Pachamama Rituals","p":1}},{"type":"Feature","geometry":{"type":"Point","coordinates":[-74.2236,-13.1631]},"properties":{"k":"4c6d0ae1c9a64909","c":"#814249","r":6.0,"n":"Pachamama Rituals","p":1}}]}