{"type":"FeatureCollection","name":"Pre-1900","overlays":[],"features":[{"type":"Feature","geometry":{"type":"Point","coordinates":[10,25]},"properties":{"k":"7373b9ab27bd912e","c":"#BD7F86","r":7.0,"s":"#FFFFFF","w":1,"o":0.85,"n":"Tassili n'Ajjer, Sahara Desert","p":1}},{"type":"Feature","geometry":{"type":"Point","coordinates":[-112,36]},"properties":{"k":"8f409a15ea1a2669","c":"#BD7F86","r":7.0,"s":"#FFFFFF","w":1,"o":0.85,"n":"North America (Native American Traditions)","p":1}},{"type":"Feature","geometry":{"type":"Point","coordinates":[5,15]},"properties":{"k":"34c344c68a8bfaa0","c":"#BD7F86","r":7.0,"s":"#FFFFFF","w":1,"o":0.85,"n":"Africa (Mali region)","p":1}},{"type":"Feature","geometry":{"type":"Point","coordinates":[77,28]},"properties":{"k":"b87e55640c38d9b2","c":"#BD7F86","r":7.0,"s":"#FFFFFF","w":1,"o":0.85,"n":"India","p":1}},{"type":"Feature","geometry":{"type":"Point","coordinates":[115,35]},"properties":{"k":"27b8c88324665958","c":"#BD7F86","r":7.0,"s":"#FFFFFF","w":1,"o":0.85,"n":"China","p":1}},{"type":"Feature","geometry":{"type":"Point","coordinates":[44,33]},"properties":{"k":"f7910e06d1b7464f","c":"#BD7F86","r":7.0,"s":"#FFFFFF","w":1,"o":0.85,"n":"Iraq (Sumeria)","p":1}},{"type":"Feature","geometry":{"type":"Point","coordinates":[31,30]},"properties":{"k":"5e26d20a07f6374c","c":"#BD7F86","r":7.0,"s":"#FFFFFF","w":1,"o":0.85,"n":"Egypt","p":1}},{"type":"Feature","geometry":{"type":"Point","coordinates":[35,31]},"properties":{"k":"0f8d1b610426a6df","c":"#BD7F86","r":7.0,"s":"#FFFFFF","w":1,"o":0.85,"n":"Israel/Palestine/Egypt/Ethiopia","p":1}},{"type":"Feature","geometry":{"type":"Point","coordinates":[35,32.5]},"properties":{"k":"fe9879bccdef2137","c":"#BB7A82","r":7.0,"s":"#FFFFFF","w":1,"o":0.85,"n":"Iraq","p":1}},{"type":"Feature","geometry":{"type":"Point","coordinates":[15.6,38.2]},"properties":{"k":"84090bcc43a1f202","c":"#BB7A82","r":7.0,"s":"#FFFFFF","w":1,"o":0.85,"n":"Ionian Sea / Strait of Messina (Timoleon's voyage)","p":1}},{"type":"Feature","geometry":{"type":"Point","coordinates":[35.19,33.27]},"properties":{"k":"2a74cc471c21f7f3","c":"#BB7A82","r":7.0,"s":"#FFFFFF","w":1,"o":0.85,"n":"Tyre, Phoenicia (Lebanon)","p":1}},{"type":"Feature","geometry":{"type":"Point","coordinates":[12.5,41.9]},"properties":{"k":"83674d138df82686","c":"#A85763","r":7.0,"s":"#FFFFFF","w":1,"o":0.85,"n":"Rome, Italy","p":1}},{"type":"Feature","geometry":{"type":"Point","coordinates":[15.6,41.3]},"properties":{"k":"9fd95aa8fdb5dad3","c":"#A85763","r":7.0,"s":"#FFFFFF","w":1,"o":0.85,"n":"Arpi, Italy","p":1}},{"type":"Feature","geometry":{"type":"Point","coordinates":[14,40.3]},"properties":{"k":"82f44ae83cca99cb","c":"#A85763","r":7.0,"s":"#FFFFFF","w":1,"o":0.85,"n":"Cales, Italy","p":1}},{"type":"Feature","geometry":{"type":"Point","coordinates":[12.9,42.4]},"properties":{"k":"5a9def633e27bacb","c":"#A85763","r":7.0,"s":"#FFFFFF","w":1,"o":0.85,"n":"Hadria, Italy","p":1}},{"type":"Feature","geometry":{"type":"Point","coordinates":[13,42.5]},"properties":{"k":"e98d8bfa910e07eb","c":"#A85763","r":7.0,"s":"#FFFFFF","w":1,"o":0.85,"n":"Hadria, Italy","p":1}},{"type":"Feature","geometry":{"type":"Point","coordinates":[12.9,42.4]},"properties":{"k":"8250588b5649f937","c":"#A85763","r":7.0,"s":"#FFFFFF","w":1,"o":0.85,"n":"Reate, Italy","p":1}},{"type":"Feature","geometry":{"type":"Point","coordinates":[13.8,42.2]},"properties":{"k":"255e88a8cf7c8fd1","c":"#A85763","r":7.0,"s":"#FFFFFF","w":1,"o":0.85,"n":"Alba Fucens (territory of the Marsi), Italy","p":1}},{"type":"Feature","geometry":{"type":"Point","coordinates":[12.7,41.7]},"properties":{"k":"27d5dfba6b9ed614","c":"#A85763","r":7.0,"s":"#FFFFFF","w":1,"o":0.85,"n":"Lanuvium, Italy","p":1}},{"type":"Feature","geometry":{"type":"Point","coordinates":[12.6,41.8]},"properties":{"k":"c878d2e9d3e5552c","c":"#A85763","r":7.0,"s":"#FFFFFF","w":1,"o":0.85,"n":"Lanupium, Italy","p":1}},{"type":"Feature","geometry":{"type":"Point","coordinates":[14.8,41.1]},"properties":{"k":"ac34c8749f408a13","c":"#A85763","r":7.0,"s":"#FFFFFF","w":1,"o":0.85,"n":"Formice/Capua, Italy","p":1}},{"type":"Feature","geometry":{"type":"Point","coordinates":[14.3,40.8]},"properties":{"k":"8530776d4e1222c3","c":"#A85763","r":7.0,"s":"#FFFFFF","w":1,"o":0.85,"n":"Compsa, Italy","p":1}},{"type":"Feature","geometry":{"type":"Point","coordinates":[3,45.5]},"properties":{"k":"34819941f30f32d4","c":"#A85763","r":7.0,"s":"#FFFFFF","w":1,"o":0.85,"n":"Gaul (and Ariminium, Italy)","p":1}},{"type":"Feature","geometry":{"type":"Point","coordinates":[12.4,42.5]},"properties":{"k":"13a7e28b885d7b11","c":"#A85763","r":7.0,"s":"#FFFFFF","w":1,"o":0.85,"n":"Ameria and Tuder, Italy","p":1}},{"type":"Feature","geometry":{"type":"Point","coordinates":[110,35]},"properties":{"k":"a3417dd3916745d0","c":"#A85763","r":7.0,"s":"#FFFFFF","w":1,"o":0.85,"n":"China","p":1}},{"type":"Feature","geometry":{"type":"Point","coordinates":[12.5,41.9]},"properties":{"k":"c423623ed2ee33f1","c":"#A85763","r":7.0,"s":"#FFFFFF","w":1,"o":0.85,"n":"Rome, Italy","p":1}},{"type":"Feature","geometry":{"type":"Point","coordinates":[12.55,41.95]},"properties":{"k":"61b133ed8e132057","c":"#A85763","r":7.0,"s":"#FFFFFF","w":1,"o":0.85,"n":"Rome, Italy","p":1}},{"type":"Feature","geometry":{"type":"Point","coordinates":[12.45,41.85]},"properties":{"k":"a994a1baf522e98c","c":"#A85763","r":7.0,"s":"#FFFFFF","w":1,"o":0.85,"n":"Rome, Italy","p":1}},{"type":"Feature","geometry":{"type":"Point","coordinates":[12.9,42.7]},"properties":{"k":"c1d25060f31eac0d","c":"#A85763","r":7.0,"s":"#FFFFFF","w":1,"o":0.85,"n":"Spoletium, Italy","p":1}},{"type":"Feature","geometry":{"type":"Point","coordinates":[12.52,41.92]},"properties":{"k":"a6678d64e5bf1323","c":"#A85763","r":7.0,"s":"#FFFFFF","w":1,"o":0.85,"n":"Rome, Italy","p":1}},{"type":"Feature","geometry":{"type":"Point","coordinates":[37,39.5]},"properties":{"k":"10a6ae53c5951dd8","c":"#A85763","r":7.0,"s":"#FFFFFF","w":1,"o":0.85,"n":"Phrygia, Asia Minor (Turkey)","p":1}},{"type":"Feature","geometry":{"type":"Point","coordinates":[12.48,41.88]},"properties":{"k":"b34091bb7a208c6f","c":"#A85763","r":7.0,"s":"#FFFFFF","w":1,"o":0.85,"n":"Rome, Italy","p":1}},{"type":"Feature","geometry":{"type":"Point","coordinates":[12.51,41.91]},"properties":{"k":"122dddc535b28d62","c":"#A85763","r":7.0,"s":"#FFFFFF","w":1,"o":0.85,"n":"Rome, Italy","p":1}},{"type":"Feature","geometry":{"type":"Point","coordinates":[12.49,41.89]},"properties":{"k":"97d04a3aa383f890","c":"#A85763","r":7.0,"s":"#FFFFFF","w":1,"o":0.85,"n":"Rome, Italy","p":1}},{"type":"Feature","geometry":{"type":"Point","coordinates":[130.4,33.3]},"properties":{"k":"0af10d964a51d37e","c":"#A85763","r":7.0,"s":"#FFFFFF","w":1,"o":0.85,"n":"Kyushu, Japan","p":1}},{"type":"Feature","geometry":{"type":"Point","coordinates":[-4.5,57]},"properties":{"k":"760324ea55321c82","c":"#A85763","r":7.0,"s":"#FFFFFF","w":1,"o":0.85,"n":"Caledon Wood, Scotland","p":1}},{"type":"Feature","geometry":{"type":"Point","coordinates":[35,32]},"properties":{"k":"bcee934fd2a07fca","c":"#A85763","r":7.0,"s":"#FFFFFF","w":1,"o":0.85,"n":"Judea","p":1}},{"type":"Feature","geometry":{"type":"Point","coordinates":[12.5,41.5]},"properties":{"k":"5ab8f5104eb7566b","c":"#A85763","r":7.0,"s":"#FFFFFF","w":1,"o":0.85,"n":"Via Campana (Rome to Capua road), Italy","p":1}},{"type":"Feature","geometry":{"type":"Point","coordinates":[12.53,41.93]},"properties":{"k":"2356f7c196be9a16","c":"#A85763","r":7.0,"s":"#FFFFFF","w":1,"o":0.85,"n":"Rome, Italy","p":1}},{"type":"Feature","geometry":{"type":"Point","coordinates":[12.5,41.9]},"properties":{"k":"0d52a5e7ddfe4ba1","c":"#A85763","r":7.0,"s":"#FFFFFF","w":1,"o":0.85,"n":"Rome/Constantinople","p":1}},{"type":"Feature","geometry":{"type":"Point","coordinates":[135,35.5]},"properties":{"k":"52c90daa8b684911","c":"#51709E","r":7.0,"s":"#FFFFFF","w":1,"o":0.85,"n":"Japan","p":1}},{"type":"Feature","geometry":{"type":"Point","coordinates":[4.8,45.8]},"properties":{"k":"04ed72180fe1f4a2","c":"#51709E","r":7.0,"s":"#FFFFFF","w":1,"o":0.85,"n":"Vienne, Gaul (France)","p":1}},{"type":"Feature","geometry":{"type":"Point","coordinates":[29,41]},"properties":{"k":"31c10e6cda4600af","c":"#51709E","r":7.0,"s":"#FFFFFF","w":1,"o":0.85,"n":"Constantinople","p":1}},{"type":"Feature","geometry":{"type":"Point","coordinates":[0.7,47.4]},"properties":{"k":"f325ca735c8feb9c","c":"#51709E","r":7.0,"s":"#FFFFFF","w":1,"o":0.85,"n":"Francia (France)","p":1}},{"type":"Feature","geometry":{"type":"Point","coordinates":[12.55,41.95]},"properties":{"k":"6789d0c297fbae3f","c":"#51709E","r":7.0,"s":"#FFFFFF","w":1,"o":0.85,"n":"Rome, Italy","p":1}},{"type":"Feature","geometry":{"type":"Point","coordinates":[-0.1,51.5]},"properties":{"k":"adb8b6d5249d9369","c":"#51709E","r":7.0,"s":"#FFFFFF","w":1,"o":0.85,"n":"Britain","p":1}},{"type":"Feature","geometry":{"type":"Point","coordinates":[-6.3,53.3]},"properties":{"k":"3c18978cc48d95f4","c":"#51709E","r":7.0,"s":"#FFFFFF","w":1,"o":0.85,"n":"Ireland","p":1}},{"type":"Feature","geometry":{"type":"Point","coordinates":[110,35]},"properties":{"k":"93044e58d97fea07","c":"#51709E","r":7.0,"s":"#FFFFFF","w":1,"o":0.85,"n":"China","p":1}},{"type":"Feature","geometry":{"type":"Point","coordinates":[7.8,51.6]},"properties":{"k":"d3c45538cd250d99","c":"#51709E","r":7.0,"s":"#FFFFFF","w":1,"o":0.85,"n":"Sigiburg Castle, Francia (Germany)","p":1}},{"type":"Feature","geometry":{"type":"Point","coordinates":[4.8,45.8]},"properties":{"k":"9e0f855c581fc241","c":"#51709E","r":7.0,"s":"#FFFFFF","w":1,"o":0.85,"n":"Lyons, France","p":1}},{"type":"Feature","geometry":{"type":"Point","coordinates":[-7.7,53.3]},"properties":{"k":"d1d04ab6746e73bf","c":"#51709E","r":7.0,"s":"#FFFFFF","w":1,"o":0.85,"n":"Ireland & Britain (Celtic annals, 8th\u201310th c.)","p":1}},{"type":"Feature","geometry":{"type":"Point","coordinates":[135.8,35]},"properties":{"k":"4af6d378a17405f6","c":"#51709E","r":7.0,"s":"#FFFFFF","w":1,"o":0.85,"n":"Japan","p":1}},{"type":"Feature","geometry":{"type":"Point","coordinates":[121.5,31]},"properties":{"k":"4eb0a484e1e37c42","c":"#51709E","r":7.0,"s":"#FFFFFF","w":1,"o":0.85,"n":"China (Song Dynasty)","p":1}},{"type":"Feature","geometry":{"type":"Point","coordinates":[135.5,34]},"properties":{"k":"005e6d6f250e431c","c":"#51709E","r":7.0,"s":"#FFFFFF","w":1,"o":0.85,"n":"Kii Province, Japan","p":1}},{"type":"Feature","geometry":{"type":"Point","coordinates":[-8,53]},"properties":{"k":"cd99179c0cd2b078","c":"#51709E","r":7.0,"s":"#FFFFFF","w":1,"o":0.85,"n":"Cloera/Clonmacnoise, Ireland","p":1}},{"type":"Feature","geometry":{"type":"Point","coordinates":[5.9,51.8]},"properties":{"k":"7f84415a8c0ea0ba","c":"#51709E","r":7.0,"s":"#FFFFFF","w":1,"o":0.85,"n":"Munster, Cologne (Germany), and Leiden (Holland)","p":1}},{"type":"Feature","geometry":{"type":"Point","coordinates":[-0.1,51.5]},"properties":{"k":"26e78bef4865e2c8","c":"#51709E","r":7.0,"s":"#FFFFFF","w":1,"o":0.85,"n":"London, England","p":1}},{"type":"Feature","geometry":{"type":"Point","coordinates":[11,45.9]},"properties":{"k":"40ed29b3e48fe0d4","c":"#51709E","r":7.0,"s":"#FFFFFF","w":1,"o":0.85,"n":"Alverno, Italy","p":1}},{"type":"Feature","geometry":{"type":"Point","coordinates":[135.8,35]},"properties":{"k":"de6ccddc1cacc83a","c":"#51709E","r":7.0,"s":"#FFFFFF","w":1,"o":0.85,"n":"Japan","p":1}},{"type":"Feature","geometry":{"type":"Point","coordinates":[11.9,45.4]},"properties":{"k":"e5d70db05436ae7f","c":"#51709E","r":7.0,"s":"#FFFFFF","w":1,"o":0.85,"n":"Padua, Italy","p":1}},{"type":"Feature","geometry":{"type":"Point","coordinates":[-1.1,52.6]},"properties":{"k":"8bb5efa7d3d74032","c":"#51709E","r":7.0,"s":"#FFFFFF","w":1,"o":0.85,"n":"England","p":1}},{"type":"Feature","geometry":{"type":"Point","coordinates":[-0.34,51.75]},"properties":{"k":"148c44ee63b6acd8","c":"#51709E","r":7.0,"s":"#FFFFFF","w":1,"o":0.85,"n":"St Albans, England (Matthew Paris)","p":1}},{"type":"Feature","geometry":{"type":"Point","coordinates":[2.2,48.5]},"properties":{"k":"f7bf0315b5359de3","c":"#51709E","r":7.0,"s":"#FFFFFF","w":1,"o":0.85,"n":"Alen\u00e7on, France","p":1}},{"type":"Feature","geometry":{"type":"Point","coordinates":[29,41]},"properties":{"k":"cba8fe7a8554d089","c":"#51709E","r":7.0,"s":"#FFFFFF","w":1,"o":0.85,"n":"Constantinople","p":1}},{"type":"Feature","geometry":{"type":"Point","coordinates":[-50,25.8]},"properties":{"k":"400f8a2df9037e7f","c":"#3F7A59","r":7.0,"s":"#FFFFFF","w":1,"o":0.85,"n":"Atlantic Ocean (Columbus voyage)","p":1}},{"type":"Feature","geometry":{"type":"Point","coordinates":[120,30]},"properties":{"k":"731f87f5b1c2377c","c":"#3F7A59","r":7.0,"s":"#FFFFFF","w":1,"o":0.85,"n":"China","p":1}},{"type":"Feature","geometry":{"type":"Point","coordinates":[7.4,43.7]},"properties":{"k":"7daeb8809cf575c8","c":"#3F7A59","r":7.0,"s":"#FFFFFF","w":1,"o":0.85,"n":"France","p":1}},{"type":"Feature","geometry":{"type":"Point","coordinates":[10,50]},"properties":{"k":"dc1103bc68c4a3b7","c":"#3F7A59","r":7.0,"s":"#FFFFFF","w":1,"o":0.85,"n":"Europe","p":1}},{"type":"Feature","geometry":{"type":"Point","coordinates":[11.1,49.5]},"properties":{"k":"335a36d78206a979","c":"#3F7A59","r":7.0,"s":"#FFFFFF","w":1,"o":0.85,"n":"Nuremberg, Germany","p":1}},{"type":"Feature","geometry":{"type":"Point","coordinates":[7.6,47.6]},"properties":{"k":"77af8c1b6fba14bd","c":"#3F7A59","r":7.0,"s":"#FFFFFF","w":1,"o":0.85,"n":"Basel, Switzerland","p":1}},{"type":"Feature","geometry":{"type":"Point","coordinates":[20,51]},"properties":{"k":"fb4c091904e23d5d","c":"#3F7A59","r":7.0,"s":"#FFFFFF","w":1,"o":0.85,"n":"Poland","p":1}},{"type":"Feature","geometry":{"type":"Point","coordinates":[121,14.6]},"properties":{"k":"074d34386994b620","c":"#3F7A59","r":7.0,"s":"#FFFFFF","w":1,"o":0.85,"n":"Manila, Philippines / Mexico City","p":1}},{"type":"Feature","geometry":{"type":"Point","coordinates":[135.8,35]},"properties":{"k":"ec9e2e09a3a64ee8","c":"#6B4E98","r":7.0,"s":"#FFFFFF","w":1,"o":0.85,"n":"Kyoto, Japan","p":1}},{"type":"Feature","geometry":{"type":"Point","coordinates":[128.9,37.8]},"properties":{"k":"69ee54330e6e6582","c":"#6B4E98","r":7.0,"s":"#FFFFFF","w":1,"o":0.85,"n":"Gangwon Province, Korea (Joseon Dynasty)","p":1}},{"type":"Feature","geometry":{"type":"Point","coordinates":[2.3,48.9]},"properties":{"k":"74944dffc0dfd83c","c":"#6B4E98","r":7.0,"s":"#FFFFFF","w":1,"o":0.85,"n":"France","p":1}},{"type":"Feature","geometry":{"type":"Point","coordinates":[-71.1,42.4]},"properties":{"k":"cc1cace25655aa03","c":"#6B4E98","r":7.0,"s":"#FFFFFF","w":1,"o":0.85,"n":"Massachusetts Bay Colony","p":1}},{"type":"Feature","geometry":{"type":"Point","coordinates":[37.6,59.9]},"properties":{"k":"e5223d88de4225d8","c":"#6B4E98","r":7.0,"s":"#FFFFFF","w":1,"o":0.85,"n":"Robozero, Russia","p":1}},{"type":"Feature","geometry":{"type":"Point","coordinates":[10,53.6]},"properties":{"k":"5abbc78e483cd53a","c":"#6B4E98","r":7.0,"s":"#FFFFFF","w":1,"o":0.85,"n":"Hamburg and L\u00fcbeck, Germany","p":1}},{"type":"Feature","geometry":{"type":"Point","coordinates":[6.63,46.52]},"properties":{"k":"7096620f8b698c60","c":"#6B4E98","r":7.0,"s":"#FFFFFF","w":1,"o":0.85,"n":"Lausanne, Switzerland (de Rostan)","p":1}},{"type":"Feature","geometry":{"type":"Point","coordinates":[-0.6,51.5]},"properties":{"k":"af7d615c4bed2ab2","c":"#6B4E98","r":7.0,"s":"#FFFFFF","w":1,"o":0.85,"n":"Windsor Castle, England","p":1}},{"type":"Feature","geometry":{"type":"Point","coordinates":[140.5,35.5]},"properties":{"k":"3bf791cef19ca713","c":"#6B4E98","r":7.0,"s":"#FFFFFF","w":1,"o":0.85,"n":"Japan","p":1}},{"type":"Feature","geometry":{"type":"Point","coordinates":[140.6,36.6]},"properties":{"k":"dfe76205fee9131a","c":"#6B4E98","r":7.0,"s":"#FFFFFF","w":1,"o":0.85,"n":"Hitachi Province, Japan","p":1}},{"type":"Feature","geometry":{"type":"Point","coordinates":[15.08,58.39]},"properties":{"k":"62b20c8ffb6199d4","c":"#6B4E98","r":7.0,"s":"#FFFFFF","w":1,"o":0.85,"n":"Biskopsberga, Sweden","p":1}},{"type":"Feature","geometry":{"type":"Point","coordinates":[-0.11,51.52]},"properties":{"k":"24c3fd5498ad660b","c":"#6B4E98","r":7.0,"s":"#FFFFFF","w":1,"o":0.85,"n":"Hatton Garden, London (Staveley)","p":1}},{"type":"Feature","geometry":{"type":"Point","coordinates":[-157,20]},"properties":{"k":"35996c7c91af0f7e","c":"#6B4E98","r":7.0,"s":"#FFFFFF","w":1,"o":0.85,"n":"Pacific Ocean (HMS Blonde \u2014 Bloxam)","p":1}},{"type":"Feature","geometry":{"type":"Point","coordinates":[34,34.5]},"properties":{"k":"901c0c8bea80b732","c":"#6B4E98","r":7.0,"s":"#FFFFFF","w":1,"o":0.85,"n":"Eastern Mediterranean (brig Victoria, off Adalia)","p":1}},{"type":"Feature","geometry":{"type":"Point","coordinates":[-86.8,36.1]},"properties":{"k":"8b052dc34e9117b1","c":"#6B4E98","r":7.0,"s":"#FFFFFF","w":1,"o":0.85,"n":"Tennessee (Burritt College)","p":1}},{"type":"Feature","geometry":{"type":"Point","coordinates":[-75.5,39.7]},"properties":{"k":"35b395d9f6233a72","c":"#6B4E98","r":7.0,"s":"#FFFFFF","w":1,"o":0.85,"n":"Wilmington, Delaware","p":1}},{"type":"Feature","geometry":{"type":"Point","coordinates":[-84,33]},"properties":{"k":"49b3c36cfd2a64a5","c":"#6B4E98","r":7.0,"s":"#FFFFFF","w":1,"o":0.85,"n":"Georgia, USA (Confederate)","p":1}},{"type":"Feature","geometry":{"type":"Point","coordinates":[-112.36,47.13]},"properties":{"k":"9df7c143e866b6ee","c":"#6B4E98","r":7.0,"s":"#FFFFFF","w":1,"o":0.85,"n":"Cadotte Pass, Montana Territory (Lumley)","p":1}},{"type":"Feature","geometry":{"type":"Point","coordinates":[-122.2,37.7]},"properties":{"k":"fdbd5787272b79b1","c":"#6B4E98","r":7.0,"s":"#FFFFFF","w":1,"o":0.85,"n":"Oakland, California","p":1}},{"type":"Feature","geometry":{"type":"Point","coordinates":[-121.5,38.6]},"properties":{"k":"d4f13828bdafe4a8","c":"#6B4E98","r":7.0,"s":"#FFFFFF","w":1,"o":0.85,"n":"Sacramento, California","p":1}},{"type":"Feature","geometry":{"type":"Point","coordinates":[-96.54,33.76]},"properties":{"k":"cadbf4c34f8c680e","c":"#6B4E98","r":7.0,"s":"#FFFFFF","w":1,"o":0.85,"n":"Denison, Texas (John Martin)","p":1}},{"type":"Feature","geometry":{"type":"Point","coordinates":[-85.8,38.3]},"properties":{"k":"e3af2404a7fc89e4","c":"#6B4E98","r":7.0,"s":"#FFFFFF","w":1,"o":0.85,"n":"Louisville, Kentucky","p":1}},{"type":"Feature","geometry":{"type":"Point","coordinates":[-74,40.7]},"properties":{"k":"1a514c8b61303b47","c":"#6B4E98","r":7.0,"s":"#FFFFFF","w":1,"o":0.85,"n":"New Jersey","p":1}},{"type":"Feature","geometry":{"type":"Point","coordinates":[51.5,27]},"properties":{"k":"4dc725b1ab1dc553","c":"#6B4E98","r":7.0,"s":"#FFFFFF","w":1,"o":0.85,"n":"Persian Gulf (SS Patna \u2014 luminous wheels)","p":1}},{"type":"Feature","geometry":{"type":"Point","coordinates":[-102.58,22.77]},"properties":{"k":"a1d8bb0125f6f8e3","c":"#6B4E98","r":7.0,"s":"#FFFFFF","w":1,"o":0.85,"n":"Zacatecas Observatory, Mexico (Bonilla)","p":1}},{"type":"Feature","geometry":{"type":"Point","coordinates":[-121.3,38.1]},"properties":{"k":"693a4802ae607e7b","c":"#A95757","r":7.0,"s":"#FFFFFF","w":1,"o":0.85,"n":"Lodi, California","p":1}},{"type":"Feature","geometry":{"type":"Point","coordinates":[-121.5,38.6]},"properties":{"k":"42789936a8ebfa00","c":"#A95757","r":7.0,"s":"#FFFFFF","w":1,"o":0.85,"n":"Sacramento area, California","p":1}},{"type":"Feature","geometry":{"type":"Point","coordinates":[-97.5,33.1]},"properties":{"k":"723ac22bf35aba50","c":"#A95757","r":7.0,"s":"#FFFFFF","w":1,"o":0.85,"n":"Aurora, Texas","p":1}},{"type":"Feature","geometry":{"type":"Point","coordinates":[-98.4,40.6]},"properties":{"k":"8909bca3bf205b50","c":"#A95757","r":7.0,"s":"#FFFFFF","w":1,"o":0.85,"n":"Hastings, Nebraska","p":1}},{"type":"Feature","geometry":{"type":"Point","coordinates":[-94.6,39.1]},"properties":{"k":"df2f2eceab5614c2","c":"#A95757","r":7.0,"s":"#FFFFFF","w":1,"o":0.85,"n":"Kansas City, Missouri","p":1}},{"type":"Feature","geometry":{"type":"Point","coordinates":[-100,35]},"properties":{"k":"797c18aa26881d70","c":"#A95757","r":7.0,"s":"#FFFFFF","w":1,"o":0.85,"n":"Multiple locations: Texas, Oklahoma, Nebraska, Missouri, California, Arizona","p":1}},{"type":"Feature","geometry":{"type":"Point","coordinates":[-98.8,41.4]},"properties":{"k":"efbc819dcf1200bc","c":"#A95757","r":7.0,"s":"#FFFFFF","w":1,"o":0.85,"n":"North Loup, Nebraska (near Omaha)","p":1}},{"type":"Feature","geometry":{"type":"Point","coordinates":[-96,41.3]},"properties":{"k":"ea7b59ca99f9a925","c":"#A95757","r":7.0,"s":"#FFFFFF","w":1,"o":0.85,"n":"Omaha, Nebraska","p":1}},{"type":"Feature","geometry":{"type":"Point","coordinates":[-100,44]},"properties":{"k":"f90c35498e8aea82","c":"#A95757","r":7.0,"s":"#FFFFFF","w":1,"o":0.85,"n":"South Dakota","p":1}}]}