{"type":"FeatureCollection","name":"International Military Secret Societies","overlays":[],"features":[{"type":"Feature","geometry":{"type":"Point","coordinates":[35.23,31.77]},"properties":{"k":"125dea1c01e2fc99","c":"#684B36","r":8.0,"n":"Knights Templar","p":1}},{"type":"Feature","geometry":{"type":"Point","coordinates":[35.23,31.77]},"properties":{"k":"0b5cc4a66a7145f0","c":"#684B36","r":8.0,"n":"Knights Hospitaller (Order of Malta)","p":1}},{"type":"Feature","geometry":{"type":"Point","coordinates":[35.08,32.93]},"properties":{"k":"6666abd1af6218fa","c":"#684B36","r":8.0,"n":"Teutonic Knights","p":1}},{"type":"Feature","geometry":{"type":"Point","coordinates":[-0.1,51.5]},"properties":{"k":"cab219ef1171460c","c":"#4A5F7F","r":8.0,"n":"Military Masonic Lodges","p":1}},{"type":"Feature","geometry":{"type":"Point","coordinates":[4.42,50.8]},"properties":{"k":"9b262f0a288917e5","c":"#653434","r":8.0,"n":"Operation Gladio (Stay-Behind)","p":1}},{"type":"Feature","geometry":{"type":"Point","coordinates":[-73.97,41.5]},"properties":{"k":"5c195423ebbe3126","c":"#684B36","r":8.0,"n":"Society of the Cincinnati","p":1}},{"type":"Feature","geometry":{"type":"Point","coordinates":[37.62,55.75]},"properties":{"k":"6550175e2288918e","c":"#653434","r":8.0,"n":"Comintern Military Intelligence","p":1}},{"type":"Feature","geometry":{"type":"Point","coordinates":[2.29,48.85]},"properties":{"k":"ea53e8fe7e43a3a4","c":"#396060","r":8.0,"n":"Le Cercle (The Circle)","p":1}},{"type":"Feature","geometry":{"type":"Point","coordinates":[35,30]},"properties":{"k":"962486cbde11cd8d","c":"#653434","r":8.0,"n":"Safari Club","p":1}},{"type":"Feature","geometry":{"type":"Point","coordinates":[2.29,48.85]},"properties":{"k":"17cc1cd5e6e94d8b","c":"#396060","r":8.0,"n":"White Russian Officers' Union (ROVS)","p":1}},{"type":"Feature","geometry":{"type":"Point","coordinates":[-3.75,40.46]},"properties":{"k":"f5f6e0c3450e8cb2","c":"#653434","r":8.0,"n":"International Brigades Command","p":1}},{"type":"Feature","geometry":{"type":"Point","coordinates":[2.29,48.85]},"properties":{"k":"beb64c656dd847c1","c":"#814249","r":8.0,"n":"Black International (Anarchist Military)","p":1}},{"type":"Feature","geometry":{"type":"Point","coordinates":[50.88,36.38]},"properties":{"k":"bf53278e4fd6873b","c":"#684B36","r":8.0,"n":"Order of Assassins (Nizari Ismailis)","p":1}},{"type":"Feature","geometry":{"type":"Point","coordinates":[4.42,50.8]},"properties":{"k":"8032978bd81de8ef","c":"#396060","r":8.0,"n":"NATO Rapid Deployable Corps Network","p":1}},{"type":"Feature","geometry":{"type":"Point","coordinates":[2.29,48.85]},"properties":{"k":"424909ecb403f97c","c":"#396060","r":8.0,"n":"Synarchist Movement d'Empire","p":1}},{"type":"Feature","geometry":{"type":"Point","coordinates":[14.27,40.85]},"properties":{"k":"0c0d8245f83328ce","c":"#684B36","r":8.0,"n":"Sovereign Military Order of Saint John","p":1}},{"type":"Feature","geometry":{"type":"Point","coordinates":[7.69,45.07]},"properties":{"k":"d26333c096df0828","c":"#684B36","r":8.0,"n":"Order of Saint Maurice and Lazarus","p":1}},{"type":"Feature","geometry":{"type":"Point","coordinates":[12.45,41.9]},"properties":{"k":"fb2fb3efbf51f118","c":"#396060","r":8.0,"n":"International Assoc. Military Chaplains","p":1}},{"type":"Feature","geometry":{"type":"Point","coordinates":[-50,20]},"properties":{"k":"046e47ae46de5d87","c":"#396060","r":8.0,"n":"Five Eyes Military Coordination","p":1}},{"type":"Feature","geometry":{"type":"Point","coordinates":[2.29,48.85]},"properties":{"k":"75c1b1e9cf9e67b2","c":"#684B36","r":8.0,"n":"Templar Successor Orders (Multiple)","p":1}},{"type":"Feature","geometry":{"type":"Point","coordinates":[20.46,44.82]},"properties":{"k":"bb64589db0bc6bab","c":"#814249","r":8.0,"n":"Black Hand (Unification or Death)","p":1}},{"type":"Feature","geometry":{"type":"Point","coordinates":[22.94,40.64]},"properties":{"k":"2467c4838fc3caf3","c":"#814249","r":8.0,"n":"Young Turks (Committee Union Progress)","p":1}},{"type":"Feature","geometry":{"type":"Point","coordinates":[14.27,40.85]},"properties":{"k":"b05b5000c1bdfcdc","c":"#814249","r":8.0,"n":"Carbonari","p":1}},{"type":"Feature","geometry":{"type":"Point","coordinates":[-71.06,42.36]},"properties":{"k":"ebfee48eaebafe8b","c":"#814249","r":8.0,"n":"Sons of Liberty","p":1}},{"type":"Feature","geometry":{"type":"Point","coordinates":[-50,20]},"properties":{"k":"92aa1e5f6d616ee6","c":"#396060","r":8.0,"n":"Transnational Special Forces Network","p":1}}]}