{"type":"FeatureCollection","name":"The Unnecessary Enslavement of Microorganisms 2026","overlays":[],"features":[{"type":"Feature","geometry":{"type":"Point","coordinates":[4.7005,50.8798]},"properties":{"k":"98cb50eb500e1e21","c":"#B87C75","r":12.0,"s":"#070B10","w":1,"o":0.82,"n":"Anheuser-Busch InBev","p":1}},{"type":"Feature","geometry":{"type":"Point","coordinates":[106.4,27.79]},"properties":{"k":"c3957788fbea5878","c":"#B87C75","r":12.0,"s":"#070B10","w":1,"o":0.82,"n":"Kweichow Moutai","p":1}},{"type":"Feature","geometry":{"type":"Point","coordinates":[4.8951,52.376]},"properties":{"k":"a786004d003838e3","c":"#B87C75","r":12.0,"s":"#070B10","w":1,"o":0.82,"n":"Heineken","p":1}},{"type":"Feature","geometry":{"type":"Point","coordinates":[114.054,22.543]},"properties":{"k":"d37fbea83af143ca","c":"#B87C75","r":12.0,"s":"#070B10","w":1,"o":0.82,"n":"China Resources Snow","p":1}},{"type":"Feature","geometry":{"type":"Point","coordinates":[-0.134,51.5079]},"properties":{"k":"1a6f3387aea4ef30","c":"#B87C75","r":12.0,"s":"#070B10","w":1,"o":0.82,"n":"Diageo","p":1}},{"type":"Feature","geometry":{"type":"Point","coordinates":[116.4,39.91]},"properties":{"k":"0389551f8911bbc6","c":"#9A4F59","r":12.0,"s":"#070B10","w":1,"o":0.82,"n":"China Tobacco (CNTC)","p":1}},{"type":"Feature","geometry":{"type":"Point","coordinates":[6.84,46.46]},"properties":{"k":"012d9039bc783805","c":"#7B3F49","r":12.0,"s":"#070B10","w":1,"o":0.82,"n":"Nestl\u00e9","p":1}},{"type":"Feature","geometry":{"type":"Point","coordinates":[139.76,35.676]},"properties":{"k":"e8fa5b39e760dc8d","c":"#B46D75","r":12.0,"s":"#070B10","w":1,"o":0.82,"n":"Ajinomoto","p":1}},{"type":"Feature","geometry":{"type":"Point","coordinates":[2.306,48.904]},"properties":{"k":"024c9edd76ee3aad","c":"#BD7F9D","r":9.5,"s":"#070B10","w":1,"o":0.82,"n":"L\u2019Or\u00e9al","p":1}},{"type":"Feature","geometry":{"type":"Point","coordinates":[104.64,28.751]},"properties":{"k":"436d93c94432ffc9","c":"#B87C75","r":9.5,"s":"#070B10","w":1,"o":0.82,"n":"Wuliangye Yibin","p":1}},{"type":"Feature","geometry":{"type":"Point","coordinates":[2.321,48.88]},"properties":{"k":"9b39e5ad3daf047f","c":"#B87C75","r":9.5,"s":"#070B10","w":1,"o":0.82,"n":"Pernod Ricard","p":1}},{"type":"Feature","geometry":{"type":"Point","coordinates":[12.536,55.665]},"properties":{"k":"086821b5c37e9f0c","c":"#B87C75","r":9.5,"s":"#070B10","w":1,"o":0.82,"n":"Carlsberg","p":1}},{"type":"Feature","geometry":{"type":"Point","coordinates":[-84.512,39.101]},"properties":{"k":"8720133738800eff","c":"#BD7F9D","r":9.5,"s":"#070B10","w":1,"o":0.82,"n":"SK-II (P&G)","p":1}},{"type":"Feature","geometry":{"type":"Point","coordinates":[-77.418,42.981]},"properties":{"k":"e3ba8a1ba909b0b7","c":"#B87C75","r":9.5,"s":"#070B10","w":1,"o":0.82,"n":"Constellation Brands","p":1}},{"type":"Feature","geometry":{"type":"Point","coordinates":[-73.539,41.053]},"properties":{"k":"8475ab5533b67f97","c":"#9A4F59","r":9.5,"s":"#070B10","w":1,"o":0.82,"n":"Philip Morris International","p":1}},{"type":"Feature","geometry":{"type":"Point","coordinates":[-87.636,41.88]},"properties":{"k":"325cf6dcdb1dc6cb","c":"#B87C75","r":9.5,"s":"#070B10","w":1,"o":0.82,"n":"Molson Coors","p":1}},{"type":"Feature","geometry":{"type":"Point","coordinates":[-122.336,47.581]},"properties":{"k":"49fc86990cf576fa","c":"#7B3F49","r":9.5,"s":"#070B10","w":1,"o":0.82,"n":"Starbucks","p":1}},{"type":"Feature","geometry":{"type":"Point","coordinates":[-77.436,37.541]},"properties":{"k":"adf0b1de56fd70cf","c":"#9A4F59","r":9.5,"s":"#070B10","w":1,"o":0.82,"n":"Altria","p":1}},{"type":"Feature","geometry":{"type":"Point","coordinates":[4.88,52.34]},"properties":{"k":"603506c92925c262","c":"#7B3F49","r":9.5,"s":"#070B10","w":1,"o":0.82,"n":"JDE Peet\u2019s","p":1}},{"type":"Feature","geometry":{"type":"Point","coordinates":[-0.13,51.498]},"properties":{"k":"9aab955e2a9b332d","c":"#9A4F59","r":9.5,"s":"#070B10","w":1,"o":0.82,"n":"British American Tobacco","p":1}},{"type":"Feature","geometry":{"type":"Point","coordinates":[135.5,34.7]},"properties":{"k":"9fc230fc3a70322d","c":"#B87C75","r":9.5,"s":"#070B10","w":1,"o":0.82,"n":"Suntory","p":1}},{"type":"Feature","geometry":{"type":"Point","coordinates":[-87.623,41.885]},"properties":{"k":"a4233d22f7d5d0be","c":"#7B3F49","r":9.5,"s":"#070B10","w":1,"o":0.82,"n":"Mondelez","p":1}},{"type":"Feature","geometry":{"type":"Point","coordinates":[111.749,40.842]},"properties":{"k":"b69f44ed689f3306","c":"#B46D75","r":9.5,"s":"#070B10","w":1,"o":0.82,"n":"Fufeng Group","p":1}},{"type":"Feature","geometry":{"type":"Point","coordinates":[-120.997,37.639]},"properties":{"k":"b85d3f3966ea889f","c":"#B87C75","r":9.5,"s":"#070B10","w":1,"o":0.82,"n":"E&J Gallo","p":1}},{"type":"Feature","geometry":{"type":"Point","coordinates":[-77.178,38.934]},"properties":{"k":"a51aa0951e8fa3db","c":"#7B3F49","r":9.5,"s":"#070B10","w":1,"o":0.82,"n":"Mars Wrigley","p":1}},{"type":"Feature","geometry":{"type":"Point","coordinates":[-87.65,41.85]},"properties":{"k":"4d0eaf748bf9586f","c":"#B46D75","r":9.5,"s":"#070B10","w":1,"o":0.82,"n":"ADM","p":1}},{"type":"Feature","geometry":{"type":"Point","coordinates":[-71.047,42.387]},"properties":{"k":"31b92507c527bd38","c":"#A37FBD","r":9.5,"s":"#070B10","w":1,"o":0.82,"n":"Ginkgo Bioworks","p":1}},{"type":"Feature","geometry":{"type":"Point","coordinates":[139.8,35.7]},"properties":{"k":"0ae22c74f7be035d","c":"#B87C75","r":7.5,"s":"#070B10","w":1,"o":0.82,"n":"Asahi Group","p":1}},{"type":"Feature","geometry":{"type":"Point","coordinates":[-73.972,40.762]},"properties":{"k":"2b85720f0c89465a","c":"#BD7F9D","r":7.5,"s":"#070B10","w":1,"o":0.82,"n":"Est\u00e9e Lauder","p":1}},{"type":"Feature","geometry":{"type":"Point","coordinates":[139.76,35.67]},"properties":{"k":"0898190040bbb5b0","c":"#BD7F9D","r":7.5,"s":"#070B10","w":1,"o":0.82,"n":"Shiseido","p":1}},{"type":"Feature","geometry":{"type":"Point","coordinates":[-85.76,38.23]},"properties":{"k":"9d73a5b322cd3941","c":"#B87C75","r":7.5,"s":"#070B10","w":1,"o":0.82,"n":"Brown-Forman","p":1}},{"type":"Feature","geometry":{"type":"Point","coordinates":[139.74,35.67]},"properties":{"k":"08a67d6350888263","c":"#9A4F59","r":7.5,"s":"#070B10","w":1,"o":0.82,"n":"Japan Tobacco","p":1}},{"type":"Feature","geometry":{"type":"Point","coordinates":[-64.782,32.295]},"properties":{"k":"cb6a8810a3f80fee","c":"#B87C75","r":7.5,"s":"#070B10","w":1,"o":0.82,"n":"Bacardi","p":1}},{"type":"Feature","geometry":{"type":"Point","coordinates":[126.965,37.529]},"properties":{"k":"c856fdf9d691080f","c":"#BD7F9D","r":7.5,"s":"#070B10","w":1,"o":0.82,"n":"Amorepacific","p":1}},{"type":"Feature","geometry":{"type":"Point","coordinates":[100.45,21.96]},"properties":{"k":"f89f93a03fa00322","c":"#7B3F49","r":7.5,"s":"#070B10","w":1,"o":0.82,"n":"TAETEA (Dayi)","p":1}},{"type":"Feature","geometry":{"type":"Point","coordinates":[144.96,-37.82]},"properties":{"k":"2d5d2ff341e18d16","c":"#B87C75","r":7.5,"s":"#070B10","w":1,"o":0.82,"n":"Treasury Wine Estates","p":1}},{"type":"Feature","geometry":{"type":"Point","coordinates":[-76.65,40.286]},"properties":{"k":"a41d8e73c7d8bf21","c":"#7B3F49","r":7.5,"s":"#070B10","w":1,"o":0.82,"n":"The Hershey Company","p":1}},{"type":"Feature","geometry":{"type":"Point","coordinates":[2.306,48.872]},"properties":{"k":"71c9eb30bfa9ea22","c":"#BD7F9D","r":7.5,"s":"#070B10","w":1,"o":0.82,"n":"LVMH Beauty","p":1}},{"type":"Feature","geometry":{"type":"Point","coordinates":[-2.59,51.45]},"properties":{"k":"d58619e395b95a5c","c":"#9A4F59","r":7.5,"s":"#070B10","w":1,"o":0.82,"n":"Imperial Brands","p":1}},{"type":"Feature","geometry":{"type":"Point","coordinates":[8.035,44.7]},"properties":{"k":"64fcc19250a477d9","c":"#7B3F49","r":7.5,"s":"#070B10","w":1,"o":0.82,"n":"Ferrero","p":1}},{"type":"Feature","geometry":{"type":"Point","coordinates":[7.59,47.56]},"properties":{"k":"e4e22c5e7ef22bb8","c":"#B46D75","r":7.5,"s":"#070B10","w":1,"o":0.82,"n":"Jungbunzlauer","p":1}},{"type":"Feature","geometry":{"type":"Point","coordinates":[8.55,47.32]},"properties":{"k":"34aea0d3fa8acebb","c":"#7B3F49","r":7.5,"s":"#070B10","w":1,"o":0.82,"n":"Lindt & Spr\u00fcngli","p":1}},{"type":"Feature","geometry":{"type":"Point","coordinates":[6.13,46.22]},"properties":{"k":"5aeafe9917976672","c":"#B46D75","r":7.5,"s":"#070B10","w":1,"o":0.82,"n":"Givaudan","p":1}},{"type":"Feature","geometry":{"type":"Point","coordinates":[-74.008,40.74]},"properties":{"k":"f5d12e47382beb55","c":"#B46D75","r":7.5,"s":"#070B10","w":1,"o":0.82,"n":"IFF","p":1}},{"type":"Feature","geometry":{"type":"Point","coordinates":[-122.287,37.831]},"properties":{"k":"4f97eb005fff4e82","c":"#A37FBD","r":7.5,"s":"#070B10","w":1,"o":0.82,"n":"Amyris","p":1}},{"type":"Feature","geometry":{"type":"Point","coordinates":[-71.28,42.46]},"properties":{"k":"95eb0b011951c7ab","c":"#A37FBD","r":7.5,"s":"#070B10","w":1,"o":0.82,"n":"Conagen / Manus Bio","p":1}}]}