{"type":"FeatureCollection","name":"Why some famous programs aren\u2019t on this map","overlays":[],"filters":[],"features":[{"type":"Feature","geometry":{"type":"Point","coordinates":[-77.0369,38.9072]},"properties":{"k":"722bef492257623c","c":"#5FA98A","r":10.0,"s":"#070B10","w":1,"o":0.62,"n":"Victory Gardens (US)","p":1}},{"type":"Feature","geometry":{"type":"Point","coordinates":[-0.1278,51.5074]},"properties":{"k":"c7e6658a92f89076","c":"#5FA98A","r":10.0,"s":"#070B10","w":1,"o":0.62,"n":"Dig for Victory (UK)","p":1}},{"type":"Feature","geometry":{"type":"Point","coordinates":[37.6173,55.7558]},"properties":{"k":"e94b0ed9854d20f1","c":"#5FA98A","r":10.0,"s":"#070B10","w":1,"o":0.62,"n":"Soviet private plots & dachas (USSR)","p":1}},{"type":"Feature","geometry":{"type":"Point","coordinates":[-82.3666,23.1136]},"properties":{"k":"949465bbbaf266ff","c":"#5FA98A","r":10.0,"s":"#070B10","w":1,"o":0.92,"n":"Organop\u00f3nicos / urban agriculture (Cuba)","p":1}},{"type":"Feature","geometry":{"type":"Point","coordinates":[37.62,55.75]},"properties":{"k":"e1b0a4787241f8d2","c":"#5FA98A","r":10.0,"s":"#070B10","w":1,"o":0.92,"n":"Dacha & allotment garden plots (Russia)","p":1}},{"type":"Feature","geometry":{"type":"Point","coordinates":[113.62,34.75]},"properties":{"k":"e1005fbbda8d4547","c":"#5FA98A","r":10.0,"s":"#070B10","w":1,"o":0.62,"d":"5,3","n":"Private garden plots \u2014 ziliudi (China)","p":1}},{"type":"Feature","geometry":{"type":"Point","coordinates":[7.4474,46.948]},"properties":{"k":"6a4ab6667396cde3","c":"#5FA98A","r":8.0,"s":"#070B10","w":1,"o":0.62,"n":"Plan Wahlen / Anbauschlacht (Switzerland)","p":1}},{"type":"Feature","geometry":{"type":"Point","coordinates":[88.3639,22.5726]},"properties":{"k":"8b8db93cb7ae984e","c":"#5FA98A","r":8.0,"s":"#070B10","w":1,"o":0.34,"n":"Grow More Food (British India)","p":1}},{"type":"Feature","geometry":{"type":"Point","coordinates":[44.0059,56.3269]},"properties":{"k":"134e1320e57b333a","c":"#5FA98A","r":8.0,"s":"#070B10","w":1,"o":0.62,"n":"Garden-plot food security (Russia)","p":1}},{"type":"Feature","geometry":{"type":"Point","coordinates":[-1.8904,52.4862]},"properties":{"k":"a96bf0c6fce85133","c":"#5FA98A","r":8.0,"s":"#070B10","w":1,"o":0.92,"n":"Allotment gardens (UK)","p":1}},{"type":"Feature","geometry":{"type":"Point","coordinates":[12.3731,51.3397]},"properties":{"k":"5936a545dbe0432a","c":"#5FA98A","r":8.0,"s":"#070B10","w":1,"o":0.92,"n":"Schreberg\u00e4rten / Kleing\u00e4rten (Germany)","p":1}},{"type":"Feature","geometry":{"type":"Point","coordinates":[30.3,59.96]},"properties":{"k":"8d965d9a10615955","c":"#5FA98A","r":8.0,"s":"#070B10","w":1,"o":0.62,"n":"Wartime garden plots / ogorody (USSR)","p":1}},{"type":"Feature","geometry":{"type":"Point","coordinates":[125.7625,39.0392]},"properties":{"k":"fd7937152b0156ca","c":"#5FA98A","r":8.0,"s":"#070B10","w":1,"o":0.92,"n":"Household plots / sotoji (North Korea)","p":1}},{"type":"Feature","geometry":{"type":"Point","coordinates":[106.8456,-6.2088]},"properties":{"k":"c84d139f1c1a3873","c":"#5FA98A","r":8.0,"s":"#070B10","w":1,"o":0.92,"n":"Home-garden food program / Pekarangan (Indonesia)","p":1}},{"type":"Feature","geometry":{"type":"Point","coordinates":[113.625,34.747]},"properties":{"k":"7210086c4b8ccfed","c":"#5FA98A","r":8.0,"s":"#070B10","w":1,"o":0.92,"n":"Rural courtyard economy (China)","p":1}},{"type":"Feature","geometry":{"type":"Point","coordinates":[105.88,21.05]},"properties":{"k":"4ca62b0023ff7e20","c":"#5FA98A","r":6.5,"s":"#070B10","w":1,"o":0.92,"n":"VAC household garden system (Vietnam)","p":1}},{"type":"Feature","geometry":{"type":"Point","coordinates":[-94.5786,39.0997]},"properties":{"k":"a4d2f76d5fe2f8ce","c":"#5FA98A","r":6.5,"s":"#070B10","w":1,"o":0.62,"n":"Home canning & food preservation (US)","p":1}},{"type":"Feature","geometry":{"type":"Point","coordinates":[2.352,48.857]},"properties":{"k":"dc31fc14f5afe814","c":"#5FA98A","r":6.5,"s":"#070B10","w":1,"o":0.92,"n":"Jardins ouvriers / familiaux (France)","p":1}},{"type":"Feature","geometry":{"type":"Point","coordinates":[3.3792,6.5244]},"properties":{"k":"96af1931a1362261","c":"#5FA98A","r":6.5,"s":"#070B10","w":1,"o":0.34,"d":"5,3","n":"Operation Feed the Nation (Nigeria)","p":1}},{"type":"Feature","geometry":{"type":"Point","coordinates":[4.897,52.37]},"properties":{"k":"bb3466bb1e8b08a0","c":"#5FA98A","r":6.5,"s":"#070B10","w":1,"o":0.92,"n":"Volkstuinen (Netherlands)","p":1}},{"type":"Feature","geometry":{"type":"Point","coordinates":[-0.19,5.6]},"properties":{"k":"70b6c16c772ac6f2","c":"#5FA98A","r":6.5,"s":"#070B10","w":1,"o":0.34,"d":"5,3","n":"Operation Feed Yourself (Ghana)","p":1}},{"type":"Feature","geometry":{"type":"Point","coordinates":[12.568,55.676]},"properties":{"k":"86537fe08ff8afc2","c":"#5FA98A","r":6.5,"s":"#070B10","w":1,"o":0.92,"n":"Kolonihaver (Scandinavia)","p":1}},{"type":"Feature","geometry":{"type":"Point","coordinates":[-1.08,53.96]},"properties":{"k":"d28d27a68d4a06d4","c":"#B46D79","r":10.0,"s":"#070B10","w":1,"o":0.62,"d":"5,3","n":"Open-field commons (medieval Europe)","p":1}},{"type":"Feature","geometry":{"type":"Point","coordinates":[35.912,56.859]},"properties":{"k":"18305539f54b2091","c":"#B46D79","r":10.0,"s":"#070B10","w":1,"o":0.34,"d":"5,3","n":"Obshchina / mir (Russia)","p":1}},{"type":"Feature","geometry":{"type":"Point","coordinates":[113.6,37.6]},"properties":{"k":"e9bc3b7718468a89","c":"#B46D79","r":10.0,"s":"#070B10","w":1,"o":0.34,"d":"5,3","n":"Dazhai model & people\u2019s communes (China)","p":1}},{"type":"Feature","geometry":{"type":"Point","coordinates":[126.978,37.5665]},"properties":{"k":"271b106b73af9b1c","c":"#B46D79","r":10.0,"s":"#070B10","w":1,"o":0.92,"d":"5,3","n":"Saemaul Undong (South Korea)","p":1}},{"type":"Feature","geometry":{"type":"Point","coordinates":[35.7516,-6.163]},"properties":{"k":"963747a0db2b8d26","c":"#B46D79","r":10.0,"s":"#070B10","w":1,"o":0.34,"d":"5,3","n":"Ujamaa villages (Tanzania)","p":1}},{"type":"Feature","geometry":{"type":"Point","coordinates":[-71.967,-13.532]},"properties":{"k":"2d24f8ebb53fa126","c":"#B46D79","r":8.0,"s":"#070B10","w":1,"o":0.62,"d":"5,3","n":"Ayllu & mit\u2019a (Inca)","p":1}},{"type":"Feature","geometry":{"type":"Point","coordinates":[35.5772,32.705]},"properties":{"k":"3ed18ed59479f31f","c":"#B46D79","r":8.0,"s":"#070B10","w":1,"o":0.62,"n":"Kibbutz (Israel)","p":1}},{"type":"Feature","geometry":{"type":"Point","coordinates":[100.5018,13.7563]},"properties":{"k":"d498472830959200","c":"#B46D79","r":8.0,"s":"#070B10","w":1,"o":0.92,"n":"Sufficiency Economy & New Theory farming (Thailand)","p":1}},{"type":"Feature","geometry":{"type":"Point","coordinates":[78.6022,20.7453]},"properties":{"k":"c787591aab50d334","c":"#B46D79","r":8.0,"s":"#070B10","w":1,"o":0.62,"n":"Gram Swaraj \u2014 village self-sufficiency (India)","p":1}},{"type":"Feature","geometry":{"type":"Point","coordinates":[127.03,37.5]},"properties":{"k":"8ec9ca1c0abb95e9","c":"#B46D79","r":8.0,"s":"#070B10","w":1,"o":0.92,"d":"5,3","n":"Saemaul Undong \u2014 New Village Movement (Korea)","p":1}},{"type":"Feature","geometry":{"type":"Point","coordinates":[-99.148,19.44]},"properties":{"k":"923d45184bcfa398","c":"#B46D79","r":6.5,"s":"#070B10","w":1,"o":0.34,"d":"5,3","n":"Calpulli communal land (Aztec)","p":1}},{"type":"Feature","geometry":{"type":"Point","coordinates":[105.834,21.028]},"properties":{"k":"d316d97d9c7ee78b","c":"#B46D79","r":6.5,"s":"#070B10","w":1,"o":0.34,"d":"5,3","n":"C\u00f4ng \u0111i\u1ec1n communal land (Vietnam)","p":1}},{"type":"Feature","geometry":{"type":"Point","coordinates":[-55.54,-27.26]},"properties":{"k":"59a06d7290724420","c":"#B46D79","r":6.5,"s":"#070B10","w":1,"o":0.34,"d":"5,3","n":"Jesuit reductions (Guaran\u00ed)","p":1}},{"type":"Feature","geometry":{"type":"Point","coordinates":[37.47,12.6]},"properties":{"k":"2c7d01d42cc71008","c":"#B46D79","r":6.5,"s":"#070B10","w":1,"o":0.34,"d":"5,3","n":"Rist landholding (Ethiopia)","p":1}},{"type":"Feature","geometry":{"type":"Point","coordinates":[115.26,-8.51]},"properties":{"k":"c57357d2649e1452","c":"#B46D79","r":6.5,"s":"#070B10","w":1,"o":0.92,"n":"Subak irrigation communities (Bali)","p":1}},{"type":"Feature","geometry":{"type":"Point","coordinates":[79.8816,6.833]},"properties":{"k":"613549900d2d5c77","c":"#B46D79","r":6.5,"s":"#070B10","w":1,"o":0.92,"n":"Sarvodaya Shramadana (Sri Lanka)","p":1}},{"type":"Feature","geometry":{"type":"Point","coordinates":[8.64,46.88]},"properties":{"k":"03254ba75893f506","c":"#B46D79","r":6.5,"s":"#070B10","w":1,"o":0.92,"d":"5,3","n":"Allmend communal land (Switzerland)","p":1}},{"type":"Feature","geometry":{"type":"Point","coordinates":[32.57,-25.97]},"properties":{"k":"eee670452dd09a7b","c":"#B46D79","r":6.5,"s":"#070B10","w":1,"o":0.34,"d":"5,3","n":"Communal villages / aldeias comunais (Mozambique)","p":1}},{"type":"Feature","geometry":{"type":"Point","coordinates":[-76.8,18.02]},"properties":{"k":"86280c75eb2c5ed1","c":"#B46D79","r":6.5,"s":"#070B10","w":1,"o":0.62,"n":"Free Village movement (Jamaica)","p":1}},{"type":"Feature","geometry":{"type":"Point","coordinates":[-2.42,13.58]},"properties":{"k":"869761a1cc7d61b9","c":"#B46D79","r":6.5,"s":"#070B10","w":1,"o":0.92,"n":"Naam village self-help movement (Burkina Faso)","p":1}},{"type":"Feature","geometry":{"type":"Point","coordinates":[-98.3,51.1]},"properties":{"k":"0f09f1cb92475ad1","c":"#B46D79","r":6.5,"s":"#070B10","w":1,"o":0.92,"n":"Hutterite communal colonies (North America)","p":1}},{"type":"Feature","geometry":{"type":"Point","coordinates":[30.06,-1.94]},"properties":{"k":"acdcb3a9f0e8d0c8","c":"#B46D79","r":6.5,"s":"#070B10","w":1,"o":0.62,"d":"5,3","n":"Imidugudu villagization (Rwanda)","p":1}},{"type":"Feature","geometry":{"type":"Point","coordinates":[178.44,-18.14]},"properties":{"k":"1de6e3d006248eaf","c":"#B46D79","r":6.5,"s":"#070B10","w":1,"o":0.92,"d":"5,3","n":"iTaukei communal land (Fiji)","p":1}},{"type":"Feature","geometry":{"type":"Point","coordinates":[79.02,26.78]},"properties":{"k":"b957f0f830e5129b","c":"#B46D79","r":6.5,"s":"#070B10","w":1,"o":0.34,"d":"5,3","n":"Community Development Programme (India 1952)","p":1}},{"type":"Feature","geometry":{"type":"Point","coordinates":[147.18,-9.44]},"properties":{"k":"3f0caf8409327a8f","c":"#B46D79","r":6.5,"s":"#070B10","w":1,"o":0.92,"n":"Customary clan land tenure (Papua New Guinea)","p":1}},{"type":"Feature","geometry":{"type":"Point","coordinates":[-171.77,-13.83]},"properties":{"k":"91024e521e274957","c":"#B46D79","r":6.5,"s":"#070B10","w":1,"o":0.92,"d":"5,3","n":"Customary matai land (Samoa)","p":1}},{"type":"Feature","geometry":{"type":"Point","coordinates":[33.48,-19.12]},"properties":{"k":"0b20f1d64a8be13d","c":"#B46D79","r":6.5,"s":"#070B10","w":1,"o":0.34,"d":"2,3","n":"Communal villages \u2014 aldeias comunais (Mozambique)","p":1}},{"type":"Feature","geometry":{"type":"Point","coordinates":[168.31,-17.74]},"properties":{"k":"dbea19db61959564","c":"#B46D79","r":6.5,"s":"#070B10","w":1,"o":0.92,"n":"Customary land return (Vanuatu 1980)","p":1}},{"type":"Feature","geometry":{"type":"Point","coordinates":[-51.69,64.18]},"properties":{"k":"13e54286bd1eaa6a","c":"#B46D79","r":6.5,"s":"#070B10","w":1,"o":0.92,"n":"Inuit subsistence hunting & fishing rights (Greenland)","p":1}},{"type":"Feature","geometry":{"type":"Point","coordinates":[38.7,9]},"properties":{"k":"b4c652f57a242c9f","c":"#B46D79","r":6.5,"s":"#070B10","w":1,"o":0.34,"d":"2,3","n":"Villagization campaign (Ethiopia 1980s)","p":1}},{"type":"Feature","geometry":{"type":"Point","coordinates":[112.454,34.62]},"properties":{"k":"484a48f66c2f266e","c":"#B46D75","r":10.0,"s":"#070B10","w":1,"o":0.34,"d":"5,3","n":"Equal-field system (China)","p":1}},{"type":"Feature","geometry":{"type":"Point","coordinates":[26.556,41.677]},"properties":{"k":"b79a8b1cebafd4e1","c":"#B46D75","r":10.0,"s":"#070B10","w":1,"o":0.34,"d":"2,3","n":"Timar system (Ottoman Empire)","p":1}},{"type":"Feature","geometry":{"type":"Point","coordinates":[12.483,41.893]},"properties":{"k":"83bee206eb3fe129","c":"#B46D75","r":8.0,"s":"#070B10","w":1,"o":0.34,"d":"5,3","n":"Ager publicus & the Gracchan land law (Rome)","p":1}},{"type":"Feature","geometry":{"type":"Point","coordinates":[108.95,34.27]},"properties":{"k":"03fc35f42ee41827","c":"#B46D75","r":8.0,"s":"#070B10","w":1,"o":0.34,"d":"5,3","n":"Well-field system (China)","p":1}},{"type":"Feature","geometry":{"type":"Point","coordinates":[135.805,34.685]},"properties":{"k":"65076c04da171312","c":"#B46D75","r":8.0,"s":"#070B10","w":1,"o":0.34,"d":"5,3","n":"Ritsury\u014d handen system (Japan)","p":1}},{"type":"Feature","geometry":{"type":"Point","coordinates":[94.66,40.14]},"properties":{"k":"fe23e30c8d4a5e60","c":"#B46D75","r":8.0,"s":"#070B10","w":1,"o":0.62,"d":"2,3","n":"Tuntian military-farm colonies (China)","p":1}},{"type":"Feature","geometry":{"type":"Point","coordinates":[28.978,41.068]},"properties":{"k":"0808c8d105ccca17","c":"#B46D75","r":8.0,"s":"#070B10","w":1,"o":0.34,"d":"2,3","n":"Byzantine soldier-farms (Stratiotika Ktemata)","p":1}},{"type":"Feature","geometry":{"type":"Point","coordinates":[22.43,37.075]},"properties":{"k":"999bb8d69ff5bfb6","c":"#B46D75","r":8.0,"s":"#070B10","w":1,"o":0.34,"d":"2,3","n":"Spartan kleros","p":1}},{"type":"Feature","geometry":{"type":"Point","coordinates":[44.36,33.31]},"properties":{"k":"42e1a9c5f5db275b","c":"#B46D75","r":8.0,"s":"#070B10","w":1,"o":0.34,"d":"2,3","n":"Iqta land-grant system (medieval Islamic world)","p":1}},{"type":"Feature","geometry":{"type":"Point","coordinates":[-98.24,35.07]},"properties":{"k":"1ab243401c71f59a","c":"#B46D75","r":8.0,"s":"#070B10","w":1,"o":0.34,"d":"2,3","n":"Dawes Act allotment (United States)","p":1}},{"type":"Feature","geometry":{"type":"Point","coordinates":[80.27,13.08]},"properties":{"k":"304a7bd3c3c7e846","c":"#B46D75","r":8.0,"s":"#070B10","w":1,"o":0.62,"d":"2,3","n":"Ryotwari settlement (British India)","p":1}},{"type":"Feature","geometry":{"type":"Point","coordinates":[30.84,29.31]},"properties":{"k":"c69acf5a2058bfa8","c":"#B46D75","r":6.5,"s":"#070B10","w":1,"o":0.34,"d":"2,3","n":"Ptolemaic cleruchs (Hellenistic Egypt)","p":1}},{"type":"Feature","geometry":{"type":"Point","coordinates":[126.55,37.97]},"properties":{"k":"afeaf9a930ac9df2","c":"#B46D75","r":6.5,"s":"#070B10","w":1,"o":0.34,"d":"2,3","n":"Jeonsigwa land system (Goryeo Korea)","p":1}},{"type":"Feature","geometry":{"type":"Point","coordinates":[-17.45,14.69]},"properties":{"k":"cf626a091e625a88","c":"#B46D75","r":6.5,"s":"#070B10","w":1,"o":0.92,"d":"5,3","n":"National Domain Law land system (Senegal)","p":1}},{"type":"Feature","geometry":{"type":"Point","coordinates":[89.64,27.47]},"properties":{"k":"7a0ce9c372860a5f","c":"#B46D75","r":6.5,"s":"#070B10","w":1,"o":0.92,"n":"Kidu royal land grants (Bhutan)","p":1}},{"type":"Feature","geometry":{"type":"Point","coordinates":[25.91,-24.65]},"properties":{"k":"033878efcd4f695a","c":"#B46D75","r":6.5,"s":"#070B10","w":1,"o":0.92,"d":"5,3","n":"Tribal Land Act communal allocation (Botswana)","p":1}},{"type":"Feature","geometry":{"type":"Point","coordinates":[-175.2,-21.14]},"properties":{"k":"ecba7601bacd0862","c":"#B46D75","r":6.5,"s":"#070B10","w":1,"o":0.62,"d":"5,3","n":"Constitutional land allotments \u2014 \u2018api (Tonga)","p":1}},{"type":"Feature","geometry":{"type":"Point","coordinates":[27.48,-29.31]},"properties":{"k":"03f85bac7b16812a","c":"#B46D75","r":6.5,"s":"#070B10","w":1,"o":0.92,"d":"5,3","n":"Communal homestead land (Eswatini & Lesotho)","p":1}},{"type":"Feature","geometry":{"type":"Point","coordinates":[-96.747,40.27]},"properties":{"k":"300963fcfb2c5210","c":"#7699B9","r":10.0,"s":"#070B10","w":1,"o":0.34,"d":"5,3","n":"Homestead Act (United States)","p":1}},{"type":"Feature","geometry":{"type":"Point","coordinates":[30.314,59.939]},"properties":{"k":"74c3713c3acc00b2","c":"#7699B9","r":10.0,"s":"#070B10","w":1,"o":0.34,"d":"5,3","n":"Stolypin agrarian reform (Russia)","p":1}},{"type":"Feature","geometry":{"type":"Point","coordinates":[101.91,3.52]},"properties":{"k":"920c84d29ce28a49","c":"#7699B9","r":10.0,"s":"#070B10","w":1,"o":0.92,"d":"5,3","n":"FELDA land settlement (Malaysia)","p":1}},{"type":"Feature","geometry":{"type":"Point","coordinates":[-97.138,49.895]},"properties":{"k":"270f185b22b817b6","c":"#7699B9","r":8.0,"s":"#070B10","w":1,"o":0.34,"d":"5,3","n":"Dominion Lands Act (Canada)","p":1}},{"type":"Feature","geometry":{"type":"Point","coordinates":[14.253,41.105]},"properties":{"k":"190f340f62b76695","c":"#7699B9","r":8.0,"s":"#070B10","w":1,"o":0.34,"d":"2,3","n":"Veteran colonies & centuriation (Rome)","p":1}},{"type":"Feature","geometry":{"type":"Point","coordinates":[104.775,-2.976]},"properties":{"k":"15e31ed0670690c2","c":"#7699B9","r":8.0,"s":"#070B10","w":1,"o":0.62,"d":"2,3","n":"Transmigration (Indonesia)","p":1}},{"type":"Feature","geometry":{"type":"Point","coordinates":[-79.8345,39.4929]},"properties":{"k":"6bdc5759d1517ca2","c":"#7699B9","r":8.0,"s":"#070B10","w":1,"o":0.34,"n":"Subsistence Homesteads (US New Deal)","p":1}},{"type":"Feature","geometry":{"type":"Point","coordinates":[151.209,-33.868]},"properties":{"k":"baf52d81471ecce5","c":"#7699B9","r":8.0,"s":"#070B10","w":1,"o":0.34,"d":"5,3","n":"Selection acts (Australia)","p":1}},{"type":"Feature","geometry":{"type":"Point","coordinates":[36.08,-0.3]},"properties":{"k":"e1c36025192e8545","c":"#7699B9","r":8.0,"s":"#070B10","w":1,"o":0.62,"d":"5,3","n":"Million-Acre Settlement Scheme (Kenya)","p":1}},{"type":"Feature","geometry":{"type":"Point","coordinates":[81,7.94]},"properties":{"k":"80491200134cb537","c":"#7699B9","r":8.0,"s":"#070B10","w":1,"o":0.62,"d":"5,3","n":"Mahaweli settlement scheme (Sri Lanka)","p":1}},{"type":"Feature","geometry":{"type":"Point","coordinates":[22.94,40.7]},"properties":{"k":"98ca63411bdf544b","c":"#7699B9","r":8.0,"s":"#070B10","w":1,"o":0.62,"d":"5,3","n":"Asia Minor refugee resettlement (Greece)","p":1}},{"type":"Feature","geometry":{"type":"Point","coordinates":[33.52,14.4]},"properties":{"k":"fd4bef8337b17ee6","c":"#7699B9","r":8.0,"s":"#070B10","w":1,"o":0.62,"d":"5,3","n":"Gezira Scheme (Sudan)","p":1}},{"type":"Feature","geometry":{"type":"Point","coordinates":[-3.7,42.34]},"properties":{"k":"6741d72132028e4a","c":"#7699B9","r":8.0,"s":"#070B10","w":1,"o":0.34,"d":"5,3","n":"Repoblaci\u00f3n frontier resettlement (medieval Iberia)","p":1}},{"type":"Feature","geometry":{"type":"Point","coordinates":[24.96,60.2]},"properties":{"k":"d39905598eb30f35","c":"#7699B9","r":8.0,"s":"#070B10","w":1,"o":0.62,"d":"5,3","n":"Postwar resettlement & smallholdings (Finland)","p":1}},{"type":"Feature","geometry":{"type":"Point","coordinates":[142.16,-34.19]},"properties":{"k":"21be06d6a7c27ea1","c":"#7699B9","r":8.0,"s":"#070B10","w":1,"o":0.62,"d":"5,3","n":"Soldier settlement schemes (Australia, NZ, Canada, UK)","p":1}},{"type":"Feature","geometry":{"type":"Point","coordinates":[106.85,-6.21]},"properties":{"k":"7fdb4af97478a419","c":"#7699B9","r":8.0,"s":"#070B10","w":1,"o":0.62,"d":"5,3","n":"Transmigration / transmigrasi (Indonesia)","p":1}},{"type":"Feature","geometry":{"type":"Point","coordinates":[35.2,32.69]},"properties":{"k":"8c54fc71a9a352a0","c":"#7699B9","r":6.5,"s":"#070B10","w":1,"o":0.62,"n":"Moshav (Israel)","p":1}},{"type":"Feature","geometry":{"type":"Point","coordinates":[23.728,37.984]},"properties":{"k":"9ea9472ca9543086","c":"#7699B9","r":6.5,"s":"#070B10","w":1,"o":0.34,"d":"2,3","n":"Athenian cleruchies","p":1}},{"type":"Feature","geometry":{"type":"Point","coordinates":[-6.39,58.21]},"properties":{"k":"5c96f88f78fedac1","c":"#7699B9","r":6.5,"s":"#070B10","w":1,"o":0.92,"n":"Scottish crofting (Scotland)","p":1}},{"type":"Feature","geometry":{"type":"Point","coordinates":[-0.23,51.98]},"properties":{"k":"3210b3c3d932fc7e","c":"#7699B9","r":6.5,"s":"#070B10","w":1,"o":0.92,"n":"Garden city movement (UK)","p":1}},{"type":"Feature","geometry":{"type":"Point","coordinates":[-80.67,32.43]},"properties":{"k":"7e209908ba9ca29d","c":"#7699B9","r":6.5,"s":"#070B10","w":1,"o":0.34,"n":"Freedmen\u2019s \u201840 acres and a mule\u2019 (United States)","p":1}},{"type":"Feature","geometry":{"type":"Point","coordinates":[120.6,16.41]},"properties":{"k":"536f17e6f5c3fbdc","c":"#7699B9","r":6.5,"s":"#070B10","w":1,"o":0.92,"n":"Ancestral domain titling (Philippines IPRA)","p":1}},{"type":"Feature","geometry":{"type":"Point","coordinates":[34.89,32.09]},"properties":{"k":"02d024763b15f05f","c":"#7699B9","r":6.5,"s":"#070B10","w":1,"o":0.62,"n":"Moshava farm colonies (Ottoman Palestine)","p":1}},{"type":"Feature","geometry":{"type":"Point","coordinates":[145.4,-36.38]},"properties":{"k":"50af0485f7c3ed2c","c":"#7699B9","r":6.5,"s":"#070B10","w":1,"o":0.34,"d":"5,3","n":"Soldier settlement schemes (Australia & NZ)","p":1}},{"type":"Feature","geometry":{"type":"Point","coordinates":[-6.27,13.43]},"properties":{"k":"a616dfaf34e1479b","c":"#7699B9","r":6.5,"s":"#070B10","w":1,"o":0.92,"d":"5,3","n":"Office du Niger (Mali)","p":1}},{"type":"Feature","geometry":{"type":"Point","coordinates":[10.4,55.4]},"properties":{"k":"70b2c136e6b21eff","c":"#7699B9","r":6.5,"s":"#070B10","w":1,"o":0.62,"n":"Smallholdings (husmandsbrug) acts (Denmark)","p":1}},{"type":"Feature","geometry":{"type":"Point","coordinates":[28.28,-15.42]},"properties":{"k":"3afb2ddf6cc8c96c","c":"#7699B9","r":6.5,"s":"#070B10","w":1,"o":0.62,"d":"5,3","n":"Village & farm settlement schemes (Zambia)","p":1}},{"type":"Feature","geometry":{"type":"Point","coordinates":[17.08,-22.56]},"properties":{"k":"c8ba3523dec6af10","c":"#7699B9","r":6.5,"s":"#070B10","w":1,"o":0.92,"d":"5,3","n":"Land reform & resettlement (Namibia)","p":1}},{"type":"Feature","geometry":{"type":"Point","coordinates":[-56.16,-34.9]},"properties":{"k":"1a9185554284cc46","c":"#7699B9","r":6.5,"s":"#070B10","w":1,"o":0.92,"d":"5,3","n":"National Colonization Institute (Uruguay)","p":1}},{"type":"Feature","geometry":{"type":"Point","coordinates":[-57.64,-25.3]},"properties":{"k":"ebb2f2bebd34fc4b","c":"#7699B9","r":6.5,"s":"#070B10","w":1,"o":0.62,"d":"5,3","n":"Rural colonization (Paraguay)","p":1}},{"type":"Feature","geometry":{"type":"Point","coordinates":[35.93,31.95]},"properties":{"k":"e1c69d67b9b6f1b4","c":"#7699B9","r":6.5,"s":"#070B10","w":1,"o":0.62,"d":"5,3","n":"East Ghor / Jordan Valley resettlement","p":1}},{"type":"Feature","geometry":{"type":"Point","coordinates":[116.397,39.907]},"properties":{"k":"d102384523b3fb67","c":"#BD7F9D","r":10.0,"s":"#070B10","w":1,"o":0.34,"d":"5,3","n":"Land reform (PRC China)","p":1}},{"type":"Feature","geometry":{"type":"Point","coordinates":[37.4,55.6]},"properties":{"k":"6363b36f144e3b6b","c":"#BD7F9D","r":10.0,"s":"#070B10","w":1,"o":0.34,"d":"5,3","n":"Emancipation Reform (Russia 1861)","p":1}},{"type":"Feature","geometry":{"type":"Point","coordinates":[139.65,35.676]},"properties":{"k":"f3e1629eb26fd9b4","c":"#BD7F9D","r":10.0,"s":"#070B10","w":1,"o":0.62,"d":"5,3","n":"Postwar land reform (Japan)","p":1}},{"type":"Feature","geometry":{"type":"Point","coordinates":[2.36,48.84]},"properties":{"k":"40b7fdcc53409980","c":"#BD7F9D","r":10.0,"s":"#070B10","w":1,"o":0.34,"d":"5,3","n":"Abolition of feudalism & biens nationaux (France)","p":1}},{"type":"Feature","geometry":{"type":"Point","coordinates":[80.95,26.85]},"properties":{"k":"b421462b9387fbd3","c":"#BD7F9D","r":10.0,"s":"#070B10","w":1,"o":0.62,"d":"5,3","n":"Zamindari abolition (India 1950s)","p":1}},{"type":"Feature","geometry":{"type":"Point","coordinates":[117.5,32.95]},"properties":{"k":"c24876179cafb35f","c":"#BD7F9D","r":10.0,"s":"#070B10","w":1,"o":0.92,"d":"5,3","n":"Household Responsibility System (China)","p":1}},{"type":"Feature","geometry":{"type":"Point","coordinates":[21.01,52.23]},"properties":{"k":"a632e5fca359a036","c":"#BD7F9D","r":10.0,"s":"#070B10","w":1,"o":0.34,"d":"5,3","n":"Postwar land reforms (Eastern Europe)","p":1}},{"type":"Feature","geometry":{"type":"Point","coordinates":[26.1,44.43]},"properties":{"k":"468f268e0409a976","c":"#BD7F9D","r":10.0,"s":"#070B10","w":1,"o":0.34,"d":"5,3","n":"Land reform of 1921 (Romania)","p":1}},{"type":"Feature","geometry":{"type":"Point","coordinates":[-99.1332,19.4326]},"properties":{"k":"3b04a2a5422d9ee9","c":"#BD7F9D","r":8.0,"s":"#070B10","w":1,"o":0.62,"n":"Ejido communal land (Mexico)","p":1}},{"type":"Feature","geometry":{"type":"Point","coordinates":[121.565,25.033]},"properties":{"k":"39ba62526b88fa46","c":"#BD7F9D","r":8.0,"s":"#070B10","w":1,"o":0.62,"d":"5,3","n":"Land-to-the-Tiller (Taiwan)","p":1}},{"type":"Feature","geometry":{"type":"Point","coordinates":[127.385,36.35]},"properties":{"k":"8217553e45e3f041","c":"#BD7F9D","r":8.0,"s":"#070B10","w":1,"o":0.62,"d":"5,3","n":"Land reform (South Korea)","p":1}},{"type":"Feature","geometry":{"type":"Point","coordinates":[-77.043,-12.046]},"properties":{"k":"39a799fbda017144","c":"#BD7F9D","r":8.0,"s":"#070B10","w":1,"o":0.62,"d":"5,3","n":"Agrarian reform (Peru 1969)","p":1}},{"type":"Feature","geometry":{"type":"Point","coordinates":[139.69,35.69]},"properties":{"k":"d2d60d1443c51b9d","c":"#BD7F9D","r":8.0,"s":"#070B10","w":1,"o":0.34,"d":"5,3","n":"Meiji land-tax reform (Japan 1873)","p":1}},{"type":"Feature","geometry":{"type":"Point","coordinates":[-82.355,23.114]},"properties":{"k":"0d5f0f525acf1a9a","c":"#BD7F9D","r":8.0,"s":"#070B10","w":1,"o":0.62,"d":"5,3","n":"Agrarian Reform (Cuba 1959)","p":1}},{"type":"Feature","geometry":{"type":"Point","coordinates":[13.41,52.53]},"properties":{"k":"77cefc654507faf4","c":"#BD7F9D","r":8.0,"s":"#070B10","w":1,"o":0.34,"d":"5,3","n":"Prussian peasant emancipation (1807\u201350s)","p":1}},{"type":"Feature","geometry":{"type":"Point","coordinates":[38.74,9.03]},"properties":{"k":"3623f4fc93e78919","c":"#BD7F9D","r":8.0,"s":"#070B10","w":1,"o":0.62,"d":"5,3","n":"\u2018Land to the Tiller\u2019 reform (Ethiopia 1975)","p":1}},{"type":"Feature","geometry":{"type":"Point","coordinates":[31.236,30.044]},"properties":{"k":"65a23c4ba00faf72","c":"#BD7F9D","r":8.0,"s":"#070B10","w":1,"o":0.62,"d":"5,3","n":"Agrarian Reform (Egypt 1952)","p":1}},{"type":"Feature","geometry":{"type":"Point","coordinates":[51.44,35.72]},"properties":{"k":"0881d711e0671d3d","c":"#BD7F9D","r":8.0,"s":"#070B10","w":1,"o":0.62,"d":"5,3","n":"White Revolution land reform (Iran)","p":1}},{"type":"Feature","geometry":{"type":"Point","coordinates":[-6.26,53.349]},"properties":{"k":"80cb9e559a0f1b2c","c":"#BD7F9D","r":8.0,"s":"#070B10","w":1,"o":0.62,"n":"Irish Land Acts (Ireland)","p":1}},{"type":"Feature","geometry":{"type":"Point","coordinates":[-70.66,-33.45]},"properties":{"k":"d48822bab311cf9c","c":"#BD7F9D","r":8.0,"s":"#070B10","w":1,"o":0.62,"d":"5,3","n":"Agrarian reform (Chile 1962\u201373)","p":1}},{"type":"Feature","geometry":{"type":"Point","coordinates":[78.82,17.35]},"properties":{"k":"7e6f525e8a48ba95","c":"#BD7F9D","r":8.0,"s":"#070B10","w":1,"o":0.62,"n":"Bhoodan & Gramdan land-gift movement (India)","p":1}},{"type":"Feature","geometry":{"type":"Point","coordinates":[76.936,8.524]},"properties":{"k":"c0f7308b210ebd12","c":"#BD7F9D","r":8.0,"s":"#070B10","w":1,"o":0.62,"n":"Operation Barga & Kerala land reform (India)","p":1}},{"type":"Feature","geometry":{"type":"Point","coordinates":[121.044,14.676]},"properties":{"k":"d7f2026873ca6b47","c":"#BD7F9D","r":8.0,"s":"#070B10","w":1,"o":0.62,"d":"5,3","n":"Comprehensive Agrarian Reform (Philippines)","p":1}},{"type":"Feature","geometry":{"type":"Point","coordinates":[105.8,21]},"properties":{"k":"190e112bd97ed09a","c":"#BD7F9D","r":8.0,"s":"#070B10","w":1,"o":0.34,"d":"5,3","n":"Land reform (North Vietnam 1953\u201356)","p":1}},{"type":"Feature","geometry":{"type":"Point","coordinates":[110.36,-7.8]},"properties":{"k":"af55aa03abc646fe","c":"#BD7F9D","r":8.0,"s":"#070B10","w":1,"o":0.62,"d":"5,3","n":"Basic Agrarian Law reform (Indonesia)","p":1}},{"type":"Feature","geometry":{"type":"Point","coordinates":[16.6,40.67]},"properties":{"k":"d5bc4ae920dfbdce","c":"#BD7F9D","r":8.0,"s":"#070B10","w":1,"o":0.62,"d":"5,3","n":"Agrarian reform & Cassa per il Mezzogiorno (Italy)","p":1}},{"type":"Feature","geometry":{"type":"Point","coordinates":[-47.88,-15.79]},"properties":{"k":"639e1b89fb771c28","c":"#BD7F9D","r":8.0,"s":"#070B10","w":1,"o":0.92,"n":"Agrarian settlements / assentamentos (Brazil)","p":1}},{"type":"Feature","geometry":{"type":"Point","coordinates":[106.63,10.82]},"properties":{"k":"61dda949cc1b81ff","c":"#BD7F9D","r":8.0,"s":"#070B10","w":1,"o":0.34,"d":"5,3","n":"Land-to-the-Tiller (South Vietnam)","p":1}},{"type":"Feature","geometry":{"type":"Point","coordinates":[74.34,31.55]},"properties":{"k":"dd29d1fd476211b2","c":"#BD7F9D","r":8.0,"s":"#070B10","w":1,"o":0.62,"d":"5,3","n":"Land reforms (Pakistan)","p":1}},{"type":"Feature","geometry":{"type":"Point","coordinates":[31.05,-17.83]},"properties":{"k":"8f07930416804c35","c":"#BD7F9D","r":8.0,"s":"#070B10","w":1,"o":0.62,"d":"5,3","n":"Fast Track land reform (Zimbabwe)","p":1}},{"type":"Feature","geometry":{"type":"Point","coordinates":[3.06,36.75]},"properties":{"k":"3c60c1dd3378a27d","c":"#BD7F9D","r":8.0,"s":"#070B10","w":1,"o":0.34,"d":"5,3","n":"Autogestion self-managed farms (Algeria)","p":1}},{"type":"Feature","geometry":{"type":"Point","coordinates":[28.19,-25.75]},"properties":{"k":"3647e33610342470","c":"#BD7F9D","r":8.0,"s":"#070B10","w":1,"o":0.92,"d":"5,3","n":"Land reform & restitution (South Africa)","p":1}},{"type":"Feature","geometry":{"type":"Point","coordinates":[-72.31,18.59]},"properties":{"k":"99bd65de53a9b657","c":"#BD7F9D","r":8.0,"s":"#070B10","w":1,"o":0.62,"n":"Post-revolution peasant smallholding (Haiti)","p":1}},{"type":"Feature","geometry":{"type":"Point","coordinates":[20.45,44.79]},"properties":{"k":"53e820bee380a639","c":"#BD7F9D","r":8.0,"s":"#070B10","w":1,"o":0.34,"d":"5,3","n":"Interwar land reforms (Central Europe)","p":1}},{"type":"Feature","geometry":{"type":"Point","coordinates":[96.17,16.84]},"properties":{"k":"60e7dab6ace56aec","c":"#BD7F9D","r":8.0,"s":"#070B10","w":1,"o":0.34,"d":"5,3","n":"Land Nationalization (Burma)","p":1}},{"type":"Feature","geometry":{"type":"Point","coordinates":[21.01,52.23]},"properties":{"k":"7e3878a43b32f74a","c":"#BD7F9D","r":8.0,"s":"#070B10","w":1,"o":0.92,"n":"Surviving private peasant farms (Poland)","p":1}},{"type":"Feature","geometry":{"type":"Point","coordinates":[-68.15,-16.5]},"properties":{"k":"8a13b0327057e1ab","c":"#BD7F9D","r":6.5,"s":"#070B10","w":1,"o":0.62,"n":"Agrarian Reform (Bolivia 1953)","p":1}},{"type":"Feature","geometry":{"type":"Point","coordinates":[-66.88,10.49]},"properties":{"k":"3eea3c4cf4c68d03","c":"#BD7F9D","r":6.5,"s":"#070B10","w":1,"o":0.62,"d":"5,3","n":"Agrarian reform (Venezuela)","p":1}},{"type":"Feature","geometry":{"type":"Point","coordinates":[-74.08,4.61]},"properties":{"k":"f2bd2c63bc4f5582","c":"#BD7F9D","r":6.5,"s":"#070B10","w":1,"o":0.62,"d":"5,3","n":"Agrarian reform / INCORA (Colombia)","p":1}},{"type":"Feature","geometry":{"type":"Point","coordinates":[-90.51,14.63]},"properties":{"k":"c171b1a105eea8f9","c":"#BD7F9D","r":6.5,"s":"#070B10","w":1,"o":0.34,"n":"Decree 900 agrarian reform (Guatemala)","p":1}},{"type":"Feature","geometry":{"type":"Point","coordinates":[-3.7,40.42]},"properties":{"k":"8d5fd692311ac159","c":"#BD7F9D","r":6.5,"s":"#070B10","w":1,"o":0.34,"n":"Republican agrarian reform (Spain 1932)","p":1}},{"type":"Feature","geometry":{"type":"Point","coordinates":[-86.24,12.11]},"properties":{"k":"fa463d7f18b49e9f","c":"#BD7F9D","r":6.5,"s":"#070B10","w":1,"o":0.62,"d":"5,3","n":"Sandinista agrarian reform (Nicaragua)","p":1}},{"type":"Feature","geometry":{"type":"Point","coordinates":[-89.19,13.69]},"properties":{"k":"4d206c902fac71bf","c":"#BD7F9D","r":6.5,"s":"#070B10","w":1,"o":0.62,"d":"5,3","n":"Land reform (El Salvador 1980)","p":1}},{"type":"Feature","geometry":{"type":"Point","coordinates":[44.4,33.34]},"properties":{"k":"08ccc196cc99ced0","c":"#BD7F9D","r":6.5,"s":"#070B10","w":1,"o":0.62,"d":"5,3","n":"Agrarian reform (Iraq 1958)","p":1}},{"type":"Feature","geometry":{"type":"Point","coordinates":[32.86,39.93]},"properties":{"k":"9295df774f0465b0","c":"#BD7F9D","r":6.5,"s":"#070B10","w":1,"o":0.34,"d":"5,3","n":"Farmers\u2019 Land Law & Village Institutes (Turkey)","p":1}},{"type":"Feature","geometry":{"type":"Point","coordinates":[-7.91,38.57]},"properties":{"k":"11fb2231deab1a8c","c":"#BD7F9D","r":6.5,"s":"#070B10","w":1,"o":0.34,"n":"Alentejo cooperatives (Portugal)","p":1}},{"type":"Feature","geometry":{"type":"Point","coordinates":[-78.47,-0.18]},"properties":{"k":"0bb06caf586bb815","c":"#BD7F9D","r":6.5,"s":"#070B10","w":1,"o":0.62,"n":"Agrarian reform (Ecuador 1964)","p":1}},{"type":"Feature","geometry":{"type":"Point","coordinates":[85.32,27.71]},"properties":{"k":"2e01cd4b50d8824a","c":"#BD7F9D","r":6.5,"s":"#070B10","w":1,"o":0.62,"d":"5,3","n":"Land reform (Nepal 1964)","p":1}},{"type":"Feature","geometry":{"type":"Point","coordinates":[36.29,33.51]},"properties":{"k":"29765074a096eedc","c":"#BD7F9D","r":6.5,"s":"#070B10","w":1,"o":0.62,"d":"5,3","n":"Agrarian reform (Syria)","p":1}},{"type":"Feature","geometry":{"type":"Point","coordinates":[102.83,16.44]},"properties":{"k":"29567c740af876b0","c":"#BD7F9D","r":6.5,"s":"#070B10","w":1,"o":0.92,"d":"5,3","n":"ALRO land reform (Thailand)","p":1}},{"type":"Feature","geometry":{"type":"Point","coordinates":[90.38,23.78]},"properties":{"k":"faf51c12de5438c8","c":"#BD7F9D","r":6.5,"s":"#070B10","w":1,"o":0.92,"n":"Khas land distribution (Bangladesh)","p":1}},{"type":"Feature","geometry":{"type":"Point","coordinates":[78.82,17.35]},"properties":{"k":"4fb9a4cef3ce59d8","c":"#BD7F9D","r":6.5,"s":"#070B10","w":1,"o":0.62,"n":"Bhoodan land-gift movement (India)","p":1}},{"type":"Feature","geometry":{"type":"Point","coordinates":[69.17,34.53]},"properties":{"k":"7b50790fa865b14a","c":"#BD7F9D","r":6.5,"s":"#070B10","w":1,"o":0.34,"d":"5,3","n":"Saur land reform (Afghanistan 1978)","p":1}},{"type":"Feature","geometry":{"type":"Point","coordinates":[-87.19,14.07]},"properties":{"k":"ed7a0266a910080a","c":"#BD7F9D","r":6.5,"s":"#070B10","w":1,"o":0.62,"d":"5,3","n":"Agrarian reform (Honduras)","p":1}},{"type":"Feature","geometry":{"type":"Point","coordinates":[32.58,0.31]},"properties":{"k":"ffa36335e5250709","c":"#BD7F9D","r":6.5,"s":"#070B10","w":1,"o":0.62,"d":"5,3","n":"Land Reform Decree (Uganda 1975)","p":1}},{"type":"Feature","geometry":{"type":"Point","coordinates":[10.18,36.81]},"properties":{"k":"22c24d98bc2fda7b","c":"#BD7F9D","r":6.5,"s":"#070B10","w":1,"o":0.34,"d":"5,3","n":"Agricultural cooperatives drive (Tunisia)","p":1}},{"type":"Feature","geometry":{"type":"Point","coordinates":[104.92,11.56]},"properties":{"k":"829ab6d067201ed3","c":"#BD7F9D","r":6.5,"s":"#070B10","w":1,"o":0.62,"d":"5,3","n":"Land privatization to households (Cambodia)","p":1}},{"type":"Feature","geometry":{"type":"Point","coordinates":[19.82,41.33]},"properties":{"k":"6c340a516fefd3f9","c":"#BD7F9D","r":6.5,"s":"#070B10","w":1,"o":0.62,"n":"Egalitarian land distribution (Albania 1991)","p":1}},{"type":"Feature","geometry":{"type":"Point","coordinates":[-6.83,34.02]},"properties":{"k":"0a798aaa16baab49","c":"#BD7F9D","r":6.5,"s":"#070B10","w":1,"o":0.62,"d":"5,3","n":"Recovered colonial land distribution (Morocco)","p":1}},{"type":"Feature","geometry":{"type":"Point","coordinates":[106.91,47.89]},"properties":{"k":"fb94ff519fb8ef07","c":"#BD7F9D","r":6.5,"s":"#070B10","w":1,"o":0.92,"n":"Pastoral de-collectivization (Mongolia)","p":1}},{"type":"Feature","geometry":{"type":"Point","coordinates":[74.59,42.87]},"properties":{"k":"2949ec914401f58a","c":"#BD7F9D","r":6.5,"s":"#070B10","w":1,"o":0.62,"d":"5,3","n":"Land & agrarian reform (Kyrgyzstan)","p":1}},{"type":"Feature","geometry":{"type":"Point","coordinates":[-69.93,18.49]},"properties":{"k":"012310af43e09d52","c":"#BD7F9D","r":6.5,"s":"#070B10","w":1,"o":0.62,"d":"5,3","n":"Agrarian reform (Dominican Republic 1962)","p":1}},{"type":"Feature","geometry":{"type":"Point","coordinates":[-66.058,18.44]},"properties":{"k":"04a0373aec22c7dd","c":"#BD7F9D","r":6.5,"s":"#070B10","w":1,"o":0.62,"n":"Land Law parcelas (Puerto Rico 1941)","p":1}},{"type":"Feature","geometry":{"type":"Point","coordinates":[47.51,-18.88]},"properties":{"k":"af586210254e658e","c":"#BD7F9D","r":6.5,"s":"#070B10","w":1,"o":0.92,"n":"Land-certificate reform (Madagascar)","p":1}},{"type":"Feature","geometry":{"type":"Point","coordinates":[44.78,41.72]},"properties":{"k":"3585c669585877b9","c":"#BD7F9D","r":6.5,"s":"#070B10","w":1,"o":0.62,"d":"5,3","n":"Post-Soviet land reform (Caucasus)","p":1}},{"type":"Feature","geometry":{"type":"Point","coordinates":[-5.28,6.82]},"properties":{"k":"22331eb22e5b8ad8","c":"#BD7F9D","r":6.5,"s":"#070B10","w":1,"o":0.62,"d":"5,3","n":"Rural land law (C\u00f4te d\u2019Ivoire 1998)","p":1}},{"type":"Feature","geometry":{"type":"Point","coordinates":[102.63,17.97]},"properties":{"k":"aec46e92fcadcf30","c":"#BD7F9D","r":6.5,"s":"#070B10","w":1,"o":0.62,"d":"5,3","n":"Land allocation & de-collectivization (Laos)","p":1}},{"type":"Feature","geometry":{"type":"Point","coordinates":[-84.08,9.93]},"properties":{"k":"d55f65235a087ec7","c":"#BD7F9D","r":6.5,"s":"#070B10","w":1,"o":0.62,"d":"5,3","n":"Agrarian reform / IDA (Costa Rica)","p":1}},{"type":"Feature","geometry":{"type":"Point","coordinates":[45.02,12.79]},"properties":{"k":"fa1b6be8b9ad47e2","c":"#BD7F9D","r":6.5,"s":"#070B10","w":1,"o":0.34,"d":"5,3","n":"Land reform (South Yemen 1970)","p":1}},{"type":"Feature","geometry":{"type":"Point","coordinates":[-79.52,8.98]},"properties":{"k":"9668209bcb338853","c":"#BD7F9D","r":6.5,"s":"#070B10","w":1,"o":0.62,"d":"5,3","n":"Asentamientos land reform (Panama 1969)","p":1}},{"type":"Feature","geometry":{"type":"Point","coordinates":[69.24,41.31]},"properties":{"k":"d449a9c1998aa78f","c":"#BD7F9D","r":6.5,"s":"#070B10","w":1,"o":0.62,"d":"5,3","n":"Central Asian dehkan farm reform","p":1}},{"type":"Feature","geometry":{"type":"Point","coordinates":[33.79,-13.96]},"properties":{"k":"f49d53163bc805de","c":"#BD7F9D","r":6.5,"s":"#070B10","w":1,"o":0.62,"d":"5,3","n":"Community-based land reform (Malawi 2004)","p":1}},{"type":"Feature","geometry":{"type":"Point","coordinates":[13.19,32.89]},"properties":{"k":"b4f97049ea5783c6","c":"#BD7F9D","r":6.5,"s":"#070B10","w":1,"o":0.62,"d":"5,3","n":"Land redistribution (Libya 1970s)","p":1}},{"type":"Feature","geometry":{"type":"Point","coordinates":[-13.58,9.64]},"properties":{"k":"732277fd3ef3b9f5","c":"#BD7F9D","r":6.5,"s":"#070B10","w":1,"o":0.34,"d":"2,3","n":"Collectivization under Tour\u00e9 (Guinea)","p":1}},{"type":"Feature","geometry":{"type":"Point","coordinates":[13.23,-8.84]},"properties":{"k":"19b62ba2a135ac5a","c":"#BD7F9D","r":6.5,"s":"#070B10","w":1,"o":0.62,"d":"5,3","n":"Post-war resettlement & land law (Angola)","p":1}},{"type":"Feature","geometry":{"type":"Point","coordinates":[35.22,31.78]},"properties":{"k":"4c6e746d8a95fe27","c":"#BD7F9D","r":5.0,"s":"#070B10","w":1,"o":0.34,"n":"Jubilee land-return (ancient Israel)","p":1}},{"type":"Feature","geometry":{"type":"Point","coordinates":[72.5714,23.0225]},"properties":{"k":"af2b7a40eb649321","c":"#A37FBD","r":10.0,"s":"#070B10","w":1,"o":0.62,"n":"Khadi / Swadeshi (India)","p":1}},{"type":"Feature","geometry":{"type":"Point","coordinates":[-2.9916,53.4084]},"properties":{"k":"cb775ef318d44d8b","c":"#A37FBD","r":8.0,"s":"#070B10","w":1,"o":0.62,"n":"Make Do and Mend (UK)","p":1}},{"type":"Feature","geometry":{"type":"Point","coordinates":[72.58,23.03]},"properties":{"k":"d386b835a2ed6593","c":"#A37FBD","r":8.0,"s":"#070B10","w":1,"o":0.92,"d":"5,3","n":"Khadi & Village Industries (swadeshi, India)","p":1}},{"type":"Feature","geometry":{"type":"Point","coordinates":[82.97,25.32]},"properties":{"k":"c774ad8aaead03d4","c":"#A37FBD","r":8.0,"s":"#070B10","w":1,"o":0.92,"n":"Handloom & sericulture cottage industry (South Asia)","p":1}}]}