{"type":"FeatureCollection","name":"World Entertainment 2026 — Companies & Owners","overlays":[],"filters":[{"label":"Type","rows":true,"values":[{"k":"Cinema exhibition","label":"Cinema exhibition","n":6},{"k":"Film, TV & streaming","label":"Film, TV & streaming","n":19},{"k":"Live entertainment & theme parks","label":"Live entertainment & theme parks","n":7},{"k":"Music","label":"Music","n":7},{"k":"Video games","label":"Video games","n":22},{"k":"Owners: Family / founder-controlled","label":"Owners: Family / founder-controlled","n":20},{"k":"Owners: Government / sovereign fund","label":"Owners: Government / sovereign fund","n":1},{"k":"Owners: Institutional / fund","label":"Owners: Institutional / fund","n":3},{"k":"Owners: Public company","label":"Owners: Public company","n":11}]}],"features":[{"type":"Feature","geometry":{"type":"Point","coordinates":[-118.3247,34.1561]},"properties":{"k":"e57c8c41e921722a","c":"#C7A35A","r":12.67,"s":"#070B10","w":1,"o":0.82,"n":"The Walt Disney Company","f":"|Film, TV & streaming|","p":1}},{"type":"Feature","geometry":{"type":"Point","coordinates":[139.743,35.631]},"properties":{"k":"6f73b51144c8a366","c":"#5FA98A","r":10.3,"s":"#070B10","w":1,"o":0.82,"n":"Sony","f":"|Video games|","p":1}},{"type":"Feature","geometry":{"type":"Point","coordinates":[-121.9623,37.2358]},"properties":{"k":"55f807ae3dcb066f","c":"#C7A35A","r":9.68,"s":"#070B10","w":1,"o":0.82,"n":"Netflix","f":"|Film, TV & streaming|","p":1}},{"type":"Feature","geometry":{"type":"Point","coordinates":[-74.0019,40.7538]},"properties":{"k":"eb98dec6cdf9dd35","c":"#C7A35A","r":9.68,"s":"#070B10","w":1,"o":0.82,"n":"Warner Bros. Discovery","f":"|Film, TV & streaming|","p":1}},{"type":"Feature","geometry":{"type":"Point","coordinates":[-75.1652,39.9526]},"properties":{"k":"5b71f19a6482a17b","c":"#C7A35A","r":9.45,"s":"#070B10","w":1,"o":0.82,"n":"Comcast / NBCUniversal","f":"|Film, TV & streaming|","p":1}},{"type":"Feature","geometry":{"type":"Point","coordinates":[113.934,22.5403]},"properties":{"k":"1afe21a3ce609ab8","c":"#5FA98A","r":8.97,"s":"#070B10","w":1,"o":0.82,"n":"Tencent","f":"|Video games|","p":1}},{"type":"Feature","geometry":{"type":"Point","coordinates":[-73.9772,40.7637]},"properties":{"k":"26a57cc0e131f147","c":"#C7A35A","r":8.89,"s":"#070B10","w":1,"o":0.82,"n":"Paramount Skydance","f":"|Film, TV & streaming|","p":1}},{"type":"Feature","geometry":{"type":"Point","coordinates":[-118.4,34.07]},"properties":{"k":"3ac1b4aecf974d3b","c":"#CF6A5E","r":8.35,"s":"#070B10","w":1,"o":0.82,"n":"Live Nation","f":"|Live entertainment & theme parks|","p":1}},{"type":"Feature","geometry":{"type":"Point","coordinates":[-122.1284,47.6396]},"properties":{"k":"f455b3b62cab3520","c":"#5FA98A","r":8.26,"s":"#070B10","w":1,"o":0.82,"n":"Microsoft (Xbox)","f":"|Video games|","p":1}},{"type":"Feature","geometry":{"type":"Point","coordinates":[18.059,59.3346]},"properties":{"k":"3369f56558fc8d14","c":"#6699C9","r":7.63,"s":"#070B10","w":1,"o":0.82,"n":"Spotify","f":"|Music|","p":1}},{"type":"Feature","geometry":{"type":"Point","coordinates":[120.099,30.287]},"properties":{"k":"6f3649d2b416a534","c":"#5FA98A","r":7.52,"s":"#070B10","w":1,"o":0.82,"n":"NetEase","f":"|Video games|","p":1}},{"type":"Feature","geometry":{"type":"Point","coordinates":[-73.982,40.7589]},"properties":{"k":"13dfd76b83fc5330","c":"#C7A35A","r":7.4,"s":"#070B10","w":1,"o":0.82,"n":"Fox Entertainment","f":"|Film, TV & streaming|","p":1}},{"type":"Feature","geometry":{"type":"Point","coordinates":[-122.3321,47.6062]},"properties":{"k":"0c0926f4ae8a0093","c":"#C7A35A","r":7.28,"s":"#070B10","w":1,"o":0.82,"n":"Amazon (entertainment)","f":"|Film, TV & streaming|","p":1}},{"type":"Feature","geometry":{"type":"Point","coordinates":[5.175,52.23]},"properties":{"k":"90d40e0b89831c59","c":"#6699C9","r":7.19,"s":"#070B10","w":1,"o":0.82,"n":"Universal Music Group","f":"|Music|","p":1}},{"type":"Feature","geometry":{"type":"Point","coordinates":[135.756,34.971]},"properties":{"k":"c6c3eb48f7b6e375","c":"#5FA98A","r":7.15,"s":"#070B10","w":1,"o":0.82,"n":"Nintendo","f":"|Video games|","p":1}},{"type":"Feature","geometry":{"type":"Point","coordinates":[72.8777,19.076]},"properties":{"k":"df8b11f93be91171","c":"#C7A35A","r":6.66,"s":"#070B10","w":1,"o":0.82,"n":"Reliance / JioStar","f":"|Film, TV & streaming|","p":1}},{"type":"Feature","geometry":{"type":"Point","coordinates":[139.71,35.73]},"properties":{"k":"eb93b5a8dc6e18d3","c":"#5FA98A","r":6.57,"s":"#070B10","w":1,"o":0.82,"n":"Bandai Namco","f":"|Video games|","p":1}},{"type":"Feature","geometry":{"type":"Point","coordinates":[-122.264,37.529]},"properties":{"k":"c19fc118228abefc","c":"#5FA98A","r":6.5,"s":"#070B10","w":1,"o":0.82,"n":"Electronic Arts","f":"|Video games|","p":1}},{"type":"Feature","geometry":{"type":"Point","coordinates":[2.277,48.85]},"properties":{"k":"a8cf8fd4b84b5363","c":"#C7A35A","r":6.4,"s":"#070B10","w":1,"o":0.82,"n":"Vivendi / Canal+","f":"|Film, TV & streaming|","p":1}},{"type":"Feature","geometry":{"type":"Point","coordinates":[-74.003,40.748]},"properties":{"k":"a40fb005d901d7a0","c":"#6699C9","r":6.31,"s":"#070B10","w":1,"o":0.82,"n":"Warner Music Group","f":"|Music|","p":1}},{"type":"Feature","geometry":{"type":"Point","coordinates":[-78.78,35.79]},"properties":{"k":"12f3dd8e8e1fc4e9","c":"#5FA98A","r":6.23,"s":"#070B10","w":1,"o":0.82,"n":"Epic Games","f":"|Video games|","p":1}},{"type":"Feature","geometry":{"type":"Point","coordinates":[-73.991,40.743]},"properties":{"k":"2e22b8e55e8e663f","c":"#5FA98A","r":6.15,"s":"#070B10","w":1,"o":0.82,"n":"Take-Two Interactive","f":"|Video games|","p":1}},{"type":"Feature","geometry":{"type":"Point","coordinates":[2.33,48.872]},"properties":{"k":"f9eb96b0e1b6a8d6","c":"#C7A35A","r":6.04,"s":"#070B10","w":1,"o":0.82,"n":"Banijay (FL Entertainment)","f":"|Film, TV & streaming|","p":1}},{"type":"Feature","geometry":{"type":"Point","coordinates":[-122.195,47.615]},"properties":{"k":"58e3ea16287d593b","c":"#5FA98A","r":6.04,"s":"#070B10","w":1,"o":0.82,"n":"Valve","f":"|Video games|","p":1}},{"type":"Feature","geometry":{"type":"Point","coordinates":[-94.63,38.917]},"properties":{"k":"f1facb5c8a2ed369","c":"#A986C2","r":5.92,"s":"#070B10","w":1,"o":0.82,"n":"AMC Theatres","f":"|Cinema exhibition|","p":1}},{"type":"Feature","geometry":{"type":"Point","coordinates":[-121.975,37.397]},"properties":{"k":"e2fd776bc958a276","c":"#C7A35A","r":5.83,"s":"#070B10","w":1,"o":0.82,"n":"Roku","f":"|Film, TV & streaming|","p":1}},{"type":"Feature","geometry":{"type":"Point","coordinates":[116.274,40.041]},"properties":{"k":"0a9df218b0da9500","c":"#C7A35A","r":5.83,"s":"#070B10","w":1,"o":0.82,"n":"iQIYI","f":"|Film, TV & streaming|","p":1}},{"type":"Feature","geometry":{"type":"Point","coordinates":[139.75,35.626]},"properties":{"k":"3263c11af3e703dc","c":"#5FA98A","r":5.83,"s":"#070B10","w":1,"o":0.82,"n":"Sega Sammy","f":"|Video games|","p":1}},{"type":"Feature","geometry":{"type":"Point","coordinates":[121.5,31.2]},"properties":{"k":"23835f254cf169b7","c":"#5FA98A","r":5.83,"s":"#070B10","w":1,"o":0.82,"n":"HoYoverse (miHoYo)","f":"|Video games|","p":1}},{"type":"Feature","geometry":{"type":"Point","coordinates":[-118.4912,34.0195]},"properties":{"k":"85464c7b4f33e33a","c":"#C7A35A","r":5.83,"s":"#070B10","w":1,"o":0.82,"n":"Lionsgate / Starz","f":"|Film, TV & streaming|","p":1}},{"type":"Feature","geometry":{"type":"Point","coordinates":[-122.326,37.563]},"properties":{"k":"8fa264e9ef271036","c":"#5FA98A","r":5.73,"s":"#070B10","w":1,"o":0.82,"n":"Roblox","f":"|Video games|","p":1}},{"type":"Feature","geometry":{"type":"Point","coordinates":[121.4737,31.2304]},"properties":{"k":"10d26d89f12983fc","c":"#C7A35A","r":5.7,"s":"#070B10","w":1,"o":0.82,"n":"Bilibili","f":"|Film, TV & streaming|","p":1}},{"type":"Feature","geometry":{"type":"Point","coordinates":[-80.843,35.227]},"properties":{"k":"2bfac06174ce3ca3","c":"#CF6A5E","r":5.67,"s":"#070B10","w":1,"o":0.82,"n":"Six Flags (Cedar Fair)","f":"|Live entertainment & theme parks|","p":1}},{"type":"Feature","geometry":{"type":"Point","coordinates":[-96.749,33.049]},"properties":{"k":"85de4b8cfabbf968","c":"#A986C2","r":5.67,"s":"#070B10","w":1,"o":0.82,"n":"Cinemark","f":"|Cinema exhibition|","p":1}},{"type":"Feature","geometry":{"type":"Point","coordinates":[126.8895,37.5665]},"properties":{"k":"d990160347ec30bc","c":"#C7A35A","r":5.56,"s":"#070B10","w":1,"o":0.82,"n":"CJ ENM","f":"|Film, TV & streaming|","p":1}},{"type":"Feature","geometry":{"type":"Point","coordinates":[127.11,37.402]},"properties":{"k":"ed464313994bdeca","c":"#5FA98A","r":5.56,"s":"#070B10","w":1,"o":0.82,"n":"Nexon","f":"|Video games|","p":1}},{"type":"Feature","geometry":{"type":"Point","coordinates":[-43.201,-22.951]},"properties":{"k":"410c1cf164c4451f","c":"#C7A35A","r":5.56,"s":"#070B10","w":1,"o":0.82,"n":"Globo","f":"|Film, TV & streaming|","p":1}},{"type":"Feature","geometry":{"type":"Point","coordinates":[-118.396,34.022]},"properties":{"k":"0709c4a293f4cb5a","c":"#5FA98A","r":5.56,"s":"#070B10","w":1,"o":0.82,"n":"Scopely","f":"|Video games|","p":1}},{"type":"Feature","geometry":{"type":"Point","coordinates":[-0.13,51.515]},"properties":{"k":"a6a5735481b7abbe","c":"#A986C2","r":5.56,"s":"#070B10","w":1,"o":0.82,"n":"Cineworld / Regal","f":"|Cinema exhibition|","p":1}},{"type":"Feature","geometry":{"type":"Point","coordinates":[-73.539,41.057]},"properties":{"k":"fdefd658724124cb","c":"#CF6A5E","r":5.52,"s":"#070B10","w":1,"o":0.82,"n":"TKO (WWE + UFC)","f":"|Live entertainment & theme parks|","p":1}},{"type":"Feature","geometry":{"type":"Point","coordinates":[-1.98,50.72]},"properties":{"k":"35bfc6c7553ffb06","c":"#CF6A5E","r":5.48,"s":"#070B10","w":1,"o":0.82,"n":"Merlin Entertainments","f":"|Live entertainment & theme parks|","p":1}},{"type":"Feature","geometry":{"type":"Point","coordinates":[11.575,48.137]},"properties":{"k":"366632f782e8a1cb","c":"#CF6A5E","r":5.48,"s":"#070B10","w":1,"o":0.82,"n":"CTS Eventim","f":"|Live entertainment & theme parks|","p":1}},{"type":"Feature","geometry":{"type":"Point","coordinates":[139.743,35.689]},"properties":{"k":"4c88aa9ca0e8d087","c":"#5FA98A","r":5.44,"s":"#070B10","w":1,"o":0.82,"n":"Konami","f":"|Video games|","p":1}},{"type":"Feature","geometry":{"type":"Point","coordinates":[139.74,35.623]},"properties":{"k":"82768278b14c351d","c":"#5FA98A","r":5.44,"s":"#070B10","w":1,"o":0.82,"n":"Square Enix","f":"|Video games|","p":1}},{"type":"Feature","geometry":{"type":"Point","coordinates":[34.809,32.162]},"properties":{"k":"145509e402309134","c":"#5FA98A","r":5.44,"s":"#070B10","w":1,"o":0.82,"n":"Playtika","f":"|Video games|","p":1}},{"type":"Feature","geometry":{"type":"Point","coordinates":[-73.983,40.77]},"properties":{"k":"3347fc309742c881","c":"#C7A35A","r":5.4,"s":"#070B10","w":1,"o":0.82,"n":"AMC Networks","f":"|Film, TV & streaming|","p":1}},{"type":"Feature","geometry":{"type":"Point","coordinates":[2.441,48.861]},"properties":{"k":"19eae1639a38be9d","c":"#5FA98A","r":5.36,"s":"#070B10","w":1,"o":0.82,"n":"Ubisoft","f":"|Video games|","p":1}},{"type":"Feature","geometry":{"type":"Point","coordinates":[139.766,35.672]},"properties":{"k":"e2fd0211e36edd16","c":"#C7A35A","r":5.27,"s":"#070B10","w":1,"o":0.82,"n":"Toho","f":"|Film, TV & streaming|","p":1}},{"type":"Feature","geometry":{"type":"Point","coordinates":[127.034,37.483]},"properties":{"k":"b5ab04724ec6e65d","c":"#5FA98A","r":5.27,"s":"#070B10","w":1,"o":0.82,"n":"Krafton","f":"|Video games|","p":1}},{"type":"Feature","geometry":{"type":"Point","coordinates":[127.056,37.506]},"properties":{"k":"2e9c7d689d92a5e8","c":"#5FA98A","r":5.27,"s":"#070B10","w":1,"o":0.82,"n":"Netmarble","f":"|Video games|","p":1}},{"type":"Feature","geometry":{"type":"Point","coordinates":[127.021,37.524]},"properties":{"k":"424204139abda9bd","c":"#6699C9","r":5.27,"s":"#070B10","w":1,"o":0.82,"n":"HYBE","f":"|Music|","p":1}},{"type":"Feature","geometry":{"type":"Point","coordinates":[103.851,1.284]},"properties":{"k":"bc0761079924c8b2","c":"#5FA98A","r":5.27,"s":"#070B10","w":1,"o":0.82,"n":"Sea / Garena","f":"|Video games|","p":1}},{"type":"Feature","geometry":{"type":"Point","coordinates":[116.44,39.918]},"properties":{"k":"fdf8235a42ebad64","c":"#A986C2","r":5.27,"s":"#070B10","w":1,"o":0.82,"n":"Wanda Film","f":"|Cinema exhibition|","p":1}},{"type":"Feature","geometry":{"type":"Point","coordinates":[113.327,23]},"properties":{"k":"420a659d23464415","c":"#CF6A5E","r":5.27,"s":"#070B10","w":1,"o":0.82,"n":"Chimelong","f":"|Live entertainment & theme parks|","p":1}},{"type":"Feature","geometry":{"type":"Point","coordinates":[-81.464,28.411]},"properties":{"k":"b95fb19ecaf568b8","c":"#CF6A5E","r":5.18,"s":"#070B10","w":1,"o":0.82,"n":"United Parks (SeaWorld)","f":"|Live entertainment & theme parks|","p":1}},{"type":"Feature","geometry":{"type":"Point","coordinates":[-101.195,19.703]},"properties":{"k":"62494f3cc627c9bb","c":"#A986C2","r":5.13,"s":"#070B10","w":1,"o":0.82,"n":"Cinepolis","f":"|Cinema exhibition|","p":1}},{"type":"Feature","geometry":{"type":"Point","coordinates":[2.39,48.84]},"properties":{"k":"0ecd229d65e3680a","c":"#6699C9","r":5.0,"s":"#070B10","w":1,"o":0.82,"n":"Believe","f":"|Music|","p":1}},{"type":"Feature","geometry":{"type":"Point","coordinates":[13.391,52.506]},"properties":{"k":"c9719a796f1c7fed","c":"#6699C9","r":5.0,"s":"#070B10","w":1,"o":0.82,"n":"BMG","f":"|Music|","p":1}},{"type":"Feature","geometry":{"type":"Point","coordinates":[72.863,19.118]},"properties":{"k":"9e8949b152ea3bfc","c":"#C7A35A","r":5.0,"s":"#070B10","w":1,"o":0.82,"n":"Zee Entertainment","f":"|Film, TV & streaming|","p":1}},{"type":"Feature","geometry":{"type":"Point","coordinates":[127.05,37.538]},"properties":{"k":"eb95969d8971c90a","c":"#6699C9","r":5.0,"s":"#070B10","w":1,"o":0.82,"n":"SM Entertainment","f":"|Music|","p":1}},{"type":"Feature","geometry":{"type":"Point","coordinates":[72.87,19.13]},"properties":{"k":"ac2acdcf71c822a2","c":"#A986C2","r":5.0,"s":"#070B10","w":1,"o":0.82,"n":"PVR Inox","f":"|Cinema exhibition|","p":1}},{"type":"Feature","geometry":{"type":"Point","coordinates":[-118.3247,34.1561]},"properties":{"k":"740d7e9fecc6b5a4","c":"#C7A35A","r":12.0,"s":"#070B10","w":1,"o":0.82,"n":"The Walt Disney Company","f":"|Owners: Public company|","p":1}},{"type":"Feature","geometry":{"type":"Point","coordinates":[-74.001,40.7531]},"properties":{"k":"4d96a5a63bd33f47","c":"#6699C9","r":12.0,"s":"#070B10","w":1,"o":0.82,"n":"Index-fund Big Three","f":"|Owners: Institutional / fund|","p":1}},{"type":"Feature","geometry":{"type":"Point","coordinates":[139.743,35.631]},"properties":{"k":"71fd76390399b5d4","c":"#C7A35A","r":9.5,"s":"#070B10","w":1,"o":0.82,"n":"Sony","f":"|Owners: Public company|","p":1}},{"type":"Feature","geometry":{"type":"Point","coordinates":[-121.9623,37.2358]},"properties":{"k":"b74af93f8b809604","c":"#C7A35A","r":9.5,"s":"#070B10","w":1,"o":0.82,"n":"Netflix","f":"|Owners: Public company|","p":1}},{"type":"Feature","geometry":{"type":"Point","coordinates":[-74.0019,40.7538]},"properties":{"k":"429a1b49a8d44f1b","c":"#C7A35A","r":9.5,"s":"#070B10","w":1,"o":0.82,"n":"Warner Bros. Discovery","f":"|Owners: Public company|","p":1}},{"type":"Feature","geometry":{"type":"Point","coordinates":[-75.1652,39.9526]},"properties":{"k":"c9e5f0edde7dd21e","c":"#5FA98A","r":9.5,"s":"#070B10","w":1,"o":0.82,"n":"Roberts family (Comcast)","f":"|Owners: Family / founder-controlled|","p":1}},{"type":"Feature","geometry":{"type":"Point","coordinates":[113.934,22.5403]},"properties":{"k":"6e1337d27ae4deda","c":"#C7A35A","r":9.5,"s":"#070B10","w":1,"o":0.82,"n":"Ma Huateng / Tencent","f":"|Owners: Public company|","p":1}},{"type":"Feature","geometry":{"type":"Point","coordinates":[-73.9772,40.7637]},"properties":{"k":"1706be5ab9bdc808","c":"#5FA98A","r":9.5,"s":"#070B10","w":1,"o":0.82,"n":"Ellison family (Paramount Skydance)","f":"|Owners: Family / founder-controlled|","p":1}},{"type":"Feature","geometry":{"type":"Point","coordinates":[-122.1284,47.6396]},"properties":{"k":"5e6e8a2312b01a7d","c":"#C7A35A","r":9.5,"s":"#070B10","w":1,"o":0.82,"n":"Microsoft","f":"|Owners: Public company|","p":1}},{"type":"Feature","geometry":{"type":"Point","coordinates":[-104.9878,39.6478]},"properties":{"k":"b6127d1a549cbba7","c":"#5FA98A","r":9.5,"s":"#070B10","w":1,"o":0.82,"n":"Liberty Media / John Malone","f":"|Owners: Family / founder-controlled|","p":1}},{"type":"Feature","geometry":{"type":"Point","coordinates":[46.6753,24.7136]},"properties":{"k":"ec17325084851c46","c":"#CF6A5E","r":9.5,"s":"#070B10","w":1,"o":0.82,"n":"Saudi PIF / Savvy Games","f":"|Owners: Government / sovereign fund|","p":1}},{"type":"Feature","geometry":{"type":"Point","coordinates":[18.059,59.3346]},"properties":{"k":"a2f2cf6ee0c94e86","c":"#5FA98A","r":7.5,"s":"#070B10","w":1,"o":0.82,"n":"Daniel Ek (Spotify)","f":"|Owners: Family / founder-controlled|","p":1}},{"type":"Feature","geometry":{"type":"Point","coordinates":[120.099,30.287]},"properties":{"k":"31c8c8bcf406bc95","c":"#5FA98A","r":7.5,"s":"#070B10","w":1,"o":0.82,"n":"William Ding (NetEase)","f":"|Owners: Family / founder-controlled|","p":1}},{"type":"Feature","geometry":{"type":"Point","coordinates":[2.277,48.85]},"properties":{"k":"7196c55f191768a6","c":"#5FA98A","r":7.5,"s":"#070B10","w":1,"o":0.82,"n":"Bollore family (Vivendi)","f":"|Owners: Family / founder-controlled|","p":1}},{"type":"Feature","geometry":{"type":"Point","coordinates":[-122.3321,47.6062]},"properties":{"k":"81628cbf9b617d7e","c":"#C7A35A","r":7.5,"s":"#070B10","w":1,"o":0.82,"n":"Bezos / Amazon","f":"|Owners: Public company|","p":1}},{"type":"Feature","geometry":{"type":"Point","coordinates":[135.756,34.971]},"properties":{"k":"7dbb6754d41c9ecc","c":"#C7A35A","r":7.5,"s":"#070B10","w":1,"o":0.82,"n":"Nintendo","f":"|Owners: Public company|","p":1}},{"type":"Feature","geometry":{"type":"Point","coordinates":[72.8777,19.076]},"properties":{"k":"8325cce870d033e8","c":"#5FA98A","r":7.5,"s":"#070B10","w":1,"o":0.82,"n":"Ambani / Reliance","f":"|Owners: Family / founder-controlled|","p":1}},{"type":"Feature","geometry":{"type":"Point","coordinates":[139.71,35.73]},"properties":{"k":"7be97f342023c671","c":"#C7A35A","r":7.5,"s":"#070B10","w":1,"o":0.82,"n":"Bandai Namco","f":"|Owners: Public company|","p":1}},{"type":"Feature","geometry":{"type":"Point","coordinates":[8.385,51.907]},"properties":{"k":"f676bb4e98739004","c":"#5FA98A","r":7.5,"s":"#070B10","w":1,"o":0.82,"n":"Bertelsmann / Mohn family","f":"|Owners: Family / founder-controlled|","p":1}},{"type":"Feature","geometry":{"type":"Point","coordinates":[-74.003,40.748]},"properties":{"k":"fcbdb19023839012","c":"#5FA98A","r":7.5,"s":"#070B10","w":1,"o":0.82,"n":"Len Blavatnik / Access","f":"|Owners: Family / founder-controlled|","p":1}},{"type":"Feature","geometry":{"type":"Point","coordinates":[-73.982,40.7589]},"properties":{"k":"4f02ac26147b944b","c":"#5FA98A","r":7.5,"s":"#070B10","w":1,"o":0.82,"n":"Murdoch family (Fox)","f":"|Owners: Family / founder-controlled|","p":1}},{"type":"Feature","geometry":{"type":"Point","coordinates":[-43.201,-22.951]},"properties":{"k":"8d5b8480ccb85e00","c":"#5FA98A","r":7.5,"s":"#070B10","w":1,"o":0.82,"n":"Marinho family (Globo)","f":"|Owners: Family / founder-controlled|","p":1}},{"type":"Feature","geometry":{"type":"Point","coordinates":[-122.182,37.453]},"properties":{"k":"b54204a696e74d44","c":"#6699C9","r":7.5,"s":"#070B10","w":1,"o":0.82,"n":"Silver Lake / Egon Durban","f":"|Owners: Institutional / fund|","p":1}},{"type":"Feature","geometry":{"type":"Point","coordinates":[-122.264,37.529]},"properties":{"k":"b6540a6027489806","c":"#C7A35A","r":5.5,"s":"#070B10","w":1,"o":0.82,"n":"Electronic Arts","f":"|Owners: Public company|","p":1}},{"type":"Feature","geometry":{"type":"Point","coordinates":[-78.78,35.79]},"properties":{"k":"e6ed2494375352e6","c":"#5FA98A","r":5.5,"s":"#070B10","w":1,"o":0.82,"n":"Tim Sweeney (Epic Games)","f":"|Owners: Family / founder-controlled|","p":1}},{"type":"Feature","geometry":{"type":"Point","coordinates":[-73.991,40.743]},"properties":{"k":"1398ec5ac79c1a7c","c":"#5FA98A","r":5.5,"s":"#070B10","w":1,"o":0.82,"n":"Strauss Zelnick (Take-Two)","f":"|Owners: Family / founder-controlled|","p":1}},{"type":"Feature","geometry":{"type":"Point","coordinates":[-122.195,47.615]},"properties":{"k":"f66f7e94d6e865f3","c":"#5FA98A","r":5.5,"s":"#070B10","w":1,"o":0.82,"n":"Gabe Newell (Valve)","f":"|Owners: Family / founder-controlled|","p":1}},{"type":"Feature","geometry":{"type":"Point","coordinates":[-94.63,38.917]},"properties":{"k":"ff069cb7005d51e8","c":"#C7A35A","r":5.5,"s":"#070B10","w":1,"o":0.82,"n":"Adam Aron (AMC Theatres)","f":"|Owners: Public company|","p":1}},{"type":"Feature","geometry":{"type":"Point","coordinates":[-121.975,37.397]},"properties":{"k":"47ed1b5d21f2e1b9","c":"#5FA98A","r":5.5,"s":"#070B10","w":1,"o":0.82,"n":"Anthony Wood (Roku)","f":"|Owners: Family / founder-controlled|","p":1}},{"type":"Feature","geometry":{"type":"Point","coordinates":[-122.326,37.563]},"properties":{"k":"018a8e0d4a542186","c":"#5FA98A","r":5.5,"s":"#070B10","w":1,"o":0.82,"n":"David Baszucki (Roblox)","f":"|Owners: Family / founder-controlled|","p":1}},{"type":"Feature","geometry":{"type":"Point","coordinates":[126.8895,37.5665]},"properties":{"k":"7deae894651e864f","c":"#5FA98A","r":5.5,"s":"#070B10","w":1,"o":0.82,"n":"CJ Group (Lee family)","f":"|Owners: Family / founder-controlled|","p":1}},{"type":"Feature","geometry":{"type":"Point","coordinates":[127.11,37.402]},"properties":{"k":"8b89199072362cb3","c":"#5FA98A","r":5.5,"s":"#070B10","w":1,"o":0.82,"n":"NXC / Kim family (Nexon)","f":"|Owners: Family / founder-controlled|","p":1}},{"type":"Feature","geometry":{"type":"Point","coordinates":[-0.128,51.507]},"properties":{"k":"0f566639d53cb219","c":"#6699C9","r":5.5,"s":"#070B10","w":1,"o":0.82,"n":"Blackstone + KIRKBI (Merlin)","f":"|Owners: Institutional / fund|","p":1}},{"type":"Feature","geometry":{"type":"Point","coordinates":[127.021,37.524]},"properties":{"k":"b7e007824c5ccafe","c":"#5FA98A","r":5.5,"s":"#070B10","w":1,"o":0.82,"n":"Bang Si-hyuk (HYBE)","f":"|Owners: Family / founder-controlled|","p":1}},{"type":"Feature","geometry":{"type":"Point","coordinates":[116.44,39.918]},"properties":{"k":"26b45df4e52c36b9","c":"#5FA98A","r":5.5,"s":"#070B10","w":1,"o":0.82,"n":"Wang Jianlin / Wanda","f":"|Owners: Family / founder-controlled|","p":1}}],"tabs":{"cos":{"title":"The World's Largest Entertainment Companies","about":"Sized by share of the ~$1.4 trillion global entertainment market — what people spend on film, TV & streaming, video games, music, and live entertainment & theme parks. These entries account for roughly 42% of it; the rest is a long tail of game studios, local broadcasters, cinemas and venues. <span class=\"mono\">(2026)</span>","size":"Marker size = share of the ~$1.4T global entertainment market (consumer spending on content & experiences -- film/TV/streaming, games, music, live & parks; PwC E&M 2024 basis, excluding advertising and connectivity). Figures are each company's entertainment revenue (2024-25) from company reports; cross-segment giants (Sony, Tencent, Comcast, Disney) are shown by combined entertainment revenue. Private-company figures (Epic, Valve, HoYoverse, Garena, Chimelong) are estimates."},"own":{"title":"Who Owns Global Entertainment","about":"The studios, founders, families, funds and states behind the screens, speakers and stages. Sized by breadth of entertainment control. <span class=\"mono\">(2026)</span>","size":"Marker size = approximate breadth of entertainment control. A handful of US conglomerates plus founder-led tech and games firms dominate; sovereign funds (notably Saudi Arabia) and index funds are growing forces; many empires are family- or founder-controlled."}}}