{"type":"FeatureCollection","name":"Animal Fighting Locations Map","overlays":[],"filters":[{"label":"Type","values":[{"k":"bullfighting","label":"Bullfighting 0","n":59},{"k":"dogfighting","label":"Dog Fighting (ILLEGAL) 0","n":26},{"k":"cockfighting","label":"Cockfighting 0","n":16},{"k":"ram","label":"Ram Fighting 0","n":7},{"k":"cricket","label":"Cricket Fighting 0","n":5},{"k":"buffalo","label":"Buffalo Fighting 0","n":4},{"k":"camel","label":"Camel Wrestling 0","n":4},{"k":"betta","label":"Betta Fish 0","n":4},{"k":"spider","label":"Spider Fighting 0","n":4},{"k":"beetle","label":"Beetle Fighting 0","n":3},{"k":"quail","label":"Quail Fighting 0","n":3},{"k":"horse","label":"Horse Fighting 0","n":2},{"k":"badger","label":"Badger Baiting (ILLEGAL) 0","n":2},{"k":"bear","label":"Bear Baiting (ILLEGAL) 0","n":2},{"k":"monkey","label":"Monkey Fighting (ILLEGAL) 0","n":2},{"k":"scorpion","label":"Scorpion Fighting 0","n":1}]}],"features":[{"type":"Feature","geometry":{"type":"Point","coordinates":[-3.6672,40.431]},"properties":{"k":"46c8ec80afa1fb75","c":"#9E5261","r":8.0,"s":"#FFFFFF","w":2,"o":0.9,"n":"Plaza de Toros de Las Ventas","f":"|bullfighting|","p":1}},{"type":"Feature","geometry":{"type":"Point","coordinates":[-5.9987,37.386]},"properties":{"k":"08e749736e43be43","c":"#9E5261","r":8.0,"s":"#FFFFFF","w":2,"o":0.9,"n":"Plaza de Toros de la Real Maestranza","f":"|bullfighting|","p":1}},{"type":"Feature","geometry":{"type":"Point","coordinates":[2.1811,41.3954]},"properties":{"k":"ce4bf837882e5825","c":"#9E5261","r":8.0,"s":"#FFFFFF","w":2,"o":0.9,"n":"Plaza de Toros Monumental","f":"|bullfighting|","p":1}},{"type":"Feature","geometry":{"type":"Point","coordinates":[-0.3763,39.4699]},"properties":{"k":"ade30a59ace4b2c1","c":"#9E5261","r":8.0,"s":"#FFFFFF","w":2,"o":0.9,"n":"Plaza de Toros de Valencia","f":"|bullfighting|","p":1}},{"type":"Feature","geometry":{"type":"Point","coordinates":[-5.1651,36.7418]},"properties":{"k":"2b32012b1f423625","c":"#9E5261","r":8.0,"s":"#FFFFFF","w":2,"o":0.9,"n":"Plaza de Toros de Ronda","f":"|bullfighting|","p":1}},{"type":"Feature","geometry":{"type":"Point","coordinates":[-4.4167,36.7184]},"properties":{"k":"41c810ada6ad4b92","c":"#9E5261","r":8.0,"s":"#FFFFFF","w":2,"o":0.9,"n":"Plaza de Toros de M\u00e1laga","f":"|bullfighting|","p":1}},{"type":"Feature","geometry":{"type":"Point","coordinates":[-4.7794,37.8782]},"properties":{"k":"def3b640bc272afe","c":"#9E5261","r":8.0,"s":"#FFFFFF","w":2,"o":0.9,"n":"Plaza de Toros de C\u00f3rdoba","f":"|bullfighting|","p":1}},{"type":"Feature","geometry":{"type":"Point","coordinates":[-0.8891,41.6488]},"properties":{"k":"c67cb6779a4390c3","c":"#9E5261","r":8.0,"s":"#FFFFFF","w":2,"o":0.9,"n":"Plaza de Toros de Zaragoza","f":"|bullfighting|","p":1}},{"type":"Feature","geometry":{"type":"Point","coordinates":[-2.9253,43.263]},"properties":{"k":"61862c667498f06a","c":"#9E5261","r":8.0,"s":"#FFFFFF","w":2,"o":0.9,"n":"Plaza de Toros de Bilbao","f":"|bullfighting|","p":1}},{"type":"Feature","geometry":{"type":"Point","coordinates":[-3.5986,37.1773]},"properties":{"k":"fa33f33a69a510fe","c":"#9E5261","r":8.0,"s":"#FFFFFF","w":2,"o":0.9,"n":"Plaza de Toros de Granada","f":"|bullfighting|","p":1}},{"type":"Feature","geometry":{"type":"Point","coordinates":[-1.6458,42.8125]},"properties":{"k":"439df7630db0dc1e","c":"#9E5261","r":8.0,"s":"#FFFFFF","w":2,"o":0.9,"n":"Plaza de Toros de Pamplona","f":"|bullfighting|","p":1}},{"type":"Feature","geometry":{"type":"Point","coordinates":[-1.1307,37.9922]},"properties":{"k":"92d948bdf0dffaf2","c":"#9E5261","r":8.0,"s":"#FFFFFF","w":2,"o":0.9,"n":"Plaza de Toros de Murcia","f":"|bullfighting|","p":1}},{"type":"Feature","geometry":{"type":"Point","coordinates":[-1.8585,38.9943]},"properties":{"k":"d4c33d395c3638c4","c":"#9E5261","r":8.0,"s":"#FFFFFF","w":2,"o":0.9,"n":"Plaza de Toros de Albacete","f":"|bullfighting|","p":1}},{"type":"Feature","geometry":{"type":"Point","coordinates":[-4.7286,41.6488]},"properties":{"k":"3c67e26ca1ca84c6","c":"#9E5261","r":8.0,"s":"#FFFFFF","w":2,"o":0.9,"n":"Plaza de Toros de Valladolid","f":"|bullfighting|","p":1}},{"type":"Feature","geometry":{"type":"Point","coordinates":[-3.8099,43.4623]},"properties":{"k":"81ca4a6b3704d659","c":"#9E5261","r":8.0,"s":"#FFFFFF","w":2,"o":0.9,"n":"Plaza de Toros de Santander","f":"|bullfighting|","p":1}},{"type":"Feature","geometry":{"type":"Point","coordinates":[-2.445,42.4627]},"properties":{"k":"c2c67a17990c6e9b","c":"#9E5261","r":8.0,"s":"#FFFFFF","w":2,"o":0.9,"n":"Plaza de Toros de Logro\u00f1o","f":"|bullfighting|","p":1}},{"type":"Feature","geometry":{"type":"Point","coordinates":[-3.6969,42.3439]},"properties":{"k":"845cbb23fd47abf9","c":"#9E5261","r":8.0,"s":"#FFFFFF","w":2,"o":0.9,"n":"Plaza de Toros de Burgos","f":"|bullfighting|","p":1}},{"type":"Feature","geometry":{"type":"Point","coordinates":[-1.9812,43.3183]},"properties":{"k":"ae886c25d8f554d9","c":"#9E5261","r":8.0,"s":"#FFFFFF","w":2,"o":0.9,"n":"Plaza de Toros de San Sebasti\u00e1n","f":"|bullfighting|","p":1}},{"type":"Feature","geometry":{"type":"Point","coordinates":[-6.1369,36.6853]},"properties":{"k":"77590cae83e4f333","c":"#9E5261","r":8.0,"s":"#FFFFFF","w":2,"o":0.9,"n":"Plaza de Toros de Jerez de la Frontera","f":"|bullfighting|","p":1}},{"type":"Feature","geometry":{"type":"Point","coordinates":[-6.2934,36.5299]},"properties":{"k":"d995047a08c23e2f","c":"#9E5261","r":8.0,"s":"#FFFFFF","w":2,"o":0.9,"n":"Plaza de Toros de C\u00e1diz","f":"|bullfighting|","p":1}},{"type":"Feature","geometry":{"type":"Point","coordinates":[-0.4907,38.346]},"properties":{"k":"d8780800de3afe89","c":"#9E5261","r":8.0,"s":"#FFFFFF","w":2,"o":0.9,"n":"Plaza de Toros de Alicante","f":"|bullfighting|","p":1}},{"type":"Feature","geometry":{"type":"Point","coordinates":[-5.6611,43.5322]},"properties":{"k":"f56e59dd3294b18c","c":"#9E5261","r":8.0,"s":"#FFFFFF","w":2,"o":0.9,"n":"Plaza de Toros de Gij\u00f3n","f":"|bullfighting|","p":1}},{"type":"Feature","geometry":{"type":"Point","coordinates":[-5.664,40.9651]},"properties":{"k":"377d05ac3f1acc87","c":"#9E5261","r":8.0,"s":"#FFFFFF","w":2,"o":0.9,"n":"Plaza de Toros de Salamanca","f":"|bullfighting|","p":1}},{"type":"Feature","geometry":{"type":"Point","coordinates":[-6.9707,38.8794]},"properties":{"k":"038897ebeef26aea","c":"#9E5261","r":8.0,"s":"#FFFFFF","w":2,"o":0.9,"n":"Plaza de Toros de Badajoz","f":"|bullfighting|","p":1}},{"type":"Feature","geometry":{"type":"Point","coordinates":[-6.3724,39.4753]},"properties":{"k":"22652ca22cfb201b","c":"#9E5261","r":8.0,"s":"#FFFFFF","w":2,"o":0.9,"n":"Plaza de Toros de C\u00e1ceres","f":"|bullfighting|","p":1}},{"type":"Feature","geometry":{"type":"Point","coordinates":[1.2445,41.1189]},"properties":{"k":"a2a19e7715ae23aa","c":"#9E5261","r":8.0,"s":"#FFFFFF","w":2,"o":0.9,"n":"Plaza de Toros de Tarragona","f":"|bullfighting|","p":1}},{"type":"Feature","geometry":{"type":"Point","coordinates":[-0.0513,39.9864]},"properties":{"k":"8e9dc2b9722d295b","c":"#9E5261","r":8.0,"s":"#FFFFFF","w":2,"o":0.9,"n":"Plaza de Toros de Castell\u00f3n","f":"|bullfighting|","p":1}},{"type":"Feature","geometry":{"type":"Point","coordinates":[-3.7849,37.7796]},"properties":{"k":"d351f044ec457687","c":"#9E5261","r":8.0,"s":"#FFFFFF","w":2,"o":0.9,"n":"Plaza de Toros de Ja\u00e9n","f":"|bullfighting|","p":1}},{"type":"Feature","geometry":{"type":"Point","coordinates":[-2.4597,36.8381]},"properties":{"k":"6f8382964543db53","c":"#9E5261","r":8.0,"s":"#FFFFFF","w":2,"o":0.9,"n":"Plaza de Toros de Almer\u00eda","f":"|bullfighting|","p":1}},{"type":"Feature","geometry":{"type":"Point","coordinates":[-6.9447,37.2614]},"properties":{"k":"7b5efbbce3e2d463","c":"#9E5261","r":8.0,"s":"#FFFFFF","w":2,"o":0.9,"n":"Plaza de Toros de Huelva","f":"|bullfighting|","p":1}},{"type":"Feature","geometry":{"type":"Point","coordinates":[-9.1455,38.7412]},"properties":{"k":"3361b28d362ac191","c":"#9E5261","r":8.0,"s":"#FFFFFF","w":2,"o":0.9,"n":"Pra\u00e7a de Touros do Campo Pequeno","f":"|bullfighting|","p":1}},{"type":"Feature","geometry":{"type":"Point","coordinates":[-8.9882,38.9512]},"properties":{"k":"be6ae14c683cc11d","c":"#9E5261","r":8.0,"s":"#FFFFFF","w":2,"o":0.9,"n":"Pra\u00e7a de Touros de Vila Franca de Xira","f":"|bullfighting|","p":1}},{"type":"Feature","geometry":{"type":"Point","coordinates":[-9.4189,38.6979]},"properties":{"k":"c08dfa86bb6cbea6","c":"#9E5261","r":8.0,"s":"#FFFFFF","w":2,"o":0.9,"n":"Pra\u00e7a de Touros de Cascais","f":"|bullfighting|","p":1}},{"type":"Feature","geometry":{"type":"Point","coordinates":[-8.6868,39.2364]},"properties":{"k":"8bf2b0e5c7ec8229","c":"#9E5261","r":8.0,"s":"#FFFFFF","w":2,"o":0.9,"n":"Pra\u00e7a de Touros de Santar\u00e9m","f":"|bullfighting|","p":1}},{"type":"Feature","geometry":{"type":"Point","coordinates":[-7.907,38.5744]},"properties":{"k":"0faa0c1e444604d4","c":"#9E5261","r":8.0,"s":"#FFFFFF","w":2,"o":0.9,"n":"Pra\u00e7a de Touros de \u00c9vora","f":"|bullfighting|","p":1}},{"type":"Feature","geometry":{"type":"Point","coordinates":[4.3601,43.8338]},"properties":{"k":"d72d8a03adb44911","c":"#9E5261","r":8.0,"s":"#FFFFFF","w":2,"o":0.9,"n":"Ar\u00e8nes de N\u00eemes","f":"|bullfighting|","p":1}},{"type":"Feature","geometry":{"type":"Point","coordinates":[4.6309,43.6776]},"properties":{"k":"846ca0531d76267a","c":"#9E5261","r":8.0,"s":"#FFFFFF","w":2,"o":0.9,"n":"Ar\u00e8nes d'Arles","f":"|bullfighting|","p":1}},{"type":"Feature","geometry":{"type":"Point","coordinates":[3.215,43.3442]},"properties":{"k":"1a22e63424e7c124","c":"#9E5261","r":8.0,"s":"#FFFFFF","w":2,"o":0.9,"n":"Ar\u00e8nes de B\u00e9ziers","f":"|bullfighting|","p":1}},{"type":"Feature","geometry":{"type":"Point","coordinates":[-1.4747,43.4933]},"properties":{"k":"41c0e2c37ae946d0","c":"#9E5261","r":8.0,"s":"#FFFFFF","w":2,"o":0.9,"n":"Ar\u00e8nes de Bayonne","f":"|bullfighting|","p":1}},{"type":"Feature","geometry":{"type":"Point","coordinates":[-1.05,43.7097]},"properties":{"k":"142c39538f289072","c":"#9E5261","r":8.0,"s":"#FFFFFF","w":2,"o":0.9,"n":"Ar\u00e8nes de Dax","f":"|bullfighting|","p":1}},{"type":"Feature","geometry":{"type":"Point","coordinates":[-0.4986,43.8904]},"properties":{"k":"7de72c6e92abcc7c","c":"#9E5261","r":8.0,"s":"#FFFFFF","w":2,"o":0.9,"n":"Ar\u00e8nes de Mont-de-Marsan","f":"|bullfighting|","p":1}},{"type":"Feature","geometry":{"type":"Point","coordinates":[-99.1803,19.4025]},"properties":{"k":"23620008639e3d64","c":"#9E5261","r":8.0,"s":"#FFFFFF","w":2,"o":0.9,"n":"Plaza M\u00e9xico","f":"|bullfighting|","p":1}},{"type":"Feature","geometry":{"type":"Point","coordinates":[-117.0382,32.5149]},"properties":{"k":"2380f8655b8b35d4","c":"#9E5261","r":8.0,"s":"#FFFFFF","w":2,"o":0.9,"n":"Plaza de Toros Monumental de Tijuana","f":"|bullfighting|","p":1}},{"type":"Feature","geometry":{"type":"Point","coordinates":[-102.2916,21.8818]},"properties":{"k":"d865e77446b53a07","c":"#9E5261","r":8.0,"s":"#FFFFFF","w":2,"o":0.9,"n":"Plaza de Toros Monumental de Aguascalientes","f":"|bullfighting|","p":1}},{"type":"Feature","geometry":{"type":"Point","coordinates":[-103.3467,20.6737]},"properties":{"k":"0d766f181a4363de","c":"#9E5261","r":8.0,"s":"#FFFFFF","w":2,"o":0.9,"n":"Plaza de Toros El Progreso","f":"|bullfighting|","p":1}},{"type":"Feature","geometry":{"type":"Point","coordinates":[-100.3899,20.5888]},"properties":{"k":"3ca8205ee2fc1140","c":"#9E5261","r":8.0,"s":"#FFFFFF","w":2,"o":0.9,"n":"Plaza de Toros Santa Mar\u00eda","f":"|bullfighting|","p":1}},{"type":"Feature","geometry":{"type":"Point","coordinates":[-100.3161,25.6866]},"properties":{"k":"7aea214ad56c0a85","c":"#9E5261","r":8.0,"s":"#FFFFFF","w":2,"o":0.9,"n":"Plaza de Toros La Monumental","f":"|bullfighting|","p":1}},{"type":"Feature","geometry":{"type":"Point","coordinates":[-101.6806,21.1215]},"properties":{"k":"8e237f7ec173bee8","c":"#9E5261","r":8.0,"s":"#FFFFFF","w":2,"o":0.9,"n":"Plaza de Toros de Le\u00f3n","f":"|bullfighting|","p":1}},{"type":"Feature","geometry":{"type":"Point","coordinates":[-101.1895,19.706]},"properties":{"k":"b064b3d7ae1d0d05","c":"#9E5261","r":8.0,"s":"#FFFFFF","w":2,"o":0.9,"n":"Plaza de Toros de Morelia","f":"|bullfighting|","p":1}},{"type":"Feature","geometry":{"type":"Point","coordinates":[-74.0632,4.6482]},"properties":{"k":"857cf77c26ff81ea","c":"#9E5261","r":8.0,"s":"#FFFFFF","w":2,"o":0.9,"n":"Plaza de Toros de Santamar\u00eda","f":"|bullfighting|","p":1}},{"type":"Feature","geometry":{"type":"Point","coordinates":[-75.5658,6.2476]},"properties":{"k":"cae83acb2c62234f","c":"#9E5261","r":8.0,"s":"#FFFFFF","w":2,"o":0.9,"n":"Plaza de Toros La Macarena","f":"|bullfighting|","p":1}},{"type":"Feature","geometry":{"type":"Point","coordinates":[-76.532,3.4516]},"properties":{"k":"b18ead60a6093341","c":"#9E5261","r":8.0,"s":"#FFFFFF","w":2,"o":0.9,"n":"Plaza de Toros de Cali","f":"|bullfighting|","p":1}},{"type":"Feature","geometry":{"type":"Point","coordinates":[-75.5174,5.0689]},"properties":{"k":"134b21e1fee68c01","c":"#9E5261","r":8.0,"s":"#FFFFFF","w":2,"o":0.9,"n":"Plaza de Toros de Manizales","f":"|bullfighting|","p":1}},{"type":"Feature","geometry":{"type":"Point","coordinates":[-77.0424,-12.031]},"properties":{"k":"7b2b6bd227c3dfa7","c":"#9E5261","r":8.0,"s":"#FFFFFF","w":2,"o":0.9,"n":"Plaza de Acho","f":"|bullfighting|","p":1}},{"type":"Feature","geometry":{"type":"Point","coordinates":[-71.5369,-16.3989]},"properties":{"k":"61b3718ac9edb86c","c":"#9E5261","r":8.0,"s":"#FFFFFF","w":2,"o":0.9,"n":"Plaza de Toros de Arequipa","f":"|bullfighting|","p":1}},{"type":"Feature","geometry":{"type":"Point","coordinates":[-78.4678,-0.1807]},"properties":{"k":"8c0eadc85f951d20","c":"#9E5261","r":8.0,"s":"#FFFFFF","w":2,"o":0.9,"n":"Plaza de Toros Quito","f":"|bullfighting|","p":1}},{"type":"Feature","geometry":{"type":"Point","coordinates":[-79.9224,-2.1709]},"properties":{"k":"30c174d3196c0ca0","c":"#9E5261","r":8.0,"s":"#FFFFFF","w":2,"o":0.9,"n":"Plaza Monumental de Guayaquil","f":"|bullfighting|","p":1}},{"type":"Feature","geometry":{"type":"Point","coordinates":[-68.0077,10.1621]},"properties":{"k":"1376718034e219c5","c":"#9E5261","r":8.0,"s":"#FFFFFF","w":2,"o":0.9,"n":"Plaza Monumental de Valencia","f":"|bullfighting|","p":1}},{"type":"Feature","geometry":{"type":"Point","coordinates":[-66.9036,10.4806]},"properties":{"k":"200bcfcb1e1b1363","c":"#9E5261","r":8.0,"s":"#FFFFFF","w":2,"o":0.9,"n":"Plaza de Toros Nuevo Circo","f":"|bullfighting|","p":1}},{"type":"Feature","geometry":{"type":"Point","coordinates":[121.0333,14.6271]},"properties":{"k":"5c5c87340c0b576e","c":"#A86D57","r":8.0,"s":"#FFFFFF","w":2,"o":0.9,"n":"Araneta Coliseum","f":"|cockfighting|","p":1}},{"type":"Feature","geometry":{"type":"Point","coordinates":[120.9842,14.5995]},"properties":{"k":"4b70de40cff49a4c","c":"#A86D57","r":8.0,"s":"#FFFFFF","w":2,"o":0.9,"n":"World Slasher Cup Arena","f":"|cockfighting|","p":1}},{"type":"Feature","geometry":{"type":"Point","coordinates":[121.0198,14.4793]},"properties":{"k":"b065dc1b5889787e","c":"#A86D57","r":8.0,"s":"#FFFFFF","w":2,"o":0.9,"n":"Paranaque Cockpit Arena","f":"|cockfighting|","p":1}},{"type":"Feature","geometry":{"type":"Point","coordinates":[120.9896,14.5378]},"properties":{"k":"65a59e315a60e5d1","c":"#A86D57","r":8.0,"s":"#FFFFFF","w":2,"o":0.9,"n":"Pasay Cockpit","f":"|cockfighting|","p":1}},{"type":"Feature","geometry":{"type":"Point","coordinates":[123.8854,10.3157]},"properties":{"k":"fb0c8e9e6f136524","c":"#A86D57","r":8.0,"s":"#FFFFFF","w":2,"o":0.9,"n":"Cebu Cockpit Arena","f":"|cockfighting|","p":1}},{"type":"Feature","geometry":{"type":"Point","coordinates":[122.9506,10.677]},"properties":{"k":"f8cbd55051ece824","c":"#A86D57","r":8.0,"s":"#FFFFFF","w":2,"o":0.9,"n":"Bacolod Cockpit","f":"|cockfighting|","p":1}},{"type":"Feature","geometry":{"type":"Point","coordinates":[122.5621,10.7202]},"properties":{"k":"1465a959f6fef272","c":"#A86D57","r":8.0,"s":"#FFFFFF","w":2,"o":0.9,"n":"Iloilo Cockpit Arena","f":"|cockfighting|","p":1}},{"type":"Feature","geometry":{"type":"Point","coordinates":[125.6128,7.0731]},"properties":{"k":"a852d7e8e6175b46","c":"#A86D57","r":8.0,"s":"#FFFFFF","w":2,"o":0.9,"n":"Davao Cockpit Arena","f":"|cockfighting|","p":1}},{"type":"Feature","geometry":{"type":"Point","coordinates":[124.6319,8.4542]},"properties":{"k":"ffc6f02e0ab32dfb","c":"#A86D57","r":8.0,"s":"#FFFFFF","w":2,"o":0.9,"n":"Cagayan de Oro Cockpit","f":"|cockfighting|","p":1}},{"type":"Feature","geometry":{"type":"Point","coordinates":[-66.1057,18.4655]},"properties":{"k":"9b4e755464954030","c":"#A86D57","r":8.0,"s":"#FFFFFF","w":2,"o":0.9,"n":"Club Gallistico de Puerto Rico","f":"|cockfighting|","p":1}},{"type":"Feature","geometry":{"type":"Point","coordinates":[-66.0015,18.4339]},"properties":{"k":"4b0e31b111c974c6","c":"#A86D57","r":8.0,"s":"#FFFFFF","w":2,"o":0.9,"n":"Coliseo Gallistico de Isla Verde","f":"|cockfighting|","p":1}},{"type":"Feature","geometry":{"type":"Point","coordinates":[-66.6141,18.0111]},"properties":{"k":"4db585a06236190e","c":"#A86D57","r":8.0,"s":"#FFFFFF","w":2,"o":0.9,"n":"Club Gallistico de Ponce","f":"|cockfighting|","p":1}},{"type":"Feature","geometry":{"type":"Point","coordinates":[115.2126,-8.6705]},"properties":{"k":"cb17d78a05ea8f5f","c":"#A86D57","r":8.0,"s":"#FFFFFF","w":2,"o":0.9,"n":"Denpasar Cockfighting Arena","f":"|cockfighting|","p":1}},{"type":"Feature","geometry":{"type":"Point","coordinates":[115.2625,-8.5069]},"properties":{"k":"02a8b81e5d16a959","c":"#A86D57","r":8.0,"s":"#FFFFFF","w":2,"o":0.9,"n":"Ubud Traditional Cockpit","f":"|cockfighting|","p":1}},{"type":"Feature","geometry":{"type":"Point","coordinates":[100.9847,13.3611]},"properties":{"k":"31318df5a9300fbf","c":"#684B36","r":8.0,"s":"#FFFFFF","w":2,"o":0.9,"n":"Chonburi Buffalo Fighting Stadium","f":"|buffalo|","p":1}},{"type":"Feature","geometry":{"type":"Point","coordinates":[99.9631,8.4304]},"properties":{"k":"8ade45216dbbf641","c":"#684B36","r":8.0,"s":"#FFFFFF","w":2,"o":0.9,"n":"Nakhon Si Thammarat Buffalo Arena","f":"|buffalo|","p":1}},{"type":"Feature","geometry":{"type":"Point","coordinates":[100.6144,7.1756]},"properties":{"k":"d9d95080b4c469c4","c":"#684B36","r":8.0,"s":"#FFFFFF","w":2,"o":0.9,"n":"Songkhla Buffalo Fighting","f":"|buffalo|","p":1}},{"type":"Feature","geometry":{"type":"Point","coordinates":[101.2508,6.8686]},"properties":{"k":"affcea6e565b723e","c":"#684B36","r":8.0,"s":"#FFFFFF","w":2,"o":0.9,"n":"Pattani Buffalo Arena","f":"|buffalo|","p":1}},{"type":"Feature","geometry":{"type":"Point","coordinates":[100.5018,13.7563]},"properties":{"k":"26ebb0ca1d128574","c":"#A86D57","r":8.0,"s":"#FFFFFF","w":2,"o":0.9,"n":"Bangkok Cockfighting Stadium","f":"|cockfighting|","p":1}},{"type":"Feature","geometry":{"type":"Point","coordinates":[98.9853,18.7883]},"properties":{"k":"9582b57561c65a83","c":"#A86D57","r":8.0,"s":"#FFFFFF","w":2,"o":0.9,"n":"Chiang Mai Cockpit","f":"|cockfighting|","p":1}},{"type":"Feature","geometry":{"type":"Point","coordinates":[27.3689,37.9493]},"properties":{"k":"684131666605a542","c":"#BD7F87","r":8.0,"s":"#FFFFFF","w":2,"o":0.9,"n":"Sel\u00e7uk Camel Wrestling Arena","f":"|camel|","p":1}},{"type":"Feature","geometry":{"type":"Point","coordinates":[27.8416,37.856]},"properties":{"k":"5f8b6f51160aebc9","c":"#BD7F87","r":8.0,"s":"#FFFFFF","w":2,"o":0.9,"n":"Ayd\u0131n Camel Wrestling Festival Ground","f":"|camel|","p":1}},{"type":"Feature","geometry":{"type":"Point","coordinates":[27.1287,38.4192]},"properties":{"k":"4fe50d3850241ba3","c":"#BD7F87","r":8.0,"s":"#FFFFFF","w":2,"o":0.9,"n":"\u0130zmir Camel Wrestling Arena","f":"|camel|","p":1}},{"type":"Feature","geometry":{"type":"Point","coordinates":[29.0864,37.7765]},"properties":{"k":"ff9d70d64789e69f","c":"#BD7F87","r":8.0,"s":"#FFFFFF","w":2,"o":0.9,"n":"Denizli Camel Wrestling","f":"|camel|","p":1}},{"type":"Feature","geometry":{"type":"Point","coordinates":[69.2075,34.5553]},"properties":{"k":"b767fb362bf7af45","c":"#AD5F6B","r":8.0,"s":"#FFFFFF","w":2,"o":0.9,"n":"Kabul Ram Fighting Arena","f":"|ram|","p":1}},{"type":"Feature","geometry":{"type":"Point","coordinates":[62.1997,34.3482]},"properties":{"k":"313aa878afa87417","c":"#AD5F6B","r":8.0,"s":"#FFFFFF","w":2,"o":0.9,"n":"Herat Ram Fighting Ground","f":"|ram|","p":1}},{"type":"Feature","geometry":{"type":"Point","coordinates":[69.2401,41.2995]},"properties":{"k":"c11adc1f9d679b99","c":"#AD5F6B","r":8.0,"s":"#FFFFFF","w":2,"o":0.9,"n":"Tashkent Ram Fighting Arena","f":"|ram|","p":1}},{"type":"Feature","geometry":{"type":"Point","coordinates":[68.7738,38.5598]},"properties":{"k":"b9b50cd6af3857cf","c":"#AD5F6B","r":8.0,"s":"#FFFFFF","w":2,"o":0.9,"n":"Dushanbe Ram Fighting","f":"|ram|","p":1}},{"type":"Feature","geometry":{"type":"Point","coordinates":[3.0588,36.7538]},"properties":{"k":"d10ea590b7e940fc","c":"#AD5F6B","r":8.0,"s":"#FFFFFF","w":2,"o":0.9,"n":"Algiers Ram Fighting Arena","f":"|ram|","p":1}},{"type":"Feature","geometry":{"type":"Point","coordinates":[-7.5898,33.5731]},"properties":{"k":"cf3955bfeb95cddd","c":"#AD5F6B","r":8.0,"s":"#FFFFFF","w":2,"o":0.9,"n":"Casablanca Ram Fighting","f":"|ram|","p":1}},{"type":"Feature","geometry":{"type":"Point","coordinates":[51.389,35.6892]},"properties":{"k":"52024a3d2d1bfc9c","c":"#AD5F6B","r":8.0,"s":"#FFFFFF","w":2,"o":0.9,"n":"Tehran Ram Fighting Arena","f":"|ram|","p":1}},{"type":"Feature","geometry":{"type":"Point","coordinates":[116.4074,39.9042]},"properties":{"k":"648948a7f03303b8","c":"#57A857","r":8.0,"s":"#FFFFFF","w":2,"o":0.9,"n":"Beijing Cricket Fighting Market","f":"|cricket|","p":1}},{"type":"Feature","geometry":{"type":"Point","coordinates":[121.4737,31.2304]},"properties":{"k":"23545395b9465bcd","c":"#57A857","r":8.0,"s":"#FFFFFF","w":2,"o":0.9,"n":"Shanghai Cricket Fighting Arena","f":"|cricket|","p":1}},{"type":"Feature","geometry":{"type":"Point","coordinates":[117.3616,39.3434]},"properties":{"k":"4de18c7e3145de24","c":"#57A857","r":8.0,"s":"#FFFFFF","w":2,"o":0.9,"n":"Tianjin Cricket Market","f":"|cricket|","p":1}},{"type":"Feature","geometry":{"type":"Point","coordinates":[118.7969,32.0603]},"properties":{"k":"b68243fdc0921219","c":"#57A857","r":8.0,"s":"#FFFFFF","w":2,"o":0.9,"n":"Nanjing Cricket Fighting","f":"|cricket|","p":1}},{"type":"Feature","geometry":{"type":"Point","coordinates":[120.1551,30.2741]},"properties":{"k":"f8faaa81594ff806","c":"#57A857","r":8.0,"s":"#FFFFFF","w":2,"o":0.9,"n":"Hangzhou Cricket Arena","f":"|cricket|","p":1}},{"type":"Feature","geometry":{"type":"Point","coordinates":[139.6917,35.6895]},"properties":{"k":"5bf9b4224e8d5215","c":"#3B723B","r":8.0,"s":"#FFFFFF","w":2,"o":0.9,"n":"Tokyo Beetle Fighting Arena","f":"|beetle|","p":1}},{"type":"Feature","geometry":{"type":"Point","coordinates":[135.5023,34.6937]},"properties":{"k":"b20864d5e56c8c0d","c":"#3B723B","r":8.0,"s":"#FFFFFF","w":2,"o":0.9,"n":"Osaka Beetle Fighting","f":"|beetle|","p":1}},{"type":"Feature","geometry":{"type":"Point","coordinates":[136.9066,35.1815]},"properties":{"k":"892a5d43e79f7d85","c":"#3B723B","r":8.0,"s":"#FFFFFF","w":2,"o":0.9,"n":"Nagoya Beetle Arena","f":"|beetle|","p":1}},{"type":"Feature","geometry":{"type":"Point","coordinates":[55.2708,25.2048]},"properties":{"k":"16fe5c415e18147b","c":"#A8575D","r":8.0,"s":"#FFFFFF","w":2,"o":0.9,"n":"Dubai Quail Fighting Arena","f":"|quail|","p":1}},{"type":"Feature","geometry":{"type":"Point","coordinates":[46.6753,24.7136]},"properties":{"k":"25eb4c58f88ccd23","c":"#A8575D","r":8.0,"s":"#FFFFFF","w":2,"o":0.9,"n":"Riyadh Quail Fighting","f":"|quail|","p":1}},{"type":"Feature","geometry":{"type":"Point","coordinates":[54.3773,24.4539]},"properties":{"k":"fc0429bed5a566cf","c":"#A8575D","r":8.0,"s":"#FFFFFF","w":2,"o":0.9,"n":"Abu Dhabi Quail Arena","f":"|quail|","p":1}},{"type":"Feature","geometry":{"type":"Point","coordinates":[100.5018,13.7563]},"properties":{"k":"710857685ff8a09b","c":"#6E7FB4","r":8.0,"s":"#FFFFFF","w":2,"o":0.9,"n":"Bangkok Betta Fighting Market","f":"|betta|","p":1}},{"type":"Feature","geometry":{"type":"Point","coordinates":[100.5523,13.7997]},"properties":{"k":"55fedd6fd3c2e492","c":"#6E7FB4","r":8.0,"s":"#FFFFFF","w":2,"o":0.9,"n":"Chatuchak Fish Fighting Section","f":"|betta|","p":1}},{"type":"Feature","geometry":{"type":"Point","coordinates":[98.9853,18.7883]},"properties":{"k":"a0927cdffd720da3","c":"#6E7FB4","r":8.0,"s":"#FFFFFF","w":2,"o":0.9,"n":"Chiang Mai Betta Arena","f":"|betta|","p":1}},{"type":"Feature","geometry":{"type":"Point","coordinates":[100.8825,12.9236]},"properties":{"k":"fda0ee614588a05e","c":"#6E7FB4","r":8.0,"s":"#FFFFFF","w":2,"o":0.9,"n":"Pattaya Betta Fighting","f":"|betta|","p":1}},{"type":"Feature","geometry":{"type":"Point","coordinates":[-84.388,33.749]},"properties":{"k":"4cbd101dbd2f6ed4","c":"#653434","r":10.0,"s":"#FFFFFF","w":2,"o":0.9,"n":"United States - South Region","f":"|dogfighting|","p":1}},{"type":"Feature","geometry":{"type":"Point","coordinates":[-90.049,35.1495]},"properties":{"k":"7f23a2ccee058be9","c":"#653434","r":10.0,"s":"#FFFFFF","w":2,"o":0.9,"n":"United States - South Region","f":"|dogfighting|","p":1}},{"type":"Feature","geometry":{"type":"Point","coordinates":[-95.3698,29.7604]},"properties":{"k":"956d421fa74dced2","c":"#653434","r":10.0,"s":"#FFFFFF","w":2,"o":0.9,"n":"United States - South Region","f":"|dogfighting|","p":1}},{"type":"Feature","geometry":{"type":"Point","coordinates":[-80.1918,25.7617]},"properties":{"k":"290c33975942bd24","c":"#653434","r":10.0,"s":"#FFFFFF","w":2,"o":0.9,"n":"United States - South Region","f":"|dogfighting|","p":1}},{"type":"Feature","geometry":{"type":"Point","coordinates":[-90.0715,29.9511]},"properties":{"k":"51c9649055f007a1","c":"#653434","r":10.0,"s":"#FFFFFF","w":2,"o":0.9,"n":"United States - South Region","f":"|dogfighting|","p":1}},{"type":"Feature","geometry":{"type":"Point","coordinates":[-76.6122,39.2904]},"properties":{"k":"c30462cde59a4214","c":"#653434","r":10.0,"s":"#FFFFFF","w":2,"o":0.9,"n":"United States - East Coast","f":"|dogfighting|","p":1}},{"type":"Feature","geometry":{"type":"Point","coordinates":[-75.1652,39.9526]},"properties":{"k":"23efed83f44c26f8","c":"#653434","r":10.0,"s":"#FFFFFF","w":2,"o":0.9,"n":"United States - East Coast","f":"|dogfighting|","p":1}},{"type":"Feature","geometry":{"type":"Point","coordinates":[-83.0458,42.3314]},"properties":{"k":"2142e746ce6a952e","c":"#653434","r":10.0,"s":"#FFFFFF","w":2,"o":0.9,"n":"United States - Midwest","f":"|dogfighting|","p":1}},{"type":"Feature","geometry":{"type":"Point","coordinates":[-87.6298,41.8781]},"properties":{"k":"43e3578b1170fee9","c":"#653434","r":10.0,"s":"#FFFFFF","w":2,"o":0.9,"n":"United States - Midwest","f":"|dogfighting|","p":1}},{"type":"Feature","geometry":{"type":"Point","coordinates":[-118.2437,34.0522]},"properties":{"k":"0c52aacb337fc00c","c":"#653434","r":10.0,"s":"#FFFFFF","w":2,"o":0.9,"n":"United States - West Coast","f":"|dogfighting|","p":1}},{"type":"Feature","geometry":{"type":"Point","coordinates":[-117.0382,32.5149]},"properties":{"k":"5144888ea973e6e6","c":"#653434","r":10.0,"s":"#FFFFFF","w":2,"o":0.9,"n":"Mexico Border Region","f":"|dogfighting|","p":1}},{"type":"Feature","geometry":{"type":"Point","coordinates":[-106.4245,31.6904]},"properties":{"k":"8e779b0a0e14b388","c":"#653434","r":10.0,"s":"#FFFFFF","w":2,"o":0.9,"n":"Mexico Border Region","f":"|dogfighting|","p":1}},{"type":"Feature","geometry":{"type":"Point","coordinates":[-99.1332,19.4326]},"properties":{"k":"53e4f190aee0c932","c":"#653434","r":10.0,"s":"#FFFFFF","w":2,"o":0.9,"n":"Mexico Central","f":"|dogfighting|","p":1}},{"type":"Feature","geometry":{"type":"Point","coordinates":[47.5047,42.9849]},"properties":{"k":"cb1cd5230993981f","c":"#653434","r":10.0,"s":"#FFFFFF","w":2,"o":0.9,"n":"Russia - Southern Region","f":"|dogfighting|","p":1}},{"type":"Feature","geometry":{"type":"Point","coordinates":[37.6173,55.7558]},"properties":{"k":"7b41454773d662c9","c":"#653434","r":10.0,"s":"#FFFFFF","w":2,"o":0.9,"n":"Russia - Central","f":"|dogfighting|","p":1}},{"type":"Feature","geometry":{"type":"Point","coordinates":[74.3587,31.5204]},"properties":{"k":"9a3bc809a6787824","c":"#653434","r":10.0,"s":"#FFFFFF","w":2,"o":0.9,"n":"Pakistan - Punjab","f":"|dogfighting|","p":1}},{"type":"Feature","geometry":{"type":"Point","coordinates":[73.135,31.4504]},"properties":{"k":"1142e7f403d15194","c":"#653434","r":10.0,"s":"#FFFFFF","w":2,"o":0.9,"n":"Pakistan - Punjab","f":"|dogfighting|","p":1}},{"type":"Feature","geometry":{"type":"Point","coordinates":[69.2075,34.5553]},"properties":{"k":"6eedc7f9d9209229","c":"#653434","r":10.0,"s":"#FFFFFF","w":2,"o":0.9,"n":"Afghanistan","f":"|dogfighting|","p":1}},{"type":"Feature","geometry":{"type":"Point","coordinates":[139.6503,35.6762]},"properties":{"k":"25eef65ba7593997","c":"#653434","r":10.0,"s":"#FFFFFF","w":2,"o":0.9,"n":"Japan - Kanto","f":"|dogfighting|","p":1}},{"type":"Feature","geometry":{"type":"Point","coordinates":[28.0473,-26.2041]},"properties":{"k":"d826815ae70ade12","c":"#653434","r":10.0,"s":"#FFFFFF","w":2,"o":0.9,"n":"South Africa","f":"|dogfighting|","p":1}},{"type":"Feature","geometry":{"type":"Point","coordinates":[18.4241,-33.9249]},"properties":{"k":"312d6de1e027468b","c":"#653434","r":10.0,"s":"#FFFFFF","w":2,"o":0.9,"n":"South Africa","f":"|dogfighting|","p":1}},{"type":"Feature","geometry":{"type":"Point","coordinates":[-46.6333,-23.5505]},"properties":{"k":"a1fbab2af54abec1","c":"#653434","r":10.0,"s":"#FFFFFF","w":2,"o":0.9,"n":"Brazil","f":"|dogfighting|","p":1}},{"type":"Feature","geometry":{"type":"Point","coordinates":[-43.1729,-22.9068]},"properties":{"k":"5028e5159fa1d3de","c":"#653434","r":10.0,"s":"#FFFFFF","w":2,"o":0.9,"n":"Brazil","f":"|dogfighting|","p":1}},{"type":"Feature","geometry":{"type":"Point","coordinates":[-58.3816,-34.6037]},"properties":{"k":"b1b60ce8163bbe20","c":"#653434","r":10.0,"s":"#FFFFFF","w":2,"o":0.9,"n":"Argentina","f":"|dogfighting|","p":1}},{"type":"Feature","geometry":{"type":"Point","coordinates":[-0.1278,51.5074]},"properties":{"k":"8bbf9a7c8742512b","c":"#653434","r":10.0,"s":"#FFFFFF","w":2,"o":0.9,"n":"United Kingdom","f":"|dogfighting|","p":1}},{"type":"Feature","geometry":{"type":"Point","coordinates":[-1.8904,52.4862]},"properties":{"k":"49fa07162a73482b","c":"#653434","r":10.0,"s":"#FFFFFF","w":2,"o":0.9,"n":"United Kingdom","f":"|dogfighting|","p":1}},{"type":"Feature","geometry":{"type":"Point","coordinates":[120.9842,14.5995]},"properties":{"k":"6e7082d8136a5591","c":"#937FBD","r":8.0,"s":"#FFFFFF","w":2,"o":0.9,"n":"Spider Fighting Arena","f":"|spider|","p":1}},{"type":"Feature","geometry":{"type":"Point","coordinates":[125.6128,7.0731]},"properties":{"k":"e16181fd0887303f","c":"#937FBD","r":8.0,"s":"#FFFFFF","w":2,"o":0.9,"n":"Davao Spider Fighting","f":"|spider|","p":1}},{"type":"Feature","geometry":{"type":"Point","coordinates":[123.8854,10.3157]},"properties":{"k":"90b8ca38135d6ba2","c":"#937FBD","r":8.0,"s":"#FFFFFF","w":2,"o":0.9,"n":"Cebu Spider Arena","f":"|spider|","p":1}},{"type":"Feature","geometry":{"type":"Point","coordinates":[139.6917,35.6895]},"properties":{"k":"20ffc2127f33fc56","c":"#937FBD","r":8.0,"s":"#FFFFFF","w":2,"o":0.9,"n":"Tokyo Spider Fighting","f":"|spider|","p":1}},{"type":"Feature","geometry":{"type":"Point","coordinates":[108.8076,23.7247]},"properties":{"k":"c986cab2f10c74f3","c":"#9E7252","r":8.0,"s":"#FFFFFF","w":2,"o":0.9,"n":"Guangxi Horse Fighting","f":"|horse|","p":1}},{"type":"Feature","geometry":{"type":"Point","coordinates":[125.1716,6.1164]},"properties":{"k":"ab632ae3ca7d0c49","c":"#9E7252","r":8.0,"s":"#FFFFFF","w":2,"o":0.9,"n":"Mindanao Horse Fighting","f":"|horse|","p":1}},{"type":"Feature","geometry":{"type":"Point","coordinates":[-7.9811,31.6295]},"properties":{"k":"7ad1a44bf01e4b2d","c":"#A5555D","r":8.0,"s":"#FFFFFF","w":2,"o":0.9,"n":"Morocco Scorpion Fighting","f":"|scorpion|","p":1}},{"type":"Feature","geometry":{"type":"Point","coordinates":[-1.0815,53.9591]},"properties":{"k":"c710e7afef4587b2","c":"#696969","r":10.0,"s":"#FFFFFF","w":2,"o":0.9,"n":"United Kingdom - Rural England","f":"|badger|","p":1}},{"type":"Feature","geometry":{"type":"Point","coordinates":[-2.7815,55.5754]},"properties":{"k":"5711a8a036c2b683","c":"#696969","r":10.0,"s":"#FFFFFF","w":2,"o":0.9,"n":"United Kingdom - Rural Scotland","f":"|badger|","p":1}},{"type":"Feature","geometry":{"type":"Point","coordinates":[74.3587,31.5204]},"properties":{"k":"89d88be62932f48c","c":"#684B36","r":10.0,"s":"#FFFFFF","w":2,"o":0.9,"n":"Pakistan - Punjab Region","f":"|bear|","p":1}},{"type":"Feature","geometry":{"type":"Point","coordinates":[67.0011,24.8607]},"properties":{"k":"4a1ec5db60b8d42d","c":"#684B36","r":10.0,"s":"#FFFFFF","w":2,"o":0.9,"n":"Pakistan - Sindh Region","f":"|bear|","p":1}},{"type":"Feature","geometry":{"type":"Point","coordinates":[106.8456,-6.2088]},"properties":{"k":"3349499e34aac9a8","c":"#875B46","r":10.0,"s":"#FFFFFF","w":2,"o":0.9,"n":"Indonesia - Java Region","f":"|monkey|","p":1}},{"type":"Feature","geometry":{"type":"Point","coordinates":[98.3923,7.8804]},"properties":{"k":"b95c206ffb4b953a","c":"#875B46","r":10.0,"s":"#FFFFFF","w":2,"o":0.9,"n":"Thailand - Southern Region","f":"|monkey|","p":1}}]}