{"type":"FeatureCollection","name":"The Unnecessary Enslavement of Plants 2026","overlays":[],"features":[{"type":"Feature","geometry":{"type":"Point","coordinates":[4.761,52.262]},"properties":{"k":"bf58d3cde0a4ed91","c":"#B87C75","r":12.0,"s":"#070B10","w":1,"o":0.82,"n":"Royal FloraHolland","p":1}},{"type":"Feature","geometry":{"type":"Point","coordinates":[4.248,51.993]},"properties":{"k":"f34271a8cfbc461c","c":"#B87C75","r":12.0,"s":"#070B10","w":1,"o":0.82,"n":"D\u00fcmmen Orange","p":1}},{"type":"Feature","geometry":{"type":"Point","coordinates":[-80.49,25.62]},"properties":{"k":"fe926465228018a8","c":"#5FA98A","r":12.0,"s":"#070B10","w":1,"o":0.82,"n":"Costa Farms","p":1}},{"type":"Feature","geometry":{"type":"Point","coordinates":[-84.422,33.761]},"properties":{"k":"669d35d179f4400d","c":"#5FA98A","r":12.0,"s":"#070B10","w":1,"o":0.82,"n":"The Home Depot (Garden)","p":1}},{"type":"Feature","geometry":{"type":"Point","coordinates":[-75.268,40.134]},"properties":{"k":"2cb2583a40eaaafd","c":"#7B3F49","r":12.0,"s":"#070B10","w":1,"o":0.82,"n":"BrightView Holdings","p":1}},{"type":"Feature","geometry":{"type":"Point","coordinates":[-73.983,40.753]},"properties":{"k":"58d26a31c0dce0c4","c":"#A37FBD","r":12.0,"s":"#070B10","w":1,"o":0.82,"n":"Curaleaf","p":1}},{"type":"Feature","geometry":{"type":"Point","coordinates":[6.922,43.658]},"properties":{"k":"07ef020908dcaa79","c":"#BD7F9D","r":12.0,"s":"#070B10","w":1,"o":0.82,"n":"Chanel (Parfums)","p":1}},{"type":"Feature","geometry":{"type":"Point","coordinates":[-83.367,40.236]},"properties":{"k":"3cd3a6c1667b6615","c":"#B46D75","r":12.0,"s":"#070B10","w":1,"o":0.82,"n":"Scotts Miracle-Gro","p":1}},{"type":"Feature","geometry":{"type":"Point","coordinates":[6.925,43.66]},"properties":{"k":"aa34179a25036549","c":"#BD7F9D","r":12.0,"s":"#070B10","w":1,"o":0.82,"n":"LVMH Parfums (Dior, Guerlain)","p":1}},{"type":"Feature","geometry":{"type":"Point","coordinates":[-89.803,35.118]},"properties":{"k":"fc393d6fed50d4c9","c":"#B46D75","r":12.0,"s":"#070B10","w":1,"o":0.82,"n":"TruGreen","p":1}},{"type":"Feature","geometry":{"type":"Point","coordinates":[6.13,46.22]},"properties":{"k":"08af3d6ed7c68f64","c":"#BD7F9D","r":12.0,"s":"#070B10","w":1,"o":0.82,"n":"Givaudan Fragrances","p":1}},{"type":"Feature","geometry":{"type":"Point","coordinates":[7.6,47.56]},"properties":{"k":"741df155a12eb671","c":"#B87C75","r":9.5,"s":"#070B10","w":1,"o":0.82,"n":"Syngenta Flowers","p":1}},{"type":"Feature","geometry":{"type":"Point","coordinates":[-88.204,41.884]},"properties":{"k":"39804528b7c6faf8","c":"#B87C75","r":9.5,"s":"#070B10","w":1,"o":0.82,"n":"Ball Horticultural","p":1}},{"type":"Feature","geometry":{"type":"Point","coordinates":[4.358,52.011]},"properties":{"k":"988866892d82ea4f","c":"#5FA98A","r":9.5,"s":"#070B10","w":1,"o":0.82,"n":"IKEA (plants)","p":1}},{"type":"Feature","geometry":{"type":"Point","coordinates":[38.717,7.933]},"properties":{"k":"64b877dcc178b2ab","c":"#B87C75","r":9.5,"s":"#070B10","w":1,"o":0.82,"n":"Afriflora Sher","p":1}},{"type":"Feature","geometry":{"type":"Point","coordinates":[-84.281,30.438]},"properties":{"k":"0de95693838f2e33","c":"#A37FBD","r":9.5,"s":"#070B10","w":1,"o":0.82,"n":"Trulieve","p":1}},{"type":"Feature","geometry":{"type":"Point","coordinates":[-77.476,37.561]},"properties":{"k":"4b265b319fe6bc3e","c":"#A37FBD","r":9.5,"s":"#070B10","w":1,"o":0.82,"n":"Universal Corp","p":1}},{"type":"Feature","geometry":{"type":"Point","coordinates":[-117.923,34.149]},"properties":{"k":"bd250a371a702293","c":"#5FA98A","r":9.5,"s":"#070B10","w":1,"o":0.82,"n":"Monrovia","p":1}},{"type":"Feature","geometry":{"type":"Point","coordinates":[-87.623,41.887]},"properties":{"k":"79e259b53d3cd1c7","c":"#A37FBD","r":9.5,"s":"#070B10","w":1,"o":0.82,"n":"Green Thumb Industries","p":1}},{"type":"Feature","geometry":{"type":"Point","coordinates":[-0.973,51.454]},"properties":{"k":"1ad43cb92eabbdc7","c":"#7699B9","r":9.5,"s":"#070B10","w":1,"o":0.82,"n":"Ambius (Rentokil)","p":1}},{"type":"Feature","geometry":{"type":"Point","coordinates":[6.93,43.658]},"properties":{"k":"8168221cf86ec32b","c":"#BD7F9D","r":9.5,"s":"#070B10","w":1,"o":0.82,"n":"Robertet","p":1}},{"type":"Feature","geometry":{"type":"Point","coordinates":[-117.242,33.2]},"properties":{"k":"c73807eedf9080f5","c":"#5FA98A","r":9.5,"s":"#070B10","w":1,"o":0.82,"n":"Altman Plants","p":1}},{"type":"Feature","geometry":{"type":"Point","coordinates":[-74.013,40.718]},"properties":{"k":"7a7d0d48659ae5a5","c":"#A37FBD","r":9.5,"s":"#070B10","w":1,"o":0.82,"n":"Tilray Brands","p":1}},{"type":"Feature","geometry":{"type":"Point","coordinates":[-93.298,44.84]},"properties":{"k":"1385049421d05ca8","c":"#B46D75","r":9.5,"s":"#070B10","w":1,"o":0.82,"n":"The Toro Company","p":1}},{"type":"Feature","geometry":{"type":"Point","coordinates":[6.987,43.703]},"properties":{"k":"900d9ca457f89ac9","c":"#BD7F9D","r":9.5,"s":"#070B10","w":1,"o":0.82,"n":"Mane","p":1}},{"type":"Feature","geometry":{"type":"Point","coordinates":[46.6753,24.7136]},"properties":{"k":"5d53e60fbf54e68e","c":"#BD7F9D","r":9.5,"s":"#070B10","w":1,"o":0.82,"n":"Arabian Oud","p":1}},{"type":"Feature","geometry":{"type":"Point","coordinates":[12.568,55.676]},"properties":{"k":"2cd1eb3817b3d11d","c":"#A37FBD","r":9.5,"s":"#070B10","w":1,"o":0.82,"n":"Scandinavian Tobacco Group","p":1}},{"type":"Feature","geometry":{"type":"Point","coordinates":[-78.781,35.792]},"properties":{"k":"c1bb2cfc4c665cb9","c":"#B46D75","r":9.5,"s":"#070B10","w":1,"o":0.82,"n":"Envu","p":1}},{"type":"Feature","geometry":{"type":"Point","coordinates":[112.018,-7.848]},"properties":{"k":"f9d1d69ae24c66b0","c":"#A37FBD","r":9.5,"s":"#070B10","w":1,"o":0.82,"n":"Gudang Garam","p":1}},{"type":"Feature","geometry":{"type":"Point","coordinates":[115.861,-31.952]},"properties":{"k":"004b15dc030dd52b","c":"#BD7F9D","r":9.5,"s":"#070B10","w":1,"o":0.82,"n":"Quintis","p":1}},{"type":"Feature","geometry":{"type":"Point","coordinates":[36.43,-0.77]},"properties":{"k":"9053c54367c1e76a","c":"#B87C75","r":7.5,"s":"#070B10","w":1,"o":0.82,"n":"Oserian","p":1}},{"type":"Feature","geometry":{"type":"Point","coordinates":[-73.644,41.235]},"properties":{"k":"c37e685b85d11b31","c":"#7B3F49","r":7.5,"s":"#070B10","w":1,"o":0.82,"n":"SavATree","p":1}},{"type":"Feature","geometry":{"type":"Point","coordinates":[-76.022,44.902]},"properties":{"k":"c18fd64c4deeda86","c":"#A37FBD","r":7.5,"s":"#070B10","w":1,"o":0.82,"n":"Canopy Growth","p":1}},{"type":"Feature","geometry":{"type":"Point","coordinates":[-0.2956,51.4787]},"properties":{"k":"2f9fead5ea91dabb","c":"#7699B9","r":7.5,"s":"#070B10","w":1,"o":0.82,"n":"Royal Botanic Gardens, Kew","p":1}},{"type":"Feature","geometry":{"type":"Point","coordinates":[9.182,48.776]},"properties":{"k":"bb8dae3d09ba9665","c":"#B87C75","r":7.5,"s":"#070B10","w":1,"o":0.82,"n":"Selecta One","p":1}},{"type":"Feature","geometry":{"type":"Point","coordinates":[4.208,51.987]},"properties":{"k":"0e721054ee5b3b89","c":"#5FA98A","r":7.5,"s":"#070B10","w":1,"o":0.82,"n":"Beekenkamp","p":1}},{"type":"Feature","geometry":{"type":"Point","coordinates":[-77.141,39.212]},"properties":{"k":"b090f7f3001864dd","c":"#7B3F49","r":7.5,"s":"#070B10","w":1,"o":0.82,"n":"Ruppert Landscape","p":1}},{"type":"Feature","geometry":{"type":"Point","coordinates":[-111.923,33.619]},"properties":{"k":"e336be8abc02908c","c":"#B46D75","r":7.5,"s":"#070B10","w":1,"o":0.82,"n":"Troon","p":1}},{"type":"Feature","geometry":{"type":"Point","coordinates":[103.8636,1.2816]},"properties":{"k":"f1cba9d2e8507aaa","c":"#7699B9","r":7.5,"s":"#070B10","w":1,"o":0.82,"n":"Gardens by the Bay","p":1}},{"type":"Feature","geometry":{"type":"Point","coordinates":[110.84,-6.804]},"properties":{"k":"e1a45d97ad64ea95","c":"#A37FBD","r":7.5,"s":"#070B10","w":1,"o":0.82,"n":"Djarum","p":1}},{"type":"Feature","geometry":{"type":"Point","coordinates":[-73.608,40.782]},"properties":{"k":"4709ebbcf4bf9291","c":"#B87C75","r":7.5,"s":"#070B10","w":1,"o":0.82,"n":"1-800-Flowers","p":1}},{"type":"Feature","geometry":{"type":"Point","coordinates":[-78.826,35.823]},"properties":{"k":"7cca384e55633ca4","c":"#A37FBD","r":7.5,"s":"#070B10","w":1,"o":0.82,"n":"Pyxus International","p":1}},{"type":"Feature","geometry":{"type":"Point","coordinates":[-84.362,34.023]},"properties":{"k":"3fe1c5372d5401c6","c":"#B46D75","r":7.5,"s":"#070B10","w":1,"o":0.82,"n":"SiteOne Landscape Supply","p":1}},{"type":"Feature","geometry":{"type":"Point","coordinates":[-73.88,40.862]},"properties":{"k":"375313f9dad16bc9","c":"#7699B9","r":7.5,"s":"#070B10","w":1,"o":0.82,"n":"New York Botanical Garden","p":1}},{"type":"Feature","geometry":{"type":"Point","coordinates":[139.75,35.67]},"properties":{"k":"3353379c8e22e7ed","c":"#BD7F9D","r":7.5,"s":"#070B10","w":1,"o":0.82,"n":"Nippon Kodo","p":1}},{"type":"Feature","geometry":{"type":"Point","coordinates":[-82.366,23.114]},"properties":{"k":"4f89ba2a1c280fbd","c":"#A37FBD","r":7.5,"s":"#070B10","w":1,"o":0.82,"n":"Habanos S.A.","p":1}},{"type":"Feature","geometry":{"type":"Point","coordinates":[-89.829,34.962]},"properties":{"k":"146564e5ed4c38cc","c":"#7B3F49","r":7.5,"s":"#070B10","w":1,"o":0.82,"n":"Brussel\u2019s Bonsai","p":1}},{"type":"Feature","geometry":{"type":"Point","coordinates":[10.25,56.22]},"properties":{"k":"6e71e94497d9b48b","c":"#7699B9","r":7.5,"s":"#070B10","w":1,"o":0.82,"n":"Tropica Aquarium Plants","p":1}},{"type":"Feature","geometry":{"type":"Point","coordinates":[-73.992,40.728]},"properties":{"k":"e5ab6508371cedd2","c":"#5FA98A","r":5.5,"s":"#070B10","w":1,"o":0.82,"n":"The Sill","p":1}},{"type":"Feature","geometry":{"type":"Point","coordinates":[-83.045,42.331]},"properties":{"k":"197a7b90ad86e496","c":"#7699B9","r":5.5,"s":"#070B10","w":1,"o":0.82,"n":"Bloomscape","p":1}},{"type":"Feature","geometry":{"type":"Point","coordinates":[139.036,37.916]},"properties":{"k":"e29e8d6f8cbc1454","c":"#7699B9","r":5.5,"s":"#070B10","w":1,"o":0.82,"n":"Aqua Design Amano","p":1}}]}