{"type":"FeatureCollection","name":"Central Banks","overlays":[],"features":[{"type":"Feature","geometry":{"type":"Point","coordinates":[-77.0425,38.8935]},"properties":{"k":"39fb1ba536b98c3d","c":"#AC5F66","r":8.0,"s":"#BA797E","w":2,"o":0.8,"n":"Federal Reserve","p":1}},{"type":"Feature","geometry":{"type":"Point","coordinates":[-0.0886,51.5142]},"properties":{"k":"649600e74ecbb6c8","c":"#AC5F66","r":8.0,"s":"#BA797E","w":2,"o":0.8,"n":"Bank of England","p":1}},{"type":"Feature","geometry":{"type":"Point","coordinates":[8.6821,50.1109]},"properties":{"k":"3a4977e51f95ab28","c":"#AC5F66","r":8.0,"s":"#BA797E","w":2,"o":0.8,"n":"European Central Bank","p":1}},{"type":"Feature","geometry":{"type":"Point","coordinates":[139.7744,35.6795]},"properties":{"k":"e75f94ed0ff7d93f","c":"#AC5F66","r":8.0,"s":"#BA797E","w":2,"o":0.8,"n":"Bank of Japan","p":1}},{"type":"Feature","geometry":{"type":"Point","coordinates":[116.3974,39.9075]},"properties":{"k":"b8c5c709d3f3f085","c":"#AC5F66","r":8.0,"s":"#BA797E","w":2,"o":0.8,"n":"People's Bank of China","p":1}},{"type":"Feature","geometry":{"type":"Point","coordinates":[7.4474,46.9479]},"properties":{"k":"4cb167a3443db554","c":"#AC5F66","r":8.0,"s":"#BA797E","w":2,"o":0.8,"n":"Swiss National Bank","p":1}},{"type":"Feature","geometry":{"type":"Point","coordinates":[-75.6972,45.4215]},"properties":{"k":"bfb5af5384d1fd50","c":"#AC5F66","r":8.0,"s":"#BA797E","w":2,"o":0.8,"n":"Bank of Canada","p":1}},{"type":"Feature","geometry":{"type":"Point","coordinates":[151.2093,-33.8688]},"properties":{"k":"a728491e2198912d","c":"#AC5F66","r":8.0,"s":"#BA797E","w":2,"o":0.8,"n":"Reserve Bank of Australia","p":1}},{"type":"Feature","geometry":{"type":"Point","coordinates":[72.8353,18.9389]},"properties":{"k":"f0c8b38448f6a2ab","c":"#AC5F66","r":8.0,"s":"#BA797E","w":2,"o":0.8,"n":"Reserve Bank of India","p":1}},{"type":"Feature","geometry":{"type":"Point","coordinates":[-47.8828,-15.7939]},"properties":{"k":"2e3d94a66d99ec89","c":"#AC5F66","r":8.0,"s":"#BA797E","w":2,"o":0.8,"n":"Central Bank of Brazil","p":1}},{"type":"Feature","geometry":{"type":"Point","coordinates":[37.6173,55.7558]},"properties":{"k":"fcc0336772d45200","c":"#AC5F66","r":8.0,"s":"#BA797E","w":2,"o":0.8,"n":"Central Bank of Russia","p":1}},{"type":"Feature","geometry":{"type":"Point","coordinates":[126.978,37.5665]},"properties":{"k":"7ffc5a8c06ba3bae","c":"#AC5F66","r":8.0,"s":"#BA797E","w":2,"o":0.8,"n":"Bank of Korea","p":1}},{"type":"Feature","geometry":{"type":"Point","coordinates":[-99.1332,19.4326]},"properties":{"k":"236d43255d5fe287","c":"#AC5F66","r":8.0,"s":"#BA797E","w":2,"o":0.8,"n":"Bank of Mexico","p":1}},{"type":"Feature","geometry":{"type":"Point","coordinates":[106.8456,-6.2088]},"properties":{"k":"5867099d4a97043e","c":"#AC5F66","r":8.0,"s":"#BA797E","w":2,"o":0.8,"n":"Bank Indonesia","p":1}},{"type":"Feature","geometry":{"type":"Point","coordinates":[46.6753,24.7136]},"properties":{"k":"51374e2d3756dd70","c":"#AC5F66","r":8.0,"s":"#BA797E","w":2,"o":0.8,"n":"Saudi Central Bank","p":1}},{"type":"Feature","geometry":{"type":"Point","coordinates":[32.8597,39.9334]},"properties":{"k":"2ead2fa7b14cc12b","c":"#AC5F66","r":8.0,"s":"#BA797E","w":2,"o":0.8,"n":"Central Bank of Turkey","p":1}},{"type":"Feature","geometry":{"type":"Point","coordinates":[-58.3816,-34.6037]},"properties":{"k":"8877bb79d4d3cbab","c":"#AC5F66","r":8.0,"s":"#BA797E","w":2,"o":0.8,"n":"Central Bank of Argentina","p":1}},{"type":"Feature","geometry":{"type":"Point","coordinates":[28.2293,-25.7479]},"properties":{"k":"34d6f15764973d3a","c":"#AC5F66","r":8.0,"s":"#BA797E","w":2,"o":0.8,"n":"South African Reserve Bank","p":1}},{"type":"Feature","geometry":{"type":"Point","coordinates":[100.5018,13.7563]},"properties":{"k":"b862d3bab52bc457","c":"#AC5F66","r":8.0,"s":"#BA797E","w":2,"o":0.8,"n":"Bank of Thailand","p":1}},{"type":"Feature","geometry":{"type":"Point","coordinates":[101.6869,3.139]},"properties":{"k":"12e3d0750ba6163c","c":"#AC5F66","r":8.0,"s":"#BA797E","w":2,"o":0.8,"n":"Bank Negara Malaysia","p":1}},{"type":"Feature","geometry":{"type":"Point","coordinates":[103.8198,1.3521]},"properties":{"k":"d28c44e62eb4d761","c":"#AC5F66","r":8.0,"s":"#BA797E","w":2,"o":0.8,"n":"Monetary Authority of Singapore","p":1}},{"type":"Feature","geometry":{"type":"Point","coordinates":[7.3986,9.0765]},"properties":{"k":"6e6f60b57601fc7b","c":"#AC5F66","r":8.0,"s":"#BA797E","w":2,"o":0.8,"n":"Central Bank of Nigeria","p":1}},{"type":"Feature","geometry":{"type":"Point","coordinates":[31.2357,30.0444]},"properties":{"k":"f5ad3375a0c8c229","c":"#AC5F66","r":8.0,"s":"#BA797E","w":2,"o":0.8,"n":"Central Bank of Egypt","p":1}},{"type":"Feature","geometry":{"type":"Point","coordinates":[120.9842,14.5995]},"properties":{"k":"c48c717248442b31","c":"#AC5F66","r":8.0,"s":"#BA797E","w":2,"o":0.8,"n":"Bangko Sentral ng Pilipinas","p":1}},{"type":"Feature","geometry":{"type":"Point","coordinates":[105.8542,21.0285]},"properties":{"k":"180c1db738a3b483","c":"#AC5F66","r":8.0,"s":"#BA797E","w":2,"o":0.8,"n":"State Bank of Vietnam","p":1}},{"type":"Feature","geometry":{"type":"Point","coordinates":[21.0122,52.2297]},"properties":{"k":"59319673b8e4f007","c":"#AC5F66","r":8.0,"s":"#BA797E","w":2,"o":0.8,"n":"National Bank of Poland","p":1}},{"type":"Feature","geometry":{"type":"Point","coordinates":[18.0686,59.3293]},"properties":{"k":"db13ac14f86284f7","c":"#AC5F66","r":8.0,"s":"#BA797E","w":2,"o":0.8,"n":"Sveriges Riksbank","p":1}},{"type":"Feature","geometry":{"type":"Point","coordinates":[10.7522,59.9139]},"properties":{"k":"412f486c0206aeee","c":"#AC5F66","r":8.0,"s":"#BA797E","w":2,"o":0.8,"n":"Norges Bank","p":1}},{"type":"Feature","geometry":{"type":"Point","coordinates":[12.5683,55.6761]},"properties":{"k":"026e06d8c542cc97","c":"#AC5F66","r":8.0,"s":"#BA797E","w":2,"o":0.8,"n":"Danmarks Nationalbank","p":1}},{"type":"Feature","geometry":{"type":"Point","coordinates":[174.7762,-41.2865]},"properties":{"k":"2fbc884b63e853d9","c":"#AC5F66","r":8.0,"s":"#BA797E","w":2,"o":0.8,"n":"Reserve Bank of New Zealand","p":1}},{"type":"Feature","geometry":{"type":"Point","coordinates":[35.2137,31.7683]},"properties":{"k":"b10d49a5b85aa774","c":"#AC5F66","r":8.0,"s":"#BA797E","w":2,"o":0.8,"n":"Bank of Israel","p":1}},{"type":"Feature","geometry":{"type":"Point","coordinates":[-70.6693,-33.4489]},"properties":{"k":"33187d644be2b8d3","c":"#AC5F66","r":8.0,"s":"#BA797E","w":2,"o":0.8,"n":"Central Bank of Chile","p":1}},{"type":"Feature","geometry":{"type":"Point","coordinates":[-74.0817,4.6097]},"properties":{"k":"3477e11d8b320d30","c":"#AC5F66","r":8.0,"s":"#BA797E","w":2,"o":0.8,"n":"Bank of the Republic","p":1}},{"type":"Feature","geometry":{"type":"Point","coordinates":[-77.0428,-12.0464]},"properties":{"k":"8391ce6dec5395ee","c":"#AC5F66","r":8.0,"s":"#BA797E","w":2,"o":0.8,"n":"Central Reserve Bank of Peru","p":1}},{"type":"Feature","geometry":{"type":"Point","coordinates":[14.4213,50.0875]},"properties":{"k":"a27fcf883361b05d","c":"#AC5F66","r":8.0,"s":"#BA797E","w":2,"o":0.8,"n":"Czech National Bank","p":1}},{"type":"Feature","geometry":{"type":"Point","coordinates":[19.0402,47.4979]},"properties":{"k":"2ee0b93eb870cce6","c":"#AC5F66","r":8.0,"s":"#BA797E","w":2,"o":0.8,"n":"National Bank of Hungary","p":1}},{"type":"Feature","geometry":{"type":"Point","coordinates":[26.1025,44.4268]},"properties":{"k":"e17bd9d46f2e6858","c":"#AC5F66","r":8.0,"s":"#BA797E","w":2,"o":0.8,"n":"National Bank of Romania","p":1}},{"type":"Feature","geometry":{"type":"Point","coordinates":[67.0011,24.8607]},"properties":{"k":"85d37e3f1a7aaaca","c":"#AC5F66","r":8.0,"s":"#BA797E","w":2,"o":0.8,"n":"State Bank of Pakistan","p":1}},{"type":"Feature","geometry":{"type":"Point","coordinates":[90.4125,23.8103]},"properties":{"k":"e24bf75a43530b18","c":"#AC5F66","r":8.0,"s":"#BA797E","w":2,"o":0.8,"n":"Bangladesh Bank","p":1}},{"type":"Feature","geometry":{"type":"Point","coordinates":[36.8172,-1.2864]},"properties":{"k":"db3623917e60d619","c":"#AC5F66","r":8.0,"s":"#BA797E","w":2,"o":0.8,"n":"Central Bank of Kenya","p":1}},{"type":"Feature","geometry":{"type":"Point","coordinates":[-6.8498,33.9716]},"properties":{"k":"39a0727a8e03c3f5","c":"#AC5F66","r":8.0,"s":"#BA797E","w":2,"o":0.8,"n":"Bank Al-Maghrib","p":1}},{"type":"Feature","geometry":{"type":"Point","coordinates":[-0.187,5.6037]},"properties":{"k":"8d492d424612effe","c":"#AC5F66","r":8.0,"s":"#BA797E","w":2,"o":0.8,"n":"Bank of Ghana","p":1}},{"type":"Feature","geometry":{"type":"Point","coordinates":[30.5234,50.4501]},"properties":{"k":"18f3f1015a8e670b","c":"#AC5F66","r":8.0,"s":"#BA797E","w":2,"o":0.8,"n":"National Bank of Ukraine","p":1}},{"type":"Feature","geometry":{"type":"Point","coordinates":[51.389,35.6892]},"properties":{"k":"c7743c171bed7c41","c":"#AC5F66","r":8.0,"s":"#BA797E","w":2,"o":0.8,"n":"Central Bank of Iran","p":1}},{"type":"Feature","geometry":{"type":"Point","coordinates":[44.3661,33.3152]},"properties":{"k":"9f5c771b3849a3cc","c":"#AC5F66","r":8.0,"s":"#BA797E","w":2,"o":0.8,"n":"Central Bank of Iraq","p":1}},{"type":"Feature","geometry":{"type":"Point","coordinates":[54.3773,24.4539]},"properties":{"k":"a8a49fb7f23ce0d7","c":"#AC5F66","r":8.0,"s":"#BA797E","w":2,"o":0.8,"n":"Central Bank of UAE","p":1}},{"type":"Feature","geometry":{"type":"Point","coordinates":[51.531,25.2854]},"properties":{"k":"e7ea53859337c5c9","c":"#AC5F66","r":8.0,"s":"#BA797E","w":2,"o":0.8,"n":"Qatar Central Bank","p":1}},{"type":"Feature","geometry":{"type":"Point","coordinates":[47.9774,29.3759]},"properties":{"k":"d285783b7f7430e3","c":"#AC5F66","r":8.0,"s":"#BA797E","w":2,"o":0.8,"n":"Central Bank of Kuwait","p":1}},{"type":"Feature","geometry":{"type":"Point","coordinates":[-66.9146,10.506]},"properties":{"k":"65e7b3c76c78fa2f","c":"#AC5F66","r":8.0,"s":"#BA797E","w":2,"o":0.8,"n":"Central Bank of Venezuela","p":1}},{"type":"Feature","geometry":{"type":"Point","coordinates":[-78.4678,-0.1807]},"properties":{"k":"04051c53a616cf2a","c":"#AC5F66","r":8.0,"s":"#BA797E","w":2,"o":0.8,"n":"Central Bank of Ecuador","p":1}},{"type":"Feature","geometry":{"type":"Point","coordinates":[15.9819,45.815]},"properties":{"k":"0bf8688c2d4283ca","c":"#AC5F66","r":8.0,"s":"#BA797E","w":2,"o":0.8,"n":"Croatian National Bank","p":1}},{"type":"Feature","geometry":{"type":"Point","coordinates":[20.4489,44.7866]},"properties":{"k":"caa695957c7bdcc4","c":"#AC5F66","r":8.0,"s":"#BA797E","w":2,"o":0.8,"n":"National Bank of Serbia","p":1}},{"type":"Feature","geometry":{"type":"Point","coordinates":[23.3219,42.6977]},"properties":{"k":"ee6471fd2149e105","c":"#AC5F66","r":8.0,"s":"#BA797E","w":2,"o":0.8,"n":"Bulgarian National Bank","p":1}},{"type":"Feature","geometry":{"type":"Point","coordinates":[71.4491,51.1694]},"properties":{"k":"eaaa3fce370d8b49","c":"#AC5F66","r":8.0,"s":"#BA797E","w":2,"o":0.8,"n":"National Bank of Kazakhstan","p":1}},{"type":"Feature","geometry":{"type":"Point","coordinates":[3.0588,36.7538]},"properties":{"k":"93531ab7406d9bee","c":"#AC5F66","r":8.0,"s":"#BA797E","w":2,"o":0.8,"n":"Bank of Algeria","p":1}},{"type":"Feature","geometry":{"type":"Point","coordinates":[10.1815,36.8065]},"properties":{"k":"6d2713bea5e22b12","c":"#AC5F66","r":8.0,"s":"#BA797E","w":2,"o":0.8,"n":"Central Bank of Tunisia","p":1}},{"type":"Feature","geometry":{"type":"Point","coordinates":[13.2344,-8.8383]},"properties":{"k":"eff7dc6153611a95","c":"#AC5F66","r":8.0,"s":"#BA797E","w":2,"o":0.8,"n":"National Bank of Angola","p":1}},{"type":"Feature","geometry":{"type":"Point","coordinates":[38.7469,9.032]},"properties":{"k":"40f171a4de20b94b","c":"#AC5F66","r":8.0,"s":"#BA797E","w":2,"o":0.8,"n":"National Bank of Ethiopia","p":1}},{"type":"Feature","geometry":{"type":"Point","coordinates":[39.2083,-6.7924]},"properties":{"k":"54f328d4c0b90a0e","c":"#AC5F66","r":8.0,"s":"#BA797E","w":2,"o":0.8,"n":"Bank of Tanzania","p":1}},{"type":"Feature","geometry":{"type":"Point","coordinates":[32.5825,0.3476]},"properties":{"k":"6fff6b219d6cd173","c":"#AC5F66","r":8.0,"s":"#BA797E","w":2,"o":0.8,"n":"Bank of Uganda","p":1}},{"type":"Feature","geometry":{"type":"Point","coordinates":[28.3228,-15.3875]},"properties":{"k":"608b3a732b2f35f8","c":"#AC5F66","r":8.0,"s":"#BA797E","w":2,"o":0.8,"n":"Bank of Zambia","p":1}},{"type":"Feature","geometry":{"type":"Point","coordinates":[31.0335,-17.8252]},"properties":{"k":"4abe0682e602c978","c":"#AC5F66","r":8.0,"s":"#BA797E","w":2,"o":0.8,"n":"Reserve Bank of Zimbabwe","p":1}},{"type":"Feature","geometry":{"type":"Point","coordinates":[79.8612,6.9271]},"properties":{"k":"bbce4525f063e8fb","c":"#AC5F66","r":8.0,"s":"#BA797E","w":2,"o":0.8,"n":"Central Bank of Sri Lanka","p":1}},{"type":"Feature","geometry":{"type":"Point","coordinates":[96.1951,16.8661]},"properties":{"k":"9641262ac9a7cebb","c":"#AC5F66","r":8.0,"s":"#BA797E","w":2,"o":0.8,"n":"Central Bank of Myanmar","p":1}},{"type":"Feature","geometry":{"type":"Point","coordinates":[104.9282,11.5564]},"properties":{"k":"5a541f1295df1ebd","c":"#AC5F66","r":8.0,"s":"#BA797E","w":2,"o":0.8,"n":"National Bank of Cambodia","p":1}},{"type":"Feature","geometry":{"type":"Point","coordinates":[102.6331,17.9757]},"properties":{"k":"eaf4370a37bcb88a","c":"#AC5F66","r":8.0,"s":"#BA797E","w":2,"o":0.8,"n":"Bank of Lao PDR","p":1}},{"type":"Feature","geometry":{"type":"Point","coordinates":[85.324,27.7172]},"properties":{"k":"c6b62ff7cb1fc15e","c":"#AC5F66","r":8.0,"s":"#BA797E","w":2,"o":0.8,"n":"Nepal Rastra Bank","p":1}},{"type":"Feature","geometry":{"type":"Point","coordinates":[25.9231,-24.6282]},"properties":{"k":"5f888d77678e8dfc","c":"#AC5F66","r":8.0,"s":"#BA797E","w":2,"o":0.8,"n":"Bank of Botswana","p":1}},{"type":"Feature","geometry":{"type":"Point","coordinates":[17.0832,-22.5597]},"properties":{"k":"c7dfec9811a187f0","c":"#AC5F66","r":8.0,"s":"#BA797E","w":2,"o":0.8,"n":"Bank of Namibia","p":1}},{"type":"Feature","geometry":{"type":"Point","coordinates":[57.5014,-20.1654]},"properties":{"k":"9cc2aaff4dd20046","c":"#AC5F66","r":8.0,"s":"#BA797E","w":2,"o":0.8,"n":"Bank of Mauritius","p":1}},{"type":"Feature","geometry":{"type":"Point","coordinates":[-21.9426,64.1466]},"properties":{"k":"fb8361031501fbac","c":"#AC5F66","r":8.0,"s":"#BA797E","w":2,"o":0.8,"n":"Central Bank of Iceland","p":1}},{"type":"Feature","geometry":{"type":"Point","coordinates":[-6.2603,53.3498]},"properties":{"k":"da5dc6ba8fae50e4","c":"#AC5F66","r":8.0,"s":"#BA797E","w":2,"o":0.8,"n":"Central Bank of Ireland","p":1}},{"type":"Feature","geometry":{"type":"Point","coordinates":[-9.1393,38.7223]},"properties":{"k":"91875fd3a1fe9291","c":"#AC5F66","r":8.0,"s":"#BA797E","w":2,"o":0.8,"n":"Bank of Portugal","p":1}},{"type":"Feature","geometry":{"type":"Point","coordinates":[23.7275,37.9838]},"properties":{"k":"6d3d0a32fbe7be1b","c":"#AC5F66","r":8.0,"s":"#BA797E","w":2,"o":0.8,"n":"Bank of Greece","p":1}},{"type":"Feature","geometry":{"type":"Point","coordinates":[16.3738,48.2082]},"properties":{"k":"45fc933b3c6f8bb6","c":"#AC5F66","r":8.0,"s":"#BA797E","w":2,"o":0.8,"n":"National Bank of Austria","p":1}},{"type":"Feature","geometry":{"type":"Point","coordinates":[4.3517,50.8503]},"properties":{"k":"67b678065aa7a355","c":"#AC5F66","r":8.0,"s":"#BA797E","w":2,"o":0.8,"n":"National Bank of Belgium","p":1}},{"type":"Feature","geometry":{"type":"Point","coordinates":[4.9041,52.3676]},"properties":{"k":"8d3436e3b732542c","c":"#AC5F66","r":8.0,"s":"#BA797E","w":2,"o":0.8,"n":"De Nederlandsche Bank","p":1}},{"type":"Feature","geometry":{"type":"Point","coordinates":[24.9384,60.1699]},"properties":{"k":"50f8e583cd6bd055","c":"#AC5F66","r":8.0,"s":"#BA797E","w":2,"o":0.8,"n":"Bank of Finland","p":1}},{"type":"Feature","geometry":{"type":"Point","coordinates":[-3.7038,40.4168]},"properties":{"k":"0f4bd411ae06e4fe","c":"#AC5F66","r":8.0,"s":"#BA797E","w":2,"o":0.8,"n":"Bank of Spain","p":1}},{"type":"Feature","geometry":{"type":"Point","coordinates":[12.4964,41.9028]},"properties":{"k":"686b8900f5bbcb58","c":"#AC5F66","r":8.0,"s":"#BA797E","w":2,"o":0.8,"n":"Bank of Italy","p":1}},{"type":"Feature","geometry":{"type":"Point","coordinates":[8.6842,50.1155]},"properties":{"k":"635fe33abe4f8ad9","c":"#AC5F66","r":8.0,"s":"#BA797E","w":2,"o":0.8,"n":"Deutsche Bundesbank","p":1}},{"type":"Feature","geometry":{"type":"Point","coordinates":[2.3522,48.8566]},"properties":{"k":"d8f5be49cc75a109","c":"#AC5F66","r":8.0,"s":"#BA797E","w":2,"o":0.8,"n":"Bank of France","p":1}},{"type":"Feature","geometry":{"type":"Point","coordinates":[6.1319,49.6116]},"properties":{"k":"be0801a25d206e0d","c":"#AC5F66","r":8.0,"s":"#BA797E","w":2,"o":0.8,"n":"Central Bank of Luxembourg","p":1}},{"type":"Feature","geometry":{"type":"Point","coordinates":[17.1077,48.1486]},"properties":{"k":"f4fa03b874c9c927","c":"#AC5F66","r":8.0,"s":"#BA797E","w":2,"o":0.8,"n":"National Bank of Slovakia","p":1}},{"type":"Feature","geometry":{"type":"Point","coordinates":[14.5058,46.0569]},"properties":{"k":"40038b185351292d","c":"#AC5F66","r":8.0,"s":"#BA797E","w":2,"o":0.8,"n":"Bank of Slovenia","p":1}},{"type":"Feature","geometry":{"type":"Point","coordinates":[24.7536,59.437]},"properties":{"k":"868ff4f6f291183d","c":"#AC5F66","r":8.0,"s":"#BA797E","w":2,"o":0.8,"n":"Bank of Estonia","p":1}},{"type":"Feature","geometry":{"type":"Point","coordinates":[24.1052,56.9496]},"properties":{"k":"c5fa620d73729728","c":"#AC5F66","r":8.0,"s":"#BA797E","w":2,"o":0.8,"n":"Bank of Latvia","p":1}},{"type":"Feature","geometry":{"type":"Point","coordinates":[25.2797,54.6872]},"properties":{"k":"bbebf85da0c5ecc9","c":"#AC5F66","r":8.0,"s":"#BA797E","w":2,"o":0.8,"n":"Bank of Lithuania","p":1}},{"type":"Feature","geometry":{"type":"Point","coordinates":[33.4299,35.1264]},"properties":{"k":"c9325acfa39698cb","c":"#AC5F66","r":8.0,"s":"#BA797E","w":2,"o":0.8,"n":"Central Bank of Cyprus","p":1}},{"type":"Feature","geometry":{"type":"Point","coordinates":[14.5146,35.8989]},"properties":{"k":"eba8294bb6ac9bb0","c":"#AC5F66","r":8.0,"s":"#BA797E","w":2,"o":0.8,"n":"Central Bank of Malta","p":1}},{"type":"Feature","geometry":{"type":"Point","coordinates":[35.9284,31.9454]},"properties":{"k":"fcff441e3ed66139","c":"#AC5F66","r":8.0,"s":"#BA797E","w":2,"o":0.8,"n":"Central Bank of Jordan","p":1}},{"type":"Feature","geometry":{"type":"Point","coordinates":[35.4955,33.8886]},"properties":{"k":"c9e8013120b6c653","c":"#AC5F66","r":8.0,"s":"#BA797E","w":2,"o":0.8,"n":"Banque du Liban","p":1}},{"type":"Feature","geometry":{"type":"Point","coordinates":[58.5454,23.61]},"properties":{"k":"35adbada18fc9a5e","c":"#AC5F66","r":8.0,"s":"#BA797E","w":2,"o":0.8,"n":"Central Bank of Oman","p":1}},{"type":"Feature","geometry":{"type":"Point","coordinates":[50.5876,26.2235]},"properties":{"k":"76ab294de378083f","c":"#AC5F66","r":8.0,"s":"#BA797E","w":2,"o":0.8,"n":"Central Bank of Bahrain","p":1}},{"type":"Feature","geometry":{"type":"Point","coordinates":[49.8671,40.4093]},"properties":{"k":"ec718e9309c5045e","c":"#AC5F66","r":8.0,"s":"#BA797E","w":2,"o":0.8,"n":"Central Bank of Azerbaijan","p":1}},{"type":"Feature","geometry":{"type":"Point","coordinates":[44.5152,40.1872]},"properties":{"k":"4ed5a9680daec993","c":"#AC5F66","r":8.0,"s":"#BA797E","w":2,"o":0.8,"n":"Central Bank of Armenia","p":1}},{"type":"Feature","geometry":{"type":"Point","coordinates":[44.8271,41.7151]},"properties":{"k":"42e24b0718782d1d","c":"#AC5F66","r":8.0,"s":"#BA797E","w":2,"o":0.8,"n":"National Bank of Georgia","p":1}},{"type":"Feature","geometry":{"type":"Point","coordinates":[69.2401,41.2995]},"properties":{"k":"cfa7a8a8a14bc236","c":"#AC5F66","r":8.0,"s":"#BA797E","w":2,"o":0.8,"n":"Central Bank of Uzbekistan","p":1}},{"type":"Feature","geometry":{"type":"Point","coordinates":[106.9178,47.9191]},"properties":{"k":"1a3a42ec768fd293","c":"#AC5F66","r":8.0,"s":"#BA797E","w":2,"o":0.8,"n":"Bank of Mongolia","p":1}},{"type":"Feature","geometry":{"type":"Point","coordinates":[-84.0907,9.9281]},"properties":{"k":"b08e419aa96b194f","c":"#AC5F66","r":8.0,"s":"#BA797E","w":2,"o":0.8,"n":"Central Bank of Costa Rica","p":1}},{"type":"Feature","geometry":{"type":"Point","coordinates":[-79.5199,8.9824]},"properties":{"k":"cd290dba2aa7bb40","c":"#AC5F66","r":8.0,"s":"#BA797E","w":2,"o":0.8,"n":"National Bank of Panama","p":1}},{"type":"Feature","geometry":{"type":"Point","coordinates":[-56.1645,-34.9011]},"properties":{"k":"bdeb8ffc0b633e30","c":"#AC5F66","r":8.0,"s":"#BA797E","w":2,"o":0.8,"n":"Central Bank of Uruguay","p":1}},{"type":"Feature","geometry":{"type":"Point","coordinates":[-57.5759,-25.2637]},"properties":{"k":"97480cd2e53a937d","c":"#AC5F66","r":8.0,"s":"#BA797E","w":2,"o":0.8,"n":"Central Bank of Paraguay","p":1}},{"type":"Feature","geometry":{"type":"Point","coordinates":[-68.15,-16.5]},"properties":{"k":"1beb96d4f4244e17","c":"#AC5F66","r":8.0,"s":"#BA797E","w":2,"o":0.8,"n":"Central Bank of Bolivia","p":1}},{"type":"Feature","geometry":{"type":"Point","coordinates":[-90.5069,14.6349]},"properties":{"k":"448d162e79cfe4a3","c":"#AC5F66","r":8.0,"s":"#BA797E","w":2,"o":0.8,"n":"Bank of Guatemala","p":1}},{"type":"Feature","geometry":{"type":"Point","coordinates":[-87.1921,14.0723]},"properties":{"k":"9ab1300c3c205cf3","c":"#AC5F66","r":8.0,"s":"#BA797E","w":2,"o":0.8,"n":"Central Bank of Honduras","p":1}},{"type":"Feature","geometry":{"type":"Point","coordinates":[-89.2182,13.6929]},"properties":{"k":"9e723f9999a59893","c":"#AC5F66","r":8.0,"s":"#BA797E","w":2,"o":0.8,"n":"Central Reserve Bank of El Salvador","p":1}},{"type":"Feature","geometry":{"type":"Point","coordinates":[-86.2362,12.115]},"properties":{"k":"e3a79c3a7c260070","c":"#AC5F66","r":8.0,"s":"#BA797E","w":2,"o":0.8,"n":"Central Bank of Nicaragua","p":1}},{"type":"Feature","geometry":{"type":"Point","coordinates":[-76.7931,17.9714]},"properties":{"k":"f07f5a32bb9c68c8","c":"#AC5F66","r":8.0,"s":"#BA797E","w":2,"o":0.8,"n":"Bank of Jamaica","p":1}},{"type":"Feature","geometry":{"type":"Point","coordinates":[-61.2225,10.6918]},"properties":{"k":"029056b1bdd9dd85","c":"#AC5F66","r":8.0,"s":"#BA797E","w":2,"o":0.8,"n":"Central Bank of Trinidad and Tobago","p":1}},{"type":"Feature","geometry":{"type":"Point","coordinates":[-59.5432,13.1939]},"properties":{"k":"aaa351e7b86a074c","c":"#AC5F66","r":8.0,"s":"#BA797E","w":2,"o":0.8,"n":"Central Bank of Barbados","p":1}},{"type":"Feature","geometry":{"type":"Point","coordinates":[19.8187,41.3275]},"properties":{"k":"8bd8e3047ea2bbc7","c":"#AC5F66","r":8.0,"s":"#BA797E","w":2,"o":0.8,"n":"Bank of Albania","p":1}},{"type":"Feature","geometry":{"type":"Point","coordinates":[21.4254,41.9981]},"properties":{"k":"b92930a443ce3a5a","c":"#AC5F66","r":8.0,"s":"#BA797E","w":2,"o":0.8,"n":"National Bank of North Macedonia","p":1}},{"type":"Feature","geometry":{"type":"Point","coordinates":[18.4131,43.8564]},"properties":{"k":"8bd1651367ac3374","c":"#AC5F66","r":8.0,"s":"#BA797E","w":2,"o":0.8,"n":"Central Bank of Bosnia and Herzegovina","p":1}},{"type":"Feature","geometry":{"type":"Point","coordinates":[28.8638,47.0105]},"properties":{"k":"e629e43bb234682d","c":"#AC5F66","r":8.0,"s":"#BA797E","w":2,"o":0.8,"n":"National Bank of Moldova","p":1}},{"type":"Feature","geometry":{"type":"Point","coordinates":[27.5615,53.9045]},"properties":{"k":"9175e2dba010336f","c":"#AC5F66","r":8.0,"s":"#BA797E","w":2,"o":0.8,"n":"National Bank of Belarus","p":1}},{"type":"Feature","geometry":{"type":"Point","coordinates":[74.5698,42.8746]},"properties":{"k":"390b7659352fbd7c","c":"#AC5F66","r":8.0,"s":"#BA797E","w":2,"o":0.8,"n":"National Bank of Kyrgyzstan","p":1}},{"type":"Feature","geometry":{"type":"Point","coordinates":[68.7738,38.5598]},"properties":{"k":"efdbd082dbce4c2c","c":"#AC5F66","r":8.0,"s":"#BA797E","w":2,"o":0.8,"n":"National Bank of Tajikistan","p":1}},{"type":"Feature","geometry":{"type":"Point","coordinates":[58.3261,37.9601]},"properties":{"k":"c79f538d2951cf31","c":"#AC5F66","r":8.0,"s":"#BA797E","w":2,"o":0.8,"n":"Central Bank of Turkmenistan","p":1}},{"type":"Feature","geometry":{"type":"Point","coordinates":[147.1803,-9.4438]},"properties":{"k":"c7ddca244d836b4c","c":"#AC5F66","r":8.0,"s":"#BA797E","w":2,"o":0.8,"n":"Bank of Papua New Guinea","p":1}},{"type":"Feature","geometry":{"type":"Point","coordinates":[178.4419,-18.1416]},"properties":{"k":"6a47d735e718346f","c":"#AC5F66","r":8.0,"s":"#BA797E","w":2,"o":0.8,"n":"Reserve Bank of Fiji","p":1}},{"type":"Feature","geometry":{"type":"Point","coordinates":[-72.3074,18.5944]},"properties":{"k":"4f3efc193e1630f6","c":"#AC5F66","r":8.0,"s":"#BA797E","w":2,"o":0.8,"n":"Bank of the Republic of Haiti","p":1}},{"type":"Feature","geometry":{"type":"Point","coordinates":[-69.9312,18.4861]},"properties":{"k":"ac702c185fbe481e","c":"#AC5F66","r":8.0,"s":"#BA797E","w":2,"o":0.8,"n":"Central Bank of the Dominican Republic","p":1}},{"type":"Feature","geometry":{"type":"Point","coordinates":[-82.3666,23.1136]},"properties":{"k":"c08b933c1810c42f","c":"#AC5F66","r":8.0,"s":"#BA797E","w":2,"o":0.8,"n":"Central Bank of Cuba","p":1}},{"type":"Feature","geometry":{"type":"Point","coordinates":[-55.2038,5.852]},"properties":{"k":"d4b3cf15e219bd95","c":"#AC5F66","r":8.0,"s":"#BA797E","w":2,"o":0.8,"n":"Central Bank of Suriname","p":1}},{"type":"Feature","geometry":{"type":"Point","coordinates":[-58.1551,6.8013]},"properties":{"k":"6a97160abbede9fb","c":"#AC5F66","r":8.0,"s":"#BA797E","w":2,"o":0.8,"n":"Bank of Guyana","p":1}},{"type":"Feature","geometry":{"type":"Point","coordinates":[32.5832,-25.9655]},"properties":{"k":"67cc4b220f4b2ddb","c":"#AC5F66","r":8.0,"s":"#BA797E","w":2,"o":0.8,"n":"Bank of Mozambique","p":1}},{"type":"Feature","geometry":{"type":"Point","coordinates":[47.5079,-18.8792]},"properties":{"k":"7e96199af48f6bf3","c":"#AC5F66","r":8.0,"s":"#BA797E","w":2,"o":0.8,"n":"Central Bank of Madagascar","p":1}},{"type":"Feature","geometry":{"type":"Point","coordinates":[33.7741,-13.9626]},"properties":{"k":"a7669ac692ba74d2","c":"#AC5F66","r":8.0,"s":"#BA797E","w":2,"o":0.8,"n":"Reserve Bank of Malawi","p":1}},{"type":"Feature","geometry":{"type":"Point","coordinates":[29.8739,-1.9403]},"properties":{"k":"d6a45e384d1e7dea","c":"#AC5F66","r":8.0,"s":"#BA797E","w":2,"o":0.8,"n":"National Bank of Rwanda","p":1}},{"type":"Feature","geometry":{"type":"Point","coordinates":[-17.4441,14.6937]},"properties":{"k":"452e038145f904de","c":"#AC5F66","r":8.0,"s":"#BA797E","w":2,"o":0.8,"n":"Central Bank of West African States (BCEAO)","p":1}},{"type":"Feature","geometry":{"type":"Point","coordinates":[-4.0083,5.36]},"properties":{"k":"8c96703b207de059","c":"#AC5F66","r":8.0,"s":"#BA797E","w":2,"o":0.8,"n":"BCEAO - Ivory Coast","p":1}},{"type":"Feature","geometry":{"type":"Point","coordinates":[11.5021,3.848]},"properties":{"k":"de5497031e1e95f2","c":"#AC5F66","r":8.0,"s":"#BA797E","w":2,"o":0.8,"n":"Bank of Central African States (BEAC)","p":1}},{"type":"Feature","geometry":{"type":"Point","coordinates":[9.4673,0.4162]},"properties":{"k":"4b64f0b691e0c01c","c":"#AC5F66","r":8.0,"s":"#BA797E","w":2,"o":0.8,"n":"BEAC - Gabon","p":1}},{"type":"Feature","geometry":{"type":"Point","coordinates":[15.2429,-4.2634]},"properties":{"k":"e8d27e4083c7145d","c":"#AC5F66","r":8.0,"s":"#BA797E","w":2,"o":0.8,"n":"BEAC - Congo","p":1}},{"type":"Feature","geometry":{"type":"Point","coordinates":[-10.8074,6.3156]},"properties":{"k":"e75d598052cd63a3","c":"#AC5F66","r":8.0,"s":"#BA797E","w":2,"o":0.8,"n":"Central Bank of Liberia","p":1}},{"type":"Feature","geometry":{"type":"Point","coordinates":[-13.2317,8.4657]},"properties":{"k":"5fe6132d0e02d635","c":"#AC5F66","r":8.0,"s":"#BA797E","w":2,"o":0.8,"n":"Bank of Sierra Leone","p":1}},{"type":"Feature","geometry":{"type":"Point","coordinates":[69.2075,34.5553]},"properties":{"k":"d274797604f56883","c":"#AC5F66","r":8.0,"s":"#BA797E","w":2,"o":0.8,"n":"Da Afghanistan Bank","p":1}},{"type":"Feature","geometry":{"type":"Point","coordinates":[48.5164,15.5527]},"properties":{"k":"0753e31d4e7df5a3","c":"#AC5F66","r":8.0,"s":"#BA797E","w":2,"o":0.8,"n":"Central Bank of Yemen","p":1}},{"type":"Feature","geometry":{"type":"Point","coordinates":[36.2765,33.5138]},"properties":{"k":"98be891dbbe36250","c":"#AC5F66","r":8.0,"s":"#BA797E","w":2,"o":0.8,"n":"Central Bank of Syria","p":1}},{"type":"Feature","geometry":{"type":"Point","coordinates":[13.1913,32.8872]},"properties":{"k":"981eea9f4faebe83","c":"#AC5F66","r":8.0,"s":"#BA797E","w":2,"o":0.8,"n":"Central Bank of Libya","p":1}},{"type":"Feature","geometry":{"type":"Point","coordinates":[32.5599,15.5007]},"properties":{"k":"e5eefd7cc682117e","c":"#AC5F66","r":8.0,"s":"#BA797E","w":2,"o":0.8,"n":"Central Bank of Sudan","p":1}},{"type":"Feature","geometry":{"type":"Point","coordinates":[45.3182,2.0469]},"properties":{"k":"1da87629030ef524","c":"#AC5F66","r":8.0,"s":"#BA797E","w":2,"o":0.8,"n":"Central Bank of Somalia","p":1}},{"type":"Feature","geometry":{"type":"Point","coordinates":[29.3599,-3.3614]},"properties":{"k":"db865920a6516916","c":"#AC5F66","r":8.0,"s":"#BA797E","w":2,"o":0.8,"n":"Bank of the Republic of Burundi","p":1}},{"type":"Feature","geometry":{"type":"Point","coordinates":[27.4833,-29.3167]},"properties":{"k":"0c3253a4fda3441b","c":"#AC5F66","r":8.0,"s":"#BA797E","w":2,"o":0.8,"n":"Central Bank of Lesotho","p":1}},{"type":"Feature","geometry":{"type":"Point","coordinates":[31.1367,-26.3054]},"properties":{"k":"fd3b6a74346320d5","c":"#AC5F66","r":8.0,"s":"#BA797E","w":2,"o":0.8,"n":"Central Bank of Eswatini","p":1}},{"type":"Feature","geometry":{"type":"Point","coordinates":[89.6393,27.4728]},"properties":{"k":"32508593ccd5ae45","c":"#AC5F66","r":8.0,"s":"#BA797E","w":2,"o":0.8,"n":"Royal Monetary Authority of Bhutan","p":1}},{"type":"Feature","geometry":{"type":"Point","coordinates":[73.5093,4.1755]},"properties":{"k":"9d2e13f398810aaf","c":"#AC5F66","r":8.0,"s":"#BA797E","w":2,"o":0.8,"n":"Maldives Monetary Authority","p":1}},{"type":"Feature","geometry":{"type":"Point","coordinates":[114.9398,4.9031]},"properties":{"k":"f47524b9e5bc2f0c","c":"#AC5F66","r":8.0,"s":"#BA797E","w":2,"o":0.8,"n":"Autoriti Monetari Brunei Darussalam","p":1}},{"type":"Feature","geometry":{"type":"Point","coordinates":[125.5603,-8.5569]},"properties":{"k":"2bab2c1f757bafc5","c":"#AC5F66","r":8.0,"s":"#BA797E","w":2,"o":0.8,"n":"Central Bank of Timor-Leste","p":1}},{"type":"Feature","geometry":{"type":"Point","coordinates":[114.1694,22.3193]},"properties":{"k":"915788a246d6aa47","c":"#AC5F66","r":8.0,"s":"#BA797E","w":2,"o":0.8,"n":"Hong Kong Monetary Authority","p":1}},{"type":"Feature","geometry":{"type":"Point","coordinates":[121.5654,25.033]},"properties":{"k":"89c899b8536819e6","c":"#AC5F66","r":8.0,"s":"#BA797E","w":2,"o":0.8,"n":"Central Bank of Taiwan","p":1}}]}