{"type": "FeatureCollection", "features": [{"type": "Feature", "geometry": {"type": "Point", "coordinates": [-1.60361, 48.12083]}, "properties": {"name": "SOPRAL", "what it is": "French manufacturer of dry pet food and equine nutrition, based in Pléchâtel, Brittany", "why it is here": "industry pet food", "owned by": "Financière Estran", "headquarters": "Cesson-Sévigné", "country": "France", "website": "https://sopral.com/", "Wikidata": "https://www.wikidata.org/wiki/Q131218095", "placed at": "its headquarters", "group": "Company", "source": "Wikidata (CC0)"}}, {"type": "Feature", "geometry": {"type": "Point", "coordinates": [-95.67804, 39.04833]}, "properties": {"name": "Science Diet", "what it is": "pet food brand", "why it is here": "industry pet food; makes pet food", "owned by": "Colgate-Palmolive Company", "headquarters": "Topeka", "website": "http://www.hillspet.com", "Wikipedia": "https://en.wikipedia.org/wiki/Science_Diet", "Wikidata": "https://www.wikidata.org/wiki/Q7433509", "placed at": "its headquarters", "group": "Company", "source": "Wikidata (CC0)"}}, {"type": "Feature", "geometry": {"type": "Point", "coordinates": [-3.63333, 52.35]}, "properties": {"name": "Ultimate Pet Foods", "what it is": "Welsh dog food company", "why it is here": "industry pet food", "owned by": "Glenn Bell", "headquarters": "Wales", "country": "United Kingdom", "website": "https://ultimatepetfoods.co.uk", "Wikidata": "https://www.wikidata.org/wiki/Q139782852", "placed at": "its headquarters", "group": "Company", "source": "Wikidata (CC0)"}}, {"type": "Feature", "geometry": {"type": "Point", "coordinates": [-71.23422, 42.61065]}, "properties": {"name": "WellPet", "what it is": "pet food manufacturer", "why it is here": "industry pet food", "headquarters": "Tewksbury", "website": "http://www.wellpet.com", "Wikipedia": "https://en.wikipedia.org/wiki/Wellness_Pet_Company", "Wikidata": "https://www.wikidata.org/wiki/Q7981070", "placed at": "its headquarters", "group": "Company", "source": "Wikidata (CC0)"}}, {"type": "Feature", "geometry": {"type": "Point", "coordinates": [7.05251, 49.37644]}, "properties": {"name": "proWIN", "what it is": "German direct sales company for cleaning agents, cosmetics, and pet food", "why it is here": "industry pet food", "headquarters": "Illingen", "country": "Germany", "website": "https://www.prowin.net/", "Wikidata": "https://www.wikidata.org/wiki/Q24025269", "placed at": "its headquarters", "group": "Company", "source": "Wikidata (CC0)"}}, {"type": "Feature", "geometry": {"type": "Point", "coordinates": [-73.55222, 41.09667]}, "properties": {"name": "Canidae Pet Food", "what it is": "American pet food company", "why it is here": "industry pet food; makes cat food; makes dog food; makes pet food", "headquarters": "Stamford", "website": "https://www.canidae.com/", "Wikidata": "https://www.wikidata.org/wiki/Q110153308", "placed at": "its headquarters", "group": "Company", "source": "Wikidata (CC0)"}}, {"type": "Feature", "geometry": {"type": "Point", "coordinates": [-80.19361, 25.77417]}, "properties": {"name": "Iron Paws", "what it is": "company", "why it is here": "industry pet food", "headquarters": "Miami", "country": "United States", "website": "https://ironpaws.co/", "Wikidata": "https://www.wikidata.org/wiki/Q135070836", "placed at": "its headquarters", "group": "Company", "source": "Wikidata (CC0)"}}, {"type": "Feature", "geometry": {"type": "Point", "coordinates": [153.1, -26.5333]}, "properties": {"name": "Huds and Toke", "what it is": "Australian pet treat manufacturer", "why it is here": "industry pet food; makes pet food", "headquarters": "Coolum Beach", "country": "Australia", "website": "https://www.hudsandtoke.com.au/", "Wikipedia": "https://en.wikipedia.org/wiki/Huds_and_Toke", "Wikidata": "https://www.wikidata.org/wiki/Q136645317", "placed at": "its headquarters", "group": "Company", "source": "Wikidata (CC0)"}}, {"type": "Feature", "geometry": {"type": "Point", "coordinates": [-97.4826, 39.5385]}, "properties": {"name": "Plentum", "what it is": "American pet health company specializing in dog probiotic supplements", "why it is here": "industry pet food", "country": "United States", "website": "https://plentum.com", "Wikidata": "https://www.wikidata.org/wiki/Q138339990", "placed at": "the middle of United States of America: Wikidata gives no nearer place", "group": "Company", "source": "Wikidata (CC0)"}}, {"type": "Feature", "geometry": {"type": "Point", "coordinates": [-0.1275, 51.50722]}, "properties": {"name": "Marleybones", "what it is": "UK fresh dog food brand founded in 2020 by Josephine Bager and Mikala Skov", "why it is here": "industry pet food", "headquarters": "London", "country": "United Kingdom", "website": "https://marleybones.com", "Wikidata": "https://www.wikidata.org/wiki/Q138976662", "placed at": "its headquarters", "group": "Company", "source": "Wikidata (CC0)"}}, {"type": "Feature", "geometry": {"type": "Point", "coordinates": [5.28333, 52.7]}, "properties": {"name": "Introgreen", "what it is": "European e-commerce company specializing in online sales and delivery of plants and pet food.", "why it is here": "industry pet food", "headquarters": "Enkhuizen", "country": "Netherlands", "website": "https://introgreen.eu", "Wikidata": "https://www.wikidata.org/wiki/Q139269784", "placed at": "its headquarters", "group": "Company", "source": "Wikidata (CC0)"}}, {"type": "Feature", "geometry": {"type": "Point", "coordinates": [-7.1873, 31.6507]}, "properties": {"name": "vosaction", "what it is": "Moroccan online pet food retailer and animal welfare solidarity platform", "why it is here": "industry pet food", "country": "Morocco", "website": "https://www.vosaction.com", "Wikidata": "https://www.wikidata.org/wiki/Q140321079", "placed at": "the middle of Morocco: Wikidata gives no nearer place", "group": "Company", "source": "Wikidata (CC0)"}}, {"type": "Feature", "geometry": {"type": "Point", "coordinates": [-122.25, 37.8]}, "properties": {"name": "Petaluma", "what it is": "American plant-based dog food company", "why it is here": "industry pet food; makes dog food", "headquarters": "Oakland", "country": "United States", "website": "https://www.feedpetaluma.com", "Wikidata": "https://www.wikidata.org/wiki/Q140324663", "placed at": "its headquarters", "group": "Company", "source": "Wikidata (CC0)"}}, {"type": "Feature", "geometry": {"type": "Point", "coordinates": [-97.4826, 39.5385]}, "properties": {"name": "American Paws", "what it is": "American brand of dog and cat treats", "why it is here": "industry pet food; makes cat food; makes dog food", "country": "United States", "website": "https://americanpawspet.com", "Wikidata": "https://www.wikidata.org/wiki/Q140357304", "placed at": "the middle of United States of America: Wikidata gives no nearer place", "group": "Company", "source": "Wikidata (CC0)"}}, {"type": "Feature", "geometry": {"type": "Point", "coordinates": [-84.3658, 33.6197]}, "properties": {"name": "Natural Farm", "what it is": "Brand of pet food, treats and natural dog chews", "why it is here": "industry pet food; makes dog food; makes pet food", "headquarters": "Forest Park", "country": "United States", "website": "https://www.naturalfarmpet.com", "Wikidata": "https://www.wikidata.org/wiki/Q140456184", "placed at": "its headquarters", "group": "Company", "source": "Wikidata (CC0)"}}, {"type": "Feature", "geometry": {"type": "Point", "coordinates": [77.5913, 12.97912]}, "properties": {"name": "Vettofit", "what it is": "Care, not just a product. Building India's preventive pet wellness — for the world.", "why it is here": "industry pet food", "headquarters": "Bengaluru", "country": "India", "website": "https://www.vettofit.com", "Wikidata": "https://www.wikidata.org/wiki/Q140717630", "placed at": "its headquarters", "group": "Company", "source": "Wikidata (CC0)"}}, {"type": "Feature", "geometry": {"type": "Point", "coordinates": [-115.14861, 36.16722]}, "properties": {"name": "Beloved Pets", "what it is": "American pet supplement and pet treat company", "why it is here": "industry pet food", "headquarters": "Las Vegas", "country": "United States", "website": "https://belovedpets.com", "Wikidata": "https://www.wikidata.org/wiki/Q140773571", "placed at": "its headquarters", "group": "Company", "source": "Wikidata (CC0)"}}, {"type": "Feature", "geometry": {"type": "Point", "coordinates": [4.48028, 51.02806]}, "properties": {"name": "Grandorf", "what it is": "Belgian holistic hypoallergenic pet food brand for cats and dogs", "why it is here": "industry pet food", "headquarters": "Mechelen", "country": "Belgium", "website": "https://www.grandorf.eu", "Wikidata": "https://www.wikidata.org/wiki/Q140997228", "placed at": "its headquarters", "group": "Company", "source": "Wikidata (CC0)"}}, {"type": "Feature", "geometry": {"type": "Point", "coordinates": [4.0508, 50.9194]}, "properties": {"name": "Curafyt", "what it is": "Belgian pet food and supplement company based in Aalst", "why it is here": "industry pet food", "headquarters": "Erembodegem", "country": "Belgium", "website": "https://curafyt.com/", "Wikidata": "https://www.wikidata.org/wiki/Q141170721", "placed at": "its headquarters", "group": "Company", "source": "Wikidata (CC0)"}}, {"type": "Feature", "geometry": {"type": "Point", "coordinates": [-74.00611, 40.71278]}, "properties": {"name": "Finn", "what it is": "American pet supplement company", "why it is here": "industry dog food", "headquarters": "New York City", "country": "United States", "website": "https://petfinn.com", "Wikidata": "https://www.wikidata.org/wiki/Q141178177", "placed at": "its headquarters", "group": "Company", "source": "Wikidata (CC0)"}}, {"type": "Feature", "geometry": {"type": "Point", "coordinates": [6.78726, 50.66128]}, "properties": {"name": "Nestlé Purina PetCare", "what it is": "American pet food manufacturer, subsidiary of the Swiss corporation Nestlé", "why it is here": "makes pet food", "owned by": "Nestlé", "headquarters": "Euskirchen", "country": "Germany", "website": "https://www.purina.com/", "Wikipedia": "https://en.wikipedia.org/wiki/Nestl%C3%A9_Purina_PetCare", "Wikidata": "https://www.wikidata.org/wiki/Q542376", "placed at": "its headquarters", "group": "Company", "source": "Wikidata (CC0)"}}, {"type": "Feature", "geometry": {"type": "Point", "coordinates": [-84.31167, 39.35778]}, "properties": {"name": "Iams", "what it is": "pet food brand", "why it is here": "makes pet food", "owned by": "Mars, Incorporated; Spectrum Brands", "headquarters": "Mason", "country": "United States", "website": "https://www.iams.com/", "Wikipedia": "https://en.wikipedia.org/wiki/Iams", "Wikidata": "https://www.wikidata.org/wiki/Q1466792", "placed at": "its headquarters", "group": "Company", "source": "Wikidata (CC0)"}}, {"type": "Feature", "geometry": {"type": "Point", "coordinates": [4.20861, 43.68472]}, "properties": {"name": "Royal Canin", "what it is": "dog and cat feed manufacturer", "why it is here": "makes pet food", "owned by": "Mars, Incorporated", "headquarters": "Aimargues", "country": "France", "website": "https://royalcanin.ru/", "Wikipedia": "https://en.wikipedia.org/wiki/Royal_Canin", "Wikidata": "https://www.wikidata.org/wiki/Q1849609", "placed at": "its headquarters", "group": "Company", "source": "Wikidata (CC0)"}}, {"type": "Feature", "geometry": {"type": "Point", "coordinates": [-77.17528, 38.92833]}, "properties": {"name": "Pedigree Petfoods", "what it is": "UK dog food manufacturer", "why it is here": "makes dog food", "owned by": "Mars, Incorporated", "headquarters": "McLean", "country": "United Kingdom", "website": "https://www.pedigree.com/", "Wikipedia": "https://en.wikipedia.org/wiki/Pedigree_Petfoods", "Wikidata": "https://www.wikidata.org/wiki/Q2027177", "placed at": "its headquarters", "group": "Company", "source": "Wikidata (CC0)"}}, {"type": "Feature", "geometry": {"type": "Point", "coordinates": [-95.67804, 39.04833]}, "properties": {"name": "Hill's Pet Nutrition, Inc.", "what it is": "pet food company", "why it is here": "makes cat food; makes dog food; makes pet food", "owned by": "Colgate-Palmolive Company", "headquarters": "Topeka", "country": "United States", "website": "http://www.hillspet.com/en/us/home", "Wikipedia": "https://en.wikipedia.org/wiki/Hill%27s_Pet_Nutrition", "Wikidata": "https://www.wikidata.org/wiki/Q5761922", "placed at": "its headquarters", "group": "Company", "source": "Wikidata (CC0)"}}, {"type": "Feature", "geometry": {"type": "Point", "coordinates": [-86.8575, 35.92917]}, "properties": {"name": "Nutro Products", "what it is": "pet food manufacturer", "why it is here": "makes pet food", "owned by": "Mars, Incorporated", "headquarters": "Franklin", "country": "United States", "website": "https://www.nutro.com/", "Wikipedia": "https://en.wikipedia.org/wiki/Nutro_Products", "Wikidata": "https://www.wikidata.org/wiki/Q7070532", "placed at": "its headquarters", "group": "Company", "source": "Wikidata (CC0)"}}, {"type": "Feature", "geometry": {"type": "Point", "coordinates": [-90.8153, 38.495]}, "properties": {"name": "Purina Mills", "what it is": "Animal food company", "why it is here": "makes dog food", "owned by": "Land O'Lakes", "headquarters": "Gray Summit", "website": "http://purinamills.com/", "Wikipedia": "https://en.wikipedia.org/wiki/Purina_Mills", "Wikidata": "https://www.wikidata.org/wiki/Q7261253", "placed at": "its headquarters", "group": "Company", "source": "Wikidata (CC0)"}}, {"type": "Feature", "geometry": {"type": "Point", "coordinates": [-90.19944, 38.62639]}, "properties": {"name": "Ralston Purina", "what it is": "American animal feed, food and pet food company", "why it is here": "makes pet food", "owned by": "Nestlé Purina PetCare", "headquarters": "St. Louis", "country": "United States", "website": "http://www.purina.com", "Wikipedia": "https://en.wikipedia.org/wiki/Ralston_Purina", "Wikidata": "https://www.wikidata.org/wiki/Q17081865", "placed at": "its headquarters", "group": "Company", "source": "Wikidata (CC0)"}}, {"type": "Feature", "geometry": {"type": "Point", "coordinates": [24.85972, 60.63056]}, "properties": {"name": "Hankkija", "what it is": "Finnish company", "why it is here": "makes pet food", "owned by": "Danish Agro; Novera-Yhtymä; S Group", "headquarters": "Hyvinkää", "country": "Finland", "website": "https://hankkija.fi/", "Wikidata": "https://www.wikidata.org/wiki/Q18688775", "placed at": "its headquarters", "group": "Company", "source": "Wikidata (CC0)"}}, {"type": "Feature", "geometry": {"type": "Point", "coordinates": [-122.41944, 37.775]}, "properties": {"name": "Kibbles 'n Bits", "what it is": "Brand of dog food by Post", "why it is here": "makes dog food", "owned by": "Big Heart Pet Brands", "headquarters": "San Francisco", "website": "http://www.kibblesnbits.com/", "Wikipedia": "https://en.wikipedia.org/wiki/Kibbles_%27n_Bits", "Wikidata": "https://www.wikidata.org/wiki/Q6403984", "placed at": "its headquarters", "group": "Company", "source": "Wikidata (CC0)"}}, {"type": "Feature", "geometry": {"type": "Point", "coordinates": [-122.41944, 37.775]}, "properties": {"name": "Big Heart Pet Brands", "what it is": "manufacturer, distributor and marketer of branded pet food and other products", "why it is here": "makes pet food", "owned by": "The J.M. Smucker Company", "headquarters": "San Francisco", "country": "United States", "website": "http://www.bigheartpet.com/", "Wikipedia": "https://en.wikipedia.org/wiki/Big_Heart_Pet_Brands", "Wikidata": "https://www.wikidata.org/wiki/Q16984318", "placed at": "its headquarters", "group": "Company", "source": "Wikidata (CC0)"}}, {"type": "Feature", "geometry": {"type": "Point", "coordinates": [19.4905, 51.9903]}, "properties": {"name": "Maxi Zoo", "what it is": "pet food retail chain in Europe owned by Fressnapf", "why it is here": "makes pet food", "owned by": "Fressnapf", "country": "Poland", "website": "https://www.maxizoo.fr", "Wikidata": "https://www.wikidata.org/wiki/Q108403242", "placed at": "the middle of Poland: Wikidata gives no nearer place", "group": "Company", "source": "Wikidata (CC0)"}}, {"type": "Feature", "geometry": {"type": "Point", "coordinates": [2.35222, 48.85667]}, "properties": {"name": "Pro Nutrition", "what it is": "French premium pet food brand for dogs and cats", "why it is here": "makes pet food", "owned by": "Financière Estran; SOPRAL E-SHOP", "headquarters": "Paris", "country": "France", "website": "https://www.pro-nutrition.com/", "Wikidata": "https://www.wikidata.org/wiki/Q132068054", "placed at": "its headquarters", "group": "Company", "source": "Wikidata (CC0)"}}, {"type": "Feature", "geometry": {"type": "Point", "coordinates": [80.7048, 7.5811]}, "properties": {"name": "Dorakada Paliya", "what it is": "E-commerce platform for New Anthoney's Farms poultry products", "why it is here": "makes pet food", "owned by": "New Anthoney's Farms (Pvt) Limited", "country": "Sri Lanka", "website": "https://www.dorakadapaliya.com", "Wikidata": "https://www.wikidata.org/wiki/Q138324298", "placed at": "the middle of Sri Lanka: Wikidata gives no nearer place", "group": "Company", "source": "Wikidata (CC0)"}}, {"type": "Feature", "geometry": {"type": "Point", "coordinates": [-97.4826, 39.5385]}, "properties": {"name": "Kitty Lawn", "what it is": "American grass pad brand for cats", "why it is here": "makes cat grass", "owned by": "DoggieLawn", "country": "United States", "website": "https://kittylawn.com", "Wikidata": "https://www.wikidata.org/wiki/Q140044842", "placed at": "the middle of United States of America: Wikidata gives no nearer place", "group": "Company", "source": "Wikidata (CC0)"}}, {"type": "Feature", "geometry": {"type": "Point", "coordinates": [11.575, 48.1375]}, "properties": {"name": "Zooplus AG", "what it is": "On-line retailer of pet supplies", "why it is here": "makes pet food", "headquarters": "Munich", "country": "Germany", "website": "https://www.zooplus.co.uk/", "Wikipedia": "https://en.wikipedia.org/wiki/Zooplus", "Wikidata": "https://www.wikidata.org/wiki/Q220327", "placed at": "its headquarters", "group": "Company", "source": "Wikidata (CC0)"}}, {"type": "Feature", "geometry": {"type": "Point", "coordinates": [-98.5795, 39.82818]}, "properties": {"name": "Mars, Incorporated", "what it is": "American global food company and manufacturer", "why it is here": "makes pet food", "headquarters": "United States", "country": "United States", "website": "http://www.mars.com/", "Wikipedia": "https://en.wikipedia.org/wiki/Mars_Inc.", "Wikidata": "https://www.wikidata.org/wiki/Q695087", "placed at": "its headquarters", "group": "Company", "source": "Wikidata (CC0)"}}, {"type": "Feature", "geometry": {"type": "Point", "coordinates": [6.56667, 51.33333]}, "properties": {"name": "Fressnapf", "what it is": "German franchise company for pet food", "why it is here": "makes pet food", "headquarters": "Krefeld", "country": "Germany", "website": "https://www.fressnapf.com/", "Wikipedia": "https://en.wikipedia.org/wiki/Fressnapf", "Wikidata": "https://www.wikidata.org/wiki/Q875796", "placed at": "its headquarters", "group": "Company", "source": "Wikidata (CC0)"}}, {"type": "Feature", "geometry": {"type": "Point", "coordinates": [-79.65, 43.6]}, "properties": {"name": "Menu Foods", "what it is": "maker of wet cat and dog food", "why it is here": "makes cat food; makes dog food", "headquarters": "Mississauga", "country": "Canada", "website": "http://www.menufoods.com", "Wikipedia": "https://en.wikipedia.org/wiki/Menu_Foods", "Wikidata": "https://www.wikidata.org/wiki/Q1920993", "placed at": "its headquarters", "group": "Company", "source": "Wikidata (CC0)"}}, {"type": "Feature", "geometry": {"type": "Point", "coordinates": [-117.96444, 34.1125]}, "properties": {"name": "AvoDerm", "what it is": "line of natural dog and cat food manufactured by Breeder's Choice, Inc.", "why it is here": "makes cat food; makes dog food; makes pet food", "headquarters": "Irwindale", "country": "United States", "website": "http://www.breeders-choice.com/", "Wikidata": "https://www.wikidata.org/wiki/Q4829087", "placed at": "its headquarters", "group": "Company", "source": "Wikidata (CC0)"}}, {"type": "Feature", "geometry": {"type": "Point", "coordinates": [-2.1163, 54.4027]}, "properties": {"name": "Bob Martin Petcare", "what it is": "British manufacturer of pet healthcare products", "why it is here": "makes pet food", "country": "United Kingdom", "Wikipedia": "https://en.wikipedia.org/wiki/Bob_Martin_Petcare", "Wikidata": "https://www.wikidata.org/wiki/Q4933275", "placed at": "the middle of United Kingdom: Wikidata gives no nearer place", "group": "Company", "source": "Wikidata (CC0)"}}, {"type": "Feature", "geometry": {"type": "Point", "coordinates": [-74.06167, 40.7875]}, "properties": {"name": "Freshpet", "what it is": "American pet food company", "why it is here": "makes pet food", "headquarters": "Secaucus", "country": "United States", "website": "http://www.freshpet.com/", "Wikipedia": "https://en.wikipedia.org/wiki/Freshpet", "Wikidata": "https://www.wikidata.org/wiki/Q5503081", "placed at": "its headquarters", "group": "Company", "source": "Wikidata (CC0)"}}, {"type": "Feature", "geometry": {"type": "Point", "coordinates": [-118.24368, 34.05223]}, "properties": {"name": "Natural Balance Pet Foods", "what it is": "American pet food company", "why it is here": "makes pet food", "headquarters": "Los Angeles", "country": "United States", "website": "http://naturalbalanceinc.com/", "Wikipedia": "https://en.wikipedia.org/wiki/Natural_Balance_Pet_Foods", "Wikidata": "https://www.wikidata.org/wiki/Q6980434", "placed at": "its headquarters", "group": "Company", "source": "Wikidata (CC0)"}}, {"type": "Feature", "geometry": {"type": "Point", "coordinates": [-90.19944, 38.62639]}, "properties": {"name": "Nature's Variety", "what it is": "pet food company", "why it is here": "makes cat food; makes dog food; makes pet food", "headquarters": "St. Louis", "country": "United States", "website": "http://www.naturesvariety.com/", "Wikipedia": "https://en.wikipedia.org/wiki/Nature%27s_Variety", "Wikidata": "https://www.wikidata.org/wiki/Q6980865", "placed at": "its headquarters", "group": "Company", "source": "Wikidata (CC0)"}}, {"type": "Feature", "geometry": {"type": "Point", "coordinates": [-82.38556, 34.84444]}, "properties": {"name": "Solid Gold", "what it is": "pet food", "why it is here": "makes pet food", "headquarters": "Greenville", "website": "http://www.solidgoldpet.com/", "Wikidata": "https://www.wikidata.org/wiki/Q7557837", "placed at": "its headquarters", "group": "Company", "source": "Wikidata (CC0)"}}, {"type": "Feature", "geometry": {"type": "Point", "coordinates": [-0.1275, 51.50722]}, "properties": {"name": "Spratt's", "what it is": "UK business", "why it is here": "makes pet food", "headquarters": "London", "country": "United Kingdom", "Wikipedia": "https://en.wikipedia.org/wiki/Spratt%27s", "Wikidata": "https://www.wikidata.org/wiki/Q7580205", "placed at": "its headquarters", "group": "Company", "source": "Wikidata (CC0)"}}, {"type": "Feature", "geometry": {"type": "Point", "coordinates": [138.48972, 35.01583]}, "properties": {"name": "Inaba Foods", "why it is here": "makes pet food", "headquarters": "Shimizu-ku", "country": "Japan", "website": "https://www.inaba-foods.jp/", "Wikidata": "https://www.wikidata.org/wiki/Q11259861", "placed at": "its headquarters", "group": "Company", "source": "Wikidata (CC0)"}}, {"type": "Feature", "geometry": {"type": "Point", "coordinates": [12.56889, 55.67611]}, "properties": {"name": "Essential Foods", "what it is": "pet food company", "why it is here": "makes cat food; makes dog food; makes pet food", "headquarters": "Copenhagen", "website": "http://essentialfoods.eu//", "Wikidata": "https://www.wikidata.org/wiki/Q18057379", "placed at": "its headquarters", "group": "Company", "source": "Wikidata (CC0)"}}, {"type": "Feature", "geometry": {"type": "Point", "coordinates": [-80.15306, 26.055]}, "properties": {"name": "Chewy", "what it is": "internet retailer of pet items", "why it is here": "makes pet food", "headquarters": "Dania Beach", "country": "United States", "website": "https://www.chewy.com", "Wikipedia": "https://en.wikipedia.org/wiki/Chewy_(company)", "Wikidata": "https://www.wikidata.org/wiki/Q28130158", "placed at": "its headquarters", "group": "Company", "source": "Wikidata (CC0)"}}, {"type": "Feature", "geometry": {"type": "Point", "coordinates": [24.955, 52.54194]}, "properties": {"name": "Biaroza Meat Canning Plant", "what it is": "Belarusian meat producer", "why it is here": "makes pet food", "headquarters": "Biaroza", "country": "Belarus", "website": "http://meat.by/", "Wikidata": "https://www.wikidata.org/wiki/Q106612813", "placed at": "its own coordinates in Wikidata", "group": "Company", "source": "Wikidata (CC0)"}}, {"type": "Feature", "geometry": {"type": "Point", "coordinates": [139.00687, 37.85574]}, "properties": {"name": "Q114591974", "why it is here": "makes pet food", "headquarters": "Nishi-ku", "country": "Japan", "website": "https://www.dbfpet.co.jp/", "Wikidata": "https://www.wikidata.org/wiki/Q114591974", "placed at": "its own coordinates in Wikidata", "group": "Company", "source": "Wikidata (CC0)"}}, {"type": "Feature", "geometry": {"type": "Point", "coordinates": [2.5523, 46.6961]}, "properties": {"name": "JMT Alimentation Animale", "what it is": "pet food and accessories", "why it is here": "makes pet food", "country": "France", "website": "https://www.jmt-alimentation-animale.com/", "Wikidata": "https://www.wikidata.org/wiki/Q127433434", "placed at": "the middle of France: Wikidata gives no nearer place", "group": "Company", "source": "Wikidata (CC0)"}}, {"type": "Feature", "geometry": {"type": "Point", "coordinates": [30.98333, 52.44167]}, "properties": {"name": "Homyel Meat Processing Plant", "what it is": "Belarusian food producer", "why it is here": "makes dog food", "headquarters": "Gomel", "country": "Belarus", "website": "https://mkgomel.by/", "Wikidata": "https://www.wikidata.org/wiki/Q131180743", "placed at": "its headquarters", "group": "Company", "source": "Wikidata (CC0)"}}, {"type": "Feature", "geometry": {"type": "Point", "coordinates": [8.93389, 44.40722]}, "properties": {"name": "Petmark", "what it is": "pet food retail chain in Italy owned by Cerere S.p.A.", "why it is here": "makes pet food", "headquarters": "Genoa", "country": "Italy", "website": "https://www.petmark.it/", "Wikidata": "https://www.wikidata.org/wiki/Q133849688", "placed at": "its headquarters", "group": "Company", "source": "Wikidata (CC0)"}}, {"type": "Feature", "geometry": {"type": "Point", "coordinates": [174.76528, -36.84917]}, "properties": {"name": "Petdirect", "what it is": "New Zealand-based pet supply retailer", "why it is here": "makes pet food", "headquarters": "Auckland", "country": "New Zealand", "website": "https://www.petdirect.co.nz/", "Wikidata": "https://www.wikidata.org/wiki/Q134366420", "placed at": "its headquarters", "group": "Company", "source": "Wikidata (CC0)"}}, {"type": "Feature", "geometry": {"type": "Point", "coordinates": [123.5864, -12.4326]}, "properties": {"name": "Applaws", "what it is": "Naturally Better Pet Food", "why it is here": "makes pet food", "country": "Australia", "website": "https://applaws.com.au", "Wikidata": "https://www.wikidata.org/wiki/Q135450278", "placed at": "the middle of Ashmore and Cartier Is.: Wikidata gives no nearer place", "group": "Company", "source": "Wikidata (CC0)"}}, {"type": "Feature", "geometry": {"type": "Point", "coordinates": [-122.781, 49.2625]}, "properties": {"name": "Red Dog Blue Kat", "what it is": "Canadian raw pet food manufacturer", "why it is here": "makes pet food", "headquarters": "Port Coquitlam", "country": "Canada", "Wikipedia": "https://en.wikipedia.org/wiki/Red_Dog_Blue_Kat", "Wikidata": "https://www.wikidata.org/wiki/Q135990563", "placed at": "its headquarters", "group": "Company", "source": "Wikidata (CC0)"}}, {"type": "Feature", "geometry": {"type": "Point", "coordinates": [-4.41667, 36.71667]}, "properties": {"name": "Tiendanimal", "what it is": "Spanish pet supplies retail company", "why it is here": "makes pet food", "headquarters": "Málaga", "website": "https://www.tiendanimal.es", "Wikidata": "https://www.wikidata.org/wiki/Q138501205", "placed at": "its headquarters", "group": "Company", "source": "Wikidata (CC0)"}}, {"type": "Feature", "geometry": {"type": "Point", "coordinates": [20.58548, 50.88225]}, "properties": {"name": "Kot w Butach", "what it is": "Polish company based in Kielce", "why it is here": "makes cat grass", "headquarters": "Kielce", "country": "Poland", "website": "https://kot-w-butach.pl/", "Wikidata": "https://www.wikidata.org/wiki/Q139710247", "placed at": "its own coordinates in Wikidata", "group": "Company", "source": "Wikidata (CC0)"}}, {"type": "Feature", "geometry": {"type": "Point", "coordinates": [-118.24368, 34.05223]}, "properties": {"name": "CBDfx", "what it is": "American wellness company founded in 2014, based in Los Angeles, California", "why it is here": "makes pet food", "headquarters": "Los Angeles", "country": "United States", "Wikidata": "https://www.wikidata.org/wiki/Q139801478", "placed at": "its headquarters", "group": "Company", "source": "Wikidata (CC0)"}}, {"type": "Feature", "geometry": {"type": "Point", "coordinates": [82.91667, 55.03333]}, "properties": {"name": "Mokryi Nos", "what it is": "Russian pet store and grooming salon franchise chain", "why it is here": "makes pet food", "headquarters": "Novosibirsk", "country": "Russia", "website": "https://franchise.mokryinos.ru", "Wikidata": "https://www.wikidata.org/wiki/Q141245610", "placed at": "its headquarters", "group": "Company", "source": "Wikidata (CC0)"}}, {"type": "Feature", "geometry": {"type": "Point", "coordinates": [21.23, 45.75972]}, "properties": {"name": "Agroland", "what it is": "Romanian retail chain for garden, pet and farm products", "why it is here": "makes pet food", "headquarters": "Timișoara", "country": "Romania", "website": "https://agroland.ro/", "Wikidata": "https://www.wikidata.org/wiki/Q141462072", "placed at": "its headquarters", "group": "Company", "source": "Wikidata (CC0)"}}]}