{"type":"FeatureCollection","features":[{"type":"Feature","geometry":{"type":"Point","coordinates":[-57.24217,-20.65832]},"properties":{"year":"1986","funai_code":"20001","ibge_municipality_code":"5006903","coordinates":"-57.242172991143,-20.658321306104","description":"The victim was killed at the same time that Athanasius Kaiowá and five other unidentified Indians were murdered.","description (as published, Portuguese)":"A vítima foi morta na mesma ocasião em que Atanásio Kaiowá e outros cinco indígenas não identificados foram assassinados.","day":"30","month":"8","municipality":"Porto Murtinho","state":"Mato Grosso do Sul","report":"CPT: Conflitos de Terra no Brasil 1986","indigenous_territory":"Kadivéu","types_of_violence":"Murder; violence against the person","types_of_violence (as given, Portuguese)":"Assasinatos, Violência contra a pessoa","name":"Unnamed victim — Porto Murtinho, Mato Grosso do Sul (1986)","group":"Killing","source":"Cartography of Attacks Against Indigenous People (Caci), CIMI / CPT cases (file: Amazon Killings/Cartography of Attacks Against Indigenous People in Brazil (Caci)/casos of violence.csv)","placed at":"the coordinates the source gives","records at this same point":6,"group (as first read)":"Killing (source: \"Assasinatos, Violência contra a pessoa\")"}},{"type":"Feature","geometry":{"type":"Point","coordinates":[-57.24217,-20.65832]},"properties":{"year":"1986","funai_code":"20001","ibge_municipality_code":"5006903","coordinates":"-57.242172991143,-20.658321306104","description":"The victim was killed at the same time that Athanasius Kaiowá and five other unidentified Indians were murdered.","description (as published, Portuguese)":"A vítima foi morta na mesma ocasião em que Atanásio Kaiowá e outros cinco indígenas não identificados foram assassinados.","day":"30","month":"8","municipality":"Porto Murtinho","state":"Mato Grosso do Sul","report":"CPT: Conflitos de Terra no Brasil 1986","indigenous_territory":"Kadivéu","types_of_violence":"Murder; violence against the person","types_of_violence (as given, Portuguese)":"Assasinatos, Violência contra a pessoa","name":"Unnamed victim — Porto Murtinho, Mato Grosso do Sul (1986)","group":"Killing","source":"Cartography of Attacks Against Indigenous People (Caci), CIMI / CPT cases (file: Amazon Killings/Cartography of Attacks Against Indigenous People in Brazil (Caci)/casos of violence.csv)","placed at":"the coordinates the source gives","records at this same point":6,"group (as first read)":"Killing (source: \"Assasinatos, Violência contra a pessoa\")"}},{"type":"Feature","geometry":{"type":"Point","coordinates":[-57.24217,-20.65832]},"properties":{"year":"1986","funai_code":"20001","ibge_municipality_code":"5006903","coordinates":"-57.242172991143,-20.658321306104","description":"The victim was killed at the same time that Athanasius Kaiowá and five other unidentified Indians were murdered.","description (as published, Portuguese)":"A vítima foi morta na mesma ocasião em que Atanásio Kaiowá e outros cinco indígenas não identificados foram assassinados.","day":"30","month":"8","municipality":"Porto Murtinho","state":"Mato Grosso do Sul","report":"CPT: Conflitos de Terra no Brasil 1986","indigenous_territory":"Kadivéu","types_of_violence":"Murder; violence against the person","types_of_violence (as given, Portuguese)":"Assasinatos, Violência contra a pessoa","name":"Unnamed victim — Porto Murtinho, Mato Grosso do Sul (1986)","group":"Killing","source":"Cartography of Attacks Against Indigenous People (Caci), CIMI / CPT cases (file: Amazon Killings/Cartography of Attacks Against Indigenous People in Brazil (Caci)/casos of violence.csv)","placed at":"the coordinates the source gives","records at this same point":6,"group (as first read)":"Killing (source: \"Assasinatos, Violência contra a pessoa\")"}},{"type":"Feature","geometry":{"type":"Point","coordinates":[-57.24217,-20.65832]},"properties":{"year":"1986","funai_code":"20001","ibge_municipality_code":"5006903","coordinates":"-57.242172991143,-20.658321306104","description":"The victim was killed at the same time that Athanasius Kaiowá and five other unidentified Indians were murdered.","description (as published, Portuguese)":"A vítima foi morta na mesma ocasião em que Atanásio Kaiowá e outros cinco indígenas não identificados foram assassinados.","day":"30","month":"8","municipality":"Porto Murtinho","state":"Mato Grosso do Sul","report":"CPT: Conflitos de Terra no Brasil 1986","indigenous_territory":"Kadivéu","types_of_violence":"Murder; violence against the person","types_of_violence (as given, Portuguese)":"Assasinatos, Violência contra a pessoa","name":"Unnamed victim — Porto Murtinho, Mato Grosso do Sul (1986)","group":"Killing","source":"Cartography of Attacks Against Indigenous People (Caci), CIMI / CPT cases (file: Amazon Killings/Cartography of Attacks Against Indigenous People in Brazil (Caci)/casos of violence.csv)","placed at":"the coordinates the source gives","records at this same point":6,"group (as first read)":"Killing (source: \"Assasinatos, Violência contra a pessoa\")"}},{"type":"Feature","geometry":{"type":"Point","coordinates":[-57.24217,-20.65832]},"properties":{"year":"1986","funai_code":"20001","ibge_municipality_code":"5006903","coordinates":"-57.242172991143,-20.658321306104","description":"The victim was killed at the same time that Athanasius Kaiowá and five other unidentified Indians were murdered.","description (as published, Portuguese)":"A vítima foi morta na mesma ocasião em que Atanásio Kaiowá e outros cinco indígenas não identificados foram assassinados.","day":"30","month":"8","municipality":"Porto Murtinho","state":"Mato Grosso do Sul","report":"CPT: Conflitos de Terra no Brasil 1986","indigenous_territory":"Kadivéu","types_of_violence":"Murder; violence against the person","types_of_violence (as given, Portuguese)":"Assasinatos, Violência contra a pessoa","name":"Unnamed victim — Porto Murtinho, Mato Grosso do Sul (1986)","group":"Killing","source":"Cartography of Attacks Against Indigenous People (Caci), CIMI / CPT cases (file: Amazon Killings/Cartography of Attacks Against Indigenous People in Brazil (Caci)/casos of violence.csv)","placed at":"the coordinates the source gives","records at this same point":6,"group (as first read)":"Killing (source: \"Assasinatos, Violência contra a pessoa\")"}},{"type":"Feature","geometry":{"type":"Point","coordinates":[-57.24217,-20.65832]},"properties":{"year":"1986","funai_code":"20001","ibge_municipality_code":"5006903","coordinates":"-57.242172991143,-20.658321306104","description":"The victim was killed at the same time that Athanasius Kaiowá and five other unidentified Indians were murdered.","description (as published, Portuguese)":"A vítima foi morta na mesma ocasião em que Atanásio Kaiowá e outros cinco indígenas não identificados foram assassinados.","day":"30","month":"8","municipality":"Porto Murtinho","state":"Mato Grosso do Sul","report":"CPT: Conflitos de Terra no Brasil 1986","indigenous_territory":"Kadivéu","types_of_violence":"Murder; violence against the person","types_of_violence (as given, Portuguese)":"Assasinatos, Violência contra a pessoa","name":"Unnamed victim — Porto Murtinho, Mato Grosso do Sul (1986)","group":"Killing","source":"Cartography of Attacks Against Indigenous People (Caci), CIMI / CPT cases (file: Amazon Killings/Cartography of Attacks Against Indigenous People in Brazil (Caci)/casos of violence.csv)","placed at":"the coordinates the source gives","records at this same point":6,"group (as first read)":"Killing (source: \"Assasinatos, Violência contra a pessoa\")"}},{"type":"Feature","geometry":{"type":"Point","coordinates":[-63.5018,2.1605]},"properties":{"year":"1987","funai_code":"50901","ibge_municipality_code":"1400308","coordinates":"-63.501804064722,2.1605018280699","description":"The victim was killed at the same time as six other indigenous and eight prospectors were murdered after a conflict over land. The accused is not indigenous.","description (as published, Portuguese)":"A vítima foi morta na mesma ocasião em que outros seis indígenas e oito garimpeiros foram assassinados, depois de um conflito por terra. O acusado não é indígena.","day":"15","month":"8","municipality":"Mucajaí","state":"Roraima","people":"Yanomami","report":"CPT: Conflitos no Campo - Brasil 1987","indigenous_territory":"Yanomami","types_of_violence":"Murder; violence against the person","types_of_violence (as given, Portuguese)":"Assasinatos, Violência contra a pessoa","name":"Unnamed Yanomami victim — Mucajaí, Roraima (1987)","group":"Killing","source":"Cartography of Attacks Against Indigenous People (Caci), CIMI / CPT cases (file: Amazon Killings/Cartography of Attacks Against Indigenous People in Brazil (Caci)/casos of violence.csv)","placed at":"the coordinates the source gives","records at this same point":14,"group (as first read)":"Killing (source: \"Assasinatos, Violência contra a pessoa\")"}},{"type":"Feature","geometry":{"type":"Point","coordinates":[-63.5018,2.1605]},"properties":{"year":"1987","funai_code":"50901","ibge_municipality_code":"1400308","coordinates":"-63.501804064722,2.1605018280699","description":"The victim was killed at the same time as six other indigenous and eight prospectors were murdered after a conflict over land. The accused is not indigenous.","description (as published, Portuguese)":"A vítima foi morta na mesma ocasião em que outros seis indígenas e oito garimpeiros foram assassinados, depois de um conflito por terra. O acusado não é indígena.","day":"15","month":"8","municipality":"Mucajaí","state":"Roraima","people":"Yanomami","report":"CPT: Conflitos no Campo - Brasil 1987","indigenous_territory":"Yanomami","types_of_violence":"Murder; violence against the person","types_of_violence (as given, Portuguese)":"Assasinatos, Violência contra a pessoa","name":"Unnamed Yanomami victim — Mucajaí, Roraima (1987)","group":"Killing","source":"Cartography of Attacks Against Indigenous People (Caci), CIMI / CPT cases (file: Amazon Killings/Cartography of Attacks Against Indigenous People in Brazil (Caci)/casos of violence.csv)","placed at":"the coordinates the source gives","records at this same point":14,"group (as first read)":"Killing (source: \"Assasinatos, Violência contra a pessoa\")"}},{"type":"Feature","geometry":{"type":"Point","coordinates":[-63.5018,2.1605]},"properties":{"year":"1987","funai_code":"50901","ibge_municipality_code":"1400308","coordinates":"-63.501804064722,2.1605018280699","description":"The victim was killed at the same time as six other indigenous and eight prospectors were murdered after a conflict over land. The accused is not indigenous.","description (as published, Portuguese)":"A vítima foi morta na mesma ocasião em que outros seis indígenas e oito garimpeiros foram assassinados, depois de um conflito por terra. O acusado não é indígena.","day":"15","month":"8","municipality":"Mucajaí","state":"Roraima","people":"Yanomami","report":"CPT: Conflitos no Campo - Brasil 1987","indigenous_territory":"Yanomami","types_of_violence":"Murder; violence against the person","types_of_violence (as given, Portuguese)":"Assasinatos, Violência contra a pessoa","name":"Unnamed Yanomami victim — Mucajaí, Roraima (1987)","group":"Killing","source":"Cartography of Attacks Against Indigenous People (Caci), CIMI / CPT cases (file: Amazon Killings/Cartography of Attacks Against Indigenous People in Brazil (Caci)/casos of violence.csv)","placed at":"the coordinates the source gives","records at this same point":14,"group (as first read)":"Killing (source: \"Assasinatos, Violência contra a pessoa\")"}},{"type":"Feature","geometry":{"type":"Point","coordinates":[-63.5018,2.1605]},"properties":{"year":"1987","funai_code":"50901","ibge_municipality_code":"1400308","coordinates":"-63.501804064722,2.1605018280699","description":"The victim was killed at the same time as six other indigenous and eight prospectors were murdered after a conflict over land. The accused is not indigenous.","description (as published, Portuguese)":"A vítima foi morta na mesma ocasião em que outros seis indígenas e oito garimpeiros foram assassinados, depois de um conflito por terra. O acusado não é indígena.","day":"15","month":"8","municipality":"Mucajaí","state":"Roraima","people":"Yanomami","report":"CPT: Conflitos no Campo - Brasil 1987","indigenous_territory":"Yanomami","types_of_violence":"Murder; violence against the person","types_of_violence (as given, Portuguese)":"Assasinatos, Violência contra a pessoa","name":"Unnamed Yanomami victim — Mucajaí, Roraima (1987)","group":"Killing","source":"Cartography of Attacks Against Indigenous People (Caci), CIMI / CPT cases (file: Amazon Killings/Cartography of Attacks Against Indigenous People in Brazil (Caci)/casos of violence.csv)","placed at":"the coordinates the source gives","records at this same point":14,"group (as first read)":"Killing (source: \"Assasinatos, Violência contra a pessoa\")"}},{"type":"Feature","geometry":{"type":"Point","coordinates":[-63.5018,2.1605]},"properties":{"year":"1987","funai_code":"50901","ibge_municipality_code":"1400308","coordinates":"-63.501804064722,2.1605018280699","description":"The victim was killed at the same time as six other indigenous and eight prospectors were murdered after a conflict over land. The accused is not indigenous.","description (as published, Portuguese)":"A vítima foi morta na mesma ocasião em que outros seis indígenas e oito garimpeiros foram assassinados, depois de um conflito por terra. O acusado não é indígena.","day":"15","month":"8","municipality":"Mucajaí","state":"Roraima","people":"Yanomami","report":"CPT: Conflitos no Campo - Brasil 1987","indigenous_territory":"Yanomami","types_of_violence":"Murder; violence against the person","types_of_violence (as given, Portuguese)":"Assasinatos, Violência contra a pessoa","name":"Unnamed Yanomami victim — Mucajaí, Roraima (1987)","group":"Killing","source":"Cartography of Attacks Against Indigenous People (Caci), CIMI / CPT cases (file: Amazon Killings/Cartography of Attacks Against Indigenous People in Brazil (Caci)/casos of violence.csv)","placed at":"the coordinates the source gives","records at this same point":14,"group (as first read)":"Killing (source: \"Assasinatos, Violência contra a pessoa\")"}},{"type":"Feature","geometry":{"type":"Point","coordinates":[-63.5018,2.1605]},"properties":{"year":"1987","funai_code":"50901","ibge_municipality_code":"1400308","coordinates":"-63.501804064722,2.1605018280699","description":"The victim was killed at the same time as six other indigenous and eight prospectors were murdered after a conflict over land. The accused is not indigenous.","description (as published, Portuguese)":"A vítima foi morta na mesma ocasião em que outros seis indígenas e oito garimpeiros foram assassinados, depois de um conflito por terra. O acusado não é indígena.","day":"15","month":"8","municipality":"Mucajaí","state":"Roraima","people":"Yanomami","report":"CPT: Conflitos no Campo - Brasil 1987","indigenous_territory":"Yanomami","types_of_violence":"Murder; violence against the person","types_of_violence (as given, Portuguese)":"Assasinatos, Violência contra a pessoa","name":"Unnamed Yanomami victim — Mucajaí, Roraima (1987)","group":"Killing","source":"Cartography of Attacks Against Indigenous People (Caci), CIMI / CPT cases (file: Amazon Killings/Cartography of Attacks Against Indigenous People in Brazil (Caci)/casos of violence.csv)","placed at":"the coordinates the source gives","records at this same point":14,"group (as first read)":"Killing (source: \"Assasinatos, Violência contra a pessoa\")"}},{"type":"Feature","geometry":{"type":"Point","coordinates":[-63.5018,2.1605]},"properties":{"year":"1987","funai_code":"50901","ibge_municipality_code":"1400308","coordinates":"-63.501804064722,2.1605018280699","description":"The victim was killed at the same time as six other indigenous and eight prospectors were murdered after a conflict over land. The accused is not indigenous.","description (as published, Portuguese)":"A vítima foi morta na mesma ocasião em que outros seis indígenas e oito garimpeiros foram assassinados, depois de um conflito por terra. O acusado não é indígena.","day":"15","month":"8","municipality":"Mucajaí","state":"Roraima","people":"Yanomami","report":"CPT: Conflitos no Campo - Brasil 1987","indigenous_territory":"Yanomami","types_of_violence":"Murder; violence against the person","types_of_violence (as given, Portuguese)":"Assasinatos, Violência contra a pessoa","name":"Unnamed Yanomami victim — Mucajaí, Roraima (1987)","group":"Killing","source":"Cartography of Attacks Against Indigenous People (Caci), CIMI / CPT cases (file: Amazon Killings/Cartography of Attacks Against Indigenous People in Brazil (Caci)/casos of violence.csv)","placed at":"the coordinates the source gives","records at this same point":14,"group (as first read)":"Killing (source: \"Assasinatos, Violência contra a pessoa\")"}},{"type":"Feature","geometry":{"type":"Point","coordinates":[-61.98326,2.51048]},"properties":{"year":"1988","nickname":"Criança indígena não identificada","ibge_municipality_code":"1400308","coordinates":"-61.983257048975,2.510479952891","description":"The victim is an undetermined child of age.","description (as published, Portuguese)":"A vítima é uma criança de idade não determinada.","day":"8","month":"5","municipality":"Mucajaí","state":"Roraima","report":"CPT: Conflitos no Campo - Brasil 1988","types_of_violence":"Murder; violence against the person","types_of_violence (as given, Portuguese)":"Assasinatos, Violência contra a pessoa","name":"Unnamed victim — Mucajaí, Roraima (1988)","group":"Killing","source":"Cartography of Attacks Against Indigenous People (Caci), CIMI / CPT cases (file: Amazon Killings/Cartography of Attacks Against Indigenous People in Brazil (Caci)/casos of violence.csv)","placed at":"the coordinates the source gives","records at this same point":9,"group (as first read)":"Killing (source: \"Assasinatos, Violência contra a pessoa\")"}},{"type":"Feature","geometry":{"type":"Point","coordinates":[-61.98326,2.51048]},"properties":{"year":"1988","ibge_municipality_code":"1400308","coordinates":"-61.983257048975,2.510479952891","description":"The victim was killed at the same time that seven other Indians were murdered. The accused, the prospectors, are not indigenous.","description (as published, Portuguese)":"A vítima foi morta na mesma ocasião em que outros sete indígenas foram assassinados. Os acusados, garimpeiros, não são indígenas.","day":"25","month":"4","municipality":"Mucajaí","state":"Roraima","people":"Yanomami","report":"CPT: Conflitos no Campo - Brasil 1988","types_of_violence":"Murder; violence against the person","types_of_violence (as given, Portuguese)":"Assasinatos, Violência contra a pessoa","name":"Unnamed Yanomami victim — Mucajaí, Roraima (1988)","group":"Killing","source":"Cartography of Attacks Against Indigenous People (Caci), CIMI / CPT cases (file: Amazon Killings/Cartography of Attacks Against Indigenous People in Brazil (Caci)/casos of violence.csv)","placed at":"the coordinates the source gives","records at this same point":9,"group (as first read)":"Killing (source: \"Assasinatos, Violência contra a pessoa\")"}},{"type":"Feature","geometry":{"type":"Point","coordinates":[-61.98326,2.51048]},"properties":{"year":"1988","ibge_municipality_code":"1400308","coordinates":"-61.983257048975,2.510479952891","description":"The victim was killed at the same time that seven other Indians were murdered. The accused, the prospectors, are not indigenous.","description (as published, Portuguese)":"A vítima foi morta na mesma ocasião em que outros sete indígenas foram assassinados. Os acusados, garimpeiros, não são indígenas.","day":"25","month":"4","municipality":"Mucajaí","state":"Roraima","people":"Yanomami","report":"CPT: Conflitos no Campo - Brasil 1988","types_of_violence":"Murder; violence against the person","types_of_violence (as given, Portuguese)":"Assasinatos, Violência contra a pessoa","name":"Unnamed Yanomami victim — Mucajaí, Roraima (1988)","group":"Killing","source":"Cartography of Attacks Against Indigenous People (Caci), CIMI / CPT cases (file: Amazon Killings/Cartography of Attacks Against Indigenous People in Brazil (Caci)/casos of violence.csv)","placed at":"the coordinates the source gives","records at this same point":9,"group (as first read)":"Killing (source: \"Assasinatos, Violência contra a pessoa\")"}},{"type":"Feature","geometry":{"type":"Point","coordinates":[-61.98326,2.51048]},"properties":{"year":"1988","ibge_municipality_code":"1400308","coordinates":"-61.983257048975,2.510479952891","description":"The victim was killed at the same time that seven other Indians were murdered. The accused, the prospectors, are not indigenous.","description (as published, Portuguese)":"A vítima foi morta na mesma ocasião em que outros sete indígenas foram assassinados. Os acusados, garimpeiros, não são indígenas.","day":"25","month":"4","municipality":"Mucajaí","state":"Roraima","people":"Yanomami","report":"CPT: Conflitos no Campo - Brasil 1988","types_of_violence":"Murder; violence against the person","types_of_violence (as given, Portuguese)":"Assasinatos, Violência contra a pessoa","name":"Unnamed Yanomami victim — Mucajaí, Roraima (1988)","group":"Killing","source":"Cartography of Attacks Against Indigenous People (Caci), CIMI / CPT cases (file: Amazon Killings/Cartography of Attacks Against Indigenous People in Brazil (Caci)/casos of violence.csv)","placed at":"the coordinates the source gives","records at this same point":9,"group (as first read)":"Killing (source: \"Assasinatos, Violência contra a pessoa\")"}},{"type":"Feature","geometry":{"type":"Point","coordinates":[-61.98326,2.51048]},"properties":{"year":"1988","ibge_municipality_code":"1400308","coordinates":"-61.983257048975,2.510479952891","description":"The victim was killed at the same time that seven other Indians were murdered. The accused, the prospectors, are not indigenous.","description (as published, Portuguese)":"A vítima foi morta na mesma ocasião em que outros sete indígenas foram assassinados. Os acusados, garimpeiros, não são indígenas.","day":"25","month":"4","municipality":"Mucajaí","state":"Roraima","people":"Yanomami","report":"CPT: Conflitos no Campo - Brasil 1988","types_of_violence":"Murder; violence against the person","types_of_violence (as given, Portuguese)":"Assasinatos, Violência contra a pessoa","name":"Unnamed Yanomami victim — Mucajaí, Roraima (1988)","group":"Killing","source":"Cartography of Attacks Against Indigenous People (Caci), CIMI / CPT cases (file: Amazon Killings/Cartography of Attacks Against Indigenous People in Brazil (Caci)/casos of violence.csv)","placed at":"the coordinates the source gives","records at this same point":9,"group (as first read)":"Killing (source: \"Assasinatos, Violência contra a pessoa\")"}},{"type":"Feature","geometry":{"type":"Point","coordinates":[-61.98326,2.51048]},"properties":{"year":"1988","ibge_municipality_code":"1400308","coordinates":"-61.983257048975,2.510479952891","description":"The victim was killed at the same time that seven other Indians were murdered. The accused, the prospectors, are not indigenous.","description (as published, Portuguese)":"A vítima foi morta na mesma ocasião em que outros sete indígenas foram assassinados. Os acusados, garimpeiros, não são indígenas.","day":"25","month":"4","municipality":"Mucajaí","state":"Roraima","people":"Yanomami","report":"CPT: Conflitos no Campo - Brasil 1988","types_of_violence":"Murder; violence against the person","types_of_violence (as given, Portuguese)":"Assasinatos, Violência contra a pessoa","name":"Unnamed Yanomami victim — Mucajaí, Roraima (1988)","group":"Killing","source":"Cartography of Attacks Against Indigenous People (Caci), CIMI / CPT cases (file: Amazon Killings/Cartography of Attacks Against Indigenous People in Brazil (Caci)/casos of violence.csv)","placed at":"the coordinates the source gives","records at this same point":9,"group (as first read)":"Killing (source: \"Assasinatos, Violência contra a pessoa\")"}},{"type":"Feature","geometry":{"type":"Point","coordinates":[-61.98326,2.51048]},"properties":{"year":"1988","ibge_municipality_code":"1400308","coordinates":"-61.983257048975,2.510479952891","description":"The victim was killed at the same time that seven other Indians were murdered. The accused, the prospectors, are not indigenous.","description (as published, Portuguese)":"A vítima foi morta na mesma ocasião em que outros sete indígenas foram assassinados. Os acusados, garimpeiros, não são indígenas.","day":"25","month":"4","municipality":"Mucajaí","state":"Roraima","people":"Yanomami","report":"CPT: Conflitos no Campo - Brasil 1988","types_of_violence":"Murder; violence against the person","types_of_violence (as given, Portuguese)":"Assasinatos, Violência contra a pessoa","name":"Unnamed Yanomami victim — Mucajaí, Roraima (1988)","group":"Killing","source":"Cartography of Attacks Against Indigenous People (Caci), CIMI / CPT cases (file: Amazon Killings/Cartography of Attacks Against Indigenous People in Brazil (Caci)/casos of violence.csv)","placed at":"the coordinates the source gives","records at this same point":9,"group (as first read)":"Killing (source: \"Assasinatos, Violência contra a pessoa\")"}},{"type":"Feature","geometry":{"type":"Point","coordinates":[-61.98326,2.51048]},"properties":{"year":"1988","ibge_municipality_code":"1400308","coordinates":"-61.983257048975,2.510479952891","description":"The victim was killed at the same time that seven other Indians were murdered. The accused, the prospectors, are not indigenous.","description (as published, Portuguese)":"A vítima foi morta na mesma ocasião em que outros sete indígenas foram assassinados. Os acusados, garimpeiros, não são indígenas.","day":"25","month":"4","municipality":"Mucajaí","state":"Roraima","people":"Yanomami","report":"CPT: Conflitos no Campo - Brasil 1988","types_of_violence":"Murder; violence against the person","types_of_violence (as given, Portuguese)":"Assasinatos, Violência contra a pessoa","name":"Unnamed Yanomami victim — Mucajaí, Roraima (1988)","group":"Killing","source":"Cartography of Attacks Against Indigenous People (Caci), CIMI / CPT cases (file: Amazon Killings/Cartography of Attacks Against Indigenous People in Brazil (Caci)/casos of violence.csv)","placed at":"the coordinates the source gives","records at this same point":9,"group (as first read)":"Killing (source: \"Assasinatos, Violência contra a pessoa\")"}},{"type":"Feature","geometry":{"type":"Point","coordinates":[-61.98326,2.51048]},"properties":{"year":"1988","ibge_municipality_code":"1400308","coordinates":"-61.983257048975,2.510479952891","description":"The victim was killed at the same time that seven other Indians were murdered. The accused, the prospectors, are not indigenous.","description (as published, Portuguese)":"A vítima foi morta na mesma ocasião em que outros sete indígenas foram assassinados. Os acusados, garimpeiros, não são indígenas.","day":"25","month":"4","municipality":"Mucajaí","state":"Roraima","people":"Yanomami","report":"CPT: Conflitos no Campo - Brasil 1988","types_of_violence":"Murder; violence against the person","types_of_violence (as given, Portuguese)":"Assasinatos, Violência contra a pessoa","name":"Unnamed Yanomami victim — Mucajaí, Roraima (1988)","group":"Killing","source":"Cartography of Attacks Against Indigenous People (Caci), CIMI / CPT cases (file: Amazon Killings/Cartography of Attacks Against Indigenous People in Brazil (Caci)/casos of violence.csv)","placed at":"the coordinates the source gives","records at this same point":9,"group (as first read)":"Killing (source: \"Assasinatos, Violência contra a pessoa\")"}},{"type":"Feature","geometry":{"type":"Point","coordinates":[-71.36822,-5.86071]},"properties":{"year":"1989","funai_code":"48701","coordinates":"-71.368223784976,-5.86071167267","day":"3","month":"9","state":"Amazonas","people":"Korubo","report":"CPT: Conflitos no Campo - Brasil 1989","indigenous_territory":"Vale do Javari","types_of_violence":"Murder; violence against the person","types_of_violence (as given, Portuguese)":"Assasinatos, Violência contra a pessoa","name":"Unnamed Korubo victim — Vale do Javari, Amazonas (1989)","group":"Killing","source":"Cartography of Attacks Against Indigenous People (Caci), CIMI / CPT cases (file: Amazon Killings/Cartography of Attacks Against Indigenous People in Brazil (Caci)/casos of violence.csv)","placed at":"the coordinates the source gives","records at this same point":3,"group (as first read)":"Killing (source: \"Assasinatos, Violência contra a pessoa\")"}},{"type":"Feature","geometry":{"type":"Point","coordinates":[-71.36822,-5.86071]},"properties":{"year":"1989","funai_code":"48701","coordinates":"-71.368223784976,-5.86071167267","day":"3","month":"9","state":"Amazonas","people":"Korubo","report":"CPT: Conflitos no Campo - Brasil 1989","indigenous_territory":"Vale do Javari","types_of_violence":"Murder; violence against the person","types_of_violence (as given, Portuguese)":"Assasinatos, Violência contra a pessoa","name":"Unnamed Korubo victim — Vale do Javari, Amazonas (1989)","group":"Killing","source":"Cartography of Attacks Against Indigenous People (Caci), CIMI / CPT cases (file: Amazon Killings/Cartography of Attacks Against Indigenous People in Brazil (Caci)/casos of violence.csv)","placed at":"the coordinates the source gives","records at this same point":3,"group (as first read)":"Killing (source: \"Assasinatos, Violência contra a pessoa\")"}},{"type":"Feature","geometry":{"type":"Point","coordinates":[-71.36822,-5.86071]},"properties":{"year":"1989","funai_code":"48701","coordinates":"-71.368223784976,-5.86071167267","day":"3","month":"9","state":"Amazonas","people":"Korubo","report":"CPT: Conflitos no Campo - Brasil 1989","indigenous_territory":"Vale do Javari","types_of_violence":"Murder; violence against the person","types_of_violence (as given, Portuguese)":"Assasinatos, Violência contra a pessoa","name":"Unnamed Korubo victim — Vale do Javari, Amazonas (1989)","group":"Killing","source":"Cartography of Attacks Against Indigenous People (Caci), CIMI / CPT cases (file: Amazon Killings/Cartography of Attacks Against Indigenous People in Brazil (Caci)/casos of violence.csv)","placed at":"the coordinates the source gives","records at this same point":3,"group (as first read)":"Killing (source: \"Assasinatos, Violência contra a pessoa\")"}},{"type":"Feature","geometry":{"type":"Point","coordinates":[-39.28986,-16.61936]},"properties":{"year":"1990","ibge_municipality_code":"2925303","coordinates":"-39.28985732956,-16.619364536863","description":"The victim, an elderly man, died of fright during the expulsion of indigenous people from the Red Crown Village by gunmen hired by a miner.","description (as published, Portuguese)":"A vítima, um homem idoso, morreu \"de susto\" durante a expulsão de indígenas da Aldeia Coroa Vermelha por pistoleiros contratados por uma mineradora.","day":"28","month":"10","municipality":"Porto Seguro","state":"Bahia","people":"Pataxó","report":"CPT: Conflitos no Campo - Brasil 1990","types_of_violence":"Murder; violence against the person","types_of_violence (as given, Portuguese)":"Assasinatos, Violência contra a pessoa","name":"Unnamed Pataxó victim — Porto Seguro, Bahia (1990)","group":"Killing","source":"Cartography of Attacks Against Indigenous People (Caci), CIMI / CPT cases (file: Amazon Killings/Cartography of Attacks Against Indigenous People in Brazil (Caci)/casos of violence.csv)","placed at":"the coordinates the source gives","records at this same point":1,"group (as first read)":"Killing (source: \"Assasinatos, Violência contra a pessoa\")"}},{"type":"Feature","geometry":{"type":"Point","coordinates":[-46.41775,-3.89991]},"properties":{"year":"1991","ibge_municipality_code":"2102002","coordinates":"-46.417751995521,-3.8999059061894","day":"12","month":"9","municipality":"Bom Jardim","state":"Maranhão","people":"Guajá","report":"CPT: Conflitos no Campo - Brasil 1991","types_of_violence":"Murder; violence against the person","types_of_violence (as given, Portuguese)":"Assasinatos, Violência contra a pessoa","name":"Unnamed Guajá victim — Bom Jardim, Maranhão (1991)","group":"Killing","source":"Cartography of Attacks Against Indigenous People (Caci), CIMI / CPT cases (file: Amazon Killings/Cartography of Attacks Against Indigenous People in Brazil (Caci)/casos of violence.csv)","placed at":"the coordinates the source gives","records at this same point":4,"group (as first read)":"Killing (source: \"Assasinatos, Violência contra a pessoa\")"}},{"type":"Feature","geometry":{"type":"Point","coordinates":[-46.41775,-3.89991]},"properties":{"year":"1991","ibge_municipality_code":"2102002","coordinates":"-46.417751995521,-3.8999059061894","day":"12","month":"9","municipality":"Bom Jardim","state":"Maranhão","people":"Guajá","report":"CPT: Conflitos no Campo - Brasil 1991","types_of_violence":"Murder; violence against the person","types_of_violence (as given, Portuguese)":"Assasinatos, Violência contra a pessoa","name":"Unnamed Guajá victim — Bom Jardim, Maranhão (1991)","group":"Killing","source":"Cartography of Attacks Against Indigenous People (Caci), CIMI / CPT cases (file: Amazon Killings/Cartography of Attacks Against Indigenous People in Brazil (Caci)/casos of violence.csv)","placed at":"the coordinates the source gives","records at this same point":4,"group (as first read)":"Killing (source: \"Assasinatos, Violência contra a pessoa\")"}},{"type":"Feature","geometry":{"type":"Point","coordinates":[-46.41775,-3.89991]},"properties":{"year":"1991","ibge_municipality_code":"2102002","coordinates":"-46.417751995521,-3.8999059061894","day":"12","month":"9","municipality":"Bom Jardim","state":"Maranhão","people":"Guajá","report":"CPT: Conflitos no Campo - Brasil 1991","types_of_violence":"Murder; violence against the person","types_of_violence (as given, Portuguese)":"Assasinatos, Violência contra a pessoa","name":"Unnamed Guajá victim — Bom Jardim, Maranhão (1991)","group":"Killing","source":"Cartography of Attacks Against Indigenous People (Caci), CIMI / CPT cases (file: Amazon Killings/Cartography of Attacks Against Indigenous People in Brazil (Caci)/casos of violence.csv)","placed at":"the coordinates the source gives","records at this same point":4,"group (as first read)":"Killing (source: \"Assasinatos, Violência contra a pessoa\")"}},{"type":"Feature","geometry":{"type":"Point","coordinates":[-46.41775,-3.89991]},"properties":{"year":"1991","ibge_municipality_code":"2102002","coordinates":"-46.417751995521,-3.8999059061894","day":"4","month":"9","municipality":"Bom Jardim","state":"Maranhão","people":"Guajá","report":"CPT: Conflitos no Campo - Brasil 1991","types_of_violence":"Murder; violence against the person","types_of_violence (as given, Portuguese)":"Assasinatos, Violência contra a pessoa","name":"Unnamed Guajá victim — Bom Jardim, Maranhão (1991)","group":"Killing","source":"Cartography of Attacks Against Indigenous People (Caci), CIMI / CPT cases (file: Amazon Killings/Cartography of Attacks Against Indigenous People in Brazil (Caci)/casos of violence.csv)","placed at":"the coordinates the source gives","records at this same point":4,"group (as first read)":"Killing (source: \"Assasinatos, Violência contra a pessoa\")"}},{"type":"Feature","geometry":{"type":"Point","coordinates":[-63.4342,-0.46485]},"properties":{"year":"1993","ibge_municipality_code":"1300409","coordinates":"-63.434201982817,-0.46484654806685","description":"The victim was killed with an axe blow in a mining dispute. The accused is not indigenous.","description (as published, Portuguese)":"A vítima foi morta com golpe de machado em uma disputa por garimpo. O acusado não é indígena.","municipality":"Barcelos","state":"Amazonas","people":"Tukano","report":"CIMI: A Violência Contra os Povos Indígenas no Brasil - 1993","indigenous_territory":"Baixo Rio Negro","types_of_violence":"Murder; violence against the person","types_of_violence (as given, Portuguese)":"Assasinatos, Violência contra a pessoa","name":"Unnamed Tukano victim — Barcelos, Amazonas (1993)","group":"Killing","source":"Cartography of Attacks Against Indigenous People (Caci), CIMI / CPT cases (file: Amazon Killings/Cartography of Attacks Against Indigenous People in Brazil (Caci)/casos of violence.csv)","placed at":"the coordinates the source gives","records at this same point":2,"group (as first read)":"Killing (source: \"Assasinatos, Violência contra a pessoa\")"}},{"type":"Feature","geometry":{"type":"Point","coordinates":[-63.4342,-0.46485]},"properties":{"year":"1993","ibge_municipality_code":"1300409","coordinates":"-63.434201982817,-0.46484654806685","description":"The victim was stabbed to death in a mining dispute. The accused is not indigenous.","description (as published, Portuguese)":"A vítima foi morta a facadas em uma disputa por garimpo. O acusado não é indígena.","municipality":"Barcelos","state":"Amazonas","people":"Tukano","report":"CIMI: A Violência Contra os Povos Indígenas no Brasil - 1993","indigenous_territory":"Baixo Rio Negro","types_of_violence":"Murder; violence against the person","types_of_violence (as given, Portuguese)":"Assasinatos, Violência contra a pessoa","name":"Unnamed Tukano victim — Barcelos, Amazonas (1993)","group":"Killing","source":"Cartography of Attacks Against Indigenous People (Caci), CIMI / CPT cases (file: Amazon Killings/Cartography of Attacks Against Indigenous People in Brazil (Caci)/casos of violence.csv)","placed at":"the coordinates the source gives","records at this same point":2,"group (as first read)":"Killing (source: \"Assasinatos, Violência contra a pessoa\")"}},{"type":"Feature","geometry":{"type":"Point","coordinates":[-52.8973,-4.74939]},"properties":{"year":"1993","coordinates":"-52.8973006,-4.7493933","description":"The victim was shot to death. The accused is not indigenous.","description (as published, Portuguese)":"A vítima foi morta a pauladas. O acusado não é indígena.","state":"Pará","people":"Guarani","report":"CIMI: A Violência Contra os Povos Indígenas no Brasil - 1993","types_of_violence":"Murder; violence against the person","types_of_violence (as given, Portuguese)":"Assasinatos, Violência contra a pessoa","name":"Unnamed Guarani victim — Pará (1993)","group":"Killing","source":"Cartography of Attacks Against Indigenous People (Caci), CIMI / CPT cases (file: Amazon Killings/Cartography of Attacks Against Indigenous People in Brazil (Caci)/casos of violence.csv)","placed at":"the coordinates the source gives","records at this same point":1,"group (as first read)":"Killing (source: \"Assasinatos, Violência contra a pessoa\")"}},{"type":"Feature","geometry":{"type":"Point","coordinates":[-63.5018,2.1605]},"properties":{"year":"1993","funai_code":"50901","coordinates":"-63.501804064722,2.1605018280699","description":"The victim is one of the 16 Yanomami Indians shot to death on one occasion. In an investigation opened by the Federal Police to investigate the case, non-indigenous prospectors are suspected of being killed.","description (as published, Portuguese)":"A vítima é uma dos 16 indígenas Yanomami morta a tiros em uma única ocasião. Em inquérito aberto pela Polícia Federal para apurar o caso, suspeita-se de garimpeiros  não indígenas pelas mortes.","state":"Roraima","people":"Yanomami","report":"CIMI: A Violência Contra os Povos Indígenas no Brasil - 1993","indigenous_territory":"Yanomami","types_of_violence":"Murder; violence against the person","types_of_violence (as given, Portuguese)":"Assasinatos, Violência contra a pessoa","name":"Unnamed Yanomami victim — Yanomami, Roraima (1993)","group":"Killing","source":"Cartography of Attacks Against Indigenous People (Caci), CIMI / CPT cases (file: Amazon Killings/Cartography of Attacks Against Indigenous People in Brazil (Caci)/casos of violence.csv)","placed at":"the coordinates the source gives","records at this same point":14,"group (as first read)":"Killing (source: \"Assasinatos, Violência contra a pessoa\")"}},{"type":"Feature","geometry":{"type":"Point","coordinates":[-63.5018,2.1605]},"properties":{"year":"1993","funai_code":"50901","coordinates":"-63.501804064722,2.1605018280699","description":"The victim is one of the 16 Yanomami Indians shot to death on one occasion. In an investigation opened by the Federal Police to investigate the case, non-indigenous prospectors are suspected of being killed.","description (as published, Portuguese)":"A vítima é uma dos 16 indígenas Yanomami morta a tiros em uma única ocasião. Em inquérito aberto pela Polícia Federal para apurar o caso, suspeita-se de garimpeiros  não indígenas pelas mortes.","state":"Roraima","people":"Yanomami","report":"CIMI: A Violência Contra os Povos Indígenas no Brasil - 1993","indigenous_territory":"Yanomami","types_of_violence":"Murder; violence against the person","types_of_violence (as given, Portuguese)":"Assasinatos, Violência contra a pessoa","name":"Unnamed Yanomami victim — Yanomami, Roraima (1993)","group":"Killing","source":"Cartography of Attacks Against Indigenous People (Caci), CIMI / CPT cases (file: Amazon Killings/Cartography of Attacks Against Indigenous People in Brazil (Caci)/casos of violence.csv)","placed at":"the coordinates the source gives","records at this same point":14,"group (as first read)":"Killing (source: \"Assasinatos, Violência contra a pessoa\")"}},{"type":"Feature","geometry":{"type":"Point","coordinates":[-63.5018,2.1605]},"properties":{"year":"1993","funai_code":"50901","coordinates":"-63.501804064722,2.1605018280699","description":"The victim is one of the 16 Yanomami Indians shot to death on one occasion. In an investigation opened by the Federal Police to investigate the case, non-indigenous prospectors are suspected of being killed.","description (as published, Portuguese)":"A vítima é uma dos 16 indígenas Yanomami morta a tiros em uma única ocasião. Em inquérito aberto pela Polícia Federal para apurar o caso, suspeita-se de garimpeiros  não indígenas pelas mortes.","state":"Roraima","people":"Yanomami","report":"CIMI: A Violência Contra os Povos Indígenas no Brasil - 1993","indigenous_territory":"Yanomami","types_of_violence":"Murder; violence against the person","types_of_violence (as given, Portuguese)":"Assasinatos, Violência contra a pessoa","name":"Unnamed Yanomami victim — Yanomami, Roraima (1993)","group":"Killing","source":"Cartography of Attacks Against Indigenous People (Caci), CIMI / CPT cases (file: Amazon Killings/Cartography of Attacks Against Indigenous People in Brazil (Caci)/casos of violence.csv)","placed at":"the coordinates the source gives","records at this same point":14,"group (as first read)":"Killing (source: \"Assasinatos, Violência contra a pessoa\")"}},{"type":"Feature","geometry":{"type":"Point","coordinates":[-63.5018,2.1605]},"properties":{"year":"1993","funai_code":"50901","coordinates":"-63.501804064722,2.1605018280699","description":"The victim is one of the 16 Yanomami Indians shot to death on one occasion. In an investigation opened by the Federal Police to investigate the case, non-indigenous prospectors are suspected of being killed.","description (as published, Portuguese)":"A vítima é uma dos 16 indígenas Yanomami morta a tiros em uma única ocasião. Em inquérito aberto pela Polícia Federal para apurar o caso, suspeita-se de garimpeiros  não indígenas pelas mortes.","state":"Roraima","people":"Yanomami","report":"CIMI: A Violência Contra os Povos Indígenas no Brasil - 1993","indigenous_territory":"Yanomami","types_of_violence":"Murder; violence against the person","types_of_violence (as given, Portuguese)":"Assasinatos, Violência contra a pessoa","name":"Unnamed Yanomami victim — Yanomami, Roraima (1993)","group":"Killing","source":"Cartography of Attacks Against Indigenous People (Caci), CIMI / CPT cases (file: Amazon Killings/Cartography of Attacks Against Indigenous People in Brazil (Caci)/casos of violence.csv)","placed at":"the coordinates the source gives","records at this same point":14,"group (as first read)":"Killing (source: \"Assasinatos, Violência contra a pessoa\")"}},{"type":"Feature","geometry":{"type":"Point","coordinates":[-63.5018,2.1605]},"properties":{"year":"1993","funai_code":"50901","coordinates":"-63.501804064722,2.1605018280699","description":"The victim is one of the 16 Yanomami Indians shot to death on one occasion. In an investigation opened by the Federal Police to investigate the case, non-indigenous prospectors are suspected of being killed.","description (as published, Portuguese)":"A vítima é uma dos 16 indígenas Yanomami morta a tiros em uma única ocasião. Em inquérito aberto pela Polícia Federal para apurar o caso, suspeita-se de garimpeiros  não indígenas pelas mortes.","state":"Roraima","people":"Yanomami","report":"CIMI: A Violência Contra os Povos Indígenas no Brasil - 1993","indigenous_territory":"Yanomami","types_of_violence":"Murder; violence against the person","types_of_violence (as given, Portuguese)":"Assasinatos, Violência contra a pessoa","name":"Unnamed Yanomami victim — Yanomami, Roraima (1993)","group":"Killing","source":"Cartography of Attacks Against Indigenous People (Caci), CIMI / CPT cases (file: Amazon Killings/Cartography of Attacks Against Indigenous People in Brazil (Caci)/casos of violence.csv)","placed at":"the coordinates the source gives","records at this same point":14,"group (as first read)":"Killing (source: \"Assasinatos, Violência contra a pessoa\")"}},{"type":"Feature","geometry":{"type":"Point","coordinates":[-63.5018,2.1605]},"properties":{"year":"1993","funai_code":"50901","coordinates":"-63.501804064722,2.1605018280699","description":"The victim is one of the 16 Yanomami Indians shot to death on one occasion. In an investigation opened by the Federal Police to investigate the case, non-indigenous prospectors are suspected of being killed.","description (as published, Portuguese)":"A vítima é uma dos 16 indígenas Yanomami morta a tiros em uma única ocasião. Em inquérito aberto pela Polícia Federal para apurar o caso, suspeita-se de garimpeiros  não indígenas pelas mortes.","state":"Roraima","people":"Yanomami","report":"CIMI: A Violência Contra os Povos Indígenas no Brasil - 1993","indigenous_territory":"Yanomami","types_of_violence":"Murder; violence against the person","types_of_violence (as given, Portuguese)":"Assasinatos, Violência contra a pessoa","name":"Unnamed Yanomami victim — Yanomami, Roraima (1993)","group":"Killing","source":"Cartography of Attacks Against Indigenous People (Caci), CIMI / CPT cases (file: Amazon Killings/Cartography of Attacks Against Indigenous People in Brazil (Caci)/casos of violence.csv)","placed at":"the coordinates the source gives","records at this same point":14,"group (as first read)":"Killing (source: \"Assasinatos, Violência contra a pessoa\")"}},{"type":"Feature","geometry":{"type":"Point","coordinates":[-63.5018,2.1605]},"properties":{"year":"1993","funai_code":"50901","coordinates":"-63.501804064722,2.1605018280699","description":"The victim is one of the 16 Yanomami Indians shot to death on one occasion. In an investigation opened by the Federal Police to investigate the case, non-indigenous prospectors are suspected of being killed.","description (as published, Portuguese)":"A vítima é uma dos 16 indígenas Yanomami morta a tiros em uma única ocasião. Em inquérito aberto pela Polícia Federal para apurar o caso, suspeita-se de garimpeiros  não indígenas pelas mortes.","state":"Roraima","people":"Yanomami","report":"CIMI: A Violência Contra os Povos Indígenas no Brasil - 1993","indigenous_territory":"Yanomami","types_of_violence":"Murder; violence against the person","types_of_violence (as given, Portuguese)":"Assasinatos, Violência contra a pessoa","name":"Unnamed Yanomami victim — Yanomami, Roraima (1993)","group":"Killing","source":"Cartography of Attacks Against Indigenous People (Caci), CIMI / CPT cases (file: Amazon Killings/Cartography of Attacks Against Indigenous People in Brazil (Caci)/casos of violence.csv)","placed at":"the coordinates the source gives","records at this same point":14,"group (as first read)":"Killing (source: \"Assasinatos, Violência contra a pessoa\")"}}]}