{"type":"FeatureCollection","features":[{"type":"Feature","geometry":{"type":"LineString","coordinates":[[-74.0721,4.711]]},"properties":{"from_the_map":"Bogotá Microtráfico Networks","_map_colour":"#B36C73"}},{"type":"Feature","geometry":{"type":"LineString","coordinates":[[-74.7964,10.9639],[-77.0318,3.8801],[-46.6333,-23.5505],[-46.4731,-23.4356],[-46.3335,-23.9608],[-49.2733,-25.4284],[-54.6295,-20.4486],[-60.0217,-3.119],[-51.2177,-30.0346],[-38.5014,-12.9714],[-57.5759,-25.2637],[-55.7256,-22.5486],[-63.1821,-17.7833],[-43.1729,-22.9068],[-43.2105,-22.9519],[135.1955,34.6901],[139.6503,35.6762],[139.7454,35.6586],[130.4017,33.5904],[139.6503,35.6762],[139.9308,37.3631],[130.4017,33.5904],[114.1694,22.3193],[114.1628,22.2793],[114.1095,22.3964],[114.1694,22.3193],[114.1628,22.2793],[-122.4194,37.7749],[103.8198,1.3521],[-123.1207,49.2827],[37.6173,55.7558],[30.3351,59.9343],[37.7845,55.7887],[37.6173,55.7558],[37.5453,55.4242],[60.6057,56.8389],[49.1089,55.7964],[15.6439,38.1097],[16.1048,38.7878],[15.8728,38.0942],[15.9714,38.4197],[15.8728,38.0942],[13.3615,38.1157],[14.2681,40.8518],[18.175,40.3515],[19.456,41.3231],[19.5644,41.3453],[19.5033,42.0683],[19.4914,40.4686],[20.4489,44.7866],[19.2594,42.4304],[34.7818,32.0853],[28.9784,41.0082],[37.3833,37.0662],[3.3792,6.5244],[3.3947,6.4541],[3.3792,6.5244],[3.3439,6.595],[7.9336,5.0197],[3.912,7.3697],[3.3947,6.4541],[3.3792,6.5244],[5.6037,6.335],[3.3792,6.5244],[3.3792,6.5244],[3.3947,6.4541],[3.3515,6.6018],[3.43,6.43]]},"properties":{"from_the_map":"Barranquilla Cocaine Distribution Networks","_map_colour":"#45877F"}},{"type":"Feature","geometry":{"type":"LineString","coordinates":[[5.6037,6.335],[7.4951,9.0579]]},"properties":{"from_the_map":"Benin City Yahoo Yahoo Network","_map_colour":"#45877F"}},{"type":"Feature","geometry":{"type":"LineString","coordinates":[[3.2841,6.465],[7.0498,4.8156],[-0.187,5.6037],[-0.2076,5.5893],[-0.03,5.695]]},"properties":{"from_the_map":"Festac Town Fraud Network","_map_colour":"#45877F"}},{"type":"Feature","geometry":{"type":"LineString","coordinates":[[0.0166,5.6698],[18.4241,-33.9249],[18.4241,-33.9249],[18.4241,-33.9249],[18.4886,-33.9587],[18.4631,-33.9775],[18.4978,-33.9916],[18.47,-33.985],[18.49,-34.005],[99.5833,22.1667],[100.5018,13.7563],[120.9842,14.5995],[121.0122,14.6042],[120.984,14.588],[121.0223,14.6091],[106.6297,10.8231],[151.2093,-33.8688],[151.2093,-33.8688],[150.96,-33.91],[151.2,-33.87],[151.21,-33.865],[144.9631,-37.8136],[144.9631,-37.8136],[144.9631,-37.8136],[150.96,-33.91],[-89.2182,13.6929],[-90.5069,14.6349],[-86.2419,15.1999],[-88.0253,15.5082],[-87.4667,15.78],[-87.2068,14.0818]]},"properties":{"from_the_map":"Tema Port Drug Networks","_map_colour":"#BB7C86"}},{"type":"Feature","geometry":{"type":"LineString","coordinates":[[-88.0253,15.5082],[-89.2,13.7],[-87.1921,14.0723],[-90.5137,14.6488],[-118.2437,34.0522],[-118.3287,34.0928],[-118.4434,34.0687],[-76.9836,38.989],[-73.135,40.7891],[-95.3698,29.7604],[-88.025,15.5047],[-89.2182,13.6929],[-89.205,13.71],[-90.5069,14.6349],[-118.2468,34.0407],[-87.1921,14.0723],[-71.0589,42.3601],[-80.8431,35.2271],[-115.1398,36.1699],[-88.9,13.8],[-92.2333,14.5333],[-118.2826,34.0522],[-89.23,13.7],[-89.5599,13.9942],[-76.7931,17.9714],[-76.7965,18.0179],[-76.8814,17.9914],[-76.8756,17.9899],[-76.791,18.0052],[-76.782,17.975],[-69.9312,18.4861],[-69.8933,18.4756],[-69.9395,18.4692],[-61.5019,10.6549],[-61.5088,10.6639],[-61.5121,10.6587],[-61.5103,10.6476],[-61.2225,10.6918],[-61.4156,10.6421],[-87.6298,41.8781],[-74.006,40.7128],[-73.9851,40.7589],[-118.2437,34.0522],[-118.2468,33.9806],[-87.6847,41.8369],[-122.4194,37.7749],[-118.2468,34.0407],[-122.4194,37.7749],[-73.5673,45.5017],[-73.5878,45.5088],[-123.1207,49.2827],[-6.2603,53.3498],[4.9041,52.3676],[4.8945,52.3667],[4.8952,52.3702]]},"properties":{"from_the_map":"Montes Family Network","_map_colour":"#8A71B6"}},{"type":"Feature","geometry":{"type":"LineString","coordinates":[[5.1214,52.0907],[4.92,52.355],[4.9,52.37],[8.7389,41.9028],[-8.8734,42.5951],[-8.8156,42.5074],[-8.9907,42.5598],[-8.8734,42.5951],[-8.865,42.585],[-9.1393,38.7223]]},"properties":{"from_the_map":"Houssine Ait el Hadsch Network","_map_colour":"#8A71B6"}},{"type":"Feature","geometry":{"type":"LineString","coordinates":[[-8.6291,41.1579],[-7.9304,37.0179],[-0.1054,51.5559],[-0.0723,51.5905],[-0.0699,51.4738],[-0.0826,51.4831],[0.0648,51.4897],[-0.1132,51.4649],[-0.1157,51.4613],[-0.0826,51.4831],[-0.0699,51.4738],[-0.124,51.5307],[-0.0946,51.5264],[-0.0769,51.5308],[-0.0553,51.545],[-0.1006,51.6017],[-0.0792,51.5976],[-0.1054,51.5559]]},"properties":{"from_the_map":"Porto Drug Networks","_map_colour":"#8A71B6"}},{"type":"Feature","geometry":{"type":"LineString","coordinates":[[5.3698,43.2965],[5.38,43.305],[5.365,43.29],[4.4025,51.2194],[4.4025,51.2194],[4.4025,51.2194],[20.813,52.1672],[13.405,52.52],[18.0686,59.3293],[18.062,59.336],[18.041,59.347],[18.07,59.325],[18.065,59.33],[-77.0428,-12.0464],[-79.0288,-8.1116]]},"properties":{"from_the_map":"DZ Mafia (Algerian Networks)","_map_colour":"#B36C73"}},{"type":"Feature","geometry":{"type":"LineString","coordinates":[[-73.2516,-3.7437],[-70.0219,-15.8402]]},"properties":{"from_the_map":"Iquitos Amazon Cocaine Network","_map_colour":"#B36C73"}},{"type":"Feature","geometry":{"type":"LineString","coordinates":[[-63.1821,-17.7833],[-66.1568,-17.3895],[-68.15,-16.5],[-66.9036,10.4806],[-67.4756,7.8875],[-71.6128,10.6666],[-67.6057,10.06],[-67.995,10.17],[-66.8792,10.488],[-60.6505,-32.9442],[-60.638,-32.952],[-58.47,-34.669],[-58.415,-34.635],[72.8347,18.922],[64.0051,31.3959],[65.7178,31.6082]]},"properties":{"from_the_map":"Santa Cruz Cocaine Trafficking Network","_map_colour":"#A85668"}},{"type":"Feature","geometry":{"type":"LineString","coordinates":[[62.2039,34.3414],[70.8119,36.7347]]},"properties":{"from_the_map":"Herat Province Trafficking Network","_map_colour":"#A85668"}},{"type":"Feature","geometry":{"type":"LineString","coordinates":[[62.4504,31.0261],[66.6331,32.9289],[62.1201,32.3753]]},"properties":{"from_the_map":"Nimroz Province Smuggling Network","_map_colour":"#A85668"}},{"type":"Feature","geometry":{"type":"LineString","coordinates":[[67.1079,36.7581],[67.1079,32.1853],[71.0964,34.8403]]},"properties":{"from_the_map":"Balkh Province Drug Networks","_map_colour":"#A85668"}},{"type":"Feature","geometry":{"type":"LineString","coordinates":[[70.4492,34.4282],[70.75,34.1167],[71.1453,34.0692]]},"properties":{"from_the_map":"Jalalabad Opium Trafficking Network","_map_colour":"#A85668"}},{"type":"Feature","geometry":{"type":"LineString","coordinates":[[70.6217,34.1717],[66.9894,24.8704],[66.992,24.865],[66.985,24.875],[66.991,24.868],[67.0011,24.8607],[72.8777,19.076],[72.857,19.094],[72.8347,18.922],[72.857,19.033]]},"properties":{"from_the_map":"Nangarhar Taliban Drug Taxation Network","_map_colour":"#A85668"}},{"type":"Feature","geometry":{"type":"LineString","coordinates":[[68.7738,38.5598],[-4.5463,34.9247],[-5.2636,35.1711],[-5.3626,35.5889]]},"properties":{"from_the_map":"Tajik-Uzbek Drug Networks","_map_colour":"#45877F"}},{"type":"Feature","geometry":{"type":"LineString","coordinates":[[-15.5984,11.8636],[36.8219,-1.2921],[36.8419,-1.2674],[36.807,-1.3028],[36.82,-1.285],[39.6682,-4.0435]]},"properties":{"from_the_map":"Guinea-Bissau Military-Political Drug Networks","_map_colour":"#45877F"}},{"type":"Feature","geometry":{"type":"LineString","coordinates":[[39.2083,-6.7924],[39.2026,-6.1659],[13.2344,-8.8383],[121.5654,25.033],[121.5319,25.0478],[126.978,37.5665],[126.7052,37.4563]]},"properties":{"from_the_map":"Dar es Salaam Port Networks","_map_colour":"#BA7A9A"}},{"type":"Feature","geometry":{"type":"LineString","coordinates":[[129.0756,35.1796]]},"properties":{"from_the_map":"Busan Jopok Networks","_map_colour":"#BA7A9A"}},{"type":"Feature","geometry":{"type":"LineString","coordinates":[[128.6014,35.8714],[106.8456,-6.2088],[106.827,-6.175]]},"properties":{"from_the_map":"Daegu Jopok Networks","_map_colour":"#9F7FBD"}},{"type":"Feature","geometry":{"type":"LineString","coordinates":[[106.8229,-6.1944],[112.7688,-7.2504],[98.6722,3.5952]]},"properties":{"from_the_map":"Jakarta Tionghoa Kongsi Network","_map_colour":"#9F7FBD"}},{"type":"Feature","geometry":{"type":"LineString","coordinates":[[110.4167,-6.9667],[101.6869,3.139],[101.7,3.152],[101.68,3.138],[101.695,3.145]]},"properties":{"from_the_map":"Semarang Kongsi Network","_map_colour":"#9F7FBD"}},{"type":"Feature","geometry":{"type":"LineString","coordinates":[[101.6869,3.139],[100.3327,5.4164],[103.7414,1.4927]]},"properties":{"from_the_map":"Kuala Lumpur Ah Long Network","_map_colour":"#9F7FBD"}},{"type":"Feature","geometry":{"type":"LineString","coordinates":[[103.8198,1.3521],[103.8198,1.3521],[102.6331,17.9757],[100.408,20.283],[103.5234,10.6271]]},"properties":{"from_the_map":"Singapore Ah Long Network","_map_colour":"#9F7FBD"}},{"type":"Feature","geometry":{"type":"LineString","coordinates":[[103.52,10.63],[104.9282,11.5564],[36.0155,33.8462],[36.02,33.852],[36.01,33.84],[36.025,33.835],[51.389,35.6892],[44.3661,33.3152],[174.7762,-41.2865],[175.2793,-37.787],[174.7633,-36.8485],[174.75,-36.86],[174.74,-36.84],[174.885,-37.01],[174.92,-37.0089],[174.7633,-36.8485],[-99.508,27.486],[-101.7068,19.5665],[-99.2352,18.9214],[-99.8237,17.0542],[-101.156,20.5888],[-102.0681,19.0414],[-99.8237,16.8531],[-112.1589,30.7147],[-106.0889,28.6353],[-106.485,31.7619],[-98.1633,26.0796],[-100.9737,25.4382],[30.5234,50.4501],[44.8271,41.7151],[44.4991,40.1792],[45.6986,43.3181],[49.8671,40.4093],[26.1025,44.4268],[23.3219,42.6977],[28.8638,47.0105],[15.9819,45.815],[18.4131,43.8564],[21.1655,42.6629],[21.428,41.9973]]},"properties":{"from_the_map":"She Zhijiang Network","_map_colour":"#7F80BD"}},{"type":"Feature","geometry":{"type":"LineString","coordinates":[[19.2594,42.4304],[19.4531,41.3188],[19.4889,40.4686],[-0.1278,51.5074]]},"properties":{"from_the_map":"Montenegro Cocaine Networks","_map_colour":"#8A71B6"}},{"type":"Feature","geometry":{"type":"LineString","coordinates":[[20.4489,44.7866]]},"properties":{"from_the_map":"Serbian Mafia - Belgrade Networks","_map_colour":"#7F80BD"}},{"type":"Feature","geometry":{"type":"LineString","coordinates":[[18.4131,43.8563],[113.2644,23.1291],[121.4737,31.2304],[121.49,31.24],[121.5397,31.2231]]},"properties":{"from_the_map":"Bosnia Drug Trafficking Networks","_map_colour":"#BA7984"}},{"type":"Feature","geometry":{"type":"LineString","coordinates":[[121.46,31.22],[121.4986,31.2783]]},"properties":{"from_the_map":"Shanghai Nightlife Protection Network","_map_colour":"#BA7984"}},{"type":"Feature","geometry":{"type":"LineString","coordinates":[[121.4737,31.2304],[119.2965,26.0745],[119.5232,25.9622],[119.3,26.1],[-77.0369,38.9072],[-118.2437,34.0522],[-121.8863,37.3382],[-95.3698,29.7604],[-118.2437,34.0522],[-87.6298,41.8781],[-75.1652,39.9526],[-122.2712,37.8044],[-98.4936,29.4241],[-121.8863,37.3382],[-87.6298,41.8781],[-87.6298,41.8781],[-80.1918,25.7617],[3.3792,6.5244],[5.6037,6.335],[3.3947,6.4541],[49.8164,7.9803],[48.5167,5.35],[45.3182,2.0469],[45.3182,2.0469],[38.7636,9.0054],[32.5599,15.5007],[31.2357,30.0444]]},"properties":{"from_the_map":"Shanghai Underground Banking Network","_map_colour":"#45877F"}},{"type":"Feature","geometry":{"type":"LineString","coordinates":[[31.25,29.96]]},"properties":{"from_the_map":"Maadi Drug Dealers Network","_map_colour":"#45877F"}},{"type":"Feature","geometry":{"type":"LineString","coordinates":[[31.24,30.05]]},"properties":{"from_the_map":"Downtown Cairo Drug Networks","_map_colour":"#45877F"}},{"type":"Feature","geometry":{"type":"LineString","coordinates":[[12.0833,32.9312],[14.4283,27.0377],[11.2194,33.1383],[8.8306,35.1675]]},"properties":{"from_the_map":"Zuwara Smuggling Networks","_map_colour":"#45877F"}},{"type":"Feature","geometry":{"type":"LineString","coordinates":[[5.5228,22.785],[0.9539,21.3253],[-8.0029,12.6392]]},"properties":{"from_the_map":"Tamanrasset Trafficking Networks","_map_colour":"#45877F"}},{"type":"Feature","geometry":{"type":"LineString","coordinates":[[7.9911,16.9716],[2.1126,13.5127],[-17.4467,14.6928]]},"properties":{"from_the_map":"Agadez Smuggling Networks","_map_colour":"#45877F"}},{"type":"Feature","geometry":{"type":"LineString","coordinates":[[-16.27,12.55],[-4.0083,5.36],[-4.089,5.3364],[2.6289,6.4969],[32.5732,-25.9692]]},"properties":{"from_the_map":"Casamance Smuggling Networks","_map_colour":"#45877F"}},{"type":"Feature","geometry":{"type":"LineString","coordinates":[[40.5175,-12.9745],[31.0335,-17.8252]]},"properties":{"from_the_map":"Pemba Drug Networks","_map_colour":"#45877F"}},{"type":"Feature","geometry":{"type":"LineString","coordinates":[[28.2833,-15.4167],[17.0832,-22.5597],[15.3125,-4.3217],[29.2228,-1.6792],[-72.315,18.585],[-72.3072,18.5505],[-72.3435,18.5635],[-72.3375,18.5706],[-72.33,18.559],[-72.335,18.5461],[-72.3421,18.5777],[-72.325,18.568],[-72.3074,18.5944],[-72.32,18.5825],[-72.31,18.57],[-72.8003,18.97],[-72.338,18.56],[-72.295,18.585],[-66.1057,18.4655],[-77.3504,25.0443]]},"properties":{"from_the_map":"Lusaka Drug Corridor Operators","_map_colour":"#4A8690"}},{"type":"Feature","geometry":{"type":"LineString","coordinates":[[-76.35,24.25],[-82.3666,23.1136],[-75.8219,20.0247],[-58.1742,26.8406]]},"properties":{"from_the_map":"Out Islands Smuggling Networks","_map_colour":"#B36C73"}},{"type":"Feature","geometry":{"type":"LineString","coordinates":[[-57.5759,-25.2637],[-54.6122,-25.5097]]},"properties":{"from_the_map":"Asunción Cocaine Transshipment Network","_map_colour":"#B36C73"}},{"type":"Feature","geometry":{"type":"LineString","coordinates":[[-56.1645,-34.9011],[-54.9472,-34.9631],[-55.5506,-30.9033]]},"properties":{"from_the_map":"Montevideo Port Cocaine Networks","_map_colour":"#B36C73"}},{"type":"Feature","geometry":{"type":"LineString","coordinates":[[-70.6693,-33.4489],[-71.6127,-33.0472]]},"properties":{"from_the_map":"Santiago Cocaine Distribution Network","_map_colour":"#B36C73"}},{"type":"Feature","geometry":{"type":"LineString","coordinates":[[-70.1431,-20.2208],[-79.9225,-2.17],[-79.8867,-2.1894],[-79.9225,-2.17]]},"properties":{"from_the_map":"Iquique Northern Border Trafficking Network","_map_colour":"#B36C73"}},{"type":"Feature","geometry":{"type":"LineString","coordinates":[[-78.4678,-0.1807]]},"properties":{"from_the_map":"Quito Cocaine Distribution Network","_map_colour":"#B36C73"}},{"type":"Feature","geometry":{"type":"LineString","coordinates":[[-58.1551,6.8013],[-59,4.5]]},"properties":{"from_the_map":"Georgetown Cocaine Transshipment Networks","_map_colour":"#B36C73"}},{"type":"Feature","geometry":{"type":"LineString","coordinates":[[-55.2038,5.852],[-56.97,5.95]]},"properties":{"from_the_map":"Paramaribo Cocaine Trafficking Networks","_map_colour":"#B36C73"}},{"type":"Feature","geometry":{"type":"LineString","coordinates":[[-56,4]]},"properties":{"from_the_map":"Suriname Interior Gold Mining Drug Network","_map_colour":"#B36C73"}},{"type":"Feature","geometry":{"type":"LineString","coordinates":[[-52.3264,4.9381],[-54.0297,5.4983],[-52.6504,5.168]]},"properties":{"from_the_map":"Cayenne Cocaine Trafficking Network","_map_colour":"#B36C73"}},{"type":"Feature","geometry":{"type":"LineString","coordinates":[[36.2765,33.5138]]},"properties":{"from_the_map":"Syrian Regime-Affiliated Captagon Networks","_map_colour":"#A95761"}},{"type":"Feature","geometry":{"type":"LineString","coordinates":[[35.9284,31.9454],[36.2081,32.3409],[35.0081,29.5267]]},"properties":{"from_the_map":"Amman Captagon Distribution Network","_map_colour":"#A95761"}},{"type":"Feature","geometry":{"type":"LineString","coordinates":[[46.6753,24.7136]]},"properties":{"from_the_map":"Saudi Drug Networks","_map_colour":"#A95761"}},{"type":"Feature","geometry":{"type":"LineString","coordinates":[[45.0187,12.7855],[44.191,15.3694]]},"properties":{"from_the_map":"Aden Port Smuggling Network","_map_colour":"#A95761"}},{"type":"Feature","geometry":{"type":"LineString","coordinates":[[48.5164,15.5527],[49.1242,14.5425],[58.4,23.6]]},"properties":{"from_the_map":"Houthi Drug Taxation Network","_map_colour":"#A95761"}},{"type":"Feature","geometry":{"type":"LineString","coordinates":[[54.1,17]]},"properties":{"from_the_map":"Salalah Smuggling Networks","_map_colour":"#A95761"}},{"type":"Feature","geometry":{"type":"LineString","coordinates":[[55.2708,25.2048],[92.3,20.8667]]},"properties":{"from_the_map":"UAE Drug Networks","_map_colour":"#A85668"}},{"type":"Feature","geometry":{"type":"LineString","coordinates":[[92.0058,21.4272],[92.1003,21.1325]]},"properties":{"from_the_map":"Cox's Bazar Beach Yaba Network","_map_colour":"#A85668"}},{"type":"Feature","geometry":{"type":"LineString","coordinates":[[92.3686,21.8311]]},"properties":{"from_the_map":"Bandarban Hill Tracts Yaba Route","_map_colour":"#A85668"}},{"type":"Feature","geometry":{"type":"LineString","coordinates":[[90.4125,23.8103],[79.8612,6.9271],[79.9,6.95],[85.324,27.7172],[85,27]]},"properties":{"from_the_map":"Dhaka Heroin Distribution Networks","_map_colour":"#A85668"}},{"type":"Feature","geometry":{"type":"LineString","coordinates":[[73.5093,4.1755],[73.5291,4.1917],[73.1503,-0.6291]]},"properties":{"from_the_map":"Malé Heroin Trafficking Network","_map_colour":"#A85668"}},{"type":"Feature","geometry":{"type":"LineString","coordinates":[[-175.2166,-21.1393],[-175.1982,-21.1789],[-174,-18.65],[-172.1046,-13.759],[178.4419,-18.1416],[177.4433,-17.7553]]},"properties":{"from_the_map":"Nuku'alofa Methamphetamine Network","_map_colour":"#9F7FBD"}},{"type":"Feature","geometry":{"type":"LineString","coordinates":[[177.45,-17.6167],[147.1803,-9.4438],[14.2408,37.0679],[15.8056,40.6389],[12.5683,55.6761],[10.7522,59.9139],[24.9384,60.1699],[-21.9426,64.1466]]},"properties":{"from_the_map":"Lautoka Port Trafficking Network","_map_colour":"#8A71B6"}},{"type":"Feature","geometry":{"type":"LineString","coordinates":[[74.5698,42.8746],[72.7985,40.5283]]},"properties":{"from_the_map":"Bishkek Heroin Trafficking Network","_map_colour":"#A85668"}},{"type":"Feature","geometry":{"type":"LineString","coordinates":[[77.0833,42.4333],[71.4491,51.1694]]},"properties":{"from_the_map":"Issyk-Kul Lake Trafficking Corridor","_map_colour":"#7891B9"}},{"type":"Feature","geometry":{"type":"LineString","coordinates":[[58.3261,37.9601],[125.7625,39.0392],[-99.8237,16.8531],[-106.4245,31.6904],[-106.485,31.7619],[-106.4245,31.6904],[-102.8333,19.1833],[-103.3496,20.6597],[-90.5069,14.6349],[-90.2308,15.7835],[-88.5833,15.5]]},"properties":{"from_the_map":"Turkmen Smuggling Networks","_map_colour":"#BB7C86"}},{"type":"Feature","geometry":{"type":"LineString","coordinates":[[-91.5167,14.5833]]},"properties":{"from_the_map":"Chamale Family Network","_map_colour":"#BB7C86"}},{"type":"Feature","geometry":{"type":"LineString","coordinates":[[-86.2362,12.115],[-83.7633,12.0111],[-85.8703,11.2533],[-84.0907,9.9281]]},"properties":{"from_the_map":"Managua Cocaine Transshipment Network","_map_colour":"#BB7C86"}},{"type":"Feature","geometry":{"type":"LineString","coordinates":[[-83.0335,9.9908]]},"properties":{"from_the_map":"Limón Port Cocaine Trafficking Network","_map_colour":"#BB7C86"}},{"type":"Feature","geometry":{"type":"LineString","coordinates":[[-85.4333,10.9167]]},"properties":{"from_the_map":"Northern Border Narco-Corridor Gang","_map_colour":"#BB7C86"}},{"type":"Feature","geometry":{"type":"LineString","coordinates":[[-79.5199,8.9824],[-79.9,9.3549]]},"properties":{"from_the_map":"Panama City Money Laundering Network","_map_colour":"#BB7C86"}},{"type":"Feature","geometry":{"type":"LineString","coordinates":[[-77.5,8],[-79.5667,8.95],[-88.1886,17.4986]]},"properties":{"from_the_map":"Darién Gap Trafficking Corridor Network","_map_colour":"#BB7C86"}},{"type":"Feature","geometry":{"type":"LineString","coordinates":[[-87.9653,17.9156],[-88.3881,18.3956]]},"properties":{"from_the_map":"San Pedro Cocaine Smuggling Network","_map_colour":"#BB7C86"}},{"type":"Feature","geometry":{"type":"LineString","coordinates":[[30.0606,-1.9536],[29.2566,-1.7025]]},"properties":{"from_the_map":"Kigali Narcotics Trafficking Network","_map_colour":"#45877F"}},{"type":"Feature","geometry":{"type":"LineString","coordinates":[[29.8739,-1.9403],[29.9189,-3.3731],[32.5825,0.3476],[32.4435,0.0418]]},"properties":{"from_the_map":"Kigali-Entebbe Drug Corridor Network","_map_colour":"#45877F"}},{"type":"Feature","geometry":{"type":"LineString","coordinates":[[32.5599,0.3136]]},"properties":{"from_the_map":"Kisenyi Slum Gang Network","_map_colour":"#45877F"}},{"type":"Feature","geometry":{"type":"LineString","coordinates":[[9.7679,4.0511]]},"properties":{"from_the_map":"Douala Port Cocaine Networks","_map_colour":"#45877F"}},{"type":"Feature","geometry":{"type":"LineString","coordinates":[[11.5021,3.848],[9.4673,0.4162],[8.7371,3.7504]]},"properties":{"from_the_map":"Yaoundé Distribution Networks","_map_colour":"#45877F"}},{"type":"Feature","geometry":{"type":"LineString","coordinates":[[15.0557,12.1348],[18.5582,4.3947]]},"properties":{"from_the_map":"Chad Smuggling Networks","_map_colour":"#45877F"}},{"type":"Feature","geometry":{"type":"LineString","coordinates":[[25.9087,-24.6541],[27.5084,-21.1672]]},"properties":{"from_the_map":"Gaborone Drug Trafficking Network","_map_colour":"#45877F"}},{"type":"Feature","geometry":{"type":"LineString","coordinates":[[25.1652,-17.8193],[27.4833,-29.3167],[31.1367,-26.3054]]},"properties":{"from_the_map":"Kasane Wildlife Trafficking Network","_map_colour":"#45877F"}},{"type":"Feature","geometry":{"type":"LineString","coordinates":[[31.369,-26.4956],[31.3,-26.5167],[-15.9582,18.0735],[-1.5197,12.3714]]},"properties":{"from_the_map":"Manzini Cannabis Cultivation Network","_map_colour":"#45877F"}},{"type":"Feature","geometry":{"type":"LineString","coordinates":[[1.2318,6.1256],[1.1914,9.5511],[-13.2317,8.4657],[-10.8074,6.3156]]},"properties":{"from_the_map":"Lomé Port Cocaine Network","_map_colour":"#45877F"}},{"type":"Feature","geometry":{"type":"LineString","coordinates":[[-16.579,13.4549],[-15.5833,13.4333]]},"properties":{"from_the_map":"Banjul Cocaine Trafficking Network","_map_colour":"#45877F"}},{"type":"Feature","geometry":{"type":"LineString","coordinates":[[-13.7122,9.5092],[-9.3055,10.3851],[-13.5784,9.6412],[-23.5087,14.9215]]},"properties":{"from_the_map":"Conakry Port Cocaine Trafficking Network","_map_colour":"#45877F"}},{"type":"Feature","geometry":{"type":"LineString","coordinates":[[-24.9956,16.8867],[-22.9333,16.7333],[6.7273,0.3365]]},"properties":{"from_the_map":"Mindelo Port Smuggling Network","_map_colour":"#45877F"}},{"type":"Feature","geometry":{"type":"LineString","coordinates":[[7.4056,1.614],[6.7333,0.3302],[43.3333,-11.6455]]},"properties":{"from_the_map":"Príncipe Island Smuggling Network","_map_colour":"#45877F"}},{"type":"Feature","geometry":{"type":"LineString","coordinates":[[57.5012,-20.1609]]},"properties":{"from_the_map":"Mauritius Drug Networks","_map_colour":"#45877F"}},{"type":"Feature","geometry":{"type":"LineString","coordinates":[[55.4513,-4.6191],[55.5218,-4.6743],[55.7447,-4.3197]]},"properties":{"from_the_map":"Victoria Port Heroin Trafficking Network","_map_colour":"#45877F"}},{"type":"Feature","geometry":{"type":"LineString","coordinates":[[47.5079,-18.8792],[49.4022,-18.1443],[48.2619,-13.3213]]},"properties":{"from_the_map":"Antananarivo Heroin Trafficking Network","_map_colour":"#45877F"}},{"type":"Feature","geometry":{"type":"LineString","coordinates":[[33.7741,-13.9626]]},"properties":{"from_the_map":"Lilongwe Cannabis Trafficking Network","_map_colour":"#45877F"}},{"type":"Feature","geometry":{"type":"LineString","coordinates":[[35.0058,-15.7861]]},"properties":{"from_the_map":"Blantyre Drug Corridor Gang","_map_colour":"#45877F"}},{"type":"Feature","geometry":{"type":"LineString","coordinates":[[34.3,-12.0833],[106.905,47.9077]]},"properties":{"from_the_map":"Lake Malawi Smuggling Network","_map_colour":"#7891B9"}},{"type":"Feature","geometry":{"type":"LineString","coordinates":[[105.9667,49.4667],[104.0833,49.0333],[113.5439,22.1987],[89.639,27.4728]]},"properties":{"from_the_map":"Darkhan Border Smuggling Network","_map_colour":"#A85668"}},{"type":"Feature","geometry":{"type":"LineString","coordinates":[[114.9425,4.8903],[114.3244,4.6069],[115,4.5],[125.5603,-8.5569]]},"properties":{"from_the_map":"Bandar Seri Begawan Methamphetamine Network","_map_colour":"#9F7FBD"}},{"type":"Feature","geometry":{"type":"LineString","coordinates":[[126.45,-8.4667],[124.3667,-9.2167],[-60.9875,14.0101]]},"properties":{"from_the_map":"Baucau Border Smuggling Network","_map_colour":"#4A8690"}},{"type":"Feature","geometry":{"type":"LineString","coordinates":[[-60.9503,13.7331],[-59.6142,13.0975]]},"properties":{"from_the_map":"Vieux Fort Smuggling Network","_map_colour":"#4A8690"}},{"type":"Feature","geometry":{"type":"LineString","coordinates":[[-59.5373,13.068],[-61.7488,12.0561]]},"properties":{"from_the_map":"Christ Church Gang Network","_map_colour":"#4A8690"}},{"type":"Feature","geometry":{"type":"LineString","coordinates":[[-61.6167,12.1167],[-61.4494,12.4792],[-61.2248,13.1587]]},"properties":{"from_the_map":"Grenville Gang Network","_map_colour":"#4A8690"}},{"type":"Feature","geometry":{"type":"LineString","coordinates":[[-61.2308,12.9844]]},"properties":{"from_the_map":"Grenadines Maritime Smuggling Network","_map_colour":"#4A8690"}},{"type":"Feature","geometry":{"type":"LineString","coordinates":[[-61.8456,17.1211],[-61.9079,17.0714],[-62.7177,17.3026]]},"properties":{"from_the_map":"St. John's Cocaine Distribution Network","_map_colour":"#4A8690"}},{"type":"Feature","geometry":{"type":"LineString","coordinates":[[-62.5796,17.1469],[-62.6958,17.3153],[-83.0458,42.3314],[-75.1652,39.9526],[-71.0589,42.3601],[-74.006,40.7128],[-73.9442,40.6782],[-73.9851,40.7589],[-94.5786,39.0997],[-82.4572,27.9506],[-118.2437,34.0522],[-122.4194,37.7749],[-90.0715,29.9511],[-118.2437,34.0522],[-122.4194,37.7749],[-74.006,40.7128],[-74.006,40.7128],[-73.9279,40.8168],[14.4378,50.0755],[17.1077,48.1486],[19.0402,47.4979]]},"properties":{"from_the_map":"Nevis Smuggling Network","_map_colour":"#8A71B6"}},{"type":"Feature","geometry":{"type":"LineString","coordinates":[[16.3738,48.2082]]},"properties":{"from_the_map":"Austrian Drug Networks","_map_colour":"#8A71B6"}},{"type":"Feature","geometry":{"type":"LineString","coordinates":[[7.4474,46.948],[24.7536,59.437],[24.1052,56.9496],[25.2797,54.6872],[23.7275,37.9838]]},"properties":{"from_the_map":"Swiss Money Laundering Networks","_map_colour":"#7F80BD"}},{"type":"Feature","geometry":{"type":"LineString","coordinates":[[33.3823,35.1856],[33.0384,34.6841]]},"properties":{"from_the_map":"Nicosia Money Laundering Network","_map_colour":"#A95761"}},{"type":"Feature","geometry":{"type":"LineString","coordinates":[[14.5146,35.8989],[14.5375,35.8178],[6.1319,49.6116]]},"properties":{"from_the_map":"Valletta Money Laundering Network","_map_colour":"#8A71B6"}},{"type":"Feature","geometry":{"type":"LineString","coordinates":[[7.4246,43.7384]]},"properties":{"from_the_map":"Monaco Networks","_map_colour":"#8A71B6"}},{"type":"Feature","geometry":{"type":"LineString","coordinates":[[1.5218,42.5063]]},"properties":{"from_the_map":"Andorran Networks","_map_colour":"#8A71B6"}},{"type":"Feature","geometry":{"type":"LineString","coordinates":[[12.4578,43.9424]]},"properties":{"from_the_map":"San Marino Networks","_map_colour":"#927FBD"}},{"type":"Feature","geometry":{"type":"LineString","coordinates":[[9.5209,47.141]]},"properties":{"from_the_map":"Liechtenstein Networks","_map_colour":"#8A71B6"}},{"type":"Feature","geometry":{"type":"LineString","coordinates":[[14.5058,46.0569],[13.73,45.5481]]},"properties":{"from_the_map":"Ljubljana Drug Trafficking Network","_map_colour":"#7F80BD"}},{"type":"Feature","geometry":{"type":"LineString","coordinates":[[35.2332,31.9522]]},"properties":{"from_the_map":"Palestinian Drug Networks","_map_colour":"#A95761"}},{"type":"Feature","geometry":{"type":"LineString","coordinates":[[47.9774,29.3759],[47.6581,29.3375]]},"properties":{"from_the_map":"Kuwait City Captagon Trafficking Network","_map_colour":"#A95761"}},{"type":"Feature","geometry":{"type":"LineString","coordinates":[[50.5577,26.0667],[50.6114,26.254]]},"properties":{"from_the_map":"Manama Captagon Distribution Network","_map_colour":"#A95761"}},{"type":"Feature","geometry":{"type":"LineString","coordinates":[[51.531,25.2854],[51.6056,25.1711],[35.8623,33.8547]]},"properties":{"from_the_map":"Doha Money Laundering Network","_map_colour":"#A95761"}},{"type":"Feature","geometry":{"type":"LineString","coordinates":[[44.191,15.3694]]},"properties":{"from_the_map":"Houthi Drug Networks","_map_colour":"#A95761"}},{"type":"Feature","geometry":{"type":"LineString","coordinates":[[36.2765,33.5138],[121.0096,6.0903],[151.2093,-33.8688],[144.9631,-37.8136],[151.2093,-33.8688],[174.7762,-41.2865],[174.7633,-36.8485],[174.8824,-36.9716],[175.2793,-37.787],[13.405,52.52],[2.3522,48.8566],[4.9041,52.3676],[4.9041,52.3676],[-0.1278,51.5074],[-6.2603,53.3498]]},"properties":{"from_the_map":"Former Assad Regime Networks","_map_colour":"#8A71B6"}},{"type":"Feature","geometry":{"type":"LineString","coordinates":[[-5.9301,54.5973],[-5.9301,54.5973],[-96.7266,17.0732],[-100.3161,25.6866],[13.15,11.8333]]},"properties":{"from_the_map":"INLA Drug Networks","_map_colour":"#45877F"}},{"type":"Feature","geometry":{"type":"LineString","coordinates":[[38.9251,15.3229]]},"properties":{"from_the_map":"Eritrean Smuggling Networks","_map_colour":"#45877F"}},{"type":"Feature","geometry":{"type":"LineString","coordinates":[[43.1456,11.572],[43.29,11.9667],[99.5833,22.1667],[98.5,22.5],[97.3969,25.3847],[-123.1207,49.2827],[-123.1207,49.2827],[-123.1207,49.2827],[-107.394,24.8091],[-106.0889,28.6353],[-106.0889,28.6353],[-104.6532,24.0277],[-80.0959,-0.6927],[-79.8886,-2.1894],[99.8325,19.9071],[100.8825,12.9236],[100.87,12.94]]},"properties":{"from_the_map":"Djibouti City Port Heroin Network","_map_colour":"#9F7FBD"}},{"type":"Feature","geometry":{"type":"LineString","coordinates":[[100.89,12.92],[100.88,12.93],[100.917,13.105],[100.5018,13.7563],[100.53,13.72],[103.5234,10.6271]]},"properties":{"from_the_map":"Pattaya Nigerian Network","_map_colour":"#9F7FBD"}},{"type":"Feature","geometry":{"type":"LineString","coordinates":[[2.6289,6.4969],[8.6821,50.1109],[5.1214,52.0907],[-6.2603,53.3498],[-2.9215,53.4264],[-2.928,53.4545],[-2.9493,53.4311],[-2.973,53.4084],[-2.9661,53.4231],[-2.8406,53.4106],[-2.9697,53.3844],[-4.2693,55.8312],[-4.2405,55.8297],[-4.2628,55.8585],[-4.3166,55.8488],[-4.2518,55.8642],[-2.2186,53.4387],[-2.2143,53.4421],[-2.2186,53.4387],[-2.2041,53.4608],[-2.2419,53.4496],[-2.2372,53.4984],[-1.8936,52.4617],[-1.9026,52.467],[-1.9161,52.4539],[-2.9916,53.4084],[-2.2507,53.4584]]},"properties":{"from_the_map":"Beninese Port Networks","_map_colour":"#8A71B6"}},{"type":"Feature","geometry":{"type":"LineString","coordinates":[[-0.0701,51.5883]]},"properties":{"from_the_map":"London Tottenham Gang Networks","_map_colour":"#8A71B6"}},{"type":"Feature","geometry":{"type":"LineString","coordinates":[[-0.0691,51.4742],[-4.2518,55.8642],[-1.9026,52.4782],[12.5683,55.6761],[12.59,55.685],[12.585,55.673],[12.569,55.676],[-87.6298,41.8781],[-87.6873,41.8119],[-87.6194,41.7794],[-83.0458,42.3314]]},"properties":{"from_the_map":"London Peckham Gang Networks","_map_colour":"#A95959"}},{"type":"Feature","geometry":{"type":"LineString","coordinates":[[-76.6122,39.2904]]},"properties":{"from_the_map":"Baltimore Drug Kingpins Network","_map_colour":"#A95959"}},{"type":"Feature","geometry":{"type":"LineString","coordinates":[[-75.1652,39.9526],[-84.388,33.749]]},"properties":{"from_the_map":"Philadelphia Drug Trafficking Networks","_map_colour":"#A95959"}},{"type":"Feature","geometry":{"type":"LineString","coordinates":[[-90.0715,29.9511],[-118.2437,34.0522],[-73.935,40.8501],[-75.1246,39.9963],[-118.2451,34.0444],[-118.2468,34.0407],[-118.2483,34.0385]]},"properties":{"from_the_map":"New Orleans Drug Networks","_map_colour":"#A95959"}},{"type":"Feature","geometry":{"type":"LineString","coordinates":[[-122.4136,37.7835],[-80.1918,25.7617]]},"properties":{"from_the_map":"Tenderloin Drug Networks","_map_colour":"#A95959"}},{"type":"Feature","geometry":{"type":"LineString","coordinates":[[-84.388,33.749],[66.9894,24.8704]]},"properties":{"from_the_map":"Atlanta Drug Corridor","_map_colour":"#A85668"}},{"type":"Feature","geometry":{"type":"LineString","coordinates":[[66.975,30.1798],[151.2093,-33.8688],[153.0251,-27.4698],[144.9631,-37.8136],[151.2093,-33.8688],[-61.387,15.3017]]},"properties":{"from_the_map":"Quetta Drug Networks","_map_colour":"#4A8690"}},{"type":"Feature","geometry":{"type":"LineString","coordinates":[[-61.4667,15.5792]]},"properties":{"from_the_map":"Portsmouth Drug Smuggling Network","_map_colour":"#4A8690"}},{"type":"Feature","geometry":{"type":"LineString","coordinates":[[-72.2708,21.7935],[-71.136,21.4664]]},"properties":{"from_the_map":"Providenciales Cocaine Network","_map_colour":"#4A8690"}},{"type":"Feature","geometry":{"type":"LineString","coordinates":[[-63.0492,18.0256],[-63.0827,18.0669]]},"properties":{"from_the_map":"Philipsburg Drug Trafficking Network","_map_colour":"#4A8690"}},{"type":"Feature","geometry":{"type":"LineString","coordinates":[[-64.6183,18.4274],[-64.8941,18.3381],[-64.7473,17.7272],[-61.0583,14.6163],[-60.9971,14.6085],[-60.9394,14.6775],[-61.533,16.2408]]},"properties":{"from_the_map":"Tortola Cocaine Trafficking Network","_map_colour":"#4A8690"}},{"type":"Feature","geometry":{"type":"LineString","coordinates":[[-61.499,16.2651],[-61.7333,16],[-70.0265,12.5246]]},"properties":{"from_the_map":"Les Abymes Trafficking Network","_map_colour":"#4A8690"}},{"type":"Feature","geometry":{"type":"LineString","coordinates":[[-69.8987,12.4389],[-70.0152,12.5014]]},"properties":{"from_the_map":"San Nicolas Port Smuggling Network","_map_colour":"#4A8690"}},{"type":"Feature","geometry":{"type":"LineString","coordinates":[[-68.8824,12.1224],[-68.9335,12.1092],[-68.9598,12.1889],[67.71,33.9391],[39.055,35.9553],[-79.233,43.7845],[-79.2304,43.8089],[-79.5667,43.7353],[-79.3635,43.6627],[-79.5697,43.7406],[-113.4938,53.5461],[-113.4938,53.5461],[-114.0719,51.0447],[-114.0719,51.0447],[-97.1384,49.8951],[-109,29],[-106,22],[-99.5,26.5],[-100,28],[-107,32],[-117.3,32.7],[15.5,40],[12.5,38.5],[13.5,41.5],[15.5,42],[-77.5,9.5],[-74,8],[-47.5,-22],[-43.8,-22.5],[36.5,56.5],[29.5,60.5],[134.5,35.5],[139,36],[113,23],[113.8,22.5],[19,43],[19,46],[97,24],[63,33],[2.8,7],[-6,35.5],[4.5,52.7],[-118.8,34.5],[-74.3,40.9],[-88,42.2],[-74,45.7],[-6.5,53.5],[-72.5,18.7],[150.8,-33.5],[-109,26],[-102.5,20],[-102.5,19.5],[-101.8,21.2],[-100,18.5],[-77,3],[-80.2,-1.8],[-78.8,-0.5],[-72.4,18.65],[-122,37],[-123,38],[-88.2,42.2],[-74.3,40.95]]},"properties":{"from_the_map":"Willemstad Cocaine Trafficking Network"}},{"type":"Feature","geometry":{"type":"LineString","coordinates":[[-80.5,26.2],[-74.2,45.8],[-123.3,49.4],[-79.6,43.8],[64,32],[70,34.5],[-5.5,35.5],[35.8,34.2],[70,35],[-16.5,12.5],[4,52],[4.3,51.3],[-9,43.5],[124,8]]},"properties":{"from_the_map":"Miami Cocaine Corridor"}},{"type":"Feature","geometry":{"type":"LineString","coordinates":[[69.2,34.5],[62.2,34.6],[59.6,36.3],[51.4,35.7],[46.3,37.9],[41.3,39.9],[32.9,39.9],[29,41],[28.6,41],[26.6,41.7],[24.7,42.1],[23.3,42.7],[21.4,42],[19.3,42.4],[19.8,41.3],[18.2,40.6],[12.5,41.9],[9.2,45.5],[6.6,46.5],[2.3,48.9],[0.1,51.5],[4.9,52.4]]},"properties":{"from_the_map":"Balkan Route (Heroin)","_map_colour":"#A85668"}},{"type":"Feature","geometry":{"type":"LineString","coordinates":[[69.2,34.5],[69,36.7],[69.7,37.1],[68.8,37.5],[68.8,38.5],[70.3,39.6],[72.8,40.5],[73.4,41.3],[74.6,42.9],[76.9,43.2],[65.5,44.8],[68,47],[73.1,49.8],[71.4,51.2],[63.6,53.2],[55.9,54.7],[61.4,55.2],[60.6,56.8],[56.3,58],[44,56.3],[49.1,55.8],[48.4,54.3],[50.1,53.2],[37.6,55.8]]},"properties":{"from_the_map":"Northern Route (Heroin)","_map_colour":"#7891B9"}},{"type":"Feature","geometry":{"type":"LineString","coordinates":[[-77,-12],[-76,-8],[-75.5,-5],[-74.1,4.7],[-75.5,10.4],[-68.9,12.2],[-69.9,12.5],[-61.3,15.4],[-61.8,17.1],[-72.3,18.5],[-75.1,19.9],[-77.8,21.5],[-82.4,23.1],[-77.9,24.6],[-79.2,25.8],[-80.2,25.8]]},"properties":{"from_the_map":"Caribbean Route (Cocaine)","_map_colour":"#B36C73"}},{"type":"Feature","geometry":{"type":"LineString","coordinates":[[-77,-12],[-79,-8.1],[-80.4,-3.7],[-79,0.2],[-78.5,1.2],[-77.1,3.9],[-77.7,8.7],[-79.9,9.4],[-87.9,12.9],[-89.2,13.7],[-90.5,14.6],[-96.7,15.8],[-99.9,16.9],[-105.2,20.7],[-109.9,22.9],[-111,25.8],[-114.1,28.6],[-117.1,32.5]]},"properties":{"from_the_map":"Pacific Route (Cocaine)","_map_colour":"#BA7979"}},{"type":"Feature","geometry":{"type":"LineString","coordinates":[[-47.9,-15.8],[-38.5,-12.9],[-36.4,-10.4],[-35.2,-8.8],[-34.8,-7.1],[-35.2,-5.8],[-38.5,-3.7],[-44.3,-2.5],[-42,0],[-35,0],[-30,0],[-20,2],[-8,4],[-7.5,4.4],[-4,5.3],[-0.2,5.6],[1.2,6.1],[2.6,6.5],[3.4,6.4],[-13.2,8.5],[-13.7,9.5],[-15.6,11.9],[-16.3,12.3],[-8,12.6],[2.1,13.5],[-17.4,14.7],[-16.5,16],[-16,18.1],[-17,20.9],[-15.9,23.7],[-13.2,27.2],[-12,28],[-9.6,30.4],[-8,31.6],[-7.6,33.6],[-6.8,33.9],[-6.6,35.2],[-5.3,35.9],[-5.6,36.1],[-4.4,36.7],[-1,37.4],[-0.5,38.3],[-0.4,39.5],[2.2,41.4],[5.4,43.3],[4.8,45.8],[2.3,48.9]]},"properties":{"from_the_map":"West African Route (Cocaine)","_map_colour":"#45877F"}},{"type":"Feature","geometry":{"type":"LineString","coordinates":[[69.2,34.5],[65.7,31.6],[66.9,30.2],[61.9,28],[56.4,30.3],[52.5,29.6],[48.7,31.3],[47.8,30.5],[47.5,30],[48,29.4],[50.6,26.2],[55.4,25.3],[54.4,24.5],[58.5,23.6],[58.2,20.4],[54.5,15.4],[45,12.8],[43.1,11.6],[38.8,9],[38.8,3.4],[36.8,-1.3],[39.7,-4],[39.3,-6.8],[40.5,-12],[32.6,-25.9],[28,-26.2],[18.4,-33.9]]},"properties":{"from_the_map":"Southern Route (Heroin)","_map_colour":"#A95761"}},{"type":"Feature","geometry":{"type":"LineString","coordinates":[[99.6,22.2],[100,20.3],[99.8,19.9],[99,18.8],[100.1,15.9],[100.5,13.8],[100,13.4],[99.6,11.6],[99.3,9.1],[100.3,6.4],[100.3,5.4],[101.7,3.1],[103.8,1.4],[104,1.3],[103.9,-1.2],[106.8,-6.2],[115.2,-8.7],[123.6,-10.2],[130.8,-12.5],[146.8,-19.3],[153,-27.5],[151.2,-33.9]]},"properties":{"from_the_map":"Golden Triangle Route","_map_colour":"#BA7A9A"}},{"type":"Feature","geometry":{"type":"LineString","coordinates":[[-74.1,4.7],[-73.1,7.1],[-75.5,10.4],[-74.8,11],[-68.3,12.1],[-69,12.2],[-68.3,12.1],[-61,13.2],[-61,14],[-61.3,15.4],[-61.5,16.2],[-61.8,17.1],[-64.6,17.6],[-64.6,18.5],[-72.3,18.5],[-72.3,19.7],[-72.9,20.7],[-73.7,22.4],[-74.5,24],[-71,25],[-77,26.5],[-70,28],[-65,30],[-64.8,32.3],[-60,34],[-50,36],[-40,37],[-27,38.7],[-31.1,39.5],[-9.1,38.7],[-9.2,39.4],[-7,39],[-4.1,38.7],[-3.7,40.4],[2.2,41.4],[5.4,43.3],[4.8,45.8],[2.3,48.9]]},"properties":{"from_the_map":"Trans-Atlantic Route","_map_colour":"#4A8690"}},{"type":"Feature","geometry":{"type":"LineString","coordinates":[[114.2,22.3],[116.4,23.5],[118.6,24.8],[121.5,25],[127.7,26.1],[130.4,33.6],[139.7,35.7],[141.4,40.7],[-175,51.5],[-160,55],[-152,58.3],[-149.9,61.2],[-122.3,47.6],[-122.4,37.8],[-118.2,34.1],[-117.2,32.7],[-112.1,33.4],[-95.4,29.8],[-74,40.7],[69.2,34.5],[69.5,35],[69,36.7],[68.9,37.1],[58.4,37.5],[59.6,36.3],[51.4,35.7],[46.3,38.1],[45,39],[49.9,40.4],[46.4,40.7],[45,41.2],[44.8,41.7],[41.6,42.7],[43,42],[26.1,44.4],[28,45.4],[30.7,46.5],[35.2,47.8],[32.3,48.5],[30.5,50.4],[31.3,51.5],[30.9,52.4],[23.7,52.1],[21,52.2],[13.4,52.5],[9.7,52.3],[7.5,51.5],[6.8,51.2],[4.9,52.4]]},"properties":{"from_the_map":"China White Route","_map_colour":"#9F7FBD"}},{"type":"Feature","geometry":{"type":"LineString","coordinates":[[37.6,55.8],[36.6,55.2],[28,54],[27.6,53.9],[30.9,52.4],[31.3,51.5],[30.5,50.4],[24,50.3],[22,50],[22.6,51.2],[21,52.2],[19.5,51.8],[18.7,50.3],[14.4,50.1],[15.6,49.6],[16.4,48.2],[14.3,48.3],[11.6,48.1],[12.1,49],[8.7,50.1],[9.5,51.3],[13.4,52.5],[9.7,52.4],[7.5,51.5],[6.8,51.2],[6.9,50.9],[5.2,52.1],[4.9,52.4]]},"properties":{"from_the_map":"Eastern European Route","_map_colour":"#7F80BD"}},{"type":"Feature","geometry":{"type":"LineString","coordinates":[[-70.7,-33.4],[-46.6,-23.5],[-38.5,-12.9],[-35,-8],[-30,-5],[-5,-15],[15,-25],[18.4,-33.9],[25,-34],[35,-25],[45,-20],[45.1,-12.3],[55.5,-4.7],[70,-1],[103.8,1.4],[114.2,22.3],[139.7,35.7]]},"properties":{"from_the_map":"Trans-Pacific Route","_map_colour":"#44856F"}},{"type":"Feature","geometry":{"type":"LineString","coordinates":[[3.4,6.5],[3.9,6.9],[1.2,8],[-0.2,5.6],[-4,5.3],[-13.6,9.6],[-15.6,11.9],[-8,12.6],[2.1,13.5],[8,16.9],[-16,18.1],[-17,20.9],[-15.5,23],[-13.2,27.2],[9.5,30.4],[-8,31.6],[-7.6,33.6],[-5.3,35.9],[-5.6,36.1],[-4.4,36.7],[-3.7,40.4]]},"properties":{"from_the_map":"Trans-Saharan Route","_map_colour":"#BB7C86"}},{"type":"Feature","geometry":{"type":"LineString","coordinates":[[36.3,33.5],[35.8,34.4],[35.5,33.9],[35.9,33.5],[36,33],[36,32],[35.9,31.9],[36.8,30],[35,29.5],[34.5,28],[38,27],[43,26],[46.7,24.7],[49.6,25.3],[50.1,26.2],[50.6,26],[55.4,25.3],[54.4,24.5],[56,25],[58.4,23.6],[47.9,29.4],[48,30],[44.4,33.3],[43.1,36.3],[39.2,21.5]]},"properties":{"from_the_map":"Captagon Route (Syria/Lebanon to Gulf)","_map_colour":"#A95761"}},{"type":"Feature","geometry":{"type":"LineString","coordinates":[[-54.6,-25.5],[-52,-24],[-46.6,-23.5],[-43.2,-22.9],[-40,-10],[-35.2,-5.8],[-30,0],[-52.3,4.9],[-66.9,10.5],[-61.7,12.1],[-50,15],[-40,25],[35.5,33.9],[35.3,37],[28.9,41],[11.6,48.1],[8.7,50.1],[13.4,52.5]]},"properties":{"from_the_map":"Hezbollah Latin America Route","_map_colour":"#BA7979"}},{"type":"Feature","geometry":{"type":"LineString","coordinates":[[3.4,6.5],[2.4,6.2],[1.2,6.1],[-0.2,5.6],[-4,5.3],[-5.3,6.8],[-8,7.5],[-13.2,8.5],[-13.7,9.5],[-14.6,10.7],[-15.6,11.9],[-16.3,12.3],[-16.5,13.5],[-17.4,14.7],[-16.5,15.6],[-16.5,16],[-16,18.1],[-17,20.9],[-15.9,23.7],[-13.2,27.2],[-12,28],[-9.6,30.4],[-8,31.6],[-7.6,33.6],[-6.8,33.9]]},"properties":{"from_the_map":"West African Coastal Route","_map_colour":"#45877F"}},{"type":"Feature","geometry":{"type":"LineString","coordinates":[[-74.1,4.7],[-72.5,7.9],[-66.9,10.5],[-70.2,11.7],[-69.9,12.5],[-68.3,15.4],[-72.3,18.5],[-69.9,18.5],[-66.1,18.5],[-75.8,20],[-82.4,23],[-81.5,24.5],[-80.2,25.8]]},"properties":{"from_the_map":"Andean-Caribbean Air Route","_map_colour":"#B36C73"}},{"type":"Feature","geometry":{"type":"LineString","coordinates":[[-103.3,20.7],[-104.9,21.5],[-107.4,24],[-100.3,25.7],[-98.2,26.1],[-99.5,27.5],[-100.5,28.7],[-100.9,29.4],[-106.4,31.8],[-108.5,31.3],[-110.9,31.3],[-114.8,32.5],[-117,32.5],[-116.2,33.7],[-118.2,34.1],[-112.1,33.4]]},"properties":{"from_the_map":"Mexico-US Southwest Border Route","_map_colour":"#BA7979"}},{"type":"Feature","geometry":{"type":"LineString","coordinates":[[121.5,31.2],[114.2,22.3],[120.9,14.6],[100.5,13.8],[103.8,1.3],[106.8,-6.2],[115,-8],[134.5,7.5],[144.8,13.4],[-155,19.3],[-157.8,21.3],[-145,15],[-120,10],[-99.9,16.8],[-99.1,19.4],[-100.3,25.7]]},"properties":{"from_the_map":"Fentanyl Precursor Route (China-Mexico)","_map_colour":"#BA7984"}},{"type":"Feature","geometry":{"type":"LineString","coordinates":[[69.2,34.5],[68,33],[65.7,31.6],[66.3,30.6],[66.9,30.2],[62.5,28],[64,26.5],[66,25],[67,24.9],[68.5,23],[68.5,22.5],[70,20],[72.8,18.9],[75,16],[80.3,13.1],[79.8,11],[78.1,9.9],[77.5,8.1],[80.7,7.9],[79.9,6.9],[80.2,6],[73.5,4.2],[73,1],[55.5,-4.7],[52.5,-7],[49,-10],[45.1,-12.3],[47,-15],[47.5,-18.9],[43.7,-23],[32.6,-25.9],[32.9,-27],[31,-29.9],[28,-32],[18.4,-33.9]]},"properties":{"from_the_map":"Indian Ocean Heroin Route","_map_colour":"#A85668"}},{"type":"Feature","geometry":{"type":"LineString","coordinates":[[36.3,33.5],[35.5,33.9],[33,34.7],[24,35.5],[14.5,35.9],[10.2,36.5],[15.1,37],[13.4,38.1],[14.3,40.9],[12.5,41.9],[23.7,37.9],[22.9,40.6],[28.9,41],[23.3,42.7],[20.5,44.8]]},"properties":{"from_the_map":"Eastern Mediterranean Route","_map_colour":"#7F80BD"}},{"type":"Feature","geometry":{"type":"LineString","coordinates":[[-46.6,-23.5],[-43.2,-22.9],[-35,-10],[-20,0],[-0.2,5.6],[3.4,6.5],[-17.4,14.7],[-16,28],[-6.3,36.7],[-9.1,38.7],[-8.4,43.5],[-4.5,48.4],[-1.3,50.7],[0,51.5],[4.1,51.9],[4.9,52.4],[10,53.6],[12.6,55.7],[18.1,59.3]]},"properties":{"from_the_map":"North Sea Maritime Route","_map_colour":"#44856F"}},{"type":"Feature","geometry":{"type":"LineString","coordinates":[[-77,-12],[-77.5,-10.5],[-79,-8],[-80.5,-6],[-80.4,-3.7],[-79.9,-2.2],[-80.5,-1],[-90.5,-0.9],[-91,0.5],[-91.5,2],[-92,4],[-90,8],[-89.2,13.7],[-91,14],[-92.2,14.6],[-95,16],[-99.9,16.9],[-103.5,18.5],[-99.1,19.4]]},"properties":{"from_the_map":"Trans-Pacific Maritime Route","_map_colour":"#B36C73"}},{"type":"Feature","geometry":{"type":"LineString","coordinates":[[-74.1,4.7],[-76.7,5.6],[-77.5,7.1],[-77.2,8.4],[-79.5,9],[-82.3,9.4],[-84.1,9.9],[-85.4,10.6],[-85.9,11],[-86.3,12.1],[-86.2,12.9],[-87.2,13.7],[-87.2,14.1],[-88,14.6],[-90.5,14.6],[-90.7,15.5],[-90.2,15.8],[-92.6,16.8],[-88.5,17.3],[-88.3,18.5],[-90.5,19.8],[-103.3,20.7]]},"properties":{"from_the_map":"Central American Land Corridor","_map_colour":"#BB7C86"}},{"type":"Feature","geometry":{"type":"LineString","coordinates":[[19.8,41.3],[19.5,41.3],[19.3,42.4],[21.2,42.7],[21.4,42],[22,42],[22.7,42.9],[20.5,44.8],[19.8,45.3],[19.7,46.1],[19.7,46.9],[19,47.5],[18.5,47.7],[17.1,48],[16.4,48.2],[14.3,48.3],[13,48.8],[13.4,49.2],[14.4,50.1],[14.2,50.7],[13.4,50.9],[12.4,51.3],[13.4,52.5]]},"properties":{"from_the_map":"Balkans-Germany Route","_map_colour":"#7F80BD"}},{"type":"Feature","geometry":{"type":"LineString","coordinates":[[37.6,55.8],[35.9,56.8],[34,58],[30.3,59.9],[28.8,60.4],[26.9,60.5],[24.9,60.2],[22.3,60.4],[19.5,60],[18.1,59.3],[17.6,59.8],[17.1,60.7],[17.3,62.4],[15,59],[12,57.7],[12.9,56.7],[12.6,55.7],[12.6,55.6],[10.4,55.4],[9,55],[7.2,54.3],[9.9,53.5],[7.3,52.5],[5.2,52.1],[4.9,52.4]]},"properties":{"from_the_map":"Arctic Route","_map_colour":"#7891B9"}},{"type":"Feature","geometry":{"type":"LineString","coordinates":[[51.4,35.7],[50,36.3],[49.6,37.3],[48.9,37.6],[48.6,38.4],[49.9,40.4],[46.4,40.7],[45,41.2],[44.8,41.7],[43.4,42.3],[41.6,42.7],[39.7,41],[44.5,40.2],[74.6,42.9],[76.9,43.2],[71.9,47],[71.4,51.2],[63.6,53.2],[61.4,55.2],[60.6,56.8],[56.3,58],[44,56.3],[37.6,55.8]]},"properties":{"from_the_map":"Middle East-Caucasus Route","_map_colour":"#A85668"}},{"type":"Feature","geometry":{"type":"LineString","coordinates":[[99.6,22.2],[100,20.3],[99,18.8],[100.3,16.8],[100.5,13.8],[99.9,12.5],[99.3,9.1],[98.4,7.9],[100.3,6.4],[100.3,5.4],[101,4.1],[101.7,3.1],[102.2,2.2],[103.8,1.3],[104,1],[103.9,-1.2],[104.8,-2.9],[106.8,-6.2],[110.4,-6.9],[112.7,-7.3],[115.2,-8.4],[116.3,-8.7],[120.3,-9.6],[123.6,-10.2]]},"properties":{"from_the_map":"Southeast Asian Maritime Route","_map_colour":"#9F7FBD"}},{"type":"Feature","geometry":{"type":"LineString","coordinates":[[67,24.9],[66,25],[63,24],[58.5,23.6],[59.5,22.5],[58,20],[49,15.6],[48,14.5],[47,13],[45,12],[43.1,11.6],[44,11],[45,10],[42,9],[40,5],[41,2],[36.8,-1.3],[39.7,-4],[39.3,-6.8],[40,-10],[40.5,-12.3],[40,-15]]},"properties":{"from_the_map":"Horn of Africa Route","_map_colour":"#45877F"}},{"type":"Feature","geometry":{"type":"LineString","coordinates":[[3.4,6.5],[1.2,6.1],[-0.2,5.6],[-4,5.3],[-5.3,6.8],[-13.2,8.5],[-13.7,9.5],[-15.6,11.9],[-16.2,12.5],[-16.3,13.5],[-17.4,14.7],[-16.5,16],[-16,18.1],[-17,20.9],[-15.9,23.7],[-13.2,27.2],[-16.5,28.3],[-13.6,29],[-8,31.6],[-7.6,33.6],[-5.3,35.9],[-2.5,36.8],[-1,37.4],[-0.5,38.3],[-0.4,39.5],[-3.7,40.4]]},"properties":{"from_the_map":"Canary Islands Route","_map_colour":"#45877F"}},{"type":"Feature","geometry":{"type":"LineString","coordinates":[[120.9,14.6],[120.6,15.5],[120.6,16.4],[120.4,17.6],[120.7,18.4],[121,19.5],[121.5,20.5],[121,22],[120.3,23.5],[120.7,24.1],[121.5,25],[122.5,25.8],[127.7,26.5],[127.7,26.2],[128.7,27.8],[130.8,30.4],[130.6,31.6],[130.4,33.6],[135.2,34.7],[139.7,35.7],[-66.9,10.5],[-64.7,10.6],[-61.5,10.4],[-61.5,10.7],[-59,8],[-55.2,5.8],[-52.3,4.9],[-50,2],[-40,-2],[-30,-5],[-20,-3],[-10,0],[-8,4],[-10.8,6.5],[-13.2,8.5],[-13.7,9.5],[-15.6,11.9],[-16.6,12.4],[-0.2,5.6],[1.2,6.1],[3.4,6.5],[-2,10],[-17.4,14.7],[-16,18.1],[-13.2,27.2],[-8,31.6],[-7.6,33.6],[-6.6,35.2],[-5.3,35.9],[-6,36.8],[-80.2,25.8],[-80,26.7],[-81.4,28.5],[-82.3,29.6],[-81.7,30.3],[-81.5,31.2],[-84.4,33.7],[-81,34],[-80.8,35.2],[-78.6,35.8],[-76.2,36.9],[-77.4,37.5],[-77,38.9],[-76.6,39.3],[-75.2,39.9],[-75.1,40],[-74,40.7],[-73.9,41.1],[-71.4,41.8],[-71.1,42.4],[-117.2,32.7]]},"properties":{"from_the_map":"Japan-Philippines Route","_map_colour":"#A95959"}},{"type":"Feature","geometry":{"type":"LineString","coordinates":[[-3.7,40.4]]},"properties":{"from_the_map":"European Distribution Network","_map_colour":"#8A71B6"}},{"type":"Feature","geometry":{"type":"LineString","coordinates":[[69.2,34.5],[64,35.5],[61.8,36.3],[58.4,37.6],[57.3,37.5],[58.4,37.9],[68.8,38.5],[66,39.6],[62.9,40],[50,40.4],[46.4,40.7],[45,41.2],[44.8,41.7],[43.4,42.3],[42.7,42.9],[69.6,42.5],[76.9,43.2],[69.6,42.3]]},"properties":{"from_the_map":"Trans-Caspian Route","_map_colour":"#A85668"}},{"type":"Feature","geometry":{"type":"LineString","coordinates":[[106.8,-6.2]]},"properties":{"from_the_map":"Indonesia-Australia Route","_map_colour":"#9F7FBD"}},{"type":"Feature","geometry":{"type":"LineString","coordinates":[[-71.1,42.4],[-79.4,43],[-79.4,43.7],[-73.6,45.5],[-71.2,46.8],[-71,48.4],[-97.1,49.9],[-104.6,50.4],[-114.1,51],[-113.5,53.5],[-123.1,49.3],[-122.8,49],[-123.4,48.4],[-122.3,47.6]]},"properties":{"from_the_map":"Canadian Border Smuggling Route","_map_colour":"#A95959"}},{"type":"Feature","geometry":{"type":"LineString","coordinates":[[-46.6,-23.5],[-43.2,-22.9],[-43.9,-19.9],[-38.5,-12.9],[-35.2,-8.8],[-35.2,-5.8],[-38.5,-3.7],[-35,0],[-30,2],[-25,4],[-4,5.3],[-0.2,5.6],[1.2,6.1],[2.6,6.5],[3.4,6.5],[-13.2,8.5],[-13.7,9.5],[-15.6,11.9],[-17.4,14.7],[-16,18.1],[-17,21.4],[-13.2,27.2],[-13.9,28.5],[-16.5,28.3],[-8,31.6],[-7.6,33.6],[-6.8,33.9],[-6.6,35.2],[-5.3,35.9],[-5.6,36.1],[-6.3,36.5],[-4.4,36.7],[-5.9,37.4],[-0.5,38.3],[-0.4,39.5],[2.2,41.4],[2.9,42.7],[5.4,43.3],[4.8,45.8],[2.3,48.9],[4.4,50.8],[4.9,52.4],[10,53.6],[13.4,52.5],[0.1,51.5]]},"properties":{"from_the_map":"Brazil-West Africa-Europe Cocaine Route","_map_colour":"#45877F"}},{"type":"Feature","geometry":{"type":"LineString","coordinates":[[-77,-12],[-75.5,-11],[-75,-10.2],[-74.6,-8.8],[-73.3,-7.5],[-73.2,-3.8],[-71.5,-3.1],[-69.9,-2.6],[-60,-3.1],[-58,-3.5],[-54.7,-2.6],[-52,-1.5],[-48.5,-1.5],[-51.1,0],[-60.7,2.8],[-60,4.1],[-61.4,5.8],[-58.2,6.8],[-55.2,5.8],[-52.3,4.9],[-54,2],[-50,0],[-46,-2],[-48.5,-1.4],[-44.3,-2.5],[-38.5,-3.7],[-35.2,-5.8],[-35.2,-8.8],[-38.5,-12.9],[-47.9,-15.8],[-43.9,-19.9],[-43.2,-22.9],[-46.6,-23.5],[-49.3,-25.4],[-48.8,-26.3],[-51.1,-29.7],[-50,-30],[-48,-32],[-56.2,-34.9],[-58.4,-34.6]]},"properties":{"from_the_map":"Amazon Basin Cocaine Route","_map_colour":"#B36C73"}},{"type":"Feature","geometry":{"type":"LineString","coordinates":[[69.2,34.5],[65.7,31.6],[66.9,30.2],[62.5,28],[66,25],[67,24.9],[66.5,23],[65,20],[60,16],[58.5,23.6],[55.4,25.3],[50,25],[45,24],[39.2,21.5],[39.2,15.6],[49,15.6],[45,12.8],[43.1,11.6],[42,4],[40,-4],[45,-15],[50,-20],[35,-25],[67,24.9],[55.4,25.3],[28.9,41],[16.4,48.2],[8.7,50.1],[4.9,52.4],[0.1,51.5],[-6.3,53.3],[-3.2,55.9],[-2.2,53.5],[1.3,52.6],[-2.6,51.4]]},"properties":{"from_the_map":"Pakistan Direct to Europe Route","_map_colour":"#A85668"}},{"type":"Feature","geometry":{"type":"LineString","coordinates":[[-74.1,4.7],[-77.1,3.9],[-78.1,2.9],[-78.8,1.2],[-79,-0.2],[-79.9,-2.2],[-80.4,-3],[-81.1,-4],[-81.3,-5.2],[-79,-8.1],[-77,-12],[-76.2,-13.5],[-75.2,-15.5],[-73.3,-16.4],[-70.3,-18],[-68.2,-16.5],[-75.1,-14.8],[-78,-10],[-81,-6],[-83,-2],[-85,0.9],[-87,1.5],[-88,3.5],[-90,5],[-95,8.7],[-96.8,9.9],[-98.2,12.1],[-100.5,14.8],[-99.9,16.9],[-104.3,18.9],[-105.2,20.7],[-106.4,22.9],[-107.5,24.1],[-109,25.8],[-110.9,27.9],[-111,29.1],[-113,31.3],[-115,32],[-117.1,32.5],[-118.3,33.8],[-122.4,37.8],[-124.2,40.8],[-124.2,43.4],[-122.7,45.5],[-122.3,47.6],[-123.4,48.4],[-123.1,49.3]]},"properties":{"from_the_map":"Colombia-Mexico Pacific Cocaine Super Route","_map_colour":"#BA7979"}},{"type":"Feature","geometry":{"type":"LineString","coordinates":[[69.2,34.5],[69.2,33.9],[68.4,33],[65.7,31.6],[64.4,31],[64.4,30.5],[66.9,30.2],[60.9,29.4],[60.6,29],[56.4,30.3],[54.4,31.9],[51.7,32.7],[48.5,33.7],[47.1,34.3],[44.4,33.3],[43.8,33],[41.1,32.5],[40.4,34.4],[38,35],[36.7,34.7],[36.3,33.5],[35.5,33.3],[35.5,33.9],[35.8,34.4],[36,34.6],[35.9,35.5],[36.2,36.2],[37.4,37],[38.3,37.9],[39.2,38.7],[39.9,39.7],[41,40.2],[44.8,41.7],[43.4,42.3],[41.7,42.7],[40.5,43],[39.9,43.4],[38,44.6],[39,45],[39.7,47.2],[35,48.5],[30.5,50.4],[21,52.2],[13.4,52.5]]},"properties":{"from_the_map":"Golden Crescent to Middle East Heroin Route","_map_colour":"#A85668"}},{"type":"Feature","geometry":{"type":"LineString","coordinates":[[99.8,20.8],[100.1,21.9],[99.6,22],[100.3,22.5],[100,20.3],[99.9,20],[99.8,20.4],[100.4,21],[101,21.2],[101.7,20.9],[101.6,21.5],[100.8,22],[102.7,23.4],[102.7,24.5],[102.7,25],[100.2,26.6],[102.3,27.8],[104.1,28.2],[106.5,29.6],[104.1,30.6],[103,31],[105.9,32.6],[108.9,34.3],[109.5,35.5],[112.6,37.5],[116.4,39.9],[121.6,38.9],[124.4,40],[123.4,41.8],[125.3,43.8],[126.6,45.8],[129,48],[135.1,48.5],[158.6,53],[150,60],[177.5,64.7],[-168,65],[-165.4,64.5],[-149.9,61.2],[-134.4,58.3],[-131.6,55.3],[-123.1,49.3]]},"properties":{"from_the_map":"Myanmar-China Mekong Heroin & Meth Route","_map_colour":"#BA7A9A"}},{"type":"Feature","geometry":{"type":"LineString","coordinates":[[-66.9,10.5],[-67,10.6],[-69.7,11.4],[-70.2,11.7],[-68.9,12],[-69.9,12.5],[-68.3,12.1],[-69,12.2],[-68.2,12.2],[-61,13.2],[-59.6,13.1],[-61,14],[-61,14.6],[-61.3,15.4],[-61.5,16.2],[-61.8,17.1],[-64.6,17.6],[-64.6,18.4],[-63,18],[-69.9,18.5],[-71.8,19.7],[-72.3,18.5],[-75.1,19.9],[-76.8,18],[-77,20],[-77.8,21.5],[-82.4,23.1],[-77.9,24.6],[-77.3,25],[-78.7,26.5],[-80.2,25.8],[-80,26.7],[-80.3,27.5],[-80.8,28.6],[-81.3,29.9],[-81.7,30.3],[-81.4,31],[-81.1,32.1],[-79.9,32.8],[-77.9,34],[-76.3,36.8],[-76.5,38.9],[-76.6,39.3],[-74,40.7]]},"properties":{"from_the_map":"Venezuela-Caribbean Island Network Route","_map_colour":"#B36C73"}},{"type":"Feature","geometry":{"type":"LineString","coordinates":[[67,24.9],[65,21],[60,17],[54,12],[54,12.5],[51,11.6],[51,9.5],[45.3,2],[41,-1.3],[39.7,-4],[39.2,-6.2],[39.3,-6.8],[39.3,-8.8],[40.3,-10.3],[40.4,-10.7],[40.5,-12.3],[40.7,-15],[36,-18.5],[35.5,-23],[32.6,-25.9],[32.9,-26.6],[32.7,-27.8],[31,-29.9],[30,-31],[27.9,-33],[25.5,-33.9],[23,-34],[20,-34.4],[18.4,-34],[18.4,-33.9],[17,-32],[16.5,-29.1],[16.5,-28.6],[15.2,-26.6],[14.5,-22.6],[13,-20],[13.3,-12.4],[13.2,-8.8],[12,-5],[11.8,-4.3],[9.4,0],[6.7,0.4],[9.7,4]]},"properties":{"from_the_map":"East African Coastal Heroin Route","_map_colour":"#45877F"}},{"type":"Feature","geometry":{"type":"LineString","coordinates":[[-46.6,-23.5],[-4.4,36.7],[-3.6,37.2],[-0.5,38.3],[-0.4,39.5],[2.2,41.4],[3,42.7],[5.4,43.3],[6.1,43.1],[7.4,43.7],[7.8,43.8],[8.9,44.1],[10.3,43.5],[12.5,41.9],[14.3,40.8],[13.4,38.1],[14.3,37.5],[15.1,37],[15.6,38.2],[16.6,39.6],[17.9,40.4],[18.2,40.6],[18,40.4],[19.5,40],[19.8,41.3],[19.9,39.6],[20.7,38.4],[23.7,37.9],[24,35.5],[33,34.7],[33.3,36.2],[33.6,34.9],[35.5,33.9],[35.8,34.4],[36,34.7],[35.9,35.5],[36.2,36.7],[35.3,36.9],[31,36.5],[27.4,37],[27.3,37.9],[26.4,40.2],[28.9,41],[28.8,40.9],[29.1,40.9]]},"properties":{"from_the_map":"Mediterranean Complete Circuit Route","_map_colour":"#7891B9"}},{"type":"Feature","geometry":{"type":"LineString","coordinates":[[-68.2,-16.5],[-67.1,-17.8],[-65.3,-18.9],[-65.8,-19.6],[-66.2,-22.1],[-68.9,-22.5],[-65.4,-23.7],[-65.4,-24.8],[-65,-25.3],[-65.2,-26.8],[-64.3,-27.5],[-65.8,-28.5],[-66.8,-29.4],[-68.5,-31.5],[-68.8,-32.9],[-70.7,-33],[-70.7,-33.4],[-71.5,-32.9],[-58.4,-34.6],[-56.2,-34.9],[-52.1,-32],[-51.1,-29.7],[-48.8,-26.3],[-49.3,-25.4],[-46.6,-23.5],[-43.2,-22.9],[-43.3,-21.8],[-43.9,-19.9],[-47.9,-15.8],[-38.5,-12.9],[-35.2,-8.8],[-35.2,-5.8],[-38.5,-3.7],[-35,0],[-0.2,5.6],[3.4,6.5],[-17.4,14.7],[-7.6,33.6],[-4.4,36.7],[2.2,41.4],[5.4,43.3]]},"properties":{"from_the_map":"Bolivia-Argentina Andes Cocaine Route","_map_colour":"#B36C73"}},{"type":"Feature","geometry":{"type":"LineString","coordinates":[[3.4,6.5],[3.5,6.6],[-17.4,14.7],[-16.5,28.3],[-4.4,36.7],[3.4,6.5],[55.4,25.3],[4.9,52.4],[3.4,6.5],[31.4,30.1],[28.9,41],[16.4,48.2],[8.7,50.1],[3.4,6.5],[-6.8,33.9],[2.3,48.9],[3.4,6.5],[-4,5.3],[0.1,51.5],[3.4,6.5],[-17.4,14.7],[4.4,50.8],[3.4,6.5],[-13.2,8.5],[-9.1,38.7],[3.4,6.5],[31.4,30.1],[12.5,41.9],[3.4,6.5],[1,6],[-17.4,14.7],[-16,18.1],[-16.5,28.3],[-5.3,35.9]]},"properties":{"from_the_map":"Nigeria Multiple Europe Routes","_map_colour":"#45877F"}},{"type":"Feature","geometry":{"type":"LineString","coordinates":[[3.4,6.5],[7.4,9.1],[8.5,11.9],[8.5,12],[5.3,13],[15,12.1],[18,12.6],[19,15.5],[8,16.9],[7,18],[5,20],[5.5,22.8],[9.5,24.5],[8,27],[-8.7,28],[-2.9,30.4],[-8,31.6],[-7.6,33.6],[-5.3,35.9],[-5.6,36.1],[8,16.9],[12,18.5],[13,22],[17,25],[14.3,27],[18,30],[13.2,32.9],[21.9,32.9],[29.9,31.2],[31.4,30.1],[34.3,31.2],[35.2,31.8],[35.5,33.9]]},"properties":{"from_the_map":"Trans-Sahel Jihadi-Drug Corridor","_map_colour":"#BB7C86"}},{"type":"Feature","geometry":{"type":"LineString","coordinates":[[69.2,34.5],[67.1,36.7],[68.8,37.2],[65.8,38.9],[64.4,39.7],[69.3,41.3],[72.8,40.5],[72.2,40.5],[74.6,42.9],[75,42.9],[77,43],[76.9,43.2],[65,47],[71.4,51.2],[76.9,52.3],[83.8,53.3],[82.9,55],[92.9,56],[104.3,52.3],[113.5,52],[127.5,50],[135.1,48.5],[131.9,43.1],[69.3,41.3],[57.3,39.8],[58.4,37.9],[51.4,35.7],[46.3,38.1],[44,40.4],[44.8,41.7],[41.6,43.6],[39,45],[39.7,47.2],[35,48.5],[30.5,50.4],[21,52.2],[13.4,52.5],[4.9,52.4]]},"properties":{"from_the_map":"Central Asian Silk Road Modern Route","_map_colour":"#9F7FBD"}},{"type":"Feature","geometry":{"type":"LineString","coordinates":[[106.8,-6.2],[107.6,-6.9],[112.7,-7.3],[115.2,-8.7],[116.1,-8.6],[119.9,-8.5],[125.6,-8.4],[128.2,-7.5],[119.4,-5.1],[124.8,-1.5],[124.8,1.5],[121,5.9],[125.6,7.1],[123.3,9.3],[123.9,10.3],[125,11.2],[124,12.6],[123.4,13.4],[121,14.6],[119.9,15.5],[120.6,16.4],[120.6,18.2],[121,19.3],[120.8,21.9],[121.5,25],[120,26],[121,28.2],[122,30.2],[121.5,31.2],[118.8,32],[117.2,34.3],[120.4,36.1],[121.6,38.9],[119.6,39.9],[116.4,39.9],[111.7,40.8],[87.6,43.8],[82,45],[76.9,43.2]]},"properties":{"from_the_map":"Indonesia-Philippines-China Sea Route","_map_colour":"#BA7A9A"}},{"type":"Feature","geometry":{"type":"LineString","coordinates":[[139.7,35.7],[139,36.2],[135.5,34.7],[132.5,34.4],[130.4,33.6],[129.7,33.3],[129,35.1],[129.3,35.5],[129.4,36],[126.9,37.5],[126.6,37.5],[124.6,37.8],[124.4,38],[116.4,39.9],[111.7,40.8],[118.8,42.3],[125.3,43.8],[126.6,45.8],[130,47.4],[134.8,48],[135.1,48.5],[136.9,49.6],[137,50.5],[127,52],[124,53],[124,55],[124,56.8],[120.8,60.6],[129.7,62],[143,64.5],[177.5,64.7],[-168,65],[-165.4,64.5],[-149.9,61.2],[-134.4,58.3],[-131.6,55.3],[-123.1,49.3]]},"properties":{"from_the_map":"Japan-Korea-China Triangle Route","_map_colour":"#BA7984"}},{"type":"Feature","geometry":{"type":"LineString","coordinates":[[28.9,41],[29,41],[28.2,41.7],[27.5,42.5],[27.7,42.7],[27.9,43.2],[28.6,44.2],[29.7,45.4],[30.7,46.5],[31.3,46.6],[32,46.9],[33.5,45.4],[34,45],[33.5,44.6],[37.8,44.7],[39.7,43.6],[40,43],[41.6,42.3],[41.7,42.5],[41.6,41.6],[40,41],[39.9,40.9],[36.3,41.3],[32.6,41.2],[29,41],[28.6,44.2],[26.1,44.4],[20.5,44.8],[16,45.8],[15.6,46.5],[14.5,46.1],[13.7,45.5],[10.4,45.4],[9.2,45.5]]},"properties":{"from_the_map":"Black Sea Network Route","_map_colour":"#7F80BD"}},{"type":"Feature","geometry":{"type":"LineString","coordinates":[[30.3,59.9],[29.7,60.2],[28.8,60.5],[25,60.2],[24.6,60.4],[24.8,59.4],[24.6,59.4],[24.1,57.5],[24.1,57],[21,56.5],[21.1,55.7],[20.5,54.7],[18.5,54.5],[18.7,54.4],[14.3,54.8],[13.4,54.1],[14.2,53.9],[13.1,54.1],[10.1,54.3],[10,53.6],[9.9,53.5],[12.6,55.7],[12.9,56.2],[12.8,56.7],[11.9,57.7],[11.8,58.4],[10.8,59.9],[5.3,60.4],[5.7,59.1],[6.7,58.1],[5,56.5],[12.6,55.7],[13,55.6],[18.1,59.3]]},"properties":{"from_the_map":"Baltic Sea Smuggling Route","_map_colour":"#44856F"}},{"type":"Feature","geometry":{"type":"LineString","coordinates":[[40.5,64.5],[32.9,67.9],[30,69.7],[23.3,69.7],[20,70],[16,69.3],[17.4,68.4],[20.2,67.9],[25.7,66.5],[25.5,65],[27,64],[29.1,63.8],[30.5,61.5],[34.3,61.8],[40.5,64.5],[32.9,67.9],[31,70],[25.8,71],[15.6,78.2],[-20,74],[-18,66],[-21.9,64.1],[-18.1,65.7],[-51,69],[-51.7,64.2],[-53,71],[-68.7,76.5],[-72,78],[-94.8,74.7],[-133,69.4],[-139.4,64],[-149.9,61.2]]},"properties":{"from_the_map":"Arctic Heroin & Cocaine Route","_map_colour":"#548AA3"}},{"type":"Feature","geometry":{"type":"LineString","coordinates":[[-77,-12],[-77,-9.5],[-76.2,-8.4],[-76.4,-7.3],[-76.4,-6.5],[-77,-6],[-78.5,-5.2],[-79.2,-4],[-79.9,-3.3],[-78.9,-2.9],[-79.9,-2.2],[-79.5,-1],[-78.5,-0.2],[-77.9,0.8],[-77.3,1.2],[-76.6,2.4],[-76.5,3.4],[-77.1,3.9],[-76.2,4.4],[-75.7,4.8],[-75.5,5.1],[-75.3,4.7],[-75.5,5.1],[-75.6,6.3],[-73.1,7],[-72.5,7.9],[-75.9,8.8],[-75.4,9.3],[-75.5,10.4],[-74.8,11],[-72.9,11.5],[-73.2,10.5],[-74.2,11.2]]},"properties":{"from_the_map":"Peru-Colombia Internal Land Route","_map_colour":"#B36C73"}},{"type":"Feature","geometry":{"type":"LineString","coordinates":[[-70.7,-33.4],[-71.5,-32.8],[-71.6,-30.6],[-71.3,-29.9],[-70.9,-27.4],[-70.5,-25.4],[-70.4,-23.7],[-68.9,-22.5],[-70.1,-20.2],[-70.3,-18.5],[-70.2,-18],[-71.5,-17.2],[-73.3,-16.4],[-75.2,-15.5],[-76.2,-13.5],[-77,-12],[-77.6,-11.1],[-78.6,-9.5],[-79,-8.1],[-79.8,-7.2],[-79.8,-6.8],[-81,-5.2],[-81.2,-4.6],[-80.9,-3.2],[-80.4,-3.5],[-79.9,-2.9],[-79.9,-2.2],[-80.7,-1],[-79.5,-0.2],[-79,1.2],[-78.8,1.8],[-78.1,3],[-77.1,3.9],[-6.6,35.2],[-6,35.5],[-5.3,35.9],[-5.4,35.6],[-2.9,35.2],[-2.9,35.3],[-3.8,36.7],[-5.8,35.8],[-5.6,36],[-5.5,36],[-6.3,36.5],[-5.3,35.9],[-5.3,35.9],[-5.4,36.1],[-7.6,33.6],[-8,31.6],[-10,29.3],[-11,28],[-13,27.9],[-13.9,28.5],[-16.5,28.3],[-16.6,28.1],[-13.6,29],[-2.9,35.2],[0.1,35.9],[3.1,36.8],[5.4,36.8],[8,37],[10.2,36.8],[10,37.3],[12.6,37.5],[13.4,38.1],[15.3,37.9],[15.6,38.2]]},"properties":{"from_the_map":"Chile-Peru Pacific Coastal Cocaine Route","_map_colour":"#BB7C86"}},{"type":"Feature","geometry":{"type":"LineString","coordinates":[[13.2,32.9],[21.9,32.9],[23.3,32.1],[22.6,32.8],[21.9,32.9],[21,33.5],[18,34.5],[14.5,35.9],[14.2,36.5],[12,36.8],[14.2,37.1],[14.3,37.5],[13.4,38.1],[12.5,37.8],[13.2,32.9],[15,32],[13,33.5],[12.6,35.5],[12,36.6],[14.5,37],[23.3,32.1],[25,32.9],[26,33.5],[24,34.5],[25.1,35.3],[24,35.5],[23.7,37.9],[14.4,27],[16,28],[18,30],[16.6,31.2],[15.1,32.4],[13.2,32.9]]},"properties":{"from_the_map":"Libya-Italy Mediterranean Routes","_map_colour":"#A95959"}},{"type":"Feature","geometry":{"type":"LineString","coordinates":[[28.9,41],[26.6,41.7],[24.7,42.1],[23.3,42.7],[27.9,43.2],[28.6,44.2],[26.1,44.4],[20.5,44.8],[24.7,42.1],[23.7,41.6],[24.9,41.1],[25.9,40.8],[22.9,40.6],[22.4,39.6],[21.7,38.2],[23.7,37.9],[23.3,42.7],[21.4,42],[19.8,41.3],[19.5,40],[19.9,39.6],[23.3,42.7],[21.2,42.7],[19.3,42.4],[19.8,41.3],[26.6,41.7],[26.4,41],[26.6,40.8],[25.4,41.1],[24.4,40.8],[22.9,40.6]]},"properties":{"from_the_map":"Turkey-Bulgaria-Greece Balkan Routes","_map_colour":"#9F7FBD"}},{"type":"Feature","geometry":{"type":"LineString","coordinates":[[67.1,36.7],[68.8,37.1],[68.8,37.5],[69,37.8],[68.8,38.6],[70.8,39],[73.2,39.5],[73,39.7],[72.8,40.5],[71.4,41],[74.6,42.9],[77,43],[76.9,43.2],[76.9,43.2],[80,44],[78,45],[65,47],[67,48],[71.4,51.2],[76.9,52.3],[83.8,53.3],[86.1,54],[82.9,55],[92.9,56],[92.9,58],[89,61],[100,64],[112,66],[177.5,64.7],[-168,65],[-165.4,64.5],[-149.9,61.2]]},"properties":{"from_the_map":"Afghanistan-Tajikistan-Kyrgyzstan Route","_map_colour":"#A85668"}},{"type":"Feature","geometry":{"type":"LineString","coordinates":[[98.4,7.9],[100.2,6.4],[102.2,6.1],[100.3,6.4],[100.3,5.4],[100.6,4.2],[101.7,3.1],[101.9,2.7],[102.6,2],[103.8,1.4],[104,1],[104,0.5],[103.9,-1.2],[106.1,-3.3],[105.3,-5.4],[106.8,-6.2],[108.2,-7.3],[112.7,-7.3],[113.7,-8.1],[115.2,-8.7],[119.9,-8.5],[125.6,-8.4],[123.6,-9.5],[123.6,-10.2],[125.5,-8.5],[121.6,-8.8],[119.4,-5.1],[124.8,-1.5],[124.8,1.5],[121,5.9],[125.6,7.1]]},"properties":{"from_the_map":"Thailand-Malaysia-Indonesia Maritime Network","_map_colour":"#BA7A9A"}},{"type":"Feature","geometry":{"type":"LineString","coordinates":[[105.8,21],[106.4,20.5],[107.6,16.5],[108.2,16],[108.7,15],[108.1,14],[109.3,13.1],[109.2,12.2],[109.2,11.9],[106.6,10.8],[107,10.4],[105.8,10],[105.8,9.5],[104.9,10],[104.2,10.6],[104.9,11.6],[104.9,12.1],[103.9,13.1],[102.6,13.6],[102.1,14],[100.6,14.4],[100.5,13.8],[100.5,13.7],[99.9,12.6],[99.3,9.1],[99.9,8.5],[98.4,7.9],[100.5,7],[101.8,6.4],[102.2,6.1],[100.3,6.4],[101.7,3.1]]},"properties":{"from_the_map":"Vietnam-Cambodia-Thailand Mekong Route","_map_colour":"#9F7FBD"}},{"type":"Feature","geometry":{"type":"LineString","coordinates":[[72.8,18.9],[72.9,19.1],[73.9,18.5],[78.5,17.4],[80.3,13.1],[77.6,12.9],[76.9,11],[76.3,10],[78.1,9.9],[76.9,8.5],[78.2,11.7],[79.4,13.6],[78,15.8],[80.6,16.5],[83.3,17.7],[85.8,20.3],[88.4,22.6],[90.4,23.8],[85.1,25.6],[81,26.8],[77.1,28.7],[76.7,30.7],[74.9,31.6],[75.8,26.9],[72.6,23],[72.8,21.2],[72.9,19.1],[74.9,31.6],[74.5,31.6],[74.3,31.5],[73.1,33.7],[71.5,34],[71.6,34],[69.2,34.5]]},"properties":{"from_the_map":"India Internal Distribution Routes","_map_colour":"#A95761"}},{"type":"Feature","geometry":{"type":"LineString","coordinates":[[90.4,23.8],[91.8,22.5],[92,21.4],[92.3,20.8],[92.9,20.1],[93.1,19.8],[94.7,20.8],[96.1,21.9],[96.5,22],[95.9,21.9],[99.6,22.2],[100.4,21],[100,20.3],[99.8,19.9],[99,20.5],[98.9,18.8],[100,17.4],[100.3,16.8],[100.1,15.7],[100.5,13.8],[99.6,22.2],[97.4,23.9],[96.1,24.1],[93.9,24.8],[93,25.6],[92.9,26.2],[92,26.2],[91.9,25.6],[91.4,25.5],[91.9,24.9],[90.4,23.8]]},"properties":{"from_the_map":"Bangladesh-Myanmar-India Triangle Route","_map_colour":"#BA7A9A"}},{"type":"Feature","geometry":{"type":"LineString","coordinates":[[47.9,29.4],[48.4,28.4],[49.6,27],[50.6,26.2],[55.4,25.3],[54.4,24.5],[55.8,24.2],[58.5,23.6],[59.5,22.6],[54.1,17],[49,15.6],[44.2,15.4],[49,14.5],[45,12.8],[42.5,13],[43.1,11.6],[42.8,11.6],[39.2,15.6],[39.2,15.6],[39.2,21.5],[46.7,24.7],[50.1,26.4],[49.6,25.4],[51.5,25.3],[50.6,26.2],[49.6,27],[47.9,29.4]]},"properties":{"from_the_map":"Gulf States Internal Network Route","_map_colour":"#A95761"}},{"type":"Feature","geometry":{"type":"LineString","coordinates":[[-74.1,4.7],[-74.3,4.6],[-74.1,4.4],[-73.6,4.1],[-76.5,3.4],[-77.1,3.9],[-76.6,2.4],[-77.3,1.2],[-75.6,6.3],[-75.4,6.2],[-75.5,6],[-75.7,5.5],[-75.5,5.1],[-75.7,4.8],[-75.7,4.5],[-73.1,7],[-72.5,7.9],[-75.9,8.8],[-75.5,10.4],[-74.8,11],[-73.2,10.5],[-75.4,9.3],[-75.9,8.7],[-76.6,7.9],[-76.7,5.8],[-74.1,4.7]]},"properties":{"from_the_map":"Colombia Internal Distribution Network","_map_colour":"#A95959"}},{"type":"Feature","geometry":{"type":"LineString","coordinates":[[-54.6,-25.5],[-54.4,-25.4],[-54.5,-25.7],[-54.7,-25.5],[-57.6,-25.3],[-55.9,-27.4],[-58.9,-27.4],[-59.1,-27.5],[-57.5,-24.8],[-57.7,-23],[-55.7,-22.5],[-54.6,-20.4],[-54,-19.9],[-46.6,-23.5],[-43.2,-22.9],[-47.9,-15.8],[-49.3,-25.4],[-48.8,-26.3],[-51.1,-29.7],[-52.1,-32],[-58.4,-34.6],[-64.2,-31.4],[-68.8,-32.9],[-54.6,-25.5]]},"properties":{"from_the_map":"Triple Frontier (Brazil-Paraguay-Argentina) Drug Corridor","_map_colour":"#BA7979"}},{"type":"Feature","geometry":{"type":"LineString","coordinates":[[-77,-12],[-76.5,-11.5],[-75.5,-11],[-75,-10.5],[-76,-9.5],[-76.2,-8.4],[-76.4,-7.3],[-76.4,-6.5],[-77.5,-5.5],[-73.4,-4.2],[-73.2,-3.8],[-70,-11],[-69.2,-12.6],[-69,-13.5],[-69.2,-14.8],[-68.2,-16.5],[-66.2,-17.4],[-67.8,-16.3],[-64.9,-14.8],[-64,-13],[-65,-11],[-68.8,-10.8],[-70.5,-9],[-67.8,-8.8],[-77,-12]]},"properties":{"from_the_map":"Peru-Bolivia Coca Cultivation and Processing Route","_map_colour":"#A95761"}},{"type":"Feature","geometry":{"type":"LineString","coordinates":[[3.4,6.5],[3.5,6.6],[3.5,6.4],[3.2,6.7],[2.6,6.5],[3.9,7.4],[4.5,7.9],[4.5,8.5],[7.4,9.1],[7.4,10.5],[7.7,11],[8.5,12],[5.3,13],[13.2,11.9],[4.8,11.5],[8.5,9.5],[8.5,7.7],[5.6,6.2],[7.4,5.1],[6,5],[5.5,5.6],[5.2,7],[4.6,7.4],[3.4,7.4],[3.4,6.5]]},"properties":{"from_the_map":"Nigeria Internal Drug Distribution Network","_map_colour":"#45877F"}},{"type":"Feature","geometry":{"type":"LineString","coordinates":[[39.7,-4],[40.1,-3.2],[40.1,-2.3],[40,-1.3],[36.8,-1.3],[36.1,-0.4],[35.3,0.3],[34.8,0.5],[34.8,1],[32.6,0.3],[32.5,1.4],[32.3,2.8],[31.6,3],[32.6,0.3],[32.5,-0.9],[31.5,-1],[29.9,-1.3],[30.1,-1.9],[29,-2.5],[28.9,-2.3],[29.2,-1.7],[31,-1],[36.8,-1.3],[36.8,-2.9],[36.7,-3.4],[39.1,-5.1],[39.3,-6.8],[39.3,-8],[40.3,-10.3],[39.7,-4]]},"properties":{"from_the_map":"Kenya-Tanzania-Uganda East African Corridor","_map_colour":"#A85668"}},{"type":"Feature","geometry":{"type":"LineString","coordinates":[[121.5,31.2],[118.8,32],[117.2,34.3],[120.4,36.1],[121.6,38.9],[116.4,39.9],[111.7,40.8],[125.3,43.8],[126.6,45.8],[116.4,39.9],[114.5,38],[113.6,34.8],[114.3,30.6],[112.9,28.2],[113.3,23.1],[114.2,22.3],[116.4,23.5],[118.1,24.5],[119.3,26],[115.9,28.7],[115.9,29.6],[120.2,30.3],[121.5,31.2],[106.5,29.6],[104.1,30.6],[101.8,36.6],[87.6,43.8],[116.4,39.9]]},"properties":{"from_the_map":"China Internal Synthetic Drug Distribution Network","_map_colour":"#BA7A9A"}},{"type":"Feature","geometry":{"type":"LineString","coordinates":[[77.1,28.7],[77.2,28.6],[77.7,28.9],[78,29.2],[78.2,29.9],[78,30.3],[79.4,30.7],[79.5,29.4],[80.2,30],[83.9,28.2],[85.3,27.7],[86.7,27.4],[88.6,27.1],[88.4,26.8],[89.6,27.5],[89.6,27.5],[91.8,27.2],[92.9,26.2],[91.8,26.1],[85.1,25.6],[81,26.8],[78,27.2],[77.1,28.7]]},"properties":{"from_the_map":"India-Nepal-Bhutan Himalayan Drug Route","_map_colour":"#9F7FBD"}},{"type":"Feature","geometry":{"type":"LineString","coordinates":[[-79.9,-2.2],[-79.5,-1],[-79.6,-0.7],[-78.5,-0.2],[-77.9,0.8],[-77.3,1.2],[-78.8,1.8],[-78,2.5],[-78.1,3],[-77.1,3.9],[-76.2,4.4],[-76.5,3.4],[-76.6,2.4],[-77,1.6],[-78.6,1.2],[-79,0.9],[-78.5,0],[-78.5,-0.2],[-78.5,-1],[-78.8,-1.7],[-78.9,-2.9],[-79.9,-2.2]]},"properties":{"from_the_map":"Ecuador-Colombia Pacific Border Cocaine Route","_map_colour":"#A95959"}},{"type":"Feature","geometry":{"type":"LineString","coordinates":[[121,14.6],[120.9,14.5],[121,14.2],[121.6,14.1],[120.6,15.5],[119.9,15.5],[120.6,16.4],[120.4,17.6],[121.8,16.9],[120.3,16],[121,15.5],[123.4,13.4],[123.7,12.5],[125,11.2],[122.6,10.7],[123.9,10.3],[123.3,9.3],[124.6,8.5],[125.6,7.1],[126,7.4],[122.1,6.9],[121.1,6.1],[121,5.9],[123.9,7.9],[123.8,9.5],[122.6,10.7],[122.4,11.6],[121.5,13],[121,14.6],[106.8,-6.2],[107.6,-6.9],[112.7,-7.3],[110.4,-7.8],[110.4,-6.9],[115.2,-8.7],[116.1,-8.6],[119.9,-8.5],[119.9,-8.5],[123.6,-10.2],[119.4,-5.1],[124.8,-1.5],[117.2,-0.5],[113.9,-2.2],[114.6,-3.3],[117.1,1.6],[101.4,0.5],[100.4,-0.9],[106.1,-2.3],[105.3,-5.4],[106.8,-6.2]]},"properties":{"from_the_map":"Philippines Internal Island Drug Network","_map_colour":"#9F7FBD"}},{"type":"Feature","geometry":{"type":"LineString","coordinates":[[99.9,20],[100.4,20.3],[99.8,20.4],[101.7,20.9],[100.8,20.1],[102.1,19.9],[102.6,18],[104.8,17.4],[105.8,16.7],[107.8,16],[106.6,17.5],[107.6,16.5],[108.3,15.9],[109,14.4],[109.2,13.8],[109.2,12.2],[109.2,11.9],[106.6,10.8],[100.5,13.8],[100.1,15.9],[99,18.8],[99.9,20],[-5.3,35.9],[-4,35],[-5,34],[-7.6,33.6],[-8,31.6],[-9.6,30.4],[-10,29.4],[-2,35],[0.6,35.7],[3,36.8],[6.6,36.4],[7.8,36.9],[8,36.9],[8,27],[3,30],[0,32],[-2,34],[-5.3,35.9]]},"properties":{"from_the_map":"Thailand-Laos-Vietnam Border Meth Corridor","_map_colour":"#A95761"}},{"type":"Feature","geometry":{"type":"LineString","coordinates":[[18.4,-33.9],[18.6,-34],[18.9,-33.7],[19.4,-33.3],[18,-32.9],[28,-32],[31,-29.9],[30.9,-29.8],[29.1,-28],[28,-26.2],[28.2,-25.7],[29.5,-23.9],[30.4,-22.6],[31,-25],[32,-26],[30.5,-25.5],[27.1,-26.7],[28,-26.2],[24.7,-28.8],[26.2,-29.1],[27.9,-33],[18.4,-33.9]]},"properties":{"from_the_map":"South Africa Internal Drug Distribution Network","_map_colour":"#45877F"}},{"type":"Feature","geometry":{"type":"LineString","coordinates":[[151.2,-33.9],[151.1,-34],[150.9,-33.7],[151.8,-32.9],[153.1,-30.3],[153.6,-28.6],[153,-27.5],[153.1,-26.7],[152.8,-25.3],[151.3,-23.9],[149.2,-21.1],[146.8,-19.3],[145.8,-16.9],[153,-27.5],[153.4,-28],[152.9,-30.5],[152.9,-31.4],[151.2,-33.9],[149.1,-35.3],[144.9,-37.8],[144.3,-38.1],[143.8,-37.5],[146.9,-36],[147.4,-35.1],[150.9,-34.9],[151.2,-33.9]]},"properties":{"from_the_map":"Australia East Coast Drug Distribution Route","_map_colour":"#44856F"}},{"type":"Feature","geometry":{"type":"LineString","coordinates":[[-79.5,9],[-79.9,9.4],[-79.4,9.6],[-82.3,9.2],[-83,10],[-83.7,10.3],[-83.8,11],[-83.4,11.9],[-83.7,12.8],[-83.4,14],[-83.8,15.2],[-86,15.8],[-87.9,15.9],[-88.2,16.5],[-88.2,17.5],[-88.3,18.5],[-87.4,19.8],[-86.8,21.2],[-88.3,18.5],[-88.2,16.5],[-86,15.8],[-83.4,14],[-83.7,12],[-83.7,10.3],[-79.4,9.6]]},"properties":{"from_the_map":"Central America Caribbean Coast Cocaine Route","_map_colour":"#B36C73"}},{"type":"Feature","geometry":{"type":"LineString","coordinates":[[-60,-3.1],[-58,-3.1],[-56.7,-2.6],[-54.7,-2.6],[-52,-1.5],[-48.5,-1.4],[-51.1,0],[-60.7,2.8],[-60,4.1],[-61,3.1],[-62,1],[-62,-1],[-62,-2],[-60,-3.1],[-63,-4],[-71.5,-3.1],[-73.2,-3.8],[-73.4,-4.2],[-72,-7.2],[-74.6,-8.8],[-70.5,-9],[-67.8,-10],[-63.9,-8.8],[-61.4,-5.8],[-60,-3.1]]},"properties":{"from_the_map":"Brazil Amazon River Cocaine and Precursor Route","_map_colour":"#4A8690"}},{"type":"Feature","geometry":{"type":"LineString","coordinates":[[135.1,48.5],[134.8,48],[133,45],[131.9,43.1],[132.9,42.8],[133.1,42.7],[134,42],[140.7,41.8],[144.4,42.9],[141.3,43.1],[140.7,41.8],[140.7,40.8],[141,38.3],[139.7,35.7],[135.5,34.7],[130.4,33.6],[129.3,35.5],[126.9,37.5],[128.6,38],[128,40],[130,42],[131.9,43.1],[135.1,48.5]]},"properties":{"from_the_map":"Russia Far East to Japan Sea Route","_map_colour":"#7F80BD"}},{"type":"Feature","geometry":{"type":"LineString","coordinates":[[55.4,25.3],[54.4,24.5],[58.5,23.6],[58.2,20.4],[54.5,15.4],[45,12.8],[43.1,11.6],[42,11],[42,9],[41,2],[36.8,-1.3],[39.7,-4],[39.3,-6.8],[40.3,-10.3],[45.1,-12.3],[47.5,-18.9],[57.5,-20],[55.5,-4.7],[73.5,4.2],[72.8,18.9],[68.5,23],[55.4,25.3]]},"properties":{"from_the_map":"UAE-East Africa Heroin and Ivory Route","_map_colour":"#A95761"}},{"type":"Feature","geometry":{"type":"LineString","coordinates":[[28.9,41],[32.9,39.9],[27.1,38.4],[35.3,37],[40.2,37.9],[39.9,38.4],[41.2,39.7],[44,39.9],[44,39],[46.3,38.1],[45,37.5],[44,36.2],[44,36.2],[45.4,35.5],[46,35],[47,34.3],[45.4,35.5],[44,36.2],[42.5,37.1],[42.1,37.5],[40.9,38.4],[40.2,37.9],[32.9,39.9],[28.9,41]]},"properties":{"from_the_map":"Turkey-Iran-Iraq Kurdish Triangle Heroin Route","_map_colour":"#A85668"}},{"type":"Feature","geometry":{"type":"LineString","coordinates":[[-103.3,20.7],[-101.7,21.1],[-100.4,20.6],[-99.1,19.4],[-98.2,19],[-96.1,19],[-95.2,18.5],[-94.4,18.1],[-92.9,18.5],[-90.5,19.8],[-89.6,20],[-86.8,21.2],[-88,19.6],[-88.3,18.5],[-97.5,20.5],[-97.9,22.2],[-97.9,23.2],[-97.4,25.7],[-98.2,26.1],[-100.3,25.7],[-100.9,22.1],[-103.3,20.7]]},"properties":{"from_the_map":"Mexico Gulf Coast Cocaine and Meth Route","_map_colour":"#A95959"}},{"type":"Feature","geometry":{"type":"LineString","coordinates":[[-58.4,-34.6],[-57.9,-34.9],[-57.8,-35.7],[-60.7,-32.9],[-64.2,-31.4],[-65.8,-28.5],[-66.8,-29.4],[-68.5,-31.5],[-68.8,-32.8],[-70.7,-33],[-70.7,-33.4],[-71.5,-32.8],[-70.8,-34.2],[-71.7,-35.4],[-73,-36.8],[-72,-38],[-73.2,-39.8],[-73,-41.5],[-71,-38],[-68.1,-38.9],[-71.3,-41.1],[-65,-40],[-62.3,-38.7],[-58.4,-34.6]]},"properties":{"from_the_map":"Argentina-Chile Andes Crossing Cocaine Route","_map_colour":"#BA7979"}},{"type":"Feature","geometry":{"type":"LineString","coordinates":[[9.2,45.5],[10.4,45.4],[7.7,45.1],[8.9,44.4],[11.3,44.5],[11.2,43.8],[10.3,43.5],[10.4,43.7],[14.2,42.5],[12.5,41.9],[14.3,40.9],[14.3,40.8],[16.9,41.1],[17.9,40.4],[18.2,40.4],[13.4,38.1],[15.1,37.5],[14.2,37.1],[16.6,38.9],[15.6,38.1],[16.2,38.2],[14.3,40.9],[12.5,41.9],[11.2,43.8],[9.2,45.5]]},"properties":{"from_the_map":"Italy North-South Mafia Distribution Corridor","_map_colour":"#A95959"}},{"type":"Feature","geometry":{"type":"LineString","coordinates":[[-4.4,36.7],[-1,37.4],[-0.5,38.3],[-0.4,39.5],[2.2,41.4],[-8.5,42.8],[-8.4,43.4],[-8.8,42.9],[-8.6,42.4],[-8.7,42.2],[-8.6,41.1],[-8.7,40.6],[-8.9,39.8],[-9.1,38.7],[-7.9,37],[-8.9,38.5],[-7.4,39.2],[-3.7,40.4],[-4.7,41.6],[-7.9,42.3],[-7.6,43],[-6,37.4],[-5.9,37.4],[-4.4,36.7]]},"properties":{"from_the_map":"Spain-Portugal Iberian Peninsula Drug Route","_map_colour":"#B36C73"}},{"type":"Feature","geometry":{"type":"LineString","coordinates":[[21,52.2],[19.5,51.8],[17,51.1],[18.7,50.3],[19.9,50],[14.4,50.1],[13.4,50.9],[12.4,51.3],[13.4,52.5],[9.7,52.4],[10,53.6],[7.5,51.5],[6.8,51.2],[6.9,50.9],[8.7,50.1],[8.5,49.5],[9.2,48.8],[11.6,48.1],[8.7,50.1],[6,51.4],[4.6,51.8],[4.9,52.4],[5.2,52.1],[5.9,51.9],[5.5,51.4],[6,50.9],[13.4,52.5],[21,52.2]]},"properties":{"from_the_map":"Poland-Germany-Netherlands Eastern European Meth Route","_map_colour":"#7F80BD"}},{"type":"Feature","geometry":{"type":"LineString","coordinates":[[-66.9,10.5],[-70.2,8.6],[-63.5,8],[-61.5,6],[-61.4,5.8],[-58.2,6.8],[-58.3,6],[-59,5.3],[-59,4],[-55.2,5.8],[-55,5.5],[-52.3,4.9],[-52.3,4.9],[-52.7,5.3],[-53.1,3.9],[-60.7,2.8],[-60,4.1],[-61.5,6],[-71.2,8.5],[-69.3,10],[-66.9,10.5]]},"properties":{"from_the_map":"Venezuela-Guyana-Suriname Cocaine and Gold Route","_map_colour":"#B36C73"}},{"type":"Feature","geometry":{"type":"LineString","coordinates":[[31.4,30.1],[29.9,31.2],[27.2,31.4],[25,31.8],[23.3,32.1],[22.6,32.8],[21.9,32.9],[20.1,31.2],[18.5,30.8],[15.1,32.4],[13.2,32.9],[13.2,33.4],[15,32],[13,33.5],[14.5,35.9],[14.3,37.5],[13.2,32.9],[13,31],[14.4,27],[24,24],[30.8,26.8],[32.6,25.7],[31.4,30.1]]},"properties":{"from_the_map":"Egypt-Libya Mediterranean Smuggling Route","_map_colour":"#A95959"}},{"type":"Feature","geometry":{"type":"LineString","coordinates":[[69.2,34.5],[70.5,34.5],[71.5,34],[73.1,33.7],[73,33.6],[74.3,31.5],[71.5,30.2],[71.7,29.4],[69,28],[68.5,25.4],[67,24.9],[62.5,28],[66.9,30.2],[65.7,31.6],[64,32],[62.2,33],[62.2,34.3],[62.2,35.3],[59.6,36.3],[51.4,35.7],[50,36.3],[57,37.5],[59.6,36.3],[64,35.5],[69.2,34.5]]},"properties":{"from_the_map":"Iran-Afghanistan-Pakistan Opium Triangle Route","_map_colour":"#A85668"}},{"type":"Feature","geometry":{"type":"LineString","coordinates":[[-69.9,18.5],[-68.4,18.5],[-68.4,18.4],[-69,18.5],[-70.7,19.5],[-71.6,19.8],[-71.7,19.9],[-72.3,18.5],[-66.1,18.5],[-66,18.4],[-65.8,18.2],[-65.3,18.3],[-64.6,18.4],[-65,18.3],[-64.6,17.6],[-64.6,18.5],[-80.2,25.8],[-80,26.7],[-80.8,28.5],[-81.7,30.3],[-79.9,32.8],[-78.9,33.7],[-75.7,35.9],[-77,38.9],[-74,40.7],[-71.4,41.8],[-71.1,42.4]]},"properties":{"from_the_map":"Dominican Republic-Puerto Rico-US East Coast Route","_map_colour":"#B36C73"}},{"type":"Feature","geometry":{"type":"LineString","coordinates":[[174.8,-36.8],[175.3,-37.7],[176.2,-38.1],[176.1,-38.7],[175.1,-39.9],[174.8,-41.3],[173.8,-41.5],[171.2,-42.4],[172.6,-43.5],[171.3,-44],[169,-45],[168.4,-46.4],[170.5,-45.9],[169.1,-44.7],[172.6,-43.5],[174.8,-41.3],[174.8,-36.8]]},"properties":{"from_the_map":"New Zealand Drug Distribution Network","_map_colour":"#44856F"}},{"type":"Feature","geometry":{"type":"LineString","coordinates":[[23.7,37.9],[21.7,38.2],[20.9,39.6],[19.9,39.7],[20,40],[19.5,40],[19.5,40.3],[19.7,40.7],[19.8,41.3],[19.5,41.3],[19.8,41.3],[19.3,42.4],[19.5,41.9],[18.2,40.6],[17.1,40.9],[16.9,41.1],[14.3,40.9],[12.5,41.9],[14.2,42.5],[13,43.8],[11.3,44.5],[9.2,45.5]]},"properties":{"from_the_map":"Greece-Albania-Italy Balkan Crossing Route","_map_colour":"#7F80BD"}},{"type":"Feature","geometry":{"type":"LineString","coordinates":[[99.6,22.2],[100.1,21.9],[97.8,22.5],[99,21.2],[97,20.8],[95.9,21.6],[96.1,19.8],[96.5,17],[96.2,16.8],[97.7,16.5],[98.6,16],[97.9,15.9],[92.9,20.1],[92.9,21.5],[93.7,22.5],[97.4,25.4],[98.5,26],[98.7,23.2],[99.6,22.2],[103.8,1.3],[103.8,1.5],[103.6,1.4],[103.9,1.4],[104,1.5],[103.9,-1.2],[104.1,1.1],[103.4,3.5],[103,1.5],[103,2],[101.7,3.1],[103.3,3.8],[100.3,5.4],[100.3,6.4],[101.1,6.7],[102.3,5.8],[100.5,7],[98.9,8],[100.5,13.8],[101.7,3.1],[103.8,1.3]]},"properties":{"from_the_map":"Myanmar Internal Shan State Drug Network","_map_colour":"#9F7FBD"}},{"type":"Feature","geometry":{"type":"LineString","coordinates":[[-117,32.5],[-115.5,32.7],[-114.6,32.7],[-112.1,33.4],[-112,34.7],[-111.6,35.2],[-115.1,36.1],[-113.6,37],[-117.3,34],[-118.2,34.1],[-119,35.4],[-119.8,36.7],[-106.4,31.8],[-106.8,32.3],[-106.6,35.1],[-105.9,35.7],[-108.5,37],[-104.9,39.7],[-100.9,29.4],[-95.4,29.8],[-96.8,32.8],[-97.5,35.5],[-112.1,33.4]]},"properties":{"from_the_map":"US Southwest Desert Drug Smuggling Routes","_map_colour":"#A95959"}},{"type":"Feature","geometry":{"type":"LineString","coordinates":[[-17.4,14.7],[-15,13.5],[-16.6,12.4],[-15.6,11.9],[-15.3,11.3],[-13.7,9.5],[-14.6,10.7],[-11.5,11.7],[-10.5,10.5],[-8,12.6],[-4,14.5],[8,16.9],[2.1,13.5],[1.5,12.4],[2.6,6.5],[3.4,6.5],[7.4,10.5],[8.5,12],[5.3,13],[15,12.1],[19,11.5],[19,15.5],[16,23],[14.4,27],[8,16.9],[-17.4,14.7]]},"properties":{"from_the_map":"West Africa Interior Sahel Drug Corridor","_map_colour":"#BB7C86"}},{"type":"Feature","geometry":{"type":"LineString","coordinates":[[-123.1,49.3],[-122.9,49.2],[-122.7,49.1],[-122.3,49],[-121.9,49],[-120.3,50.7],[-114.1,51],[-113.5,53.5],[-116.5,53.9],[-118.1,52.9],[-116,51.5],[-117.7,51.3],[-117.6,49.5],[-117,49],[-119.5,49.9],[-119.7,50.4],[-123.1,49.3]]},"properties":{"from_the_map":"Canada Pacific Coast to Interior Drug Route","_map_colour":"#44856F"}},{"type":"Feature","geometry":{"type":"LineString","coordinates":[[10.2,36.8],[10.3,36.5],[10.6,35.8],[11,35.5],[10.8,34.7],[10.1,33.9],[10.9,33.8],[11.1,33.5],[8,35],[0.6,35.7],[3,36.8],[4,36.7],[7.8,36.9],[-1.3,35.4],[-5,34],[1,35],[3,30],[8,27],[10,24],[14.4,27],[10.2,36.8],[69.2,34.5],[67.1,36.7],[69.7,37.1],[64.4,39.7],[65.4,40],[69.3,41.3],[72.8,40.5],[74.6,42.9],[76.9,43.2],[71.4,51.2],[63.6,53.2],[61.4,55.2],[60.6,56.8],[49.1,55.8],[37.6,55.8],[69.2,34.5],[65.7,31.6],[62.5,28],[51.4,35.7],[58.4,37.5],[68.8,38.5],[62.9,40],[50,40.4],[44.8,41.7],[28.9,41]]},"properties":{"from_the_map":"Tunisia-Algeria Maghreb Drug and Contraband Route","_map_colour":"#A95959"}},{"type":"Feature","geometry":{"type":"LineString","coordinates":[[-66.9,10.5],[-68.3,12.1],[-69,12.2],[-68.3,12.1],[-59.6,13.1],[-61,14],[-61,14.6],[-61.3,15.4],[-61.5,16.2],[-61.8,17.1],[-62.7,17.3],[-63,18],[-64.6,18.4],[-64.6,17.6],[-64.6,18.5],[-66.1,18.5],[-69.9,18.5],[-72.3,18.5],[-75.1,19.9],[-77.8,21.5],[-82.4,23.1],[-77.9,24.6],[-77.3,25],[-71.8,21.5],[-72.2,19.7],[-64.8,17.7],[-61,14.6],[-69,12.2],[-66.9,10.5]]},"properties":{"from_the_map":"Caribbean Sea Complete Island Network Route","_map_colour":"#4A8690"}},{"type":"Feature","geometry":{"type":"LineString","coordinates":[[4.4,51.2],[3.7,51.3],[2.9,51.1],[2.4,51],[2.4,51.4],[3.2,51.5],[4.6,51.8],[4.9,52.4],[5.2,52.1],[4.4,52],[0.1,51.5],[-0.1,51.5],[-0.3,51.4],[1.1,51.3],[1.4,50.9],[3.1,50.6],[4.4,50.8],[4.4,51.2]]},"properties":{"from_the_map":"Belgium-Netherlands-UK Channel Cocaine Route","_map_colour":"#45877F"}},{"type":"Feature","geometry":{"type":"LineString","coordinates":[[-100,17],[-99.9,16.9],[-103.5,18.5],[-104.3,19.2],[-105.2,20.7],[-105,21.5],[-106.4,23.2],[-107.4,24.8],[-109,25.8],[-109.9,27.1],[-110.9,29.1],[-110.9,31.3],[-110.9,32.2],[-112.1,33.4],[-118.2,34.1],[-117.2,32.7],[-117,32.5],[-116.9,32.5],[-114.9,30.5],[-114.1,28.6],[-110.3,24.1],[-109.7,23.1],[-105.2,20.6],[-100,17]]},"properties":{"from_the_map":"Mexico Pacific Coast to US California Route","_map_colour":"#BA7979"}},{"type":"Feature","geometry":{"type":"LineString","coordinates":[[37.6,55.8],[44,56.3],[50.1,53.2],[46,51.5],[44.5,48.7],[55.1,51.5],[63.6,53.2],[61.4,55.2],[65.5,57.1],[73.4,55],[82.9,55],[92.9,56],[104.3,52.3],[107.6,51.8],[113.5,52],[106.9,47.9],[105,46],[116.4,43.8],[111.7,40.8],[116.4,39.9],[123.4,41.8],[125.3,43.8],[126.6,45.8],[135,48],[135.1,48.5]]},"properties":{"from_the_map":"Russia-Mongolia-China Northern Drug Route","_map_colour":"#7F80BD"}},{"type":"Feature","geometry":{"type":"LineString","coordinates":[[99.6,22.2],[100.8,21],[101.7,20.9],[102.1,19.9],[102.6,18],[104.8,17.4],[105.8,15.1],[105.9,14.4],[106,13.6],[105,12.5],[104.9,11.6],[106.6,10.8],[105.8,10],[105.8,9.5],[100.5,13.8],[100.6,14.4],[100.1,15.9],[100,17.4],[99,18.8],[99.9,20],[100.4,20.3],[99.6,22.2]]},"properties":{"from_the_map":"Southeast Asia Mekong River Complete Network","_map_colour":"#9F7FBD"}},{"type":"Feature","geometry":{"type":"LineString","coordinates":[[-83,42.3],[-83,42.3],[-82.4,43],[-81.3,43],[-79.4,43.7],[-79.1,43.1],[-78.9,42.9],[-77.6,43.2],[-76.1,43],[-75.5,43.7],[-76.5,44.3],[-75.7,45.4],[-73.6,45.5],[-73.2,44.5],[-73,44.5],[-78.5,42.9],[-83.4,41.9],[-81.7,41.5],[-80,40.4],[-85.7,42.9],[-84.6,43],[-83.9,43.6],[-83,42.3],[16,16],[8,8],[16,16],[8,8]]},"properties":{"from_the_map":"US-Canada Cross-Border Midwest Smuggling Route","_map_colour":"#44856F"}}]}