{"type":"FeatureCollection","details":false,"features":[{"type":"Feature","geometry":{"type":"LineString","coordinates":[[-95.4189,30.0966],[-76.78777959827438,38.90003333333333]]},"properties":{"_map_colour":"#B36B72"}},{"type":"Feature","geometry":{"type":"LineString","coordinates":[[-95.4189,30.0966],[-76.99132703659012,38.498463721052545]]},"properties":{"_map_colour":"#7F8B9B"}},{"type":"Feature","geometry":{"type":"LineString","coordinates":[[-95.4189,30.0966],[-76.84723968168078,38.8805]]},"properties":{"_map_colour":"#B36B72"}},{"type":"Feature","geometry":{"type":"LineString","coordinates":[[-121.978,37.7799],[-76.78777959827438,38.90003333333333]]},"properties":{"_map_colour":"#B36B72"}},{"type":"Feature","geometry":{"type":"LineString","coordinates":[[-121.978,37.7799],[-121.4944,38.5816]]},"properties":{"_map_colour":"#7F8B9B"}},{"type":"Feature","geometry":{"type":"LineString","coordinates":[[-121.978,37.7799],[-77.71505341795171,38.80664548836125]]},"properties":{"_map_colour":"#7F8B9B"}},{"type":"Feature","geometry":{"type":"LineString","coordinates":[[0.1803600446396764,51.50817142857144],[-76.78777959827438,38.90003333333333]]},"properties":{"_map_colour":"#7F8B9B"}},{"type":"Feature","geometry":{"type":"LineString","coordinates":[[0.1803600446396764,51.50817142857144],[-0.9790883185806856,51.41478358359935]]},"properties":{"_map_colour":"#7F8B9B"}},{"type":"Feature","geometry":{"type":"LineString","coordinates":[[0.1803600446396764,51.50817142857144],[4.3095,52.0857]]},"properties":{"_map_colour":"#7F8B9B"}},{"type":"Feature","geometry":{"type":"LineString","coordinates":[[-0.5054094318227826,51.72178096838756],[-76.78777959827438,38.90003333333333]]},"properties":{"_map_colour":"#7F8B9B"}},{"type":"Feature","geometry":{"type":"LineString","coordinates":[[-0.5054094318227826,51.72178096838756],[-0.9790883185806856,51.41478358359935]]},"properties":{"_map_colour":"#7F8B9B"}},{"type":"Feature","geometry":{"type":"LineString","coordinates":[[2.24,48.892],[-0.9790883185806856,51.41478358359935]]},"properties":{"_map_colour":"#7F8B9B"}},{"type":"Feature","geometry":{"type":"LineString","coordinates":[[8.515,47.195],[0.33293381156215773,51.88460652121361]]},"properties":{"_map_colour":"#7F8B9B"}},{"type":"Feature","geometry":{"type":"LineString","coordinates":[[8.515,47.195],[4.3095,52.0857]]},"properties":{"_map_colour":"#7F8B9B"}},{"type":"Feature","geometry":{"type":"LineString","coordinates":[[144.9631,-37.8136],[0.33293381156215773,51.88460652121361]]},"properties":{"_map_colour":"#7F8B9B"}},{"type":"Feature","geometry":{"type":"LineString","coordinates":[[-0.07415241886869076,51.10660181629065],[0.33293381156215773,51.88460652121361]]},"properties":{"_map_colour":"#7F8B9B"}},{"type":"Feature","geometry":{"type":"LineString","coordinates":[[-42.964218064102255,-22.909399999999998],[0.33293381156215773,51.88460652121361]]},"properties":{"_map_colour":"#7F8B9B"}},{"type":"Feature","geometry":{"type":"LineString","coordinates":[[-93.4687,44.9211],[6.1495,46.2244]]},"properties":{"_map_colour":"#7F8B9B"}},{"type":"Feature","geometry":{"type":"LineString","coordinates":[[-97.3301,37.6872],[-76.84723968168078,38.8805]]},"properties":{"_map_colour":"#B36B72"}},{"type":"Feature","geometry":{"type":"LineString","coordinates":[[-97.3301,37.6872],[-76.39520535839108,38.5824926743018]]},"properties":{"_map_colour":"#B36B72"}},{"type":"Feature","geometry":{"type":"LineString","coordinates":[[-97.3301,37.6872],[-87.9806,42.0884]]},"properties":{"_map_colour":"#B36B72"}},{"type":"Feature","geometry":{"type":"LineString","coordinates":[[-97.3301,37.6872],[-77.39553597423445,39.094109539816124]]},"properties":{"_map_colour":"#B36B72"}},{"type":"Feature","geometry":{"type":"LineString","coordinates":[[-97.3301,37.6872],[-76.99132703659012,38.498463721052545]]},"properties":{"_map_colour":"#7F8B9B"}},{"type":"Feature","geometry":{"type":"LineString","coordinates":[[-76.99132703659012,38.498463721052545],[-77.25083693659,39.52027830100207]]},"properties":{"_map_colour":"#7F8B9B"}},{"type":"Feature","geometry":{"type":"LineString","coordinates":[[-76.66575807137878,39.27646842597551],[-76.99132703659012,38.498463721052545]]},"properties":{"_map_colour":"#7F8B9B"}},{"type":"Feature","geometry":{"type":"LineString","coordinates":[[4.675404818969559,50.84246666666667],[12.4894,41.8835]]},"properties":{"_map_colour":"#7F8B9B"}},{"type":"Feature","geometry":{"type":"LineString","coordinates":[[6.1495,46.2244],[12.4894,41.8835]]},"properties":{"_map_colour":"#7F8B9B"}},{"type":"Feature","geometry":{"type":"LineString","coordinates":[[-77.71505341795171,38.80664548836125],[3.99946566700847,51.05607620648279]]},"properties":{"_map_colour":"#7F8B9B"}},{"type":"Feature","geometry":{"type":"LineString","coordinates":[[-77.71505341795171,38.80664548836125],[4.3095,52.0857]]},"properties":{"_map_colour":"#7F8B9B"}},{"type":"Feature","geometry":{"type":"LineString","coordinates":[[3.99946566700847,51.05607620648279],[4.3095,52.0857]]},"properties":{"_map_colour":"#7F8B9B"}},{"type":"Feature","geometry":{"type":"LineString","coordinates":[[-77.39553597423445,39.094109539816124],[-76.39520535839108,38.5824926743018]]},"properties":{"_map_colour":"#7F8B9B"}},{"type":"Feature","geometry":{"type":"LineString","coordinates":[[-77.39553597423445,39.094109539816124],[-87.9806,42.0884]]},"properties":{"_map_colour":"#7F8B9B"}},{"type":"Feature","geometry":{"type":"LineString","coordinates":[[-77.44479981232996,38.28840889445507],[-77.25083693659,39.52027830100207]]},"properties":{"_map_colour":"#7F8B9B"}},{"type":"Feature","geometry":{"type":"LineString","coordinates":[[-76.15171199335185,39.15151222464106],[-76.78777959827438,38.90003333333333]]},"properties":{"_map_colour":"#7F8B9B"}},{"type":"Feature","geometry":{"type":"LineString","coordinates":[[-76.15171199335185,39.15151222464106],[-76.99132703659012,38.498463721052545]]},"properties":{"_map_colour":"#7F8B9B"}},{"type":"Feature","geometry":{"type":"LineString","coordinates":[[149.13,-35.2809],[-77.33622668917481,39.11364287314946]]},"properties":{"_map_colour":"#7F8B9B"}},{"type":"Feature","geometry":{"type":"LineString","coordinates":[[-114.0719,51.0447],[-0.9790883185806856,51.41478358359935]]},"properties":{"_map_colour":"#7F8B9B"}},{"type":"Feature","geometry":{"type":"LineString","coordinates":[[-114.0719,51.0447],[-76.78777959827438,38.90003333333333]]},"properties":{"_map_colour":"#7F8B9B"}},{"type":"Feature","geometry":{"type":"LineString","coordinates":[[139.76,35.6855],[-76.99132703659012,38.498463721052545]]},"properties":{"_map_colour":"#7F8B9B"}},{"type":"Feature","geometry":{"type":"LineString","coordinates":[[-47.67240027435519,-15.796800000000001],[-93.4687,44.9211]]},"properties":{"_map_colour":"#7F8B9B"}},{"type":"Feature","geometry":{"type":"LineString","coordinates":[[-47.67240027435519,-15.796800000000001],[-46.6333,-23.5505]]},"properties":{"_map_colour":"#7F8B9B"}},{"type":"Feature","geometry":{"type":"LineString","coordinates":[[-47.67240027435519,-15.796800000000001],[-42.964218064102255,-22.909399999999998]]},"properties":{"_map_colour":"#7F8B9B"}},{"type":"Feature","geometry":{"type":"LineString","coordinates":[[-58.3816,-34.6037],[4.3095,52.0857]]},"properties":{"_map_colour":"#7F8B9B"}},{"type":"Feature","geometry":{"type":"LineString","coordinates":[[-58.1551,6.8013],[-95.4189,30.0966]]},"properties":{"_map_colour":"#7F8B9B"}},{"type":"Feature","geometry":{"type":"LineString","coordinates":[[51.531,25.2854],[-95.4189,30.0966]]},"properties":{"_map_colour":"#7F8B9B"}},{"type":"Feature","geometry":{"type":"LineString","coordinates":[[51.531,25.2854],[0.1803600446396764,51.50817142857144]]},"properties":{"_map_colour":"#7F8B9B"}},{"type":"Feature","geometry":{"type":"LineString","coordinates":[[54.3773,24.4539],[-95.4189,30.0966]]},"properties":{"_map_colour":"#7F8B9B"}},{"type":"Feature","geometry":{"type":"LineString","coordinates":[[54.3773,24.4539],[0.1803600446396764,51.50817142857144]]},"properties":{"_map_colour":"#7F8B9B"}},{"type":"Feature","geometry":{"type":"LineString","coordinates":[[-48.115977767719265,-15.583190460183872],[-42.964218064102255,-22.909399999999998]]},"properties":{"_map_colour":"#7F8B9B"}},{"type":"Feature","geometry":{"type":"LineString","coordinates":[[0.6712285995542948,51.1906307695399],[4.3095,52.0857]]},"properties":{"_map_colour":"#7F8B9B"}},{"type":"Feature","geometry":{"type":"LineString","coordinates":[[0.6712285995542948,51.1906307695399],[-77.71505341795171,38.80664548836125]]},"properties":{"_map_colour":"#7F8B9B"}},{"type":"Feature","geometry":{"type":"LineString","coordinates":[[0.6712285995542948,51.1906307695399],[3.99946566700847,51.05607620648279]]},"properties":{"_map_colour":"#7F8B9B"}},{"type":"Feature","geometry":{"type":"LineString","coordinates":[[-43.42759337977938,-22.69579046018387],[-48.115977767719265,-15.583190460183872]]},"properties":{"_map_colour":"#7F8B9B"}},{"type":"Feature","geometry":{"type":"LineString","coordinates":[[-43.42759337977938,-22.69579046018387],[-42.964218064102255,-22.909399999999998]]},"properties":{"_map_colour":"#7F8B9B"}},{"type":"Feature","geometry":{"type":"LineString","coordinates":[[-67.14073200184829,10.69420953981613],[-95.4189,30.0966]]},"properties":{"_map_colour":"#7F8B9B"}},{"type":"Feature","geometry":{"type":"LineString","coordinates":[[-67.14073200184829,10.69420953981613],[-77.71505341795171,38.80664548836125]]},"properties":{"_map_colour":"#7F8B9B"}},{"type":"Feature","geometry":{"type":"LineString","coordinates":[[13.405,52.52],[4.424540724471193,50.44089705438588]]},"properties":{"_map_colour":"#7F8B9B"}},{"type":"Feature","geometry":{"type":"LineString","coordinates":[[-0.3986394500015602,52.128416396240176],[0.1803600446396764,51.50817142857144]]},"properties":{"_map_colour":"#7F8B9B"}},{"type":"Feature","geometry":{"type":"LineString","coordinates":[[-0.3986394500015602,52.128416396240176],[-95.4189,30.0966]]},"properties":{"_map_colour":"#7F8B9B"}},{"type":"Feature","geometry":{"type":"LineString","coordinates":[[-4.0083,5.36],[-93.4687,44.9211]]},"properties":{"_map_colour":"#7F8B9B"}},{"type":"Feature","geometry":{"type":"LineString","coordinates":[[-13.5784,9.6412],[-0.07415241886869076,51.10660181629065]]},"properties":{"_map_colour":"#7F8B9B"}},{"type":"Feature","geometry":{"type":"LineString","coordinates":[[15.517949210102783,-4.31335],[8.515,47.195]]},"properties":{"_map_colour":"#7F8B9B"}},{"type":"Feature","geometry":{"type":"LineString","coordinates":[[50.15,26.2886],[46.6753,24.7136]]},"properties":{"_map_colour":"#566472"}},{"type":"Feature","geometry":{"type":"LineString","coordinates":[[-95.4189,30.0966],[-77.53310351844523,38.66050439502951]]},"properties":{"_map_colour":"#566472"}},{"type":"Feature","geometry":{"type":"LineString","coordinates":[[-95.4189,30.0966],[-77.35952927756657,39.52087422219351]]},"properties":{"_map_colour":"#566472"}},{"type":"Feature","geometry":{"type":"LineString","coordinates":[[-95.4189,30.0966],[-100.7837,46.8083]]},"properties":{"_map_colour":"#566472"}},{"type":"Feature","geometry":{"type":"LineString","coordinates":[[-121.978,37.7799],[-77.10582399425803,38.383024613690395]]},"properties":{"_map_colour":"#566472"}},{"type":"Feature","geometry":{"type":"LineString","coordinates":[[-121.978,37.7799],[-77.17448071170418,39.00073366850702]]},"properties":{"_map_colour":"#566472"}},{"type":"Feature","geometry":{"type":"LineString","coordinates":[[0.1803600446396764,51.50817142857144],[4.469129714618205,52.0807]]},"properties":{"_map_colour":"#566472"}},{"type":"Feature","geometry":{"type":"LineString","coordinates":[[0.1803600446396764,51.50817142857144],[-9.1393,38.7223]]},"properties":{"_map_colour":"#566472"}},{"type":"Feature","geometry":{"type":"LineString","coordinates":[[-0.5054094318227826,51.72178096838756],[-76.82967650466425,39.085788206807884]]},"properties":{"_map_colour":"#566472"}},{"type":"Feature","geometry":{"type":"LineString","coordinates":[[2.24,48.892],[32.5825,0.3476]]},"properties":{"_map_colour":"#566472"}},{"type":"Feature","geometry":{"type":"LineString","coordinates":[[8.515,47.195],[15.363001033341048,-4.4419]]},"properties":{"_map_colour":"#566472"}},{"type":"Feature","geometry":{"type":"LineString","coordinates":[[8.515,47.195],[-77.17448071170418,39.00073366850702]]},"properties":{"_map_colour":"#566472"}},{"type":"Feature","geometry":{"type":"LineString","coordinates":[[144.9631,-37.8136],[149.13,-35.2809]]},"properties":{"_map_colour":"#566472"}},{"type":"Feature","geometry":{"type":"LineString","coordinates":[[-0.07415241886869076,51.10660181629065],[4.349,50.852]]},"properties":{"_map_colour":"#566472"}},{"type":"Feature","geometry":{"type":"LineString","coordinates":[[-0.07415241886869076,51.10660181629065],[149.13,-35.2809]]},"properties":{"_map_colour":"#566472"}},{"type":"Feature","geometry":{"type":"LineString","coordinates":[[-42.964218064102255,-22.909399999999998],[-47.86606516854236,-16.002398603259664]]},"properties":{"_map_colour":"#566472"}},{"type":"Feature","geometry":{"type":"LineString","coordinates":[[-93.4687,44.9211],[-47.78473098341972,-15.7956]]},"properties":{"_map_colour":"#566472"}},{"type":"Feature","geometry":{"type":"LineString","coordinates":[[-93.4687,44.9211],[-57.49943561320081,-25.27185]]},"properties":{"_map_colour":"#566472"}},{"type":"Feature","geometry":{"type":"LineString","coordinates":[[-46.6333,-23.5505],[-47.78473098341972,-15.7956]]},"properties":{"_map_colour":"#566472"}},{"type":"Feature","geometry":{"type":"LineString","coordinates":[[-46.6333,-23.5505],[-47.86606516854236,-16.002398603259664]]},"properties":{"_map_colour":"#566472"}},{"type":"Feature","geometry":{"type":"LineString","coordinates":[[-97.3301,37.6872],[-100.7837,46.8083]]},"properties":{"_map_colour":"#566472"}},{"type":"Feature","geometry":{"type":"LineString","coordinates":[[-97.3301,37.6872],[-77.53310351844523,38.66050439502951]]},"properties":{"_map_colour":"#566472"}},{"type":"Feature","geometry":{"type":"LineString","coordinates":[[-76.78777959827438,38.90003333333333],[-77.35952927756657,39.52087422219351]]},"properties":{"_map_colour":"#566472"}},{"type":"Feature","geometry":{"type":"LineString","coordinates":[[-76.78777959827438,38.90003333333333],[-77.37197775484812,38.843109024495355]]},"properties":{"_map_colour":"#566472"}},{"type":"Feature","geometry":{"type":"LineString","coordinates":[[-76.78777959827438,38.90003333333333],[-77.23268601109443,38.57440927849429]]},"properties":{"_map_colour":"#566472"}},{"type":"Feature","geometry":{"type":"LineString","coordinates":[[-76.78777959827438,38.90003333333333],[-76.5624007345106,39.02179438743118]]},"properties":{"_map_colour":"#566472"}},{"type":"Feature","geometry":{"type":"LineString","coordinates":[[-76.78777959827438,38.90003333333333],[-76.68915461118625,38.72702371867455]]},"properties":{"_map_colour":"#566472"}},{"type":"Feature","geometry":{"type":"LineString","coordinates":[[-76.78777959827438,38.90003333333333],[2.2945,48.8584]]},"properties":{"_map_colour":"#566472"}},{"type":"Feature","geometry":{"type":"LineString","coordinates":[[-76.78777959827438,38.90003333333333],[-43.1822,-22.9711]]},"properties":{"_map_colour":"#566472"}},{"type":"Feature","geometry":{"type":"LineString","coordinates":[[-76.78777959827438,38.90003333333333],[-76.85965453902197,39.62236073084322]]},"properties":{"_map_colour":"#566472"}},{"type":"Feature","geometry":{"type":"LineString","coordinates":[[-121.4944,38.5816],[-77.37197775484812,38.843109024495355]]},"properties":{"_map_colour":"#566472"}},{"type":"Feature","geometry":{"type":"LineString","coordinates":[[-77.33622668917481,39.11364287314946],[-76.99783557899754,38.684607457346395]]},"properties":{"_map_colour":"#566472"}},{"type":"Feature","geometry":{"type":"LineString","coordinates":[[-77.33622668917481,39.11364287314946],[-77.32327547558414,38.23780264216834]]},"properties":{"_map_colour":"#566472"}},{"type":"Feature","geometry":{"type":"LineString","coordinates":[[-77.33622668917481,39.11364287314946],[-77.37197775484812,38.843109024495355]]},"properties":{"_map_colour":"#566472"}},{"type":"Feature","geometry":{"type":"LineString","coordinates":[[-77.33622668917481,39.11364287314946],[-76.68915461118625,38.72702371867455]]},"properties":{"_map_colour":"#566472"}},{"type":"Feature","geometry":{"type":"LineString","coordinates":[[-76.99132703659012,38.498463721052545],[-76.42068119523546,38.78863584280233]]},"properties":{"_map_colour":"#566472"}},{"type":"Feature","geometry":{"type":"LineString","coordinates":[[-76.99132703659012,38.498463721052545],[-77.38754238819148,39.297078124874346]]},"properties":{"_map_colour":"#566472"}},{"type":"Feature","geometry":{"type":"LineString","coordinates":[[-76.99132703659012,38.498463721052545],[-77.23268601109443,38.57440927849429]]},"properties":{"_map_colour":"#566472"}},{"type":"Feature","geometry":{"type":"LineString","coordinates":[[-76.99132703659012,38.498463721052545],[-76.68915461118625,38.72702371867455]]},"properties":{"_map_colour":"#566472"}},{"type":"Feature","geometry":{"type":"LineString","coordinates":[[-76.99132703659012,38.498463721052545],[-77.37197775484812,38.843109024495355]]},"properties":{"_map_colour":"#566472"}},{"type":"Feature","geometry":{"type":"LineString","coordinates":[[-76.99132703659012,38.498463721052545],[-77.49824811845666,39.04470331311273]]},"properties":{"_map_colour":"#566472"}},{"type":"Feature","geometry":{"type":"LineString","coordinates":[[-76.99132703659012,38.498463721052545],[-76.85965453902197,39.62236073084322]]},"properties":{"_map_colour":"#566472"}},{"type":"Feature","geometry":{"type":"LineString","coordinates":[[-76.66575807137878,39.27646842597551],[-77.72025592809695,38.913937846487]]},"properties":{"_map_colour":"#566472"}},{"type":"Feature","geometry":{"type":"LineString","coordinates":[[-76.66575807137878,39.27646842597551],[-77.49824811845666,39.04470331311273]]},"properties":{"_map_colour":"#566472"}},{"type":"Feature","geometry":{"type":"LineString","coordinates":[[-76.66575807137878,39.27646842597551],[7.5886,47.5596]]},"properties":{"_map_colour":"#566472"}},{"type":"Feature","geometry":{"type":"LineString","coordinates":[[-76.66575807137878,39.27646842597551],[17.83278234983443,59.44027760790096]]},"properties":{"_map_colour":"#566472"}},{"type":"Feature","geometry":{"type":"LineString","coordinates":[[-76.66575807137878,39.27646842597551],[6.356136678877903,46.41568214620183]]},"properties":{"_map_colour":"#566472"}},{"type":"Feature","geometry":{"type":"LineString","coordinates":[[-76.66575807137878,39.27646842597551],[36.812,-1.231]]},"properties":{"_map_colour":"#566472"}},{"type":"Feature","geometry":{"type":"LineString","coordinates":[[-76.84723968168078,38.8805],[-100.7837,46.8083]]},"properties":{"_map_colour":"#566472"}},{"type":"Feature","geometry":{"type":"LineString","coordinates":[[4.675404818969559,50.84246666666667],[12.62036496718848,41.89265]]},"properties":{"_map_colour":"#566472"}},{"type":"Feature","geometry":{"type":"LineString","coordinates":[[4.675404818969559,50.84246666666667],[-76.50156780440297,39.23220867393177]]},"properties":{"_map_colour":"#566472"}},{"type":"Feature","geometry":{"type":"LineString","coordinates":[[6.1495,46.2244],[6.280080190915263,46.22130000000001]]},"properties":{"_map_colour":"#566472"}},{"type":"Feature","geometry":{"type":"LineString","coordinates":[[6.1495,46.2244],[5.968242824921528,46.330627607900965]]},"properties":{"_map_colour":"#566472"}},{"type":"Feature","geometry":{"type":"LineString","coordinates":[[-77.71505341795171,38.80664548836125],[-77.17448071170418,39.00073366850702]]},"properties":{"_map_colour":"#566472"}},{"type":"Feature","geometry":{"type":"LineString","coordinates":[[-77.71505341795171,38.80664548836125],[-9.1393,38.7223]]},"properties":{"_map_colour":"#566472"}},{"type":"Feature","geometry":{"type":"LineString","coordinates":[[3.99946566700847,51.05607620648279],[-9.1393,38.7223]]},"properties":{"_map_colour":"#566472"}},{"type":"Feature","geometry":{"type":"LineString","coordinates":[[3.99946566700847,51.05607620648279],[12.330529897164924,42.00197760790096]]},"properties":{"_map_colour":"#566472"}},{"type":"Feature","geometry":{"type":"LineString","coordinates":[[3.99946566700847,51.05607620648279],[13.2088703609458,52.62932760790096]]},"properties":{"_map_colour":"#566472"}},{"type":"Feature","geometry":{"type":"LineString","coordinates":[[-76.792,17.9712],[-76.91726430831825,18.082427607900957]]},"properties":{"_map_colour":"#566472"}},{"type":"Feature","geometry":{"type":"LineString","coordinates":[[-76.792,17.9712],[-77.8939,18.4762]]},"properties":{"_map_colour":"#566472"}},{"type":"Feature","geometry":{"type":"LineString","coordinates":[[12.4894,41.8835],[12.62036496718848,41.89265]]},"properties":{"_map_colour":"#566472"}},{"type":"Feature","geometry":{"type":"LineString","coordinates":[[-76.39520535839108,38.5824926743018],[-76.42068119523546,38.78863584280233]]},"properties":{"_map_colour":"#566472"}},{"type":"Feature","geometry":{"type":"LineString","coordinates":[[-87.9806,42.0884],[-77.53310351844523,38.66050439502951]]},"properties":{"_map_colour":"#566472"}},{"type":"Feature","geometry":{"type":"LineString","coordinates":[[4.3095,52.0857],[-9.1393,38.7223]]},"properties":{"_map_colour":"#566472"}},{"type":"Feature","geometry":{"type":"LineString","coordinates":[[4.3095,52.0857],[-77.17448071170418,39.00073366850702]]},"properties":{"_map_colour":"#566472"}},{"type":"Feature","geometry":{"type":"LineString","coordinates":[[4.3095,52.0857],[12.330529897164924,42.00197760790096]]},"properties":{"_map_colour":"#566472"}},{"type":"Feature","geometry":{"type":"LineString","coordinates":[[4.3095,52.0857],[13.2088703609458,52.62932760790096]]},"properties":{"_map_colour":"#566472"}},{"type":"Feature","geometry":{"type":"LineString","coordinates":[[4.3095,52.0857],[-71.208,46.8139]]},"properties":{"_map_colour":"#566472"}},{"type":"Feature","geometry":{"type":"LineString","coordinates":[[-77.25083693659,39.52027830100207],[-76.42068119523546,38.78863584280233]]},"properties":{"_map_colour":"#566472"}},{"type":"Feature","geometry":{"type":"LineString","coordinates":[[-77.25083693659,39.52027830100207],[-77.38754238819148,39.297078124874346]]},"properties":{"_map_colour":"#566472"}},{"type":"Feature","geometry":{"type":"LineString","coordinates":[[-77.25083693659,39.52027830100207],[-77.10582399425803,38.383024613690395]]},"properties":{"_map_colour":"#566472"}},{"type":"Feature","geometry":{"type":"LineString","coordinates":[[-77.25083693659,39.52027830100207],[-76.84331326330805,38.27590998771681]]},"properties":{"_map_colour":"#566472"}},{"type":"Feature","geometry":{"type":"LineString","coordinates":[[-77.25083693659,39.52027830100207],[-77.50630141155163,38.438962163121545]]},"properties":{"_map_colour":"#566472"}},{"type":"Feature","geometry":{"type":"LineString","coordinates":[[-77.25083693659,39.52027830100207],[-76.25271646730793,38.971838496306766]]},"properties":{"_map_colour":"#566472"}},{"type":"Feature","geometry":{"type":"LineString","coordinates":[[-77.25083693659,39.52027830100207],[-77.91380521246393,39.07462133851612]]},"properties":{"_map_colour":"#566472"}},{"type":"Feature","geometry":{"type":"LineString","coordinates":[[-77.25083693659,39.52027830100207],[-73.95671614001569,40.530068063407]]},"properties":{"_map_colour":"#566472"}},{"type":"Feature","geometry":{"type":"LineString","coordinates":[[-77.25083693659,39.52027830100207],[-79.9311,32.7765]]},"properties":{"_map_colour":"#566472"}},{"type":"Feature","geometry":{"type":"LineString","coordinates":[[-77.44479981232996,38.28840889445507],[-76.42068119523546,38.78863584280233]]},"properties":{"_map_colour":"#566472"}},{"type":"Feature","geometry":{"type":"LineString","coordinates":[[-77.44479981232996,38.28840889445507],[-77.38754238819148,39.297078124874346]]},"properties":{"_map_colour":"#566472"}},{"type":"Feature","geometry":{"type":"LineString","coordinates":[[-77.44479981232996,38.28840889445507],[-77.10582399425803,38.383024613690395]]},"properties":{"_map_colour":"#566472"}},{"type":"Feature","geometry":{"type":"LineString","coordinates":[[-77.44479981232996,38.28840889445507],[-76.84331326330805,38.27590998771681]]},"properties":{"_map_colour":"#566472"}},{"type":"Feature","geometry":{"type":"LineString","coordinates":[[-77.44479981232996,38.28840889445507],[-77.50630141155163,38.438962163121545]]},"properties":{"_map_colour":"#566472"}},{"type":"Feature","geometry":{"type":"LineString","coordinates":[[-47.67240027435519,-15.796800000000001],[-47.73004438948999,-15.601217853798172]]},"properties":{"_map_colour":"#566472"}},{"type":"Feature","geometry":{"type":"LineString","coordinates":[[-47.67240027435519,-15.796800000000001],[-47.86606516854236,-16.002398603259664]]},"properties":{"_map_colour":"#566472"}},{"type":"Feature","geometry":{"type":"LineString","coordinates":[[-47.67240027435519,-15.796800000000001],[-47.78473098341972,-15.7956]]},"properties":{"_map_colour":"#566472"}},{"type":"Feature","geometry":{"type":"LineString","coordinates":[[-47.67240027435519,-15.796800000000001],[-48.00895016396606,-15.686272392099044]]},"properties":{"_map_colour":"#566472"}},{"type":"Feature","geometry":{"type":"LineString","coordinates":[[106.8,-6.2],[106.84775447124761,-6.407865269926329]]},"properties":{"_map_colour":"#566472"}},{"type":"Feature","geometry":{"type":"LineString","coordinates":[[106.8,-6.2],[106.92647800316806,-6.201066666666667]]},"properties":{"_map_colour":"#566472"}},{"type":"Feature","geometry":{"type":"LineString","coordinates":[[2.1251,13.5117],[7.3853,18.7369]]},"properties":{"_map_colour":"#566472"}},{"type":"Feature","geometry":{"type":"LineString","coordinates":[[4.424540724471193,50.44089705438588],[4.591434635317142,51.040932146201826]]},"properties":{"_map_colour":"#566472"}},{"type":"Feature","geometry":{"type":"LineString","coordinates":[[4.424540724471193,50.44089705438588],[4.384141967284271,50.63975139674034]]},"properties":{"_map_colour":"#566472"}},{"type":"Feature","geometry":{"type":"LineString","coordinates":[[4.424540724471193,50.44089705438588],[4.508093472001506,50.84655]]},"properties":{"_map_colour":"#566472"}},{"type":"Feature","geometry":{"type":"LineString","coordinates":[[4.424540724471193,50.44089705438588],[4.166388384856701,50.95587760790096]]},"properties":{"_map_colour":"#566472"}},{"type":"Feature","geometry":{"type":"LineString","coordinates":[[4.424540724471193,50.44089705438588],[4.504405747227308,50.8503]]},"properties":{"_map_colour":"#566472"}},{"type":"Feature","geometry":{"type":"LineString","coordinates":[[4.424540724471193,50.44089705438588],[4.162673189968377,50.959627607900956]]},"properties":{"_map_colour":"#566472"}},{"type":"Feature","geometry":{"type":"LineString","coordinates":[[-77.0378,-12.0964],[-77.0428,-12.0464]]},"properties":{"_map_colour":"#566472"}},{"type":"Feature","geometry":{"type":"LineString","coordinates":[[-58.3816,-34.6037],[-58.3816,-34.6037]]},"properties":{"_map_colour":"#566472"}},{"type":"Feature","geometry":{"type":"LineString","coordinates":[[-77.95661223595779,39.19560646856668],[-76.82967650466425,39.085788206807884]]},"properties":{"_map_colour":"#566472"}},{"type":"Feature","geometry":{"type":"LineString","coordinates":[[-77.95661223595779,39.19560646856668],[-76.99783557899754,38.684607457346395]]},"properties":{"_map_colour":"#566472"}},{"type":"Feature","geometry":{"type":"LineString","coordinates":[[-99.1332,19.4326],[-99.1332,19.4326]]},"properties":{"_map_colour":"#566472"}},{"type":"Feature","geometry":{"type":"LineString","coordinates":[[10.7522,59.9139],[10.735,59.917]]},"properties":{"_map_colour":"#566472"}},{"type":"Feature","geometry":{"type":"LineString","coordinates":[[10.7522,59.9139],[10.7522,59.9139]]},"properties":{"_map_colour":"#566472"}},{"type":"Feature","geometry":{"type":"LineString","coordinates":[[77.209,28.6139],[77.32032479594056,28.61495]]},"properties":{"_map_colour":"#566472"}},{"type":"Feature","geometry":{"type":"LineString","coordinates":[[77.209,28.6139],[77.0745533757507,28.724277607900955]]},"properties":{"_map_colour":"#566472"}},{"type":"Feature","geometry":{"type":"LineString","coordinates":[[7.4951,9.0579],[7.3986,9.0765]]},"properties":{"_map_colour":"#566472"}},{"type":"Feature","geometry":{"type":"LineString","coordinates":[[174.7762,-41.2785],[174.7762,-41.2865]]},"properties":{"_map_colour":"#566472"}},{"type":"Feature","geometry":{"type":"LineString","coordinates":[[120.9842,14.5995],[120.9842,14.5995]]},"properties":{"_map_colour":"#566472"}},{"type":"Feature","geometry":{"type":"LineString","coordinates":[[28.2293,-25.7479],[28.2293,-25.7479]]},"properties":{"_map_colour":"#566472"}},{"type":"Feature","geometry":{"type":"LineString","coordinates":[[166.9209,-0.5477],[166.9209,-0.5477]]},"properties":{"_map_colour":"#566472"}},{"type":"Feature","geometry":{"type":"LineString","coordinates":[[-58.1551,6.8013],[-58.1551,6.8013]]},"properties":{"_map_colour":"#566472"}},{"type":"Feature","geometry":{"type":"LineString","coordinates":[[139.6917,35.6895],[141.0328,37.4214]]},"properties":{"_map_colour":"#566472"}},{"type":"Feature","geometry":{"type":"LineString","coordinates":[[104.9282,11.5564],[104.9282,11.5564]]},"properties":{"_map_colour":"#566472"}},{"type":"Feature","geometry":{"type":"LineString","coordinates":[[-66.70666528317935,10.4806],[-63,6.8]]},"properties":{"_map_colour":"#566472"}},{"type":"Feature","geometry":{"type":"LineString","coordinates":[[49.8671,40.4093],[49.710366811261004,40.51862760790096]]},"properties":{"_map_colour":"#566472"}},{"type":"Feature","geometry":{"type":"LineString","coordinates":[[37.6173,55.7558],[37.6173,55.7558]]},"properties":{"_map_colour":"#566472"}},{"type":"Feature","geometry":{"type":"LineString","coordinates":[[51.531,25.2854],[51.531,25.2854]]},"properties":{"_map_colour":"#566472"}},{"type":"Feature","geometry":{"type":"LineString","coordinates":[[54.3773,24.4539],[54.3773,24.4539]]},"properties":{"_map_colour":"#566472"}},{"type":"Feature","geometry":{"type":"LineString","coordinates":[[-76.59335098108104,38.162807905084],[-77.13211414068337,39.21270942653875]]},"properties":{"_map_colour":"#566472"}},{"type":"Feature","geometry":{"type":"LineString","coordinates":[[-70.6693,-33.4489],[-70.6693,-33.4489]]},"properties":{"_map_colour":"#566472"}},{"type":"Feature","geometry":{"type":"LineString","coordinates":[[-48.115977767719265,-15.583190460183872],[-51.7833,-3.1133]]},"properties":{"_map_colour":"#566472"}},{"type":"Feature","geometry":{"type":"LineString","coordinates":[[0.6712285995542948,51.1906307695399],[-77.17448071170418,39.00073366850702]]},"properties":{"_map_colour":"#566472"}},{"type":"Feature","geometry":{"type":"LineString","coordinates":[[0.6712285995542948,51.1906307695399],[-9.1393,38.7223]]},"properties":{"_map_colour":"#566472"}},{"type":"Feature","geometry":{"type":"LineString","coordinates":[[-43.42759337977938,-22.69579046018387],[-51.7833,-3.1133]]},"properties":{"_map_colour":"#566472"}},{"type":"Feature","geometry":{"type":"LineString","coordinates":[[-67.14073200184829,10.69420953981613],[-66.9036,10.4806]]},"properties":{"_map_colour":"#566472"}},{"type":"Feature","geometry":{"type":"LineString","coordinates":[[13.405,52.52],[13.563443784139313,52.52]]},"properties":{"_map_colour":"#566472"}},{"type":"Feature","geometry":{"type":"LineString","coordinates":[[-0.3986394500015602,52.128416396240176],[0.1138353170422993,51.696642146201825]]},"properties":{"_map_colour":"#566472"}},{"type":"Feature","geometry":{"type":"LineString","coordinates":[[-96.797,32.7767],[-100.95,46.71]]},"properties":{"_map_colour":"#566472"}},{"type":"Feature","geometry":{"type":"LineString","coordinates":[[-78.27414986961824,-0.1807],[-78.37138894019101,-0.1807]]},"properties":{"_map_colour":"#566472"}},{"type":"Feature","geometry":{"type":"LineString","coordinates":[[51.389,35.6892],[51.389,35.6892]]},"properties":{"_map_colour":"#566472"}},{"type":"Feature","geometry":{"type":"LineString","coordinates":[[-76.70912711924429,39.712465752496186],[-77.67217327804423,39.24401827613764]]},"properties":{"_map_colour":"#566472"}},{"type":"Feature","geometry":{"type":"LineString","coordinates":[[-4.0083,5.36],[-4.0083,5.36]]},"properties":{"_map_colour":"#566472"}},{"type":"Feature","geometry":{"type":"LineString","coordinates":[[-57.5759,-25.2637],[-57.738022619276265,-25.162522392099046]]},"properties":{"_map_colour":"#566472"}},{"type":"Feature","geometry":{"type":"LineString","coordinates":[[102.6331,17.9757],[102.6331,17.9757]]},"properties":{"_map_colour":"#566472"}},{"type":"Feature","geometry":{"type":"LineString","coordinates":[[116.4074,39.9042],[116.24062175908365,40.01642760790096]]},"properties":{"_map_colour":"#566472"}},{"type":"Feature","geometry":{"type":"LineString","coordinates":[[116.455,39.955],[116.52188424303125,39.9071]]},"properties":{"_map_colour":"#566472"}},{"type":"Feature","geometry":{"type":"LineString","coordinates":[[58.3261,37.9601],[58.3261,37.9601]]},"properties":{"_map_colour":"#566472"}},{"type":"Feature","geometry":{"type":"LineString","coordinates":[[-0.187,5.6037],[-0.187,5.6037]]},"properties":{"_map_colour":"#566472"}},{"type":"Feature","geometry":{"type":"LineString","coordinates":[[-13.5784,9.6412],[-13.5784,9.6412]]},"properties":{"_map_colour":"#566472"}},{"type":"Feature","geometry":{"type":"LineString","coordinates":[[-6.8417,34.0209],[-6.8416,34.0209]]},"properties":{"_map_colour":"#566472"}},{"type":"Feature","geometry":{"type":"LineString","coordinates":[[147.1803,-9.4438],[147.1803,-9.4438]]},"properties":{"_map_colour":"#566472"}},{"type":"Feature","geometry":{"type":"LineString","coordinates":[[110.3592,1.5533],[110.3593,1.5535]]},"properties":{"_map_colour":"#566472"}},{"type":"Feature","geometry":{"type":"LineString","coordinates":[[15.517949210102783,-4.31335],[15.363001033341048,-4.4419]]},"properties":{"_map_colour":"#566472"}},{"type":"Feature","geometry":{"type":"LineString","coordinates":[[-76.15171199335185,39.15151222464106],[36.812,-1.231]]},"properties":{"_map_colour":"#566472"}},{"type":"Feature","geometry":{"type":"LineString","coordinates":[[-76.15171199335185,39.15151222464106],[-77.37197775484812,38.843109024495355]]},"properties":{"_map_colour":"#566472"}},{"type":"Feature","geometry":{"type":"LineString","coordinates":[[149.13,-35.2809],[149.13,-35.2809]]},"properties":{"_map_colour":"#566472"}},{"type":"Feature","geometry":{"type":"LineString","coordinates":[[-114.0719,51.0447],[-75.6972,45.4215]]},"properties":{"_map_colour":"#566472"}},{"type":"Feature","geometry":{"type":"LineString","coordinates":[[139.76,35.6855],[139.6503,35.6762]]},"properties":{"_map_colour":"#566472"}},{"type":"Feature","geometry":{"type":"LineString","coordinates":[[21.0122,52.2297],[20.81735535179261,52.33902760790096]]},"properties":{"_map_colour":"#566472"}},{"type":"Feature","geometry":{"type":"LineString","coordinates":[[96.0785,19.7633],[96.0785,19.7633]]},"properties":{"_map_colour":"#566472"}},{"type":"Feature","geometry":{"type":"LineString","coordinates":[[15.08991186220244,-4.09974046018387],[15.146598625355528,-4.332572392099045]]},"properties":{"_map_colour":"#566472"}},{"type":"Feature","geometry":{"type":"LineString","coordinates":[[-123.1207,49.2827],[166.9209,-0.5477]]},"properties":{"_map_colour":"#566472"}},{"type":"Feature","geometry":{"type":"LineString","coordinates":[[-123.1207,49.2827],[-76.90246432310602,38.9877]]},"properties":{"_map_colour":"#566472"}},{"type":"Feature","geometry":{"type":"LineString","coordinates":[[-123.1207,49.2827],[-76.91726430831825,18.082427607900957]]},"properties":{"_map_colour":"#566472"}},{"type":"Feature","geometry":{"type":"LineString","coordinates":[[-123.1207,49.2827],[-76.69044336731444,17.973100000000002]]},"properties":{"_map_colour":"#566472"}},{"type":"Feature","geometry":{"type":"LineString","coordinates":[[-123.1207,49.2827],[-77.18003756331439,39.097027607900955]]},"properties":{"_map_colour":"#566472"}},{"type":"Feature","geometry":{"type":"LineString","coordinates":[[-78.70097698279389,0.03290953981612946],[-78.58714243090623,-0.07137239209904422]]},"properties":{"_map_colour":"#566472"}},{"type":"Feature","geometry":{"type":"LineString","coordinates":[[91.7832,22.3569],[91.7832,22.3569]]},"properties":{"_map_colour":"#566472"}},{"type":"Feature","geometry":{"type":"LineString","coordinates":[[35.7516,-6.163],[35.7516,-6.163]]},"properties":{"_map_colour":"#566472"}}]}