{"type":"FeatureCollection","details":true,"features":[{"type":"Feature","geometry":{"type":"Polygon","coordinates":[[[60,75],[180,75],[180,45],[100,45],[60,55],[60,75]]]},"properties":{"_map_colour":"#9B5750","name":"Russia (Siberia & Far East)","cat":"classic","catLabel":"Classic Settler State","sources":"RAIPON; Russian Census","_k":"0"}},{"type":"Feature","geometry":{"type":"Polygon","coordinates":[[[-141,83],[-52,83],[-52,60],[-52,47],[-67,47],[-83,47],[-95,49],[-125,49],[-130,54],[-141,60],[-141,70],[-141,83]]]},"properties":{"_map_colour":"#9B5750","name":"Canada","cat":"classic","catLabel":"Classic Settler State","sources":"Truth and Reconciliation Commission of Canada (2015); Statistics Canada","_k":"1"}},{"type":"Feature","geometry":{"type":"Polygon","coordinates":[[[-12,84],[-73,84],[-73,60],[-12,60],[-12,84]]]},"properties":{"_map_colour":"#AA5B64","name":"Greenland","cat":"decolonizing","catLabel":"Decolonizing Settler State","sources":"Government of Greenland; Statistics Greenland","_k":"2"}},{"type":"Feature","geometry":{"type":"Polygon","coordinates":[[[-125,49],[-67,49],[-67,45],[-70,41],[-75,35],[-80,31],[-80,25],[-97,26],[-104,29],[-104,32],[-117,32],[-125,32],[-125,49]]]},"properties":{"_map_colour":"#9B5750","name":"United States","cat":"classic","catLabel":"Classic Settler State","sources":"US Census Bureau; Bureau of Indian Affairs","_k":"3"}},{"type":"Feature","geometry":{"type":"Polygon","coordinates":[[[-74,5],[-35,5],[-35,-5],[-54,-34],[-58,-25],[-74,-10],[-74,5]]]},"properties":{"_map_colour":"#9B5750","name":"Brazil","cat":"classic","catLabel":"Classic Settler State","sources":"Brazilian Census (IBGE); FUNAI; CIMI","_k":"4"}},{"type":"Feature","geometry":{"type":"Polygon","coordinates":[[[113,-12],[130,-12],[142,-10],[154,-15],[154,-25],[150,-35],[147,-39],[141,-39],[129,-32],[115,-35],[113,-26],[113,-12]]]},"properties":{"_map_colour":"#9B5750","name":"Australia","cat":"classic","catLabel":"Classic Settler State","sources":"Australian Bureau of Statistics; High Court (Mabo, 1992)","_k":"5"}},{"type":"Feature","geometry":{"type":"Polygon","coordinates":[[[68,35],[97,35],[97,8],[68,8],[68,35]]]},"properties":{"_map_colour":"#618FAE","name":"India (Adivasi Territories)","cat":"displacement","catLabel":"State Displacement of Indigenous","sources":"UN Special Rapporteur on Indigenous Peoples; Ministry of Tribal Affairs","_k":"6"}},{"type":"Feature","geometry":{"type":"Polygon","coordinates":[[[-73,-21],[-54,-21],[-54,-55],[-73,-55],[-73,-21]]]},"properties":{"_map_colour":"#9B5750","name":"Argentina","cat":"classic","catLabel":"Classic Settler State","sources":"Argentine Census; INAI","_k":"7"}},{"type":"Feature","geometry":{"type":"Polygon","coordinates":[[[47,55],[87,55],[87,40],[47,40],[47,55]]]},"properties":{"_map_colour":"#AA5B64","name":"Kazakhstan","cat":"decolonizing","catLabel":"Decolonizing Settler State","sources":"Kazakhstan Statistics Agency; academic demographic studies","_k":"8"}},{"type":"Feature","geometry":{"type":"Polygon","coordinates":[[[-117,32],[-86,32],[-86,14],[-105,14],[-117,24],[-117,32]]]},"properties":{"_map_colour":"#9B5750","name":"Mexico","cat":"classic","catLabel":"Classic Settler State","sources":"INEGI (Mexican Census); UN Special Rapporteur on Indigenous Rights","_k":"9"}},{"type":"Feature","geometry":{"type":"Polygon","coordinates":[[[97,53],[126,53],[126,37],[97,37],[97,53]]]},"properties":{"_map_colour":"#9861AE","name":"Inner Mongolia","cat":"active-frontier","catLabel":"Active Frontier Expansion","sources":"Southern Mongolian Human Rights Information Center; Chinese Census","_k":"10"}},{"type":"Feature","geometry":{"type":"Polygon","coordinates":[[[-155,-8],[-134,-8],[-134,-28],[-155,-28],[-155,-8]]]},"properties":{"_map_colour":"#9B5750","name":"French Polynesia","cat":"classic","catLabel":"Classic Settler State","explanation":"France colonized Tahiti in 1842 and conducted 193 nuclear tests there (1966-1996), contaminating islands and sickening residents. Indigenous Mā'ohi are about 78% of population but France controls defense, foreign policy, and justice. The UN lists French Polynesia as a non-self-governing territory.","sources":"UN list of Non-Self-Governing Territories"}},{"type":"Feature","geometry":{"type":"Polygon","coordinates":[[[12,5],[31,5],[31,-14],[12,-14],[12,5]]]},"properties":{"_map_colour":"#618FAE","name":"DR Congo (Batwa/Pygmy)","cat":"displacement","catLabel":"State Displacement of Indigenous","sources":"Forest Peoples Programme; Minority Rights Group International","_k":"12"}},{"type":"Feature","geometry":{"type":"Polygon","coordinates":[[[-76,-17],[-67,-17],[-67,-56],[-76,-56],[-76,-17]]]},"properties":{"_map_colour":"#9B5750","name":"Chile","cat":"classic","catLabel":"Classic Settler State","sources":"Chilean Census; UN Special Rapporteur","_k":"13"}},{"type":"Feature","geometry":{"type":"Polygon","coordinates":[[[-2,37],[12,37],[12,19],[-9,19],[-9,28],[-2,37]]]},"properties":{"_map_colour":"#488D65","name":"Algeria","cat":"historical","catLabel":"Historical (Settlers Departed)","sources":"Historical consensus","_k":"14"}},{"type":"Feature","geometry":{"type":"Polygon","coordinates":[[[74,49],[96,49],[96,35],[74,35],[74,49]]]},"properties":{"_map_colour":"#9861AE","name":"Xinjiang (Uyghur Region)","cat":"active-frontier","catLabel":"Active Frontier Expansion","sources":"UN Human Rights Office assessment (August 2022); Chinese Census","_k":"15"}},{"type":"Feature","geometry":{"type":"Polygon","coordinates":[[[-81,0],[-69,0],[-69,-18],[-81,-18],[-81,0]]]},"properties":{"_map_colour":"#9B5750","name":"Peru","cat":"classic","catLabel":"Classic Settler State","sources":"Peruvian Census; AIDESEP; Global Witness","_k":"16"}},{"type":"Feature","geometry":{"type":"Polygon","coordinates":[[[10,33],[25,33],[25,20],[10,20],[10,33]]]},"properties":{"_map_colour":"#488D65","name":"Libya","cat":"historical","catLabel":"Historical (Settlers Departed)","explanation":"Italy colonized Libya in 1911, settled 150,000 Italians, and killed tens of thousands of Libyans in concentration camps. After independence in 1951, settlers remained until Gaddafi expelled them in 1970. Libyans now control their own country.","sources":"Historical consensus"}},{"type":"Feature","geometry":{"type":"Polygon","coordinates":[[[-79,12],[-67,12],[-67,-4],[-79,-4],[-79,12]]]},"properties":{"_map_colour":"#9B5750","name":"Colombia","cat":"classic","catLabel":"Classic Settler State","sources":"Global Witness (2024); Colombian Census; ONIC","_k":"18"}},{"type":"Feature","geometry":{"type":"Polygon","coordinates":[[[79,36],[99,36],[99,27],[79,27],[79,36]]]},"properties":{"_map_colour":"#9861AE","name":"Tibet","cat":"active-frontier","catLabel":"Active Frontier Expansion","sources":"Human Rights Watch; International Campaign for Tibet","_k":"19"}},{"type":"Feature","geometry":{"type":"Polygon","coordinates":[[[92,28],[101,28],[101,10],[92,10],[92,28]]]},"properties":{"_map_colour":"#618FAE","name":"Myanmar (Karen, Kachin, Shan, Others)","cat":"displacement","catLabel":"State Displacement of Indigenous","sources":"UN Human Rights Council; UN Fact-Finding Mission on Myanmar","_k":"20"}},{"type":"Feature","geometry":{"type":"Polygon","coordinates":[[[117,21],[127,21],[127,5],[117,5],[117,21]]]},"properties":{"_map_colour":"#618FAE","name":"Philippines (Lumad, Igorot)","cat":"displacement","catLabel":"State Displacement of Indigenous","sources":"Global Witness; UN Special Rapporteur; Karapatan","_k":"21"}},{"type":"Feature","geometry":{"type":"Polygon","coordinates":[[[5,71],[31,71],[31,65],[5,65],[5,71]]]},"properties":{"_map_colour":"#618FAE","name":"Sápmi (Sámi Territories)","cat":"displacement","catLabel":"State Displacement of Indigenous","sources":"Norwegian Supreme Court (Fosen, 2021); UN Special Rapporteur; Sámi Council","_k":"22"}},{"type":"Feature","geometry":{"type":"Polygon","coordinates":[[[12,-5],[24,-5],[24,-18],[12,-18],[12,-5]]]},"properties":{"_map_colour":"#488D65","name":"Angola","cat":"historical","catLabel":"Historical (Settlers Departed)","explanation":"Portugal colonized Angola and settled 400,000 Portuguese by 1975. After the independence war, most settlers fled. Despite a devastating civil war (1975-2002), Angolans now control their own country.","sources":"Historical consensus"}},{"type":"Feature","geometry":{"type":"Polygon","coordinates":[[[-73,12],[-60,12],[-60,1],[-73,1],[-73,12]]]},"properties":{"_map_colour":"#9B5750","name":"Venezuela","cat":"classic","catLabel":"Classic Settler State","sources":"Venezuelan Census; UN Human Rights Council","_k":"24"}},{"type":"Feature","geometry":{"type":"Polygon","coordinates":[[[-69,-10],[-58,-10],[-58,-22],[-69,-22],[-69,-10]]]},"properties":{"_map_colour":"#AA5B64","name":"Bolivia","cat":"decolonizing","catLabel":"Decolonizing Settler State","sources":"Constitution of Bolivia (2009); Bolivian Census","_k":"25"}},{"type":"Feature","geometry":{"type":"Polygon","coordinates":[[[166,-34],[173,-34],[178,-37],[178,-42],[170,-47],[166,-47],[166,-34]]]},"properties":{"_map_colour":"#9B5750","name":"New Zealand / Aotearoa","cat":"classic","catLabel":"Classic Settler State","sources":"Statistics New Zealand; Waitangi Tribunal","_k":"26"}},{"type":"Feature","geometry":{"type":"Polygon","coordinates":[[[12,-17],[25,-17],[25,-28.5],[15,-28.5],[14,-22],[12,-17]]]},"properties":{"_map_colour":"#AA5B64","name":"Namibia","cat":"decolonizing","catLabel":"Decolonizing Settler State","explanation":"German settlers committed genocide against Herero and Nama peoples (1904-1908). South Africa then ruled until independence in 1990. Today, the indigenous majority governs, but white Namibians still own most commercial farmland. Germany acknowledged the genocide in 2021. Land reform is ongoing.","sources":"United Nations; German government acknowledgment (2021)"}},{"type":"Feature","geometry":{"type":"Polygon","coordinates":[[[27,-22.5],[32,-24.5],[32,-27],[26,-34],[19,-34.5],[17,-33],[16.5,-28.5],[27,-22.5]]]},"properties":{"_map_colour":"#AA5B64","name":"South Africa","cat":"decolonizing","catLabel":"Decolonizing Settler State","sources":"South African Truth and Reconciliation Commission; Statistics South Africa","_k":"28"}},{"type":"Feature","geometry":{"type":"Polygon","coordinates":[[[98,21],[106,21],[106,6],[98,6],[98,21]]]},"properties":{"_map_colour":"#618FAE","name":"Thailand (Hill Tribes)","cat":"displacement","catLabel":"State Displacement of Indigenous","sources":"IWGIA; UNHCR","_k":"29"}},{"type":"Feature","geometry":{"type":"Polygon","coordinates":[[[14,11],[27,11],[27,2],[14,2],[14,11]]]},"properties":{"_map_colour":"#618FAE","name":"Central African Republic (Aka/Bayaka)","cat":"displacement","catLabel":"State Displacement of Indigenous","explanation":"The Aka (Bayaka) people—indigenous forest dwellers—face displacement from logging and conservation projects. They are ethnically and culturally distinct from the Bantu-speaking majority. Armed conflict has worsened their situation. The Aka have no formal land rights recognized by the state.","sources":"IWGIA; Minority Rights Group International"}},{"type":"Feature","geometry":{"type":"Polygon","coordinates":[[[129,0],[141,0],[141,-9],[129,-9],[129,0]]]},"properties":{"_map_colour":"#9861AE","name":"West Papua","cat":"active-frontier","catLabel":"Active Frontier Expansion","sources":"UN Human Rights Council; Amnesty International","_k":"31"}},{"type":"Feature","geometry":{"type":"Polygon","coordinates":[[[35,-11],[40,-11],[40,-26],[32,-26],[35,-11]]]},"properties":{"_map_colour":"#488D65","name":"Mozambique","cat":"historical","catLabel":"Historical (Settlers Departed)","explanation":"Portugal colonized Mozambique and settled Portuguese in cities and on plantations. After independence in 1975, most settlers left. Mozambicans now govern themselves.","sources":"Historical consensus"}},{"type":"Feature","geometry":{"type":"Polygon","coordinates":[[[34,5],[42,5],[42,-5],[34,-5],[34,5]]]},"properties":{"_map_colour":"#618FAE","name":"Kenya (Ogiek, Sengwer, Maasai)","cat":"displacement","catLabel":"State Displacement of Indigenous","explanation":"Indigenous groups face ongoing evictions for conservation. The Ogiek were evicted from the Mau Forest; in 2017, the African Court ruled this violated their rights, but evictions continue. The Sengwer face violent evictions from Embobut Forest. Maasai have lost land to national parks.","sources":"African Court on Human and Peoples' Rights (2017); Amnesty International"}},{"type":"Feature","geometry":{"type":"Polygon","coordinates":[[[60,32],[70,32],[70,24],[60,24],[60,32]]]},"properties":{"_map_colour":"#618FAE","name":"Pakistan (Balochistan)","cat":"displacement","catLabel":"State Displacement of Indigenous","sources":"Human Rights Watch; UN Human Rights Council","_k":"34"}},{"type":"Feature","geometry":{"type":"Polygon","coordinates":[[[-63,-19],[-54,-19],[-54,-27.5],[-63,-27.5],[-63,-19]]]},"properties":{"_map_colour":"#9B5750","name":"Paraguay","cat":"classic","catLabel":"Classic Settler State","sources":"Paraguayan Census; Survival International","_k":"35"}},{"type":"Feature","geometry":{"type":"Polygon","coordinates":[[[100,23],[108,23],[108,14],[100,14],[100,23]]]},"properties":{"_map_colour":"#618FAE","name":"Laos (Hmong, Khmu)","cat":"displacement","catLabel":"State Displacement of Indigenous","sources":"IWGIA; Human Rights Watch","_k":"36"}},{"type":"Feature","geometry":{"type":"Polygon","coordinates":[[[11,4],[18,4],[18,-5],[11,-5],[11,4]]]},"properties":{"_map_colour":"#618FAE","name":"Republic of Congo (Forest Peoples)","cat":"displacement","catLabel":"State Displacement of Indigenous","explanation":"Indigenous peoples (Aka, Baka, and others) face displacement from logging and conservation projects. They are ethnically distinct from the Bantu majority. A 2011 law recognized indigenous rights, but implementation is weak. Logging companies operate on ancestral lands.","sources":"IWGIA; Forest Peoples Programme"}},{"type":"Feature","geometry":{"type":"Polygon","coordinates":[[[-17,27.7],[-8.7,27.7],[-8.7,21],[-17,21],[-17,27.7]]]},"properties":{"_map_colour":"#9861AE","name":"Western Sahara","cat":"active-frontier","catLabel":"Active Frontier Expansion","sources":"UN list of Non-Self-Governing Territories; MINURSO","_k":"38"}},{"type":"Feature","geometry":{"type":"Polygon","coordinates":[[[25.5,-15.5],[33,-15.5],[33,-22.5],[25.5,-22.5],[25.5,-15.5]]]},"properties":{"_map_colour":"#AA5B64","name":"Zimbabwe","cat":"decolonizing","catLabel":"Decolonizing Settler State","explanation":"British settlers ruled as Rhodesia until 1980. After independence, land reform transferred most white-owned farmland to Black Zimbabweans. The white population dropped from 296,000 to about 30,000. This is 'decolonizing' because settlers lost both political power and most of their land.","sources":"Zimbabwe National Statistics Agency"}},{"type":"Feature","geometry":{"type":"Polygon","coordinates":[[[-81,2],[-75,2],[-75,-5],[-81,-5],[-81,2]]]},"properties":{"_map_colour":"#9B5750","name":"Ecuador","cat":"classic","catLabel":"Classic Settler State","sources":"Ecuadorian Census; Amazon Watch; CONAIE","_k":"40"}},{"type":"Feature","geometry":{"type":"Polygon","coordinates":[[[-85,23],[-74,23],[-74,19.5],[-85,19.5],[-85,23]]]},"properties":{"_map_colour":"#9B5750","name":"Cuba","cat":"classic","catLabel":"Classic Settler State","explanation":"Spanish settlers exterminated nearly all indigenous Taíno people through violence, disease, and forced labor within decades of 1492. The island was then populated by Spanish settlers and enslaved Africans. Indigenous Taíno were eliminated—this is a completed settler colonial project.","sources":"Historical consensus"}},{"type":"Feature","geometry":{"type":"Polygon","coordinates":[[[139,46],[146,46],[146,41],[139,41],[139,46]]]},"properties":{"_map_colour":"#9B5750","name":"Japan (Hokkaido - Ainu)","cat":"classic","catLabel":"Classic Settler State","sources":"Japanese government; UN CERD","_k":"42"}},{"type":"Feature","geometry":{"type":"Polygon","coordinates":[[[9,2.5],[14,2.5],[14,-4],[9,-4],[9,2.5]]]},"properties":{"_map_colour":"#618FAE","name":"Gabon (Baka)","cat":"displacement","catLabel":"State Displacement of Indigenous","explanation":"Baka and other indigenous forest peoples face displacement from national parks and logging concessions. Gabon has created many protected areas, but indigenous peoples who lived in these forests for generations were not consulted and have been pushed out.","sources":"IWGIA; Rainforest Foundation"}},{"type":"Feature","geometry":{"type":"Polygon","coordinates":[[[80,30],[88,30],[88,26],[80,26],[80,30]]]},"properties":{"_map_colour":"#618FAE","name":"Nepal (Janajati)","cat":"displacement","catLabel":"State Displacement of Indigenous","explanation":"Nepal's 59 recognized Janajati (indigenous) groups—about 35% of the population—have been marginalized by Hindu high-caste dominance. The state was built on their exclusion. Federal restructuring in 2015 was supposed to address this, but indigenous representation and land rights remain contested.","sources":"IWGIA; Nepal Federation of Indigenous Nationalities"}},{"type":"Feature","geometry":{"type":"Polygon","coordinates":[[[29.5,4],[35,4],[35,-1.5],[29.5,-1.5],[29.5,4]]]},"properties":{"_map_colour":"#618FAE","name":"Uganda (Batwa & Others)","cat":"displacement","catLabel":"State Displacement of Indigenous","sources":"Forest Peoples Programme; IWGIA","_k":"45"}},{"type":"Feature","geometry":{"type":"Polygon","coordinates":[[[-79,27],[-74,27],[-74,21],[-79,21],[-79,27]]]},"properties":{"_map_colour":"#9B5750","name":"Bahamas","cat":"classic","catLabel":"Classic Settler State","explanation":"The indigenous Lucayan people were completely eliminated by Spanish slavers within 25 years of Columbus's 1492 arrival—the islands were left empty. Britain later colonized with settlers and enslaved Africans. The entire current population descends from this later settlement.","sources":"Historical consensus"}},{"type":"Feature","geometry":{"type":"Polygon","coordinates":[[[-61,8],[-57,8],[-57,1],[-61,1],[-61,8]]]},"properties":{"_map_colour":"#9B5750","name":"Guyana","cat":"classic","catLabel":"Classic Settler State","sources":"Guyana Census; IWGIA","_k":"47"}},{"type":"Feature","geometry":{"type":"Polygon","coordinates":[[[-58,-30],[-53,-30],[-53,-35],[-58,-35],[-58,-30]]]},"properties":{"_map_colour":"#9B5750","name":"Uruguay","cat":"classic","catLabel":"Classic Settler State","sources":"Historical consensus","_k":"48"}},{"type":"Feature","geometry":{"type":"Polygon","coordinates":[[[8,37],[11.5,37],[11.5,30],[8,30],[8,37]]]},"properties":{"_map_colour":"#488D65","name":"Tunisia","cat":"historical","catLabel":"Historical (Settlers Departed)","explanation":"France established a protectorate in 1881 and European settlers took significant land. After independence in 1956, the settlers left. Today, Tunisians control their own country. The settler colonial period ended.","sources":"Historical consensus"}},{"type":"Feature","geometry":{"type":"Polygon","coordinates":[[[-160.5,22.5],[-154.5,22.5],[-154.5,18.5],[-160.5,18.5],[-160.5,22.5]]]},"properties":{"_map_colour":"#9B5750","name":"Hawaii","cat":"classic","catLabel":"Classic Settler State","explanation":"American businessmen overthrew the Hawaiian Kingdom in 1893 using US Marines. Congress officially apologized for the illegal overthrow in 1993—but Hawaii remains a US state. Native Hawaiians are now only ~10% of the population in their own homeland. The US government controls the islands.","sources":"US Public Law 103-150 (Apology Resolution, 1993)"}},{"type":"Feature","geometry":{"type":"Polygon","coordinates":[[[10,6],[16,6],[16,2],[10,2],[10,6]]]},"properties":{"_map_colour":"#618FAE","name":"Cameroon (Baka/Bagyeli)","cat":"displacement","catLabel":"State Displacement of Indigenous","explanation":"Baka and Bagyeli peoples—indigenous forest dwellers distinct from the Bantu majority—have been evicted from their ancestral forests for logging concessions and national parks. WWF-funded anti-poaching patrols have committed documented abuses against Baka communities.","sources":"Forest Peoples Programme; Survival International"}},{"type":"Feature","geometry":{"type":"Polygon","coordinates":[[[-87.5,15],[-83,15],[-83,10.5],[-87.5,10.5],[-87.5,15]]]},"properties":{"_map_colour":"#9B5750","name":"Nicaragua","cat":"classic","catLabel":"Classic Settler State","sources":"UN Human Rights Office; Oakland Institute","_k":"52"}},{"type":"Feature","geometry":{"type":"Polygon","coordinates":[[[21,-21],[26,-21],[26,-25],[21,-25],[21,-21]]]},"properties":{"_map_colour":"#618FAE","name":"Botswana (San/Bushmen)","cat":"displacement","catLabel":"State Displacement of Indigenous","sources":"Botswana High Court ruling (2006); Survival International; UN CERD","_k":"53"}},{"type":"Feature","geometry":{"type":"Polygon","coordinates":[[[126,28],[131,28],[131,24],[126,24],[126,28]]]},"properties":{"_map_colour":"#618FAE","name":"Japan (Okinawa/Ryukyu)","cat":"displacement","catLabel":"State Displacement of Indigenous","sources":"UN CERD; Okinawa Prefectural Government","_k":"54"}},{"type":"Feature","geometry":{"type":"Polygon","coordinates":[[[-89.5,16],[-83,16],[-83,13],[-89.5,13],[-89.5,16]]]},"properties":{"_map_colour":"#9B5750","name":"Honduras","cat":"classic","catLabel":"Classic Settler State","sources":"Global Witness; Honduran Census","_k":"55"}},{"type":"Feature","geometry":{"type":"Polygon","coordinates":[[[-92,18],[-88,18],[-88,13.5],[-92,13.5],[-92,18]]]},"properties":{"_map_colour":"#9B5750","name":"Guatemala","cat":"classic","catLabel":"Classic Settler State","sources":"UN Commission for Historical Clarification (CEH); Guatemalan Census","_k":"56"}},{"type":"Feature","geometry":{"type":"Polygon","coordinates":[[[-83,10],[-77,10],[-77,7],[-83,7],[-83,10]]]},"properties":{"_map_colour":"#9B5750","name":"Panama","cat":"classic","catLabel":"Classic Settler State","sources":"Panamanian Census; Global Witness","_k":"57"}},{"type":"Feature","geometry":{"type":"Polygon","coordinates":[[[-58,6],[-54,6],[-54,2],[-58,2],[-58,6]]]},"properties":{"_map_colour":"#9B5750","name":"Suriname","cat":"classic","catLabel":"Classic Settler State","explanation":"Dutch colonizers brought enslaved Africans and indentured laborers from India, Indonesia, and China. Indigenous peoples (about 4% of population) were displaced to the interior. The government is controlled by descendants of colonial-era migrants. Indigenous land rights are poorly protected.","sources":"Suriname Census; IWGIA"}},{"type":"Feature","geometry":{"type":"Polygon","coordinates":[[[-11.5,8.5],[-7.5,8.5],[-7.5,4.5],[-11.5,4.5],[-11.5,8.5]]]},"properties":{"_map_colour":"#AA5B64","name":"Liberia","cat":"decolonizing","catLabel":"Decolonizing Settler State","explanation":"Freed American slaves settled here starting in 1822 and dominated the indigenous population for 130+ years—a unique case of Black settler colonialism. Americo-Liberians controlled the government until a 1980 coup. Today, indigenous Liberians hold political power. The settler minority lost control.","sources":"Liberia Institute of Statistics"}},{"type":"Feature","geometry":{"type":"Polygon","coordinates":[[[34,-1],[38,-1],[38,-5],[34,-5],[34,-1]]]},"properties":{"_map_colour":"#618FAE","name":"Tanzania (Maasai Territories)","cat":"displacement","catLabel":"State Displacement of Indigenous","sources":"Oakland Institute; Amnesty International","_k":"60"}},{"type":"Feature","geometry":{"type":"Polygon","coordinates":[[[40,43.5],[46,43.5],[46,41],[40,41],[40,43.5]]]},"properties":{"_map_colour":"#AB5D69","name":"Georgia (Abkhazia & South Ossetia)","cat":"attempted","catLabel":"Attempted Settler Takeover","sources":"UN; OSCE; Human Rights Watch; European Court of Human Rights","_k":"61"}},{"type":"Feature","geometry":{"type":"Polygon","coordinates":[[[-54,6],[-51,6],[-51,2],[-54,2],[-54,6]]]},"properties":{"_map_colour":"#9B5750","name":"French Guiana","cat":"classic","catLabel":"Classic Settler State","sources":"French government; IWGIA","_k":"62"}},{"type":"Feature","geometry":{"type":"Polygon","coordinates":[[[-86,11],[-82.5,11],[-82.5,8],[-86,8],[-86,11]]]},"properties":{"_map_colour":"#9B5750","name":"Costa Rica","cat":"classic","catLabel":"Classic Settler State","explanation":"Spanish settlers colonized Costa Rica and their descendants control the country today. Indigenous peoples are about 2% of the population and live mostly in designated territories, but these lands face encroachment from non-indigenous settlers.","sources":"Costa Rican Census; IWGIA"}},{"type":"Feature","geometry":{"type":"Polygon","coordinates":[[[-72,20],[-68,20],[-68,17.5],[-72,17.5],[-72,20]]]},"properties":{"_map_colour":"#9B5750","name":"Dominican Republic","cat":"classic","catLabel":"Classic Settler State","explanation":"Spanish settlers eliminated the indigenous Taíno population through violence, disease, and enslavement within decades of Columbus's 1492 arrival. The country was then populated by Spanish settlers and enslaved Africans. The indigenous population was completely replaced.","sources":"Historical consensus"}},{"type":"Feature","geometry":{"type":"Polygon","coordinates":[[[107,16],[109,16],[109,11],[107,11],[107,16]]]},"properties":{"_map_colour":"#9861AE","name":"Vietnam (Central Highlands)","cat":"active-frontier","catLabel":"Active Frontier Expansion","explanation":"After 1975, Vietnam's government settled ethnic Vietnamese (Kinh) in the Central Highlands through 'New Economic Zones,' turning indigenous Montagnard/Degar peoples (Jarai, Rade, Bahnar) into minorities. Montagnards face land confiscation and religious persecution. Many have fled as refugees.","sources":"Human Rights Watch; UNHCR"}},{"type":"Feature","geometry":{"type":"Polygon","coordinates":[[[164,-20],[167,-20],[167,-23],[164,-23],[164,-20]]]},"properties":{"_map_colour":"#9B5750","name":"New Caledonia (Kanaky)","cat":"classic","catLabel":"Classic Settler State","sources":"UN list of Non-Self-Governing Territories; French government","_k":"66"}},{"type":"Feature","geometry":{"type":"Polygon","coordinates":[[[120,25.5],[122,25.5],[122,21.5],[120,21.5],[120,25.5]]]},"properties":{"_map_colour":"#9B5750","name":"Taiwan","cat":"classic","catLabel":"Classic Settler State","sources":"Taiwan Council of Indigenous Peoples","_k":"67"}},{"type":"Feature","geometry":{"type":"Polygon","coordinates":[[[80,10],[82,10],[82,6],[80,6],[80,10]]]},"properties":{"_map_colour":"#618FAE","name":"Sri Lanka (Veddah)","cat":"displacement","catLabel":"State Displacement of Indigenous","sources":"IWGIA; International Crisis Group","_k":"68"}},{"type":"Feature","geometry":{"type":"Polygon","coordinates":[[[37,50],[40,50],[40,47.5],[37,47.5],[37,50]]]},"properties":{"_map_colour":"#AB5D69","name":"Ukraine (Donbas - Pre-2022)","cat":"attempted","catLabel":"Attempted Settler Takeover","sources":"UN Human Rights Monitoring Mission in Ukraine; OSCE","_k":"69"}},{"type":"Feature","geometry":{"type":"Polygon","coordinates":[[[33,46.2],[36.5,46.2],[36.5,44.4],[33,44.4],[33,46.2]]]},"properties":{"_map_colour":"#9861AE","name":"Crimea","cat":"active-frontier","catLabel":"Active Frontier Expansion","explanation":"Stalin deported the entire Crimean Tatar population in 1944, killing 18-46% during the deportation. Russia annexed Crimea in 2014, has since moved more Russian settlers in, banned the Crimean Tatar Mejlis, and persecutes Tatars who resist. Russia is actively settling the territory it seized.","sources":"UN Human Rights Monitoring Mission in Ukraine; OSCE"}},{"type":"Feature","geometry":{"type":"Polygon","coordinates":[[[-89.5,18.5],[-87.5,18.5],[-87.5,15.5],[-89.5,15.5],[-89.5,18.5]]]},"properties":{"_map_colour":"#9B5750","name":"Belize","cat":"classic","catLabel":"Classic Settler State","sources":"Caribbean Court of Justice (2015); Belize Census","_k":"71"}},{"type":"Feature","geometry":{"type":"Polygon","coordinates":[[[-178,-13],[-176,-13],[-176,-15],[-178,-15],[-178,-13]]]},"properties":{"_map_colour":"#9B5750","name":"Wallis and Futuna","cat":"classic","catLabel":"Classic Settler State","explanation":"France controls this Pacific territory, which is on the UN list of non-self-governing territories—meaning it is officially recognized as a colony. The indigenous Polynesian population (95%+) maintains traditional chiefs, but France has ultimate authority.","sources":"UN list of Non-Self-Governing Territories"}},{"type":"Feature","geometry":{"type":"Polygon","coordinates":[[[35,6],[37,6],[37,4],[35,4],[35,6]]]},"properties":{"_map_colour":"#618FAE","name":"Ethiopia (Lower Omo Valley)","cat":"displacement","catLabel":"State Displacement of Indigenous","explanation":"The Ethiopian government forcibly relocated indigenous peoples (Mursi, Bodi, Kwegu, Kara) from the Lower Omo Valley for the Gibe III dam and state sugar plantations. Traditional flood agriculture was destroyed. These groups are ethnically distinct from the Amhara and Oromo majority.","sources":"Human Rights Watch; Oakland Institute"}},{"type":"Feature","geometry":{"type":"Polygon","coordinates":[[[-90,14.5],[-87.5,14.5],[-87.5,13],[-90,13],[-90,14.5]]]},"properties":{"_map_colour":"#9B5750","name":"El Salvador","cat":"classic","catLabel":"Classic Settler State","sources":"UN; El Salvador Census","_k":"74"}},{"type":"Feature","geometry":{"type":"Polygon","coordinates":[[[-78.5,18.5],[-76,18.5],[-76,17],[-78.5,17],[-78.5,18.5]]]},"properties":{"_map_colour":"#9B5750","name":"Jamaica","cat":"classic","catLabel":"Classic Settler State","explanation":"Spanish settlers eliminated the indigenous Taíno, then Britain took over and brought enslaved Africans. The indigenous population was completely replaced. Jamaica gained independence in 1962, but this was a post-indigenous society—the original people were already gone.","sources":"Historical consensus"}},{"type":"Feature","geometry":{"type":"Polygon","coordinates":[[[28.5,48.5],[30,48.5],[30,46],[28.5,46],[28.5,48.5]]]},"properties":{"_map_colour":"#AB5D69","name":"Moldova (Transnistria)","cat":"attempted","catLabel":"Attempted Settler Takeover","sources":"OSCE Mission to Moldova; UN","_k":"76"}},{"type":"Feature","geometry":{"type":"Polygon","coordinates":[[[35.1,33.3],[35.5,32.5],[35.5,31.5],[34.9,29.5],[34.3,29.5],[34.3,31.5],[35.1,33.3]]]},"properties":{"_map_colour":"#9B5750","name":"Israel","cat":"classic","catLabel":"Classic Settler State","sources":"UNRWA; UN Office for the Coordination of Humanitarian Affairs","_k":"77"}},{"type":"Feature","geometry":{"type":"Polygon","coordinates":[[[91.5,23.5],[92.7,23.5],[92.7,21.5],[91.5,21.5],[91.5,23.5]]]},"properties":{"_map_colour":"#9861AE","name":"Bangladesh (Chittagong Hill Tracts)","cat":"active-frontier","catLabel":"Active Frontier Expansion","explanation":"The government deliberately settled 400,000 Bengalis in the Chittagong Hill Tracts between 1979-1984, turning indigenous Jumma peoples (Chakma, Marma, Tripura) into a minority in their homeland. A 1997 peace accord promised to address this, but settlers remain and land grabbing continues.","sources":"Chittagong Hill Tracts Commission; Amnesty International; IWGIA"}},{"type":"Feature","geometry":{"type":"Polygon","coordinates":[[[29.1,-2.3],[30.5,-2.3],[30.5,-4],[29.1,-4],[29.1,-2.3]]]},"properties":{"_map_colour":"#618FAE","name":"Burundi (Batwa)","cat":"displacement","catLabel":"State Displacement of Indigenous","explanation":"The Batwa of Burundi—the original inhabitants before Hutu and Tutsi arrived—have been pushed out of forests and denied land rights. They comprise about 1% of the population and face severe discrimination. The Batwa are landless and excluded from political participation.","sources":"Minority Rights Group International; IWGIA"}},{"type":"Feature","geometry":{"type":"Polygon","coordinates":[[[46,40.5],[47.5,40.5],[47.5,39],[46,39],[46,40.5]]]},"properties":{"_map_colour":"#AB5D69","name":"Azerbaijan (Nagorno-Karabakh - Historical)","cat":"attempted","catLabel":"Attempted Settler Takeover","sources":"Human Rights Watch; International Crisis Group; UNHCR","_k":"80"}},{"type":"Feature","geometry":{"type":"Polygon","coordinates":[[[-62,11],[-60,11],[-60,10],[-62,10],[-62,11]]]},"properties":{"_map_colour":"#9B5750","name":"Trinidad and Tobago","cat":"classic","catLabel":"Classic Settler State","explanation":"Spanish colonizers eliminated most indigenous peoples, then Britain brought enslaved Africans and later indentured laborers from India. Today's population descends from settlers, enslaved people, and indentured laborers—not the original inhabitants.","sources":"Historical consensus"}},{"type":"Feature","geometry":{"type":"Polygon","coordinates":[[[-171,-14],[-169,-14],[-169,-15],[-171,-15],[-171,-14]]]},"properties":{"_map_colour":"#9B5750","name":"American Samoa","cat":"classic","catLabel":"Classic Settler State","explanation":"The US has controlled American Samoa since 1900. Samoans are US 'nationals' but not citizens—they cannot vote for president. The UN lists it as a non-self-governing territory. Traditional land ownership has been preserved, but the US federal government still has ultimate authority.","sources":"UN list of Non-Self-Governing Territories"}},{"type":"Feature","geometry":{"type":"Polygon","coordinates":[[[-67.5,18.6],[-65.2,18.6],[-65.2,17.9],[-67.5,17.9],[-67.5,18.6]]]},"properties":{"_map_colour":"#9B5750","name":"Puerto Rico","cat":"classic","catLabel":"Classic Settler State","explanation":"Spain colonized Puerto Rico in 1493, eliminating most of the indigenous Taíno population. The US seized it in 1898 and still controls it today. Puerto Ricans cannot vote for US president and have no voting representation in Congress. The UN lists Puerto Rico as a colony.","sources":"UN Special Committee on Decolonization"}},{"type":"Feature","geometry":{"type":"Polygon","coordinates":[[[32.5,35.7],[34.5,35.7],[34.5,35.1],[32.5,35.1],[32.5,35.7]]]},"properties":{"_map_colour":"#9861AE","name":"Northern Cyprus","cat":"active-frontier","catLabel":"Active Frontier Expansion","sources":"UN Peacekeeping Force in Cyprus; European Court of Human Rights","_k":"84"}},{"type":"Feature","geometry":{"type":"Polygon","coordinates":[[[35,32.5],[35.6,32.5],[35.6,31.3],[35,31.3],[35,32.5]]]},"properties":{"_map_colour":"#9861AE","name":"West Bank (Israeli Settlements)","cat":"active-frontier","catLabel":"Active Frontier Expansion","sources":"UN Security Council Resolution 2334; B'Tselem; Peace Now","_k":"85"}},{"type":"Feature","geometry":{"type":"Polygon","coordinates":[[[29.4,-1.4],[29.9,-1.4],[29.9,-2.6],[29.4,-2.6],[29.4,-1.4]]]},"properties":{"_map_colour":"#618FAE","name":"Rwanda (Batwa)","cat":"displacement","catLabel":"State Displacement of Indigenous","sources":"Minority Rights Group International; IWGIA","_k":"86"}},{"type":"Feature","geometry":{"type":"Polygon","coordinates":[[[-65.1,18.4],[-64.5,18.4],[-64.5,17.6],[-65.1,17.6],[-65.1,18.4]]]},"properties":{"_map_colour":"#9B5750","name":"US Virgin Islands","cat":"classic","catLabel":"Classic Settler State","explanation":"The indigenous Taíno and Kalinago were eliminated by Spanish colonizers. Denmark then colonized using enslaved Africans. The US purchased the islands in 1917. Today's population descends from enslaved people and later migrants, not indigenous inhabitants.","sources":"US Census Bureau"}},{"type":"Feature","geometry":{"type":"Polygon","coordinates":[[[144.5,13.7],[145,13.7],[145,13.2],[144.5,13.2],[144.5,13.7]]]},"properties":{"_map_colour":"#9B5750","name":"Guam","cat":"classic","catLabel":"Classic Settler State","explanation":"Spain colonized Guam in 1668, devastating the indigenous Chamorro population. The US seized it in 1898. Today, the US military controls 29% of the island. Chamorros are only 37% of the population—a minority in their homeland. The UN lists Guam as a colony.","sources":"UN list of Non-Self-Governing Territories; US Census"}},{"type":"Feature","geometry":{"type":"Polygon","coordinates":[[[-59.7,13.4],[-59.4,13.4],[-59.4,13],[-59.7,13],[-59.7,13.4]]]},"properties":{"_map_colour":"#9B5750","name":"Barbados","cat":"classic","catLabel":"Classic Settler State","explanation":"The island had no indigenous population when the British arrived in 1627. Britain established sugar plantations using enslaved Africans. The entire population descends from colonial-era settlers and enslaved people. This is a fully settler-created society.","sources":"Historical consensus"}}]}