{
 "type": "FeatureCollection",
 "features": [
  {
   "type": "Feature",
   "geometry": {
    "type": "Point",
    "coordinates": [
     -84.3963,
     33.771
    ]
   },
   "properties": {
    "name": "The Coca-Cola Company",
    "group": "Corporatized a holiday",
    "holiday": "Christmas",
    "what they did": "From the 1930s its Christmas advertising, painted by Haddon Sundblom, spread the red-suited Santa Claus now seen worldwide (it was not the first drink company to use him: White Rock did from 1915).",
    "when": "1931 on",
    "placed at": "headquarters, Atlanta",
    "source": "https://en.wikipedia.org/wiki/Santa_Claus"
   }
  },
  {
   "type": "Feature",
   "geometry": {
    "type": "Point",
    "coordinates": [
     -73.989,
     40.7508
    ]
   },
   "properties": {
    "name": "Macy's",
    "group": "Corporatized a holiday",
    "holiday": "Thanksgiving and Christmas shopping",
    "what they did": "Its Thanksgiving Day Parade began in 1924 as a store promotion: employees marched to its Herald Square store, ending with Santa Claus, to open the Christmas shopping season.",
    "when": "1924",
    "placed at": "flagship store, Herald Square, New York",
    "source": "https://en.wikipedia.org/wiki/Macy%27s_Thanksgiving_Day_Parade"
   }
  },
  {
   "type": "Feature",
   "geometry": {
    "type": "Point",
    "coordinates": [
     -87.6437,
     41.8966
    ]
   },
   "properties": {
    "name": "Montgomery Ward",
    "group": "Corporatized a holiday",
    "holiday": "Christmas",
    "what they did": "Had its copywriter Robert L. May write Rudolph the Red-Nosed Reindeer in 1939 as its own Christmas giveaway booklet; 2.4 million copies went out the first year.",
    "when": "1939",
    "placed at": "its former head office, Chicago",
    "source": "https://en.wikipedia.org/wiki/Rudolph_the_Red-Nosed_Reindeer"
   }
  },
  {
   "type": "Feature",
   "geometry": {
    "type": "Point",
    "coordinates": [
     120.026,
     30.281
    ]
   },
   "properties": {
    "name": "Alibaba Group",
    "group": "Corporatized a holiday",
    "holiday": "Singles' Day (11 November)",
    "what they did": "From 2009 turned Singles' Day into a 24-hour online sales event; with JD.com it took a record US$139 billion in 2021.",
    "when": "2009",
    "placed at": "headquarters, Hangzhou",
    "source": "https://en.wikipedia.org/wiki/Singles%27_Day"
   }
  },
  {
   "type": "Feature",
   "geometry": {
    "type": "Point",
    "coordinates": [
     -122.3395,
     47.6156
    ]
   },
   "properties": {
    "name": "Amazon",
    "group": "Corporatized a holiday",
    "holiday": "Prime Day",
    "what they did": "Invented Prime Day, a sales day for its members, first held on 15 July 2015 for the website's 20th anniversary.",
    "when": "2015",
    "placed at": "headquarters, Seattle",
    "source": "https://en.wikipedia.org/wiki/Prime_Day"
   }
  },
  {
   "type": "Feature",
   "geometry": {
    "type": "Point",
    "coordinates": [
     -77.028,
     38.9008
    ]
   },
   "properties": {
    "name": "National Retail Federation (Shop.org)",
    "group": "Corporatized a holiday",
    "holiday": "Cyber Monday",
    "what they did": "Ellen Davis of Shop.org, part of the National Retail Federation, coined \"Cyber Monday\" in a press release on 28 November 2005.",
    "when": "2005",
    "placed at": "headquarters, Washington, D.C.",
    "source": "https://en.wikipedia.org/wiki/Cyber_Monday"
   }
  },
  {
   "type": "Feature",
   "geometry": {
    "type": "Point",
    "coordinates": [
     -74.006,
     40.7128
    ]
   },
   "properties": {
    "name": "Father's Day Council (New York Associated Men's Wear Retailers)",
    "group": "Corporatized a holiday",
    "holiday": "Father's Day",
    "what they did": "Founded in 1938 by New York's men's wear retailers to \"consolidate and systematize the commercial promotion\" of Father's Day, with makers of ties, pipes and other gifts.",
    "when": "1938",
    "placed at": "New York (the city; no address given)",
    "source": "https://en.wikipedia.org/wiki/Father%27s_Day_(United_States)"
   }
  },
  {
   "type": "Feature",
   "geometry": {
    "type": "Point",
    "coordinates": [
     130.4017,
     33.59
    ]
   },
   "properties": {
    "name": "Ishimuramanseido",
    "group": "Corporatized a holiday",
    "holiday": "White Day (14 March, Japan)",
    "what they did": "The Fukuoka confectioner sold marshmallows to men on 14 March 1977 as \"Marshmallow Day\"; Japan's National Confectionery Industry Association made it White Day, an \"answer day\" to Valentine's Day, in 1978.",
    "when": "1977",
    "placed at": "Fukuoka (the city)",
    "source": "https://en.wikipedia.org/wiki/White_Day"
   }
  },
  {
   "type": "Feature",
   "geometry": {
    "type": "Point",
    "coordinates": [
     -81.6944,
     41.4993
    ]
   },
   "properties": {
    "name": "Cleveland confectioners' committee (C. C. Hartzell)",
    "group": "Corporatized a holiday",
    "holiday": "Sweetest Day",
    "what they did": "Twelve Cleveland confectioners chaired by candymaker C. C. Hartzell planned the first Sweetest Day in 1921.",
    "when": "1921",
    "placed at": "Cleveland (the city)",
    "source": "https://en.wikipedia.org/wiki/Sweetest_Day"
   }
  },
  {
   "type": "Feature",
   "geometry": {
    "type": "Point",
    "coordinates": [
     -77.059,
     38.905
    ]
   },
   "properties": {
    "name": "National Confectioners Association",
    "group": "Corporatized a holiday",
    "holiday": "Sweetest Day",
    "what they did": "In 1937 launched a movement across the candy industry to rank Sweetest Day with Mother's Day, Father's Day and Valentine's Day.",
    "when": "1937",
    "placed at": "headquarters, Washington, D.C.",
    "source": "https://en.wikipedia.org/wiki/Sweetest_Day"
   }
  },
  {
   "type": "Feature",
   "geometry": {
    "type": "Point",
    "coordinates": [
     126.978,
     37.5665
    ]
   },
   "properties": {
    "name": "Lotte",
    "group": "Corporatized a holiday",
    "holiday": "Pepero Day (11 November, South Korea)",
    "what they did": "Promoted Pepero Day from 1997; by 2012 half its yearly Pepero revenue came from that day.",
    "when": "1997",
    "placed at": "Seoul (the city)",
    "source": "https://en.wikipedia.org/wiki/Pepero_Day"
   }
  },
  {
   "type": "Feature",
   "geometry": {
    "type": "Point",
    "coordinates": [
     139.622,
     35.466
    ]
   },
   "properties": {
    "name": "KFC Japan",
    "group": "Corporatized a holiday",
    "holiday": "Christmas (Japan)",
    "what they did": "Its 1974 campaign \"Kentucky for Christmas\" made a KFC meal at Christmas a national custom; stores take orders months ahead.",
    "when": "1974",
    "placed at": "headquarters, Nishi-ku, Yokohama",
    "source": "https://en.wikipedia.org/wiki/KFC_in_Japan"
   }
  },
  {
   "type": "Feature",
   "geometry": {
    "type": "Point",
    "coordinates": [
     -82.991956,
     39.98192
    ]
   },
   "properties": {
    "name": "Federated Department Stores (Fred Lazarus Jr.; now Macy's, Inc.)",
    "group": "Corporatized a holiday",
    "holiday": "Thanksgiving (United States)",
    "what they did": "Its head, Fred Lazarus Jr., urged President Roosevelt to move Thanksgiving a week earlier so the Christmas shopping season would be longer. Roosevelt did so in 1939 ('Franksgiving'), and Congress fixed it on the fourth Thursday in 1941.",
    "when": "1939 to 1941",
    "placed at": "Columbus, Ohio, home of the Lazarus store and where Federated was organized (city point: Natural Earth populated places)",
    "source": "https://en.wikipedia.org/wiki/Franksgiving"
   }
  },
  {
   "type": "Feature",
   "geometry": {
    "type": "Point",
    "coordinates": [
     135.169982,
     34.679988
    ]
   },
   "properties": {
    "name": "Morozoff",
    "group": "Corporatized a holiday",
    "holiday": "Valentine's Day (Japan)",
    "what they did": "This Kobe confectioner brought Valentine's Day to Japan as a chocolate-giving day, with a 1936 advertisement in the English-language Japan Advertiser telling readers to give its boxed chocolates to their Valentine.",
    "when": "1936",
    "placed at": "Kobe, its headquarters (city point: Natural Earth populated places)",
    "source": "https://en.wikipedia.org/wiki/Morozoff_Ltd."
   }
  },
  {
   "type": "Feature",
   "geometry": {
    "type": "Point",
    "coordinates": [
     139.749462,
     35.686963
    ]
   },
   "properties": {
    "name": "Mary's Chocolate",
    "group": "Corporatized a holiday",
    "holiday": "Valentine's Day (Japan)",
    "what they did": "Held Japan's first Valentine's sale of chocolates, at a Tokyo department store in February 1958, and the next year began writing names on heart-shaped chocolates; chocolate makers' campaigns fixed the custom of women giving chocolate to men.",
    "when": "1958 on",
    "placed at": "Tokyo (city point: Natural Earth populated places)",
    "source": "https://www.nippon.com/en/features/jg00025"
   }
  },
  {
   "type": "Feature",
   "geometry": {
    "type": "Point",
    "coordinates": [
     -71.0377,
     42.08
    ]
   },
   "properties": {
    "name": "Edgar's Department Store (James Edgar)",
    "group": "Corporatized a holiday",
    "holiday": "Christmas",
    "what they did": "Its owner, James Edgar, dressed as Santa Claus in his Brockton store from December 1890 to draw shoppers' children, the first department store Santa; trains brought families from Boston and Providence to see him, and by about 1900 shop Santas were everywhere.",
    "when": "1890 on",
    "placed at": "Brockton, Massachusetts (city point: US-Cities-Database, github.com/kelvins/US-Cities-Database)",
    "source": "https://en.wikipedia.org/wiki/Edgar_Department_Stores"
   }
  },
  {
   "type": "Feature",
   "geometry": {
    "type": "Point",
    "coordinates": [
     -73.201907,
     41.181925
    ]
   },
   "properties": {
    "name": "Dictaphone Corporation (C. King Woodbridge)",
    "group": "Corporatized a holiday",
    "holiday": "Secretaries Day (now Administrative Professionals Day)",
    "what they did": "Its president, C. King Woodbridge, with the National Secretaries Association's president and a Young & Rubicam publicist, devised National Secretaries Week, first held in June 1952 with backing from office equipment makers; Dictaphone was its first sponsor.",
    "when": "1952 on",
    "placed at": "Bridgeport, Connecticut, where Dictaphone made its machines (city point: Natural Earth populated places)",
    "source": "https://en.wikipedia.org/wiki/Administrative_Professionals_Day",
    "source 2": "https://corporate.hallmark.com/holidays-occasions/administrative-professionals-day/"
   }
  },
  {
   "type": "Feature",
   "geometry": {
    "type": "Point",
    "coordinates": [
     -73.981963,
     40.751925
    ]
   },
   "properties": {
    "name": "Young & Rubicam (Harry F. Klemfuss)",
    "group": "Corporatized a holiday",
    "holiday": "Secretaries Day (now Administrative Professionals Day)",
    "what they did": "Harry F. Klemfuss, a public relations account executive at this advertising agency, was one of the three who devised the secretaries week campaign that became National Secretaries Week in 1952.",
    "when": "1952 on",
    "placed at": "New York, the agency's headquarters (city point: Natural Earth populated places)",
    "source": "https://corporate.hallmark.com/holidays-occasions/administrative-professionals-day/"
   }
  },
  {
   "type": "Feature",
   "geometry": {
    "type": "Point",
    "coordinates": [
     -98.509251,
     29.489279
    ]
   },
   "properties": {
    "name": "The Gambrinus Company",
    "group": "Corporatized a holiday",
    "holiday": "Cinco de Mayo (United States)",
    "what they did": "As regional importer of Corona and other Grupo Modelo beers, it launched a Cinco de Mayo advertising campaign in 1989 urging people to celebrate with Mexican beer; by 1996 its marketing manager said Corona was the first thing customers thought of for the day.",
    "when": "1989 on",
    "placed at": "San Antonio, Texas, its headquarters (city point: Natural Earth populated places)",
    "source": "https://vinepair.com/wine-blog/how-corona-made-cinco-de-mayo-an-american-holiday/",
    "source 2": "https://www.foxnews.com/lifestyle/cinco-de-mayo-beer-sales-outpace-st-patricks-day-and-super-bowl"
   }
  },
  {
   "type": "Feature",
   "geometry": {
    "type": "Point",
    "coordinates": [
     -99.132934,
     19.444388
    ]
   },
   "properties": {
    "name": "Grupo Modelo (maker of Corona)",
    "group": "Corporatized a holiday",
    "holiday": "Cinco de Mayo (United States)",
    "what they did": "Named by historians as one of the leading promoters and beneficiaries of Cinco de Mayo in the United States, a minor holiday in Mexico that became a major beer-selling day north of the border from the 1980s.",
    "when": "1980s on",
    "placed at": "Mexico City, its headquarters (city point: Natural Earth populated places)",
    "source": "https://www.historynewsnetwork.org/article/126189"
   }
  },
  {
   "type": "Feature",
   "geometry": {
    "type": "Point",
    "coordinates": [
     -83.082002,
     42.331906
    ]
   },
   "properties": {
    "name": "Florists' Telegraph Delivery (FTD)",
    "group": "Corporatized a holiday",
    "holiday": "Mother's Day",
    "what they did": "From 1910 this florists' association urged people to wire flowers to distant mothers, and from 1917 the flower trade ran national Mother's Day promotions; when the day's founder, Anna Jarvis, threatened legal action over the carnation trade, FTD offered her a commission on sales, which she refused.",
    "when": "1910 on",
    "placed at": "Detroit, Michigan, where FTD was based (city point: Natural Earth populated places)",
    "source": "https://www.encyclopedia.com/media/encyclopedias-almanacs-transcripts-and-maps/mothers-day",
    "source 2": "https://www.mentalfloss.com/holidays/founder-mothers-day-later-fought-have-it-abolished"
   }
  }
 ]
}