{"type": "FeatureCollection", "features": [{"type": "Feature", "geometry": {"type": "Point", "coordinates": [-73.9767459, 40.7554453]}, "properties": {"bank": "JPMorgan Chase", "fossil_fuel_financing_rank_2025": 1, "fossil_fuel_financing_2021": "$60.1 B", "fossil_fuel_financing_2022": "$38.1 B", "fossil_fuel_financing_2023": "$40.4 B", "fossil_fuel_financing_2024": "$51.7 B", "fossil_fuel_financing_2025": "$58.2 B", "fossil_fuel_financing_total_2021_2025": "$248.5 B", "fossil_fuel_financing_change_2024_2025": "+$6.5 B", "fossil_fuel_financing_change_pct_2024_2025": "+12.5%", "expansion_financing_rank_2025": 1, "expansion_financing_2021": "$25.7 B", "expansion_financing_2022": "$17.1 B", "expansion_financing_2023": "$18.5 B", "expansion_financing_2024": "$26.1 B", "expansion_financing_2025": "$32.7 B", "expansion_financing_total_2021_2025": "$120.0 B", "expansion_financing_change_2024_2025": "+$6.6 B", "expansion_financing_change_pct_2024_2025": "+25.1%", "fossil_fuel_financing_2025_usd": 58200000000, "legal_entity": "JPMORGAN CHASE & CO.", "lei": "8I5DZWZKVSZI1NUHU748", "headquarters_address": "383 MADISON AVENUE, NEW YORK, US-NY, 10179, US", "gleif_record": "https://search.gleif.org/#/record/8I5DZWZKVSZI1NUHU748", "position": "The headquarters address in the GLEIF register, found in OpenStreetMap.", "source": "Banking on Climate Chaos 2026 (RAN, BankTrack, Indigenous Environmental Network, Oil Change International, Reclaim Finance, Sierra Club, Urgewald and others), league tables pp. 10-13 and 32-35"}}, {"type": "Feature", "geometry": {"type": "Point", "coordinates": [-80.8422255, 35.2273122]}, "properties": {"bank": "Bank of America", "fossil_fuel_financing_rank_2025": 2, "fossil_fuel_financing_2021": "$42.3 B", "fossil_fuel_financing_2022": "$36.8 B", "fossil_fuel_financing_2023": "$34.1 B", "fossil_fuel_financing_2024": "$44.8 B", "fossil_fuel_financing_2025": "$47.3 B", "fossil_fuel_financing_total_2021_2025": "$205.3 B", "fossil_fuel_financing_change_2024_2025": "+$2.5 B", "fossil_fuel_financing_change_pct_2024_2025": "+5.5%", "expansion_financing_rank_2025": 5, "expansion_financing_2021": "$19.7 B", "expansion_financing_2022": "$16.0 B", "expansion_financing_2023": "$14.8 B", "expansion_financing_2024": "$22.1 B", "expansion_financing_2025": "$25.8 B", "expansion_financing_total_2021_2025": "$98.5 B", "expansion_financing_change_2024_2025": "+$3.7 B", "expansion_financing_change_pct_2024_2025": "+16.7%", "fossil_fuel_financing_2025_usd": 47300000000, "legal_entity": "BANK OF AMERICA CORPORATION", "lei": "9DJT3UXIJIZJI4WXO774", "headquarters_address": "Bank of America Corporate Center, 100 North Tryon Street, Charlotte, US-NC, 28202, US", "gleif_record": "https://search.gleif.org/#/record/9DJT3UXIJIZJI4WXO774", "position": "The headquarters address in the GLEIF register, found in OpenStreetMap.", "source": "Banking on Climate Chaos 2026 (RAN, BankTrack, Indigenous Environmental Network, Oil Change International, Reclaim Finance, Sierra Club, Urgewald and others), league tables pp. 10-13 and 32-35"}}, {"type": "Feature", "geometry": {"type": "Point", "coordinates": [-74.0111721, 40.7206458]}, "properties": {"bank": "Citigroup", "fossil_fuel_financing_rank_2025": 5, "fossil_fuel_financing_2021": "$47.6 B", "fossil_fuel_financing_2022": "$39.4 B", "fossil_fuel_financing_2023": "$30.6 B", "fossil_fuel_financing_2024": "$44.1 B", "fossil_fuel_financing_2025": "$45.3 B", "fossil_fuel_financing_total_2021_2025": "$206.9 B", "fossil_fuel_financing_change_2024_2025": "+$1.1 B", "fossil_fuel_financing_change_pct_2024_2025": "+2.5%", "expansion_financing_rank_2025": 3, "expansion_financing_2021": "$27.1 B", "expansion_financing_2022": "$18.8 B", "expansion_financing_2023": "$14.8 B", "expansion_financing_2024": "$19.4 B", "expansion_financing_2025": "$26.2 B", "expansion_financing_total_2021_2025": "$106.3 B", "expansion_financing_change_2024_2025": "+$6.7 B", "expansion_financing_change_pct_2024_2025": "+34.7%", "fossil_fuel_financing_2025_usd": 45300000000, "legal_entity": "CITIGROUP INC.", "lei": "6SHGI4ZSSLCXXQSBB395", "headquarters_address": "388 GREENWICH STREET, NEW YORK, US-NY, 10013, US", "gleif_record": "https://search.gleif.org/#/record/6SHGI4ZSSLCXXQSBB395", "position": "The headquarters address in the GLEIF register, found in OpenStreetMap.", "source": "Banking on Climate Chaos 2026 (RAN, BankTrack, Indigenous Environmental Network, Oil Change International, Reclaim Finance, Sierra Club, Urgewald and others), league tables pp. 10-13 and 32-35"}}, {"type": "Feature", "geometry": {"type": "Point", "coordinates": [-122.3974036, 37.7919383]}, "properties": {"bank": "Wells Fargo", "fossil_fuel_financing_rank_2025": 6, "fossil_fuel_financing_2021": "$40.8 B", "fossil_fuel_financing_2022": "$36.9 B", "fossil_fuel_financing_2023": "$31.2 B", "fossil_fuel_financing_2024": "$39.6 B", "fossil_fuel_financing_2025": "$42.5 B", "fossil_fuel_financing_total_2021_2025": "$191.0 B", "fossil_fuel_financing_change_2024_2025": "+$2.9 B", "fossil_fuel_financing_change_pct_2024_2025": "+7.2%", "expansion_financing_rank_2025": 6, "expansion_financing_2021": "$14.8 B", "expansion_financing_2022": "$13.9 B", "expansion_financing_2023": "$12.5 B", "expansion_financing_2024": "$13.7 B", "expansion_financing_2025": "$21.9 B", "expansion_financing_total_2021_2025": "$76.8 B", "expansion_financing_change_2024_2025": "+$8.2 B", "expansion_financing_change_pct_2024_2025": "+60.0%", "fossil_fuel_financing_2025_usd": 42500000000, "legal_entity": "WELLS FARGO & COMPANY", "lei": "PBLD0EJDB5FWOLXP3B76", "headquarters_address": "333 Market Street, San Francisco, US-CA, 94105, US", "gleif_record": "https://search.gleif.org/#/record/PBLD0EJDB5FWOLXP3B76", "position": "The headquarters address in the GLEIF register, found in OpenStreetMap.", "source": "Banking on Climate Chaos 2026 (RAN, BankTrack, Indigenous Environmental Network, Oil Change International, Reclaim Finance, Sierra Club, Urgewald and others), league tables pp. 10-13 and 32-35"}}, {"type": "Feature", "geometry": {"type": "Point", "coordinates": [-73.5686342, 45.5015845]}, "properties": {"bank": "Royal Bank of Canada", "fossil_fuel_financing_rank_2025": 7, "fossil_fuel_financing_2021": "$36.5 B", "fossil_fuel_financing_2022": "$35.8 B", "fossil_fuel_financing_2023": "$30.5 B", "fossil_fuel_financing_2024": "$33.9 B", "fossil_fuel_financing_2025": "$36.6 B", "fossil_fuel_financing_total_2021_2025": "$173.4 B", "fossil_fuel_financing_change_2024_2025": "+$2.8 B", "fossil_fuel_financing_change_pct_2024_2025": "+8.2%", "expansion_financing_rank_2025": 7, "expansion_financing_2021": "$15.4 B", "expansion_financing_2022": "$17.5 B", "expansion_financing_2023": "$15.8 B", "expansion_financing_2024": "$15.2 B", "expansion_financing_2025": "$20.5 B", "expansion_financing_total_2021_2025": "$84.3 B", "expansion_financing_change_2024_2025": "+$5.3 B", "expansion_financing_change_pct_2024_2025": "+35.2%", "fossil_fuel_financing_2025_usd": 36600000000, "legal_entity": "Royal Bank of Canada", "lei": "ES7IP3U3RHIGC71XBU11", "headquarters_address": "1 place Ville-Marie, Montreal, CA-QC, H3B 3A9, CA", "gleif_record": "https://search.gleif.org/#/record/ES7IP3U3RHIGC71XBU11", "position": "The headquarters address in the GLEIF register, found in OpenStreetMap.", "source": "Banking on Climate Chaos 2026 (RAN, BankTrack, Indigenous Environmental Network, Oil Change International, Reclaim Finance, Sierra Club, Urgewald and others), league tables pp. 10-13 and 32-35"}}, {"type": "Feature", "geometry": {"type": "Point", "coordinates": [-0.0143728, 51.5050457]}, "properties": {"bank": "Barclays", "fossil_fuel_financing_rank_2025": 8, "fossil_fuel_financing_2021": "$22.1 B", "fossil_fuel_financing_2022": "$22.0 B", "fossil_fuel_financing_2023": "$24.1 B", "fossil_fuel_financing_2024": "$36.0 B", "fossil_fuel_financing_2025": "$34.1 B", "fossil_fuel_financing_total_2021_2025": "$138.3 B", "fossil_fuel_financing_change_2024_2025": "-$1.9 B", "fossil_fuel_financing_change_pct_2024_2025": "-5.3%", "expansion_financing_rank_2025": 8, "expansion_financing_2021": "$9.6 B", "expansion_financing_2022": "$10.5 B", "expansion_financing_2023": "$8.5 B", "expansion_financing_2024": "$12.6 B", "expansion_financing_2025": "$17.6 B", "expansion_financing_total_2021_2025": "$58.7 B", "expansion_financing_change_2024_2025": "+$5.1 B", "expansion_financing_change_pct_2024_2025": "+40.3%", "fossil_fuel_financing_2025_usd": 34100000000, "legal_entity": "BARCLAYS PLC", "lei": "213800LBQA1Y9L22JB70", "headquarters_address": "1 CHURCHILL PLACE, LONDON, GB-LND, E14 5HP, GB", "gleif_record": "https://search.gleif.org/#/record/213800LBQA1Y9L22JB70", "position": "The headquarters address in the GLEIF register, found in OpenStreetMap.", "source": "Banking on Climate Chaos 2026 (RAN, BankTrack, Indigenous Environmental Network, Oil Change International, Reclaim Finance, Sierra Club, Urgewald and others), league tables pp. 10-13 and 32-35"}}, {"type": "Feature", "geometry": {"type": "Point", "coordinates": [-73.9855237, 40.7599838]}, "properties": {"bank": "Morgan Stanley", "fossil_fuel_financing_rank_2025": 10, "fossil_fuel_financing_2021": "$20.4 B", "fossil_fuel_financing_2022": "$13.7 B", "fossil_fuel_financing_2023": "$20.0 B", "fossil_fuel_financing_2024": "$23.7 B", "fossil_fuel_financing_2025": "$29.4 B", "fossil_fuel_financing_total_2021_2025": "$107.2 B", "fossil_fuel_financing_change_2024_2025": "+$5.7 B", "fossil_fuel_financing_change_pct_2024_2025": "+24.2%", "expansion_financing_rank_2025": 12, "expansion_financing_2021": "$10.6 B", "expansion_financing_2022": "$6.2 B", "expansion_financing_2023": "$11.4 B", "expansion_financing_2024": "$10.2 B", "expansion_financing_2025": "$14.6 B", "expansion_financing_total_2021_2025": "$53.0 B", "expansion_financing_change_2024_2025": "+$4.4 B", "expansion_financing_change_pct_2024_2025": "+42.8%", "fossil_fuel_financing_2025_usd": 29400000000, "legal_entity": "MORGAN STANLEY", "lei": "IGJSJL3JD5P30I6NJZ34", "headquarters_address": "1585 Broadway, New York, US-NY, 10036, US", "gleif_record": "https://search.gleif.org/#/record/IGJSJL3JD5P30I6NJZ34", "position": "The headquarters address in the GLEIF register, found in OpenStreetMap.", "source": "Banking on Climate Chaos 2026 (RAN, BankTrack, Indigenous Environmental Network, Oil Change International, Reclaim Finance, Sierra Club, Urgewald and others), league tables pp. 10-13 and 32-35"}}, {"type": "Feature", "geometry": {"type": "Point", "coordinates": [-74.0144315, 40.7147237]}, "properties": {"bank": "Goldman Sachs", "fossil_fuel_financing_rank_2025": 11, "fossil_fuel_financing_2021": "$22.5 B", "fossil_fuel_financing_2022": "$16.7 B", "fossil_fuel_financing_2023": "$19.6 B", "fossil_fuel_financing_2024": "$25.6 B", "fossil_fuel_financing_2025": "$28.9 B", "fossil_fuel_financing_total_2021_2025": "$113.3 B", "fossil_fuel_financing_change_2024_2025": "+$3.3 B", "fossil_fuel_financing_change_pct_2024_2025": "+13.0%", "expansion_financing_rank_2025": 14, "expansion_financing_2021": "$12.9 B", "expansion_financing_2022": "$7.0 B", "expansion_financing_2023": "$9.7 B", "expansion_financing_2024": "$12.7 B", "expansion_financing_2025": "$14.1 B", "expansion_financing_total_2021_2025": "$56.4 B", "expansion_financing_change_2024_2025": "+$1.4 B", "expansion_financing_change_pct_2024_2025": "+10.7%", "fossil_fuel_financing_2025_usd": 28900000000, "legal_entity": "THE GOLDMAN SACHS GROUP, INC.", "lei": "784F5XWPLTWKTBV3E584", "headquarters_address": "200 WEST STREET, NEW YORK, US-NY, 10282, US", "gleif_record": "https://search.gleif.org/#/record/784F5XWPLTWKTBV3E584", "position": "The headquarters address in the GLEIF register, found in OpenStreetMap.", "source": "Banking on Climate Chaos 2026 (RAN, BankTrack, Indigenous Environmental Network, Oil Change International, Reclaim Finance, Sierra Club, Urgewald and others), league tables pp. 10-13 and 32-35"}}, {"type": "Feature", "geometry": {"type": "Point", "coordinates": [-79.3839347, 43.6534817]}, "properties": {"bank": "Toronto-Dominion Bank", "fossil_fuel_financing_rank_2025": 12, "fossil_fuel_financing_2021": "$23.4 B", "fossil_fuel_financing_2022": "$26.2 B", "fossil_fuel_financing_2023": "$20.8 B", "fossil_fuel_financing_2024": "$29.4 B", "fossil_fuel_financing_2025": "$27.5 B", "fossil_fuel_financing_total_2021_2025": "$127.4 B", "fossil_fuel_financing_change_2024_2025": "-$1.9 B", "fossil_fuel_financing_change_pct_2024_2025": "-6.5%", "expansion_financing_rank_2025": 13, "expansion_financing_2021": "$10.2 B", "expansion_financing_2022": "$11.2 B", "expansion_financing_2023": "$9.9 B", "expansion_financing_2024": "$11.9 B", "expansion_financing_2025": "$14.3 B", "expansion_financing_total_2021_2025": "$57.5 B", "expansion_financing_change_2024_2025": "+$2.4 B", "expansion_financing_change_pct_2024_2025": "+19.7%", "fossil_fuel_financing_2025_usd": 27500000000, "legal_entity": "THE TORONTO-DOMINION BANK", "lei": "PT3QB789TSUIDF371261", "headquarters_address": "15FLR-66 ST Wellington W, Toronto, CA-ON, M5K 1A2, CA", "gleif_record": "https://search.gleif.org/#/record/PT3QB789TSUIDF371261", "position": "The headquarters city in the GLEIF register (the street address was not found in OpenStreetMap).", "source": "Banking on Climate Chaos 2026 (RAN, BankTrack, Indigenous Environmental Network, Oil Change International, Reclaim Finance, Sierra Club, Urgewald and others), league tables pp. 10-13 and 32-35"}}, {"type": "Feature", "geometry": {"type": "Point", "coordinates": [-79.3803646, 43.6510462]}, "properties": {"bank": "Scotiabank", "fossil_fuel_financing_rank_2025": 13, "fossil_fuel_financing_2021": "$28.8 B", "fossil_fuel_financing_2022": "$28.3 B", "fossil_fuel_financing_2023": "$25.2 B", "fossil_fuel_financing_2024": "$27.1 B", "fossil_fuel_financing_2025": "$27.5 B", "fossil_fuel_financing_total_2021_2025": "$136.9 B", "fossil_fuel_financing_change_2024_2025": "+$439 M", "fossil_fuel_financing_change_pct_2024_2025": "+1.6%", "expansion_financing_rank_2025": 10, "expansion_financing_2021": "$12.2 B", "expansion_financing_2022": "$15.4 B", "expansion_financing_2023": "$15.0 B", "expansion_financing_2024": "$11.4 B", "expansion_financing_2025": "$15.6 B", "expansion_financing_total_2021_2025": "$69.6 B", "expansion_financing_change_2024_2025": "+$4.2 B", "expansion_financing_change_pct_2024_2025": "+36.6%", "fossil_fuel_financing_2025_usd": 27500000000, "legal_entity": "THE BANK OF NOVA SCOTIA", "lei": "L3I9ZG2KFGXZ61BMYR72", "headquarters_address": "40 Temperance Street, Toronto, CA-ON, M5H 0B4, CA", "gleif_record": "https://search.gleif.org/#/record/L3I9ZG2KFGXZ61BMYR72", "position": "The headquarters address in the GLEIF register, found in OpenStreetMap.", "source": "Banking on Climate Chaos 2026 (RAN, BankTrack, Indigenous Environmental Network, Oil Change International, Reclaim Finance, Sierra Club, Urgewald and others), league tables pp. 10-13 and 32-35"}}, {"type": "Feature", "geometry": {"type": "Point", "coordinates": [-80.8406605, 35.2276451]}, "properties": {"bank": "Truist Financial", "fossil_fuel_financing_rank_2025": 14, "fossil_fuel_financing_2021": "$14.9 B", "fossil_fuel_financing_2022": "$18.0 B", "fossil_fuel_financing_2023": "$15.4 B", "fossil_fuel_financing_2024": "$17.7 B", "fossil_fuel_financing_2025": "$20.9 B", "fossil_fuel_financing_total_2021_2025": "$86.9 B", "fossil_fuel_financing_change_2024_2025": "+$3.1 B", "fossil_fuel_financing_change_pct_2024_2025": "+17.7%", "expansion_financing_rank_2025": 18, "expansion_financing_2021": "$5.3 B", "expansion_financing_2022": "$6.9 B", "expansion_financing_2023": "$5.0 B", "expansion_financing_2024": "$6.9 B", "expansion_financing_2025": "$11.1 B", "expansion_financing_total_2021_2025": "$35.3 B", "expansion_financing_change_2024_2025": "+$4.2 B", "expansion_financing_change_pct_2024_2025": "+60.0%", "fossil_fuel_financing_2025_usd": 20900000000, "legal_entity": "Truist Financial Corporation", "lei": "549300DRQQI75D2JP341", "headquarters_address": "214 North Tryon Street, Charlotte, US-NC, 28202, US", "gleif_record": "https://search.gleif.org/#/record/549300DRQQI75D2JP341", "position": "The headquarters address in the GLEIF register, found in OpenStreetMap.", "source": "Banking on Climate Chaos 2026 (RAN, BankTrack, Indigenous Environmental Network, Oil Change International, Reclaim Finance, Sierra Club, Urgewald and others), league tables pp. 10-13 and 32-35"}}, {"type": "Feature", "geometry": {"type": "Point", "coordinates": [-79.3777282, 43.6440928]}, "properties": {"bank": "CIBC", "fossil_fuel_financing_rank_2025": 15, "fossil_fuel_financing_2021": "$23.2 B", "fossil_fuel_financing_2022": "$24.5 B", "fossil_fuel_financing_2023": "$16.3 B", "fossil_fuel_financing_2024": "$22.3 B", "fossil_fuel_financing_2025": "$20.4 B", "fossil_fuel_financing_total_2021_2025": "$106.7 B", "fossil_fuel_financing_change_2024_2025": "-$1.9 B", "fossil_fuel_financing_change_pct_2024_2025": "-8.5%", "expansion_financing_rank_2025": 16, "expansion_financing_2021": "$10.7 B", "expansion_financing_2022": "$16.0 B", "expansion_financing_2023": "$9.7 B", "expansion_financing_2024": "$9.0 B", "expansion_financing_2025": "$11.8 B", "expansion_financing_total_2021_2025": "$57.2 B", "expansion_financing_change_2024_2025": "+$2.8 B", "expansion_financing_change_pct_2024_2025": "+31.3%", "fossil_fuel_financing_2025_usd": 20400000000, "legal_entity": "Canadian Imperial Bank of Commerce", "lei": "2IGI19DL77OX0HC3ZE78", "headquarters_address": "81 BAY ST, Toronto, CA-ON, M5J 0E7, CA", "gleif_record": "https://search.gleif.org/#/record/2IGI19DL77OX0HC3ZE78", "position": "The headquarters address in the GLEIF register, found in OpenStreetMap.", "source": "Banking on Climate Chaos 2026 (RAN, BankTrack, Indigenous Environmental Network, Oil Change International, Reclaim Finance, Sierra Club, Urgewald and others), league tables pp. 10-13 and 32-35"}}, {"type": "Feature", "geometry": {"type": "Point", "coordinates": [116.4369109, 39.9204498]}, "properties": {"bank": "CITIC", "fossil_fuel_financing_rank_2025": 16, "fossil_fuel_financing_2021": "$21.9 B", "fossil_fuel_financing_2022": "$20.2 B", "fossil_fuel_financing_2023": "$17.3 B", "fossil_fuel_financing_2024": "$20.6 B", "fossil_fuel_financing_2025": "$19.4 B", "fossil_fuel_financing_total_2021_2025": "$99.4 B", "fossil_fuel_financing_change_2024_2025": "-$1.3 B", "fossil_fuel_financing_change_pct_2024_2025": "-6.2%", "expansion_financing_rank_2025": 11, "expansion_financing_2021": "$16.4 B", "expansion_financing_2022": "$15.8 B", "expansion_financing_2023": "$12.6 B", "expansion_financing_2024": "$16.6 B", "expansion_financing_2025": "$15.3 B", "expansion_financing_total_2021_2025": "$76.7 B", "expansion_financing_change_2024_2025": "-$1.3 B", "expansion_financing_change_pct_2024_2025": "-7.9%", "fossil_fuel_financing_2025_usd": 19400000000, "legal_entity": "中国中信集团有限公司", "lei": "300300NIFA1100057377", "headquarters_address": "北京市朝阳区新源南路6号, 朝阳区, CN-BJ, 100000, CN", "gleif_record": "https://search.gleif.org/#/record/300300NIFA1100057377", "position": "The headquarters city in the GLEIF register (the street address was not found in OpenStreetMap).", "source": "Banking on Climate Chaos 2026 (RAN, BankTrack, Indigenous Environmental Network, Oil Change International, Reclaim Finance, Sierra Club, Urgewald and others), league tables pp. 10-13 and 32-35"}}, {"type": "Feature", "geometry": {"type": "Point", "coordinates": [116.3599221, 39.9108672]}, "properties": {"bank": "Bank of China", "fossil_fuel_financing_rank_2025": 17, "fossil_fuel_financing_2021": "$18.4 B", "fossil_fuel_financing_2022": "$15.9 B", "fossil_fuel_financing_2023": "$13.9 B", "fossil_fuel_financing_2024": "$16.2 B", "fossil_fuel_financing_2025": "$18.5 B", "fossil_fuel_financing_total_2021_2025": "$82.8 B", "fossil_fuel_financing_change_2024_2025": "+$2.3 B", "fossil_fuel_financing_change_pct_2024_2025": "+14.3%", "expansion_financing_rank_2025": 15, "expansion_financing_2021": "$10.1 B", "expansion_financing_2022": "$9.7 B", "expansion_financing_2023": "$8.3 B", "expansion_financing_2024": "$10.0 B", "expansion_financing_2025": "$13.1 B", "expansion_financing_total_2021_2025": "$51.1 B", "expansion_financing_change_2024_2025": "+$3.1 B", "expansion_financing_change_pct_2024_2025": "+31.5%", "fossil_fuel_financing_2025_usd": 18500000000, "legal_entity": "中国银行股份有限公司", "lei": "54930053HGCFWVHYZX42", "headquarters_address": "复兴门内大街1号, 西城区, CN-BJ, 100818, CN", "gleif_record": "https://search.gleif.org/#/record/54930053HGCFWVHYZX42", "position": "The headquarters city in the GLEIF register (the street address was not found in OpenStreetMap).", "source": "Banking on Climate Chaos 2026 (RAN, BankTrack, Indigenous Environmental Network, Oil Change International, Reclaim Finance, Sierra Club, Urgewald and others), league tables pp. 10-13 and 32-35"}}, {"type": "Feature", "geometry": {"type": "Point", "coordinates": [-80.000293, 40.440612]}, "properties": {"bank": "PNC Financial Services", "fossil_fuel_financing_rank_2025": 18, "fossil_fuel_financing_2021": "$11.8 B", "fossil_fuel_financing_2022": "$18.7 B", "fossil_fuel_financing_2023": "$12.4 B", "fossil_fuel_financing_2024": "$17.0 B", "fossil_fuel_financing_2025": "$18.4 B", "fossil_fuel_financing_total_2021_2025": "$78.2 B", "fossil_fuel_financing_change_2024_2025": "+$1.4 B", "fossil_fuel_financing_change_pct_2024_2025": "+8.4%", "expansion_financing_rank_2025": 23, "expansion_financing_2021": "$4.0 B", "expansion_financing_2022": "$7.0 B", "expansion_financing_2023": "$4.4 B", "expansion_financing_2024": "$6.9 B", "expansion_financing_2025": "$9.2 B", "expansion_financing_total_2021_2025": "$31.4 B", "expansion_financing_change_2024_2025": "+$2.3 B", "expansion_financing_change_pct_2024_2025": "+33.5%", "fossil_fuel_financing_2025_usd": 18400000000, "legal_entity": "THE PNC FINANCIAL SERVICES GROUP, INC.", "lei": "CFGNEKW0P8842LEUIA51", "headquarters_address": "300 FIFTH AVENUE, PITTSBURGH, US-PA, 15222, US", "gleif_record": "https://search.gleif.org/#/record/CFGNEKW0P8842LEUIA51", "position": "The headquarters address in the GLEIF register, found in OpenStreetMap.", "source": "Banking on Climate Chaos 2026 (RAN, BankTrack, Indigenous Environmental Network, Oil Change International, Reclaim Finance, Sierra Club, Urgewald and others), league tables pp. 10-13 and 32-35"}}, {"type": "Feature", "geometry": {"type": "Point", "coordinates": [-93.2675981, 44.9769391]}, "properties": {"bank": "US Bancorp", "fossil_fuel_financing_rank_2025": 19, "fossil_fuel_financing_2021": "$16.0 B", "fossil_fuel_financing_2022": "$16.1 B", "fossil_fuel_financing_2023": "$13.5 B", "fossil_fuel_financing_2024": "$14.4 B", "fossil_fuel_financing_2025": "$17.9 B", "fossil_fuel_financing_total_2021_2025": "$77.9 B", "fossil_fuel_financing_change_2024_2025": "+$3.5 B", "fossil_fuel_financing_change_pct_2024_2025": "+24.2%", "expansion_financing_rank_2025": 28, "expansion_financing_2021": "$5.4 B", "expansion_financing_2022": "$5.8 B", "expansion_financing_2023": "$4.7 B", "expansion_financing_2024": "$5.0 B", "expansion_financing_2025": "$7.7 B", "expansion_financing_total_2021_2025": "$28.6 B", "expansion_financing_change_2024_2025": "+$2.7 B", "expansion_financing_change_pct_2024_2025": "+54.7%", "fossil_fuel_financing_2025_usd": 17900000000, "legal_entity": "U.S. BANCORP", "lei": "N1GZ7BBF3NP8GI976H15", "headquarters_address": "200 S 6TH ST, MINNEAPOLIS, US-MN, 55402, US", "gleif_record": "https://search.gleif.org/#/record/N1GZ7BBF3NP8GI976H15", "position": "The headquarters address in the GLEIF register, found in OpenStreetMap.", "source": "Banking on Climate Chaos 2026 (RAN, BankTrack, Indigenous Environmental Network, Oil Change International, Reclaim Finance, Sierra Club, Urgewald and others), league tables pp. 10-13 and 32-35"}}, {"type": "Feature", "geometry": {"type": "Point", "coordinates": [8.6691722, 50.1140729]}, "properties": {"bank": "Deutsche Bank", "fossil_fuel_financing_rank_2025": 20, "fossil_fuel_financing_2021": "$11.1 B", "fossil_fuel_financing_2022": "$9.7 B", "fossil_fuel_financing_2023": "$13.4 B", "fossil_fuel_financing_2024": "$14.8 B", "fossil_fuel_financing_2025": "$17.7 B", "fossil_fuel_financing_total_2021_2025": "$66.6 B", "fossil_fuel_financing_change_2024_2025": "+$2.9 B", "fossil_fuel_financing_change_pct_2024_2025": "+19.9%", "expansion_financing_rank_2025": 19, "expansion_financing_2021": "$6.4 B", "expansion_financing_2022": "$4.9 B", "expansion_financing_2023": "$5.9 B", "expansion_financing_2024": "$8.2 B", "expansion_financing_2025": "$10.7 B", "expansion_financing_total_2021_2025": "$36.0 B", "expansion_financing_change_2024_2025": "+$2.5 B", "expansion_financing_change_pct_2024_2025": "+30.4%", "fossil_fuel_financing_2025_usd": 17700000000, "legal_entity": "DEUTSCHE BANK AKTIENGESELLSCHAFT", "lei": "7LTWFZYICNSX8D621K86", "headquarters_address": "Taunusanlage 12, Frankfurt am Main, DE-HE, 60325, DE", "gleif_record": "https://search.gleif.org/#/record/7LTWFZYICNSX8D621K86", "position": "The headquarters address in the GLEIF register, found in OpenStreetMap.", "source": "Banking on Climate Chaos 2026 (RAN, BankTrack, Indigenous Environmental Network, Oil Change International, Reclaim Finance, Sierra Club, Urgewald and others), league tables pp. 10-13 and 32-35"}}, {"type": "Feature", "geometry": {"type": "Point", "coordinates": [-3.8019642, 43.4617398]}, "properties": {"bank": "Santander", "fossil_fuel_financing_rank_2025": 21, "fossil_fuel_financing_2021": "$8.7 B", "fossil_fuel_financing_2022": "$7.2 B", "fossil_fuel_financing_2023": "$13.9 B", "fossil_fuel_financing_2024": "$15.9 B", "fossil_fuel_financing_2025": "$16.8 B", "fossil_fuel_financing_total_2021_2025": "$62.5 B", "fossil_fuel_financing_change_2024_2025": "+$978 M", "fossil_fuel_financing_change_pct_2024_2025": "+6.2%", "expansion_financing_rank_2025": 22, "expansion_financing_2021": "$5.2 B", "expansion_financing_2022": "$4.1 B", "expansion_financing_2023": "$9.5 B", "expansion_financing_2024": "$7.2 B", "expansion_financing_2025": "$9.2 B", "expansion_financing_total_2021_2025": "$35.2 B", "expansion_financing_change_2024_2025": "+$2.1 B", "expansion_financing_change_pct_2024_2025": "+28.5%", "fossil_fuel_financing_2025_usd": 16800000000, "legal_entity": "BANCO SANTANDER S.A.", "lei": "5493006QMFDDMYWIAM13", "headquarters_address": "PASEO DE PEREDA 9-12, SANTANDER, ES-S, 39004, ES", "gleif_record": "https://search.gleif.org/#/record/5493006QMFDDMYWIAM13", "position": "The headquarters address in the GLEIF register, found in OpenStreetMap.", "source": "Banking on Climate Chaos 2026 (RAN, BankTrack, Indigenous Environmental Network, Oil Change International, Reclaim Finance, Sierra Club, Urgewald and others), league tables pp. 10-13 and 32-35"}}, {"type": "Feature", "geometry": {"type": "Point", "coordinates": [-0.0174404, 51.5054316]}, "properties": {"bank": "HSBC", "fossil_fuel_financing_rank_2025": 22, "fossil_fuel_financing_2021": "$21.9 B", "fossil_fuel_financing_2022": "$14.7 B", "fossil_fuel_financing_2023": "$11.6 B", "fossil_fuel_financing_2024": "$13.7 B", "fossil_fuel_financing_2025": "$15.9 B", "fossil_fuel_financing_total_2021_2025": "$77.8 B", "fossil_fuel_financing_change_2024_2025": "+$2.2 B", "fossil_fuel_financing_change_pct_2024_2025": "+16.2%", "expansion_financing_rank_2025": 25, "expansion_financing_2021": "$12.2 B", "expansion_financing_2022": "$7.8 B", "expansion_financing_2023": "$4.8 B", "expansion_financing_2024": "$6.4 B", "expansion_financing_2025": "$8.7 B", "expansion_financing_total_2021_2025": "$39.9 B", "expansion_financing_change_2024_2025": "+$2.3 B", "expansion_financing_change_pct_2024_2025": "+36.2%", "fossil_fuel_financing_2025_usd": 15900000000, "legal_entity": "HSBC HOLDINGS PLC", "lei": "MLU0ZO3ML4LN2LL2TL39", "headquarters_address": "8 CANADA SQUARE, LONDON, GB-LND, E14 5HQ, GB", "gleif_record": "https://search.gleif.org/#/record/MLU0ZO3ML4LN2LL2TL39", "position": "The headquarters address in the GLEIF register, found in OpenStreetMap.", "source": "Banking on Climate Chaos 2026 (RAN, BankTrack, Indigenous Environmental Network, Oil Change International, Reclaim Finance, Sierra Club, Urgewald and others), league tables pp. 10-13 and 32-35"}}, {"type": "Feature", "geometry": {"type": "Point", "coordinates": [-79.3839347, 43.6534817]}, "properties": {"bank": "BMO Financial Group", "fossil_fuel_financing_rank_2025": 23, "fossil_fuel_financing_2021": "$18.8 B", "fossil_fuel_financing_2022": "$20.7 B", "fossil_fuel_financing_2023": "$17.4 B", "fossil_fuel_financing_2024": "$19.4 B", "fossil_fuel_financing_2025": "$15.4 B", "fossil_fuel_financing_total_2021_2025": "$91.6 B", "fossil_fuel_financing_change_2024_2025": "-$3.9 B", "fossil_fuel_financing_change_pct_2024_2025": "-20.3%", "expansion_financing_rank_2025": 27, "expansion_financing_2021": "$7.7 B", "expansion_financing_2022": "$12.0 B", "expansion_financing_2023": "$7.8 B", "expansion_financing_2024": "$6.7 B", "expansion_financing_2025": "$7.7 B", "expansion_financing_total_2021_2025": "$41.9 B", "expansion_financing_change_2024_2025": "+$969 M", "expansion_financing_change_pct_2024_2025": "+14.4%", "fossil_fuel_financing_2025_usd": 15400000000, "legal_entity": "Bank of Montréal", "lei": "NQQ6HPCNCCU6TUTQYE16", "headquarters_address": "100 King ST W, 21St Fl, Toronto, CA-ON, M5X 1A1, CA", "gleif_record": "https://search.gleif.org/#/record/NQQ6HPCNCCU6TUTQYE16", "position": "The headquarters city in the GLEIF register (the street address was not found in OpenStreetMap).", "source": "Banking on Climate Chaos 2026 (RAN, BankTrack, Indigenous Environmental Network, Oil Change International, Reclaim Finance, Sierra Club, Urgewald and others), league tables pp. 10-13 and 32-35"}}, {"type": "Feature", "geometry": {"type": "Point", "coordinates": [116.3912972, 39.9057136]}, "properties": {"bank": "Industrial and Commercial Bank of China", "fossil_fuel_financing_rank_2025": 24, "fossil_fuel_financing_2021": "$15.4 B", "fossil_fuel_financing_2022": "$17.6 B", "fossil_fuel_financing_2023": "$12.5 B", "fossil_fuel_financing_2024": "$11.2 B", "fossil_fuel_financing_2025": "$15.1 B", "fossil_fuel_financing_total_2021_2025": "$71.7 B", "fossil_fuel_financing_change_2024_2025": "+$4.0 B", "fossil_fuel_financing_change_pct_2024_2025": "+35.8%", "expansion_financing_rank_2025": 20, "expansion_financing_2021": "$10.8 B", "expansion_financing_2022": "$14.6 B", "expansion_financing_2023": "$9.1 B", "expansion_financing_2024": "$7.8 B", "expansion_financing_2025": "$10.4 B", "expansion_financing_total_2021_2025": "$52.7 B", "expansion_financing_change_2024_2025": "+$2.7 B", "expansion_financing_change_pct_2024_2025": "+34.5%", "fossil_fuel_financing_2025_usd": 15100000000, "legal_entity": "INDUSTRIAL AND COMMERCIAL BANK OF CHINA LIMITED", "lei": "2549005QXSCD8MSHQU78", "headquarters_address": "55 Fuxingmennei Avenue, Xicheng District, Beijing, CN-BJ, 100140, CN", "gleif_record": "https://search.gleif.org/#/record/2549005QXSCD8MSHQU78", "position": "The headquarters city in the GLEIF register (the street address was not found in OpenStreetMap).", "source": "Banking on Climate Chaos 2026 (RAN, BankTrack, Indigenous Environmental Network, Oil Change International, Reclaim Finance, Sierra Club, Urgewald and others), league tables pp. 10-13 and 32-35"}}, {"type": "Feature", "geometry": {"type": "Point", "coordinates": [-0.0910541, 51.5167495]}, "properties": {"bank": "Standard Chartered", "fossil_fuel_financing_rank_2025": 25, "fossil_fuel_financing_2021": "$11.9 B", "fossil_fuel_financing_2022": "$8.3 B", "fossil_fuel_financing_2023": "$7.6 B", "fossil_fuel_financing_2024": "$11.3 B", "fossil_fuel_financing_2025": "$14.4 B", "fossil_fuel_financing_total_2021_2025": "$53.6 B", "fossil_fuel_financing_change_2024_2025": "+$3.1 B", "fossil_fuel_financing_change_pct_2024_2025": "+27.9%", "expansion_financing_rank_2025": 26, "expansion_financing_2021": "$5.8 B", "expansion_financing_2022": "$5.8 B", "expansion_financing_2023": "$2.8 B", "expansion_financing_2024": "$5.6 B", "expansion_financing_2025": "$7.9 B", "expansion_financing_total_2021_2025": "$27.9 B", "expansion_financing_change_2024_2025": "+$2.3 B", "expansion_financing_change_pct_2024_2025": "+41.7%", "fossil_fuel_financing_2025_usd": 14400000000, "legal_entity": "STANDARD CHARTERED PLC", "lei": "U4LOSYZ7YG4W3S5F2G91", "headquarters_address": "1 BASINGHALL AVENUE, LONDON, GB-LND, EC2V 5DD, GB", "gleif_record": "https://search.gleif.org/#/record/U4LOSYZ7YG4W3S5F2G91", "position": "The headquarters address in the GLEIF register, found in OpenStreetMap.", "source": "Banking on Climate Chaos 2026 (RAN, BankTrack, Indigenous Environmental Network, Oil Change International, Reclaim Finance, Sierra Club, Urgewald and others), league tables pp. 10-13 and 32-35"}}, {"type": "Feature", "geometry": {"type": "Point", "coordinates": [114.0545429, 22.5445741]}, "properties": {"bank": "China Merchants Bank", "fossil_fuel_financing_rank_2025": 26, "fossil_fuel_financing_2021": "$14.3 B", "fossil_fuel_financing_2022": "$12.1 B", "fossil_fuel_financing_2023": "$10.4 B", "fossil_fuel_financing_2024": "$12.8 B", "fossil_fuel_financing_2025": "$13.6 B", "fossil_fuel_financing_total_2021_2025": "$63.2 B", "fossil_fuel_financing_change_2024_2025": "+$890 M", "fossil_fuel_financing_change_pct_2024_2025": "+7.0%", "expansion_financing_rank_2025": 17, "expansion_financing_2021": "$11.2 B", "expansion_financing_2022": "$10.2 B", "expansion_financing_2023": "$8.8 B", "expansion_financing_2024": "$10.9 B", "expansion_financing_2025": "$11.6 B", "expansion_financing_total_2021_2025": "$52.7 B", "expansion_financing_change_2024_2025": "+$708 M", "expansion_financing_change_pct_2024_2025": "+6.5%", "fossil_fuel_financing_2025_usd": 13600000000, "legal_entity": "CHINA MERCHANTS BANK CO., LTD.", "lei": "254900SEWBR5POA0TF02", "headquarters_address": "China Merchants Bank Tower No.7088, Shennan Boulevard, Shenzhen, 518040, CN", "gleif_record": "https://search.gleif.org/#/record/254900SEWBR5POA0TF02", "position": "The headquarters city in the GLEIF register (the street address was not found in OpenStreetMap).", "source": "Banking on Climate Chaos 2026 (RAN, BankTrack, Indigenous Environmental Network, Oil Change International, Reclaim Finance, Sierra Club, Urgewald and others), league tables pp. 10-13 and 32-35"}}, {"type": "Feature", "geometry": {"type": "Point", "coordinates": [116.3553958, 39.9145299]}, "properties": {"bank": "China Construction Bank", "fossil_fuel_financing_rank_2025": 27, "fossil_fuel_financing_2021": "$8.7 B", "fossil_fuel_financing_2022": "$8.9 B", "fossil_fuel_financing_2023": "$5.5 B", "fossil_fuel_financing_2024": "$7.1 B", "fossil_fuel_financing_2025": "$12.6 B", "fossil_fuel_financing_total_2021_2025": "$42.7 B", "fossil_fuel_financing_change_2024_2025": "+$5.5 B", "fossil_fuel_financing_change_pct_2024_2025": "+78.4%", "expansion_financing_rank_2025": 21, "expansion_financing_2021": "$5.4 B", "expansion_financing_2022": "$6.3 B", "expansion_financing_2023": "$3.6 B", "expansion_financing_2024": "$4.3 B", "expansion_financing_2025": "$9.3 B", "expansion_financing_total_2021_2025": "$28.9 B", "expansion_financing_change_2024_2025": "+$5.0 B", "expansion_financing_change_pct_2024_2025": "+118.0%", "fossil_fuel_financing_2025_usd": 12600000000, "legal_entity": "China Construction Bank Corporation", "lei": "2549006EHFY98CQJZN84", "headquarters_address": "25 Financial Street, Xicheng District, Xicheng Qu, CN-BJ, 100033, CN", "gleif_record": "https://search.gleif.org/#/record/2549006EHFY98CQJZN84", "position": "The headquarters address in the GLEIF register, found in OpenStreetMap as a whole address.", "source": "Banking on Climate Chaos 2026 (RAN, BankTrack, Indigenous Environmental Network, Oil Change International, Reclaim Finance, Sierra Club, Urgewald and others), league tables pp. 10-13 and 32-35"}}, {"type": "Feature", "geometry": {"type": "Point", "coordinates": [4.9497613, 52.3153553]}, "properties": {"bank": "ING Group", "fossil_fuel_financing_rank_2025": 28, "fossil_fuel_financing_2021": "$12.3 B", "fossil_fuel_financing_2022": "$8.9 B", "fossil_fuel_financing_2023": "$13.2 B", "fossil_fuel_financing_2024": "$10.8 B", "fossil_fuel_financing_2025": "$12.0 B", "fossil_fuel_financing_total_2021_2025": "$57.2 B", "fossil_fuel_financing_change_2024_2025": "+$1.2 B", "fossil_fuel_financing_change_pct_2024_2025": "+11.3%", "expansion_financing_rank_2025": 33, "expansion_financing_2021": "$5.3 B", "expansion_financing_2022": "$4.4 B", "expansion_financing_2023": "$3.7 B", "expansion_financing_2024": "$3.6 B", "expansion_financing_2025": "$5.1 B", "expansion_financing_total_2021_2025": "$22.1 B", "expansion_financing_change_2024_2025": "+$1.5 B", "expansion_financing_change_pct_2024_2025": "+40.7%", "fossil_fuel_financing_2025_usd": 12000000000, "legal_entity": "ING GROEP N.V.", "lei": "549300NYKK9MWM7GGW15", "headquarters_address": "BIJLMERDREEF 106, AMSTERDAM, NL-NH, 1102 CT, NL", "gleif_record": "https://search.gleif.org/#/record/549300NYKK9MWM7GGW15", "position": "The headquarters address in the GLEIF register, found in OpenStreetMap.", "source": "Banking on Climate Chaos 2026 (RAN, BankTrack, Indigenous Environmental Network, Oil Change International, Reclaim Finance, Sierra Club, Urgewald and others), league tables pp. 10-13 and 32-35"}}, {"type": "Feature", "geometry": {"type": "Point", "coordinates": [2.3322343, 48.8729499]}, "properties": {"bank": "Société Générale", "fossil_fuel_financing_rank_2025": 29, "fossil_fuel_financing_2021": "$18.5 B", "fossil_fuel_financing_2022": "$12.7 B", "fossil_fuel_financing_2023": "$9.5 B", "fossil_fuel_financing_2024": "$10.5 B", "fossil_fuel_financing_2025": "$11.3 B", "fossil_fuel_financing_total_2021_2025": "$62.5 B", "fossil_fuel_financing_change_2024_2025": "+$807 M", "fossil_fuel_financing_change_pct_2024_2025": "+7.7%", "expansion_financing_rank_2025": 34, "expansion_financing_2021": "$8.5 B", "expansion_financing_2022": "$6.5 B", "expansion_financing_2023": "$3.1 B", "expansion_financing_2024": "$4.4 B", "expansion_financing_2025": "$4.6 B", "expansion_financing_total_2021_2025": "$27.1 B", "expansion_financing_change_2024_2025": "+$221 M", "expansion_financing_change_pct_2024_2025": "+5.0%", "fossil_fuel_financing_2025_usd": 11300000000, "legal_entity": "SOCIETE GENERALE", "lei": "O2RNE8IBXP4R0TD8PU41", "headquarters_address": "29 BOULEVARD HAUSSMANN, PARIS, FR-75C, 75009, FR", "gleif_record": "https://search.gleif.org/#/record/O2RNE8IBXP4R0TD8PU41", "position": "The headquarters address in the GLEIF register, found in OpenStreetMap.", "source": "Banking on Climate Chaos 2026 (RAN, BankTrack, Indigenous Environmental Network, Oil Change International, Reclaim Finance, Sierra Club, Urgewald and others), league tables pp. 10-13 and 32-35"}}, {"type": "Feature", "geometry": {"type": "Point", "coordinates": [121.4691024, 31.2323437]}, "properties": {"bank": "Industrial Bank Company", "fossil_fuel_financing_rank_2025": 32, "fossil_fuel_financing_2021": "$12.1 B", "fossil_fuel_financing_2022": "$6.7 B", "fossil_fuel_financing_2023": "$7.9 B", "fossil_fuel_financing_2024": "$10.0 B", "fossil_fuel_financing_2025": "$10.7 B", "fossil_fuel_financing_total_2021_2025": "$47.4 B", "fossil_fuel_financing_change_2024_2025": "+$695 M", "fossil_fuel_financing_change_pct_2024_2025": "+7.0%", "expansion_financing_rank_2025": 24, "expansion_financing_2021": "$9.3 B", "expansion_financing_2022": "$5.2 B", "expansion_financing_2023": "$6.5 B", "expansion_financing_2024": "$7.7 B", "expansion_financing_2025": "$9.0 B", "expansion_financing_total_2021_2025": "$37.7 B", "expansion_financing_change_2024_2025": "+$1.3 B", "expansion_financing_change_pct_2024_2025": "+17.5%", "fossil_fuel_financing_2025_usd": 10700000000, "legal_entity": "兴业银行股份有限公司", "lei": "300300C1030935001303", "headquarters_address": "银城路167号3楼, 上海市, CN-SH, 200120, CN", "gleif_record": "https://search.gleif.org/#/record/300300C1030935001303", "position": "The headquarters city in the GLEIF register (the street address was not found in OpenStreetMap).", "source": "Banking on Climate Chaos 2026 (RAN, BankTrack, Indigenous Environmental Network, Oil Change International, Reclaim Finance, Sierra Club, Urgewald and others), league tables pp. 10-13 and 32-35"}}, {"type": "Feature", "geometry": {"type": "Point", "coordinates": [2.3376561, 48.8717343]}, "properties": {"bank": "BNP Paribas", "fossil_fuel_financing_rank_2025": 33, "fossil_fuel_financing_2021": "$20.5 B", "fossil_fuel_financing_2022": "$18.7 B", "fossil_fuel_financing_2023": "$10.5 B", "fossil_fuel_financing_2024": "$13.8 B", "fossil_fuel_financing_2025": "$10.0 B", "fossil_fuel_financing_total_2021_2025": "$73.5 B", "fossil_fuel_financing_change_2024_2025": "-$3.8 B", "fossil_fuel_financing_change_pct_2024_2025": "-27.8%", "expansion_financing_rank_2025": 40, "expansion_financing_2021": "$9.0 B", "expansion_financing_2022": "$10.4 B", "expansion_financing_2023": "$3.7 B", "expansion_financing_2024": "$4.5 B", "expansion_financing_2025": "$3.5 B", "expansion_financing_total_2021_2025": "$31.2 B", "expansion_financing_change_2024_2025": "-$1.0 B", "expansion_financing_change_pct_2024_2025": "-22.2%", "fossil_fuel_financing_2025_usd": 10000000000, "legal_entity": "BNP PARIBAS", "lei": "R0MUWSFPU8MPRO8K5P83", "headquarters_address": "16 BOULEVARD DES ITALIENS, PARIS, FR-75C, 75009, FR", "gleif_record": "https://search.gleif.org/#/record/R0MUWSFPU8MPRO8K5P83", "position": "The headquarters address in the GLEIF register, found in OpenStreetMap.", "source": "Banking on Climate Chaos 2026 (RAN, BankTrack, Indigenous Environmental Network, Oil Change International, Reclaim Finance, Sierra Club, Urgewald and others), league tables pp. 10-13 and 32-35"}}, {"type": "Feature", "geometry": {"type": "Point", "coordinates": [116.4100395, 39.9269012]}, "properties": {"bank": "Agricultural Bank of China", "fossil_fuel_financing_rank_2025": 34, "fossil_fuel_financing_2021": "$9.8 B", "fossil_fuel_financing_2022": "$9.6 B", "fossil_fuel_financing_2023": "$3.3 B", "fossil_fuel_financing_2024": "$7.2 B", "fossil_fuel_financing_2025": "$9.6 B", "fossil_fuel_financing_total_2021_2025": "$39.5 B", "fossil_fuel_financing_change_2024_2025": "+$2.5 B", "fossil_fuel_financing_change_pct_2024_2025": "+34.4%", "expansion_financing_rank_2025": 30, "expansion_financing_2021": "$6.3 B", "expansion_financing_2022": "$8.1 B", "expansion_financing_2023": "$2.2 B", "expansion_financing_2024": "$5.6 B", "expansion_financing_2025": "$6.1 B", "expansion_financing_total_2021_2025": "$28.3 B", "expansion_financing_change_2024_2025": "+$562 M", "expansion_financing_change_pct_2024_2025": "+10.1%", "fossil_fuel_financing_2025_usd": 9600000000, "legal_entity": "中国农业银行股份有限公司", "lei": "549300E7TSGLCOVSY746", "headquarters_address": "东城区建国门内大街69号, 东城区, CN-BJ, 100005, CN", "gleif_record": "https://search.gleif.org/#/record/549300E7TSGLCOVSY746", "position": "The headquarters city in the GLEIF register (the street address was not found in OpenStreetMap).", "source": "Banking on Climate Chaos 2026 (RAN, BankTrack, Indigenous Environmental Network, Oil Change International, Reclaim Finance, Sierra Club, Urgewald and others), league tables pp. 10-13 and 32-35"}}, {"type": "Feature", "geometry": {"type": "Point", "coordinates": [121.4691024, 31.2323437]}, "properties": {"bank": "Shanghai Pudong Development Bank", "fossil_fuel_financing_rank_2025": 35, "fossil_fuel_financing_2021": "$10.6 B", "fossil_fuel_financing_2022": "$7.3 B", "fossil_fuel_financing_2023": "$7.7 B", "fossil_fuel_financing_2024": "$5.9 B", "fossil_fuel_financing_2025": "$8.5 B", "fossil_fuel_financing_total_2021_2025": "$39.9 B", "fossil_fuel_financing_change_2024_2025": "+$2.6 B", "fossil_fuel_financing_change_pct_2024_2025": "+43.7%", "expansion_financing_rank_2025": 31, "expansion_financing_2021": "$8.4 B", "expansion_financing_2022": "$6.7 B", "expansion_financing_2023": "$6.7 B", "expansion_financing_2024": "$4.7 B", "expansion_financing_2025": "$6.0 B", "expansion_financing_total_2021_2025": "$32.4 B", "expansion_financing_change_2024_2025": "+$1.3 B", "expansion_financing_change_pct_2024_2025": "+28.3%", "fossil_fuel_financing_2025_usd": 8500000000, "legal_entity": "上海浦东发展银行股份有限公司", "lei": "300300C1031031001330", "headquarters_address": "博成路1388号, 上海市, CN-SH, 200126, CN", "gleif_record": "https://search.gleif.org/#/record/300300C1031031001330", "position": "The headquarters city in the GLEIF register (the street address was not found in OpenStreetMap).", "source": "Banking on Climate Chaos 2026 (RAN, BankTrack, Indigenous Environmental Network, Oil Change International, Reclaim Finance, Sierra Club, Urgewald and others), league tables pp. 10-13 and 32-35"}}, {"type": "Feature", "geometry": {"type": "Point", "coordinates": [2.3636124, 48.8290105]}, "properties": {"bank": "Groupe BPCE", "fossil_fuel_financing_rank_2025": 36, "fossil_fuel_financing_2021": "$10.2 B", "fossil_fuel_financing_2022": "$7.3 B", "fossil_fuel_financing_2023": "$7.4 B", "fossil_fuel_financing_2024": "$10.3 B", "fossil_fuel_financing_2025": "$7.2 B", "fossil_fuel_financing_total_2021_2025": "$42.5 B", "fossil_fuel_financing_change_2024_2025": "-$3.1 B", "fossil_fuel_financing_change_pct_2024_2025": "-30.1%", "expansion_financing_rank_2025": 39, "expansion_financing_2021": "$4.4 B", "expansion_financing_2022": "$3.5 B", "expansion_financing_2023": "$2.5 B", "expansion_financing_2024": "$4.1 B", "expansion_financing_2025": "$3.7 B", "expansion_financing_total_2021_2025": "$18.2 B", "expansion_financing_change_2024_2025": "-$470 M", "expansion_financing_change_pct_2024_2025": "-11.4%", "fossil_fuel_financing_2025_usd": 7200000000, "legal_entity": "BPCE", "lei": "9695005MSX1OYEMGDF46", "headquarters_address": "7 PRO GERMAINE SABLON, PARIS 13, FR-75C, 75013, FR", "gleif_record": "https://search.gleif.org/#/record/9695005MSX1OYEMGDF46", "position": "The headquarters city in the GLEIF register (the street address was not found in OpenStreetMap).", "source": "Banking on Climate Chaos 2026 (RAN, BankTrack, Indigenous Environmental Network, Oil Change International, Reclaim Finance, Sierra Club, Urgewald and others), league tables pp. 10-13 and 32-35"}}, {"type": "Feature", "geometry": {"type": "Point", "coordinates": [116.3599221, 39.9108672]}, "properties": {"bank": "China Everbright", "fossil_fuel_financing_rank_2025": 37, "fossil_fuel_financing_2021": "$9.3 B", "fossil_fuel_financing_2022": "$7.2 B", "fossil_fuel_financing_2023": "$7.7 B", "fossil_fuel_financing_2024": "$6.8 B", "fossil_fuel_financing_2025": "$6.3 B", "fossil_fuel_financing_total_2021_2025": "$37.3 B", "fossil_fuel_financing_change_2024_2025": "-$559 M", "fossil_fuel_financing_change_pct_2024_2025": "-8.2%", "expansion_financing_rank_2025": 32, "expansion_financing_2021": "$5.8 B", "expansion_financing_2022": "$4.4 B", "expansion_financing_2023": "$5.5 B", "expansion_financing_2024": "$5.2 B", "expansion_financing_2025": "$5.4 B", "expansion_financing_total_2021_2025": "$26.2 B", "expansion_financing_change_2024_2025": "+$213 M", "expansion_financing_change_pct_2024_2025": "+4.1%", "fossil_fuel_financing_2025_usd": 6300000000, "legal_entity": "中国光大集团股份公司", "lei": "300300211RYM7W932M17", "headquarters_address": "北京市西城区太平桥大街25号, 西城区, CN-BJ, 100000, CN", "gleif_record": "https://search.gleif.org/#/record/300300211RYM7W932M17", "position": "The headquarters city in the GLEIF register (the street address was not found in OpenStreetMap).", "source": "Banking on Climate Chaos 2026 (RAN, BankTrack, Indigenous Environmental Network, Oil Change International, Reclaim Finance, Sierra Club, Urgewald and others), league tables pp. 10-13 and 32-35"}}, {"type": "Feature", "geometry": {"type": "Point", "coordinates": [-77.2134433, 38.9242279]}, "properties": {"bank": "Capital One Financial", "fossil_fuel_financing_rank_2025": 38, "fossil_fuel_financing_2021": "$4.0 B", "fossil_fuel_financing_2022": "$5.0 B", "fossil_fuel_financing_2023": "$4.4 B", "fossil_fuel_financing_2024": "$5.4 B", "fossil_fuel_financing_2025": "$5.6 B", "fossil_fuel_financing_total_2021_2025": "$24.4 B", "fossil_fuel_financing_change_2024_2025": "+$133 M", "fossil_fuel_financing_change_pct_2024_2025": "+2.4%", "expansion_financing_rank_2025": 36, "expansion_financing_2021": "$1.6 B", "expansion_financing_2022": "$1.9 B", "expansion_financing_2023": "$1.1 B", "expansion_financing_2024": "$1.8 B", "expansion_financing_2025": "$4.0 B", "expansion_financing_total_2021_2025": "$10.4 B", "expansion_financing_change_2024_2025": "+$2.1 B", "expansion_financing_change_pct_2024_2025": "+117.0%", "fossil_fuel_financing_2025_usd": 5600000000, "legal_entity": "CAPITAL ONE FINANCIAL CORPORATION", "lei": "ZUE8T73ROZOF6FLBAR73", "headquarters_address": "1680 Capital One Drive, McLean, Fairfax, US-VA, 22102, US", "gleif_record": "https://search.gleif.org/#/record/ZUE8T73ROZOF6FLBAR73", "position": "The headquarters address in the GLEIF register, found in OpenStreetMap.", "source": "Banking on Climate Chaos 2026 (RAN, BankTrack, Indigenous Environmental Network, Oil Change International, Reclaim Finance, Sierra Club, Urgewald and others), league tables pp. 10-13 and 32-35"}}, {"type": "Feature", "geometry": {"type": "Point", "coordinates": [72.8692035, 19.054999]}, "properties": {"bank": "State Bank of India", "fossil_fuel_financing_rank_2025": 39, "fossil_fuel_financing_2021": "$3.5 B", "fossil_fuel_financing_2022": "$2.0 B", "fossil_fuel_financing_2023": "$2.5 B", "fossil_fuel_financing_2024": "$2.9 B", "fossil_fuel_financing_2025": "$4.8 B", "fossil_fuel_financing_total_2021_2025": "$15.8 B", "fossil_fuel_financing_change_2024_2025": "+$1.9 B", "fossil_fuel_financing_change_pct_2024_2025": "+64.2%", "expansion_financing_rank_2025": 37, "expansion_financing_2021": "$1.9 B", "expansion_financing_2022": "$1.6 B", "expansion_financing_2023": "$905 M", "expansion_financing_2024": "$1.5 B", "expansion_financing_2025": "$3.9 B", "expansion_financing_total_2021_2025": "$9.8 B", "expansion_financing_change_2024_2025": "+$2.4 B", "expansion_financing_change_pct_2024_2025": "+162.9%", "fossil_fuel_financing_2025_usd": 4800000000, "legal_entity": "STATE BANK OF INDIA", "lei": "5493001JZ37UBBZF6L49", "headquarters_address": "C/O STATE BANK BHAVAN MADAME CAMA ROAD NARIMAN POINT, MUMBAI, IN-MH, 400021, IN", "gleif_record": "https://search.gleif.org/#/record/5493001JZ37UBBZF6L49", "position": "The headquarters city in the GLEIF register (the street address was not found in OpenStreetMap).", "source": "Banking on Climate Chaos 2026 (RAN, BankTrack, Indigenous Environmental Network, Oil Change International, Reclaim Finance, Sierra Club, Urgewald and others), league tables pp. 10-13 and 32-35"}}, {"type": "Feature", "geometry": {"type": "Point", "coordinates": [116.3912972, 39.9057136]}, "properties": {"bank": "Bank of Beijing", "fossil_fuel_financing_rank_2025": 41, "fossil_fuel_financing_2021": "$759 M", "fossil_fuel_financing_2022": "$3.5 B", "fossil_fuel_financing_2023": "$5.1 B", "fossil_fuel_financing_2024": "$4.8 B", "fossil_fuel_financing_2025": "$4.6 B", "fossil_fuel_financing_total_2021_2025": "$18.9 B", "fossil_fuel_financing_change_2024_2025": "-$243 M", "fossil_fuel_financing_change_pct_2024_2025": "-5.0%", "expansion_financing_rank_2025": 38, "expansion_financing_2021": "$656 M", "expansion_financing_2022": "$3.2 B", "expansion_financing_2023": "$4.4 B", "expansion_financing_2024": "$4.1 B", "expansion_financing_2025": "$3.8 B", "expansion_financing_total_2021_2025": "$16.2 B", "expansion_financing_change_2024_2025": "-$309 M", "expansion_financing_change_pct_2024_2025": "-7.5%", "fossil_fuel_financing_2025_usd": 4600000000, "legal_entity": "北京银行股份有限公司", "lei": "300300C1080211000042", "headquarters_address": "西城区金融大街甲17号首层, 北京市, CN-BJ, 100033, CN", "gleif_record": "https://search.gleif.org/#/record/300300C1080211000042", "position": "The headquarters city in the GLEIF register (the street address was not found in OpenStreetMap).", "source": "Banking on Climate Chaos 2026 (RAN, BankTrack, Indigenous Environmental Network, Oil Change International, Reclaim Finance, Sierra Club, Urgewald and others), league tables pp. 10-13 and 32-35"}}, {"type": "Feature", "geometry": {"type": "Point", "coordinates": [116.3599221, 39.9108672]}, "properties": {"bank": "China Minsheng Banking", "fossil_fuel_financing_rank_2025": 43, "fossil_fuel_financing_2021": "$3.4 B", "fossil_fuel_financing_2022": "$1.9 B", "fossil_fuel_financing_2023": "$4.9 B", "fossil_fuel_financing_2024": "$2.4 B", "fossil_fuel_financing_2025": "$4.6 B", "fossil_fuel_financing_total_2021_2025": "$17.1 B", "fossil_fuel_financing_change_2024_2025": "+$2.1 B", "fossil_fuel_financing_change_pct_2024_2025": "+89.0%", "expansion_financing_rank_2025": 41, "expansion_financing_2021": "$1.9 B", "expansion_financing_2022": "$1.1 B", "expansion_financing_2023": "$3.8 B", "expansion_financing_2024": "$1.9 B", "expansion_financing_2025": "$3.3 B", "expansion_financing_total_2021_2025": "$12.0 B", "expansion_financing_change_2024_2025": "+$1.4 B", "expansion_financing_change_pct_2024_2025": "+73.0%", "fossil_fuel_financing_2025_usd": 4600000000, "legal_entity": "中国民生银行股份有限公司", "lei": "549300HBUGSQD1VCXG94", "headquarters_address": "复兴门内大街2号, 西城区, CN-BJ, 100031, CN", "gleif_record": "https://search.gleif.org/#/record/549300HBUGSQD1VCXG94", "position": "The headquarters city in the GLEIF register (the street address was not found in OpenStreetMap).", "source": "Banking on Climate Chaos 2026 (RAN, BankTrack, Indigenous Environmental Network, Oil Change International, Reclaim Finance, Sierra Club, Urgewald and others), league tables pp. 10-13 and 32-35"}}, {"type": "Feature", "geometry": {"type": "Point", "coordinates": [103.8519072, 1.2899175]}, "properties": {"bank": "DBS", "fossil_fuel_financing_rank_2025": 44, "fossil_fuel_financing_2021": "$4.1 B", "fossil_fuel_financing_2022": "$3.0 B", "fossil_fuel_financing_2023": "$3.9 B", "fossil_fuel_financing_2024": "$2.4 B", "fossil_fuel_financing_2025": "$4.1 B", "fossil_fuel_financing_total_2021_2025": "$17.5 B", "fossil_fuel_financing_change_2024_2025": "+$1.7 B", "fossil_fuel_financing_change_pct_2024_2025": "+70.8%", "expansion_financing_rank_2025": 51, "expansion_financing_2021": "$650 M", "expansion_financing_2022": "$1.2 B", "expansion_financing_2023": "$474 M", "expansion_financing_2024": "$487 M", "expansion_financing_2025": "$986 M", "expansion_financing_total_2021_2025": "$3.8 B", "expansion_financing_change_2024_2025": "+$499 M", "expansion_financing_change_pct_2024_2025": "+102.5%", "fossil_fuel_financing_2025_usd": 4100000000, "legal_entity": "DBS GROUP HOLDINGS LTD", "lei": "5493007FKT78NKPM5V55", "headquarters_address": "12 MARINA BOULEVARD, MARINA BAY FINANCIAL CENTRE, SINGAPORE, SG-01, 018982, SG", "gleif_record": "https://search.gleif.org/#/record/5493007FKT78NKPM5V55", "position": "The headquarters city in the GLEIF register (the street address was not found in OpenStreetMap).", "source": "Banking on Climate Chaos 2026 (RAN, BankTrack, Indigenous Environmental Network, Oil Change International, Reclaim Finance, Sierra Club, Urgewald and others), league tables pp. 10-13 and 32-35"}}, {"type": "Feature", "geometry": {"type": "Point", "coordinates": [114.0545429, 22.5445741]}, "properties": {"bank": "Ping An Insurance Group", "fossil_fuel_financing_rank_2025": 45, "fossil_fuel_financing_2021": "$9.9 B", "fossil_fuel_financing_2022": "$4.6 B", "fossil_fuel_financing_2023": "$5.7 B", "fossil_fuel_financing_2024": "$4.7 B", "fossil_fuel_financing_2025": "$3.8 B", "fossil_fuel_financing_total_2021_2025": "$28.6 B", "fossil_fuel_financing_change_2024_2025": "-$972 M", "fossil_fuel_financing_change_pct_2024_2025": "-20.6%", "expansion_financing_rank_2025": 42, "expansion_financing_2021": "$8.0 B", "expansion_financing_2022": "$3.9 B", "expansion_financing_2023": "$3.8 B", "expansion_financing_2024": "$3.8 B", "expansion_financing_2025": "$3.2 B", "expansion_financing_total_2021_2025": "$22.7 B", "expansion_financing_change_2024_2025": "-$606 M", "expansion_financing_change_pct_2024_2025": "-16.0%", "fossil_fuel_financing_2025_usd": 3800000000, "legal_entity": "中国平安保险（集团）股份有限公司", "lei": "529900M9MC28JLN35U89", "headquarters_address": "47th, 48th, 108th,109th, 110th, 111th and 112th Floors, Ping An Finance Center, No. 5033 Yitian Road, Shenzhen, CN-GD, 518033, CN", "gleif_record": "https://search.gleif.org/#/record/529900M9MC28JLN35U89", "position": "The headquarters city in the GLEIF register (the street address was not found in OpenStreetMap).", "source": "Banking on Climate Chaos 2026 (RAN, BankTrack, Indigenous Environmental Network, Oil Change International, Reclaim Finance, Sierra Club, Urgewald and others), league tables pp. 10-13 and 32-35"}}, {"type": "Feature", "geometry": {"type": "Point", "coordinates": [8.5382214, 47.3719416]}, "properties": {"bank": "UBS", "fossil_fuel_financing_rank_2025": 46, "fossil_fuel_financing_2021": "$21.1 B", "fossil_fuel_financing_2022": "$14.9 B", "fossil_fuel_financing_2023": "$8.3 B", "fossil_fuel_financing_2024": "$5.8 B", "fossil_fuel_financing_2025": "$3.7 B", "fossil_fuel_financing_total_2021_2025": "$53.8 B", "fossil_fuel_financing_change_2024_2025": "-$2.1 B", "fossil_fuel_financing_change_pct_2024_2025": "-36.3%", "expansion_financing_rank_2025": 46, "expansion_financing_2021": "$9.5 B", "expansion_financing_2022": "$5.5 B", "expansion_financing_2023": "$2.6 B", "expansion_financing_2024": "$2.1 B", "expansion_financing_2025": "$1.8 B", "expansion_financing_total_2021_2025": "$21.4 B", "expansion_financing_change_2024_2025": "-$253 M", "expansion_financing_change_pct_2024_2025": "-12.3%", "fossil_fuel_financing_2025_usd": 3700000000, "legal_entity": "UBS Group AG", "lei": "549300SZJ9VS8SGXAN81", "headquarters_address": "Bahnhofstrasse 45, Zurich, CH-ZH, 8001, CH", "gleif_record": "https://search.gleif.org/#/record/549300SZJ9VS8SGXAN81", "position": "The headquarters address in the GLEIF register, found in OpenStreetMap.", "source": "Banking on Climate Chaos 2026 (RAN, BankTrack, Indigenous Environmental Network, Oil Change International, Reclaim Finance, Sierra Club, Urgewald and others), league tables pp. 10-13 and 32-35"}}, {"type": "Feature", "geometry": {"type": "Point", "coordinates": [118.7788631, 32.0438284]}, "properties": {"bank": "Bank of Jiangsu", "fossil_fuel_financing_rank_2025": 47, "fossil_fuel_financing_2021": "$1.8 B", "fossil_fuel_financing_2022": "$2.7 B", "fossil_fuel_financing_2023": "$1.5 B", "fossil_fuel_financing_2024": "$1.3 B", "fossil_fuel_financing_2025": "$2.9 B", "fossil_fuel_financing_total_2021_2025": "$10.2 B", "fossil_fuel_financing_change_2024_2025": "+$1.6 B", "fossil_fuel_financing_change_pct_2024_2025": "+121.2%", "expansion_financing_rank_2025": 44, "expansion_financing_2021": "$829 M", "expansion_financing_2022": "$1.8 B", "expansion_financing_2023": "$902 M", "expansion_financing_2024": "$920 M", "expansion_financing_2025": "$2.2 B", "expansion_financing_total_2021_2025": "$6.7 B", "expansion_financing_change_2024_2025": "+$1.3 B", "expansion_financing_change_pct_2024_2025": "+139.7%", "fossil_fuel_financing_2025_usd": 2900000000, "legal_entity": "江苏银行股份有限公司", "lei": "300300C1086832000046", "headquarters_address": "中华路26号, 南京市, CN-JS, 210000, CN", "gleif_record": "https://search.gleif.org/#/record/300300C1086832000046", "position": "The headquarters city in the GLEIF register (the street address was not found in OpenStreetMap).", "source": "Banking on Climate Chaos 2026 (RAN, BankTrack, Indigenous Environmental Network, Oil Change International, Reclaim Finance, Sierra Club, Urgewald and others), league tables pp. 10-13 and 32-35"}}, {"type": "Feature", "geometry": {"type": "Point", "coordinates": [5.1089334, 52.0859114]}, "properties": {"bank": "Rabobank", "fossil_fuel_financing_rank_2025": 48, "fossil_fuel_financing_2021": "$2.8 B", "fossil_fuel_financing_2022": "$2.7 B", "fossil_fuel_financing_2023": "$4.0 B", "fossil_fuel_financing_2024": "$3.1 B", "fossil_fuel_financing_2025": "$2.9 B", "fossil_fuel_financing_total_2021_2025": "$15.5 B", "fossil_fuel_financing_change_2024_2025": "-$212 M", "fossil_fuel_financing_change_pct_2024_2025": "-6.9%", "expansion_financing_rank_2025": 57, "expansion_financing_2021": "$237 M", "expansion_financing_2022": "$507 M", "expansion_financing_2023": "$319 M", "expansion_financing_2024": "$297 M", "expansion_financing_2025": "$463 M", "expansion_financing_total_2021_2025": "$1.8 B", "expansion_financing_change_2024_2025": "+$166 M", "expansion_financing_change_pct_2024_2025": "+55.9%", "fossil_fuel_financing_2025_usd": 2900000000, "legal_entity": "Coöperatieve Rabobank U.A.", "lei": "DG3RU1DBUFHT4ZF9WN62", "headquarters_address": "Croeselaan 18, Utrecht, NL-UT, 3521 CB, NL", "gleif_record": "https://search.gleif.org/#/record/DG3RU1DBUFHT4ZF9WN62", "position": "The headquarters address in the GLEIF register, found in OpenStreetMap.", "source": "Banking on Climate Chaos 2026 (RAN, BankTrack, Indigenous Environmental Network, Oil Change International, Reclaim Finance, Sierra Club, Urgewald and others), league tables pp. 10-13 and 32-35"}}, {"type": "Feature", "geometry": {"type": "Point", "coordinates": [-3.1914231, 55.9544835]}, "properties": {"bank": "NatWest", "fossil_fuel_financing_rank_2025": 49, "fossil_fuel_financing_2021": "$2.8 B", "fossil_fuel_financing_2022": "$1.8 B", "fossil_fuel_financing_2023": "$2.3 B", "fossil_fuel_financing_2024": "$2.7 B", "fossil_fuel_financing_2025": "$2.5 B", "fossil_fuel_financing_total_2021_2025": "$12.1 B", "fossil_fuel_financing_change_2024_2025": "-$130 M", "fossil_fuel_financing_change_pct_2024_2025": "-4.9%", "expansion_financing_rank_2025": 48, "expansion_financing_2021": "$1.4 B", "expansion_financing_2022": "$920 M", "expansion_financing_2023": "$301 M", "expansion_financing_2024": "$1.2 B", "expansion_financing_2025": "$1.3 B", "expansion_financing_total_2021_2025": "$5.1 B", "expansion_financing_change_2024_2025": "+$54 M", "expansion_financing_change_pct_2024_2025": "+4.4%", "fossil_fuel_financing_2025_usd": 2500000000, "legal_entity": "NATWEST GROUP PLC", "lei": "2138005O9XJIJN4JPN90", "headquarters_address": "36 ST ANDREW SQUARE, EDINBURGH, GB-EDH, EH2 2YB, GB", "gleif_record": "https://search.gleif.org/#/record/2138005O9XJIJN4JPN90", "position": "The headquarters address in the GLEIF register, found in OpenStreetMap.", "source": "Banking on Climate Chaos 2026 (RAN, BankTrack, Indigenous Environmental Network, Oil Change International, Reclaim Finance, Sierra Club, Urgewald and others), league tables pp. 10-13 and 32-35"}}, {"type": "Feature", "geometry": {"type": "Point", "coordinates": [8.6743629, 50.1112378]}, "properties": {"bank": "Commerzbank", "fossil_fuel_financing_rank_2025": 50, "fossil_fuel_financing_2021": "$2.7 B", "fossil_fuel_financing_2022": "$2.2 B", "fossil_fuel_financing_2023": "$2.8 B", "fossil_fuel_financing_2024": "$3.8 B", "fossil_fuel_financing_2025": "$2.3 B", "fossil_fuel_financing_total_2021_2025": "$13.8 B", "fossil_fuel_financing_change_2024_2025": "-$1.6 B", "fossil_fuel_financing_change_pct_2024_2025": "-40.8%", "expansion_financing_rank_2025": 53, "expansion_financing_2021": "$1.6 B", "expansion_financing_2022": "$675 M", "expansion_financing_2023": "$385 M", "expansion_financing_2024": "$2.2 B", "expansion_financing_2025": "$755 M", "expansion_financing_total_2021_2025": "$5.6 B", "expansion_financing_change_2024_2025": "-$1.5 B", "expansion_financing_change_pct_2024_2025": "-66.1%", "fossil_fuel_financing_2025_usd": 2300000000, "legal_entity": "COMMERZBANK Aktiengesellschaft", "lei": "851WYGNLUQLFZBSYGB56", "headquarters_address": "Kaiserstraße 16, Frankfurt am Main, DE-HE, 60311, DE", "gleif_record": "https://search.gleif.org/#/record/851WYGNLUQLFZBSYGB56", "position": "The headquarters address in the GLEIF register, found in OpenStreetMap.", "source": "Banking on Climate Chaos 2026 (RAN, BankTrack, Indigenous Environmental Network, Oil Change International, Reclaim Finance, Sierra Club, Urgewald and others), league tables pp. 10-13 and 32-35"}}, {"type": "Feature", "geometry": {"type": "Point", "coordinates": [144.9631732, -37.8142454]}, "properties": {"bank": "ANZ", "fossil_fuel_financing_rank_2025": 51, "fossil_fuel_financing_2021": "$1.8 B", "fossil_fuel_financing_2022": "$2.6 B", "fossil_fuel_financing_2023": "$2.2 B", "fossil_fuel_financing_2024": "$2.2 B", "fossil_fuel_financing_2025": "$2.0 B", "fossil_fuel_financing_total_2021_2025": "$10.8 B", "fossil_fuel_financing_change_2024_2025": "-$235 M", "fossil_fuel_financing_change_pct_2024_2025": "-10.5%", "expansion_financing_rank_2025": 59, "expansion_financing_2021": "$330 M", "expansion_financing_2022": "$779 M", "expansion_financing_2023": "$316 M", "expansion_financing_2024": "$563 M", "expansion_financing_2025": "$361 M", "expansion_financing_total_2021_2025": "$2.3 B", "expansion_financing_change_2024_2025": "-$202 M", "expansion_financing_change_pct_2024_2025": "-35.8%", "fossil_fuel_financing_2025_usd": 2000000000, "legal_entity": "AUSTRALIA AND NEW ZEALAND BANKING GROUP LIMITED", "lei": "JHE42UYNWWTJB8YTTU19", "headquarters_address": "c/o ANZ CENTRE MELBOURNE, Level 9, 833 Collins Street, Docklands, Melbourne, AU-VIC, 3008, AU", "gleif_record": "https://search.gleif.org/#/record/JHE42UYNWWTJB8YTTU19", "position": "The headquarters city in the GLEIF register (the street address was not found in OpenStreetMap).", "source": "Banking on Climate Chaos 2026 (RAN, BankTrack, Indigenous Environmental Network, Oil Change International, Reclaim Finance, Sierra Club, Urgewald and others), league tables pp. 10-13 and 32-35"}}, {"type": "Feature", "geometry": {"type": "Point", "coordinates": [121.4691024, 31.2323437]}, "properties": {"bank": "Bank of Communications", "fossil_fuel_financing_rank_2025": 52, "fossil_fuel_financing_2021": "$7.6 B", "fossil_fuel_financing_2022": "$7.6 B", "fossil_fuel_financing_2023": "$3.7 B", "fossil_fuel_financing_2024": "$2.2 B", "fossil_fuel_financing_2025": "$2.0 B", "fossil_fuel_financing_total_2021_2025": "$23.1 B", "fossil_fuel_financing_change_2024_2025": "-$205 M", "fossil_fuel_financing_change_pct_2024_2025": "-9.3%", "expansion_financing_rank_2025": 47, "expansion_financing_2021": "$5.5 B", "expansion_financing_2022": "$5.8 B", "expansion_financing_2023": "$2.5 B", "expansion_financing_2024": "$1.1 B", "expansion_financing_2025": "$1.3 B", "expansion_financing_total_2021_2025": "$16.3 B", "expansion_financing_change_2024_2025": "+$180 M", "expansion_financing_change_pct_2024_2025": "+16.2%", "fossil_fuel_financing_2025_usd": 2000000000, "legal_entity": "Bank of Communications Co., Ltd.", "lei": "984500C4F39MFEE54196", "headquarters_address": "银城中路188号, 上海市, CN-SH, 200120, CN", "gleif_record": "https://search.gleif.org/#/record/984500C4F39MFEE54196", "position": "The headquarters city in the GLEIF register (the street address was not found in OpenStreetMap).", "source": "Banking on Climate Chaos 2026 (RAN, BankTrack, Indigenous Environmental Network, Oil Change International, Reclaim Finance, Sierra Club, Urgewald and others), league tables pp. 10-13 and 32-35"}}, {"type": "Feature", "geometry": {"type": "Point", "coordinates": [126.9782914, 37.5666791]}, "properties": {"bank": "KB Financial Group", "fossil_fuel_financing_rank_2025": 53, "fossil_fuel_financing_2021": "$1.1 B", "fossil_fuel_financing_2022": "$1.0 B", "fossil_fuel_financing_2023": "$1.3 B", "fossil_fuel_financing_2024": "$1.7 B", "fossil_fuel_financing_2025": "$1.8 B", "fossil_fuel_financing_total_2021_2025": "$7.0 B", "fossil_fuel_financing_change_2024_2025": "+$97 M", "fossil_fuel_financing_change_pct_2024_2025": "+5.7%", "expansion_financing_rank_2025": 50, "expansion_financing_2021": "$514 M", "expansion_financing_2022": "$482 M", "expansion_financing_2023": "$969 M", "expansion_financing_2024": "$1.3 B", "expansion_financing_2025": "$1.1 B", "expansion_financing_total_2021_2025": "$4.4 B", "expansion_financing_change_2024_2025": "-$227 M", "expansion_financing_change_pct_2024_2025": "-17.2%", "fossil_fuel_financing_2025_usd": 1800000000, "legal_entity": "주식회사 케이비금융지주", "lei": "529900TKE4MXG3Q6GW86", "headquarters_address": "서울특별시 영등포구 국제금융로8길 26 (여의도동), 케이비금융지주, Seoul, KR-11, 07331, KR", "gleif_record": "https://search.gleif.org/#/record/529900TKE4MXG3Q6GW86", "position": "The headquarters city in the GLEIF register (the street address was not found in OpenStreetMap).", "source": "Banking on Climate Chaos 2026 (RAN, BankTrack, Indigenous Environmental Network, Oil Change International, Reclaim Finance, Sierra Club, Urgewald and others), league tables pp. 10-13 and 32-35"}}, {"type": "Feature", "geometry": {"type": "Point", "coordinates": [-0.0835294, 51.5158235]}, "properties": {"bank": "Lloyds Banking Group", "fossil_fuel_financing_rank_2025": 54, "fossil_fuel_financing_2021": "$1.9 B", "fossil_fuel_financing_2022": "$2.0 B", "fossil_fuel_financing_2023": "$2.5 B", "fossil_fuel_financing_2024": "$1.9 B", "fossil_fuel_financing_2025": "$1.7 B", "fossil_fuel_financing_total_2021_2025": "$10.0 B", "fossil_fuel_financing_change_2024_2025": "-$156 M", "fossil_fuel_financing_change_pct_2024_2025": "-8.3%", "expansion_financing_rank_2025": 60, "expansion_financing_2021": "$632 M", "expansion_financing_2022": "$571 M", "expansion_financing_2023": "$274 M", "expansion_financing_2024": "$876 M", "expansion_financing_2025": "$350 M", "expansion_financing_total_2021_2025": "$2.7 B", "expansion_financing_change_2024_2025": "-$526 M", "expansion_financing_change_pct_2024_2025": "-60.0%", "fossil_fuel_financing_2025_usd": 1700000000, "legal_entity": "LLOYDS BANKING GROUP PLC", "lei": "549300PPXHEU2JF0AM85", "headquarters_address": "33 OLD BROAD STREET, LONDON, GB-LND, EC2N 1HZ, GB", "gleif_record": "https://search.gleif.org/#/record/549300PPXHEU2JF0AM85", "position": "The headquarters address in the GLEIF register, found in OpenStreetMap.", "source": "Banking on Climate Chaos 2026 (RAN, BankTrack, Indigenous Environmental Network, Oil Change International, Reclaim Finance, Sierra Club, Urgewald and others), league tables pp. 10-13 and 32-35"}}, {"type": "Feature", "geometry": {"type": "Point", "coordinates": [8.6607502, 50.1095247]}, "properties": {"bank": "DZ Bank", "fossil_fuel_financing_rank_2025": 55, "fossil_fuel_financing_2021": "$983 M", "fossil_fuel_financing_2022": "$1.7 B", "fossil_fuel_financing_2023": "$2.3 B", "fossil_fuel_financing_2024": "$1.2 B", "fossil_fuel_financing_2025": "$1.7 B", "fossil_fuel_financing_total_2021_2025": "$7.9 B", "fossil_fuel_financing_change_2024_2025": "+$453 M", "fossil_fuel_financing_change_pct_2024_2025": "+37.0%", "expansion_financing_rank_2025": 52, "expansion_financing_2021": "$308 M", "expansion_financing_2022": "$322 M", "expansion_financing_2023": "$986 M", "expansion_financing_2024": "$214 M", "expansion_financing_2025": "$760 M", "expansion_financing_total_2021_2025": "$2.6 B", "expansion_financing_change_2024_2025": "+$546 M", "expansion_financing_change_pct_2024_2025": "+255.6%", "fossil_fuel_financing_2025_usd": 1700000000, "legal_entity": "DZ BANK AG Deutsche Zentral-Genossenschaftsbank, Frankfurt am Main", "lei": "529900HNOAA1KXQJUQ27", "headquarters_address": "Platz der Republik, Frankfurt am Main, DE-HE, 60265, DE", "gleif_record": "https://search.gleif.org/#/record/529900HNOAA1KXQJUQ27", "position": "The headquarters address in the GLEIF register, found in OpenStreetMap.", "source": "Banking on Climate Chaos 2026 (RAN, BankTrack, Indigenous Environmental Network, Oil Change International, Reclaim Finance, Sierra Club, Urgewald and others), league tables pp. 10-13 and 32-35"}}, {"type": "Feature", "geometry": {"type": "Point", "coordinates": [116.3912972, 39.9057136]}, "properties": {"bank": "Postal Savings Bank of China", "fossil_fuel_financing_rank_2025": 56, "fossil_fuel_financing_2021": "$3.7 B", "fossil_fuel_financing_2022": "$2.5 B", "fossil_fuel_financing_2023": "$1.6 B", "fossil_fuel_financing_2024": "$1.2 B", "fossil_fuel_financing_2025": "$1.5 B", "fossil_fuel_financing_total_2021_2025": "$10.5 B", "fossil_fuel_financing_change_2024_2025": "+$246 M", "fossil_fuel_financing_change_pct_2024_2025": "+19.9%", "expansion_financing_rank_2025": 49, "expansion_financing_2021": "$2.7 B", "expansion_financing_2022": "$1.9 B", "expansion_financing_2023": "$998 M", "expansion_financing_2024": "$451 M", "expansion_financing_2025": "$1.2 B", "expansion_financing_total_2021_2025": "$7.2 B", "expansion_financing_change_2024_2025": "+$765 M", "expansion_financing_change_pct_2024_2025": "+169.8%", "fossil_fuel_financing_2025_usd": 1500000000, "legal_entity": "中国邮政储蓄银行股份有限公司", "lei": "300300C1040311005298", "headquarters_address": "金融大街3号, 北京市, CN-BJ, 100808, CN", "gleif_record": "https://search.gleif.org/#/record/300300C1040311005298", "position": "The headquarters city in the GLEIF register (the street address was not found in OpenStreetMap).", "source": "Banking on Climate Chaos 2026 (RAN, BankTrack, Indigenous Environmental Network, Oil Change International, Reclaim Finance, Sierra Club, Urgewald and others), league tables pp. 10-13 and 32-35"}}, {"type": "Feature", "geometry": {"type": "Point", "coordinates": [12.569754, 55.669527]}, "properties": {"bank": "Danske Bank", "fossil_fuel_financing_rank_2025": 57, "fossil_fuel_financing_2021": "$1.3 B", "fossil_fuel_financing_2022": "$790 M", "fossil_fuel_financing_2023": "$1.3 B", "fossil_fuel_financing_2024": "$1.3 B", "fossil_fuel_financing_2025": "$1.4 B", "fossil_fuel_financing_total_2021_2025": "$6.0 B", "fossil_fuel_financing_change_2024_2025": "+$135 M", "fossil_fuel_financing_change_pct_2024_2025": "+10.8%", "expansion_financing_rank_2025": 63, "expansion_financing_2021": "$647 M", "expansion_financing_2022": "$94 M", "expansion_financing_2023": "$165 M", "expansion_financing_2024": "$228 M", "expansion_financing_2025": "$35 M", "expansion_financing_total_2021_2025": "$1.2 B", "expansion_financing_change_2024_2025": "-$193 M", "expansion_financing_change_pct_2024_2025": "-84.6%", "fossil_fuel_financing_2025_usd": 1400000000, "legal_entity": "DANSKE BANK A/S", "lei": "MAES062Z21O4RZ2U7M96", "headquarters_address": "Bernstorffsgade 40, København V, DK-84, 1577, DK", "gleif_record": "https://search.gleif.org/#/record/MAES062Z21O4RZ2U7M96", "position": "The headquarters address in the GLEIF register, found in OpenStreetMap.", "source": "Banking on Climate Chaos 2026 (RAN, BankTrack, Indigenous Environmental Network, Oil Change International, Reclaim Finance, Sierra Club, Urgewald and others), league tables pp. 10-13 and 32-35"}}, {"type": "Feature", "geometry": {"type": "Point", "coordinates": [-0.4642942, 39.4582998]}, "properties": {"bank": "La Caixa Group", "fossil_fuel_financing_rank_2025": 58, "fossil_fuel_financing_2021": "$6.8 B", "fossil_fuel_financing_2022": "$2.9 B", "fossil_fuel_financing_2023": "$2.9 B", "fossil_fuel_financing_2024": "$2.0 B", "fossil_fuel_financing_2025": "$1.3 B", "fossil_fuel_financing_total_2021_2025": "$16.0 B", "fossil_fuel_financing_change_2024_2025": "-$681 M", "fossil_fuel_financing_change_pct_2024_2025": "-34.2%", "expansion_financing_rank_2025": 55, "expansion_financing_2021": "$561 M", "expansion_financing_2022": "$1.2 B", "expansion_financing_2023": "$1.3 B", "expansion_financing_2024": "$985 M", "expansion_financing_2025": "$639 M", "expansion_financing_total_2021_2025": "$4.7 B", "expansion_financing_change_2024_2025": "-$346 M", "expansion_financing_change_pct_2024_2025": "-35.1%", "fossil_fuel_financing_2025_usd": 1300000000, "legal_entity": "CAIXABANK SA", "lei": "7CUNS533WID6K7DGFI87", "headquarters_address": "CALLE PINTOR SOROLLA 2 - 4, Valencia, 46002, ES", "gleif_record": "https://search.gleif.org/#/record/7CUNS533WID6K7DGFI87", "position": "The headquarters address in the GLEIF register, found in OpenStreetMap.", "source": "Banking on Climate Chaos 2026 (RAN, BankTrack, Indigenous Environmental Network, Oil Change International, Reclaim Finance, Sierra Club, Urgewald and others), league tables pp. 10-13 and 32-35"}}, {"type": "Feature", "geometry": {"type": "Point", "coordinates": [144.9631732, -37.8142454]}, "properties": {"bank": "National Australia Bank", "fossil_fuel_financing_rank_2025": 59, "fossil_fuel_financing_2021": "$3.4 B", "fossil_fuel_financing_2022": "$1.6 B", "fossil_fuel_financing_2023": "$1.1 B", "fossil_fuel_financing_2024": "$1.5 B", "fossil_fuel_financing_2025": "$1.3 B", "fossil_fuel_financing_total_2021_2025": "$8.8 B", "fossil_fuel_financing_change_2024_2025": "-$252 M", "fossil_fuel_financing_change_pct_2024_2025": "-16.7%", "expansion_financing_rank_2025": 58, "expansion_financing_2021": "$700 M", "expansion_financing_2022": "$407 M", "expansion_financing_2023": "$346 M", "expansion_financing_2024": "$270 M", "expansion_financing_2025": "$462 M", "expansion_financing_total_2021_2025": "$2.2 B", "expansion_financing_change_2024_2025": "+$192 M", "expansion_financing_change_pct_2024_2025": "+71.2%", "fossil_fuel_financing_2025_usd": 1300000000, "legal_entity": "NATIONAL AUSTRALIA BANK LIMITED", "lei": "F8SB4JFBSYQFRQEH3Z21", "headquarters_address": "LEVEL 28, 395 BOURKE STREET, MELBOURNE, AU-VIC, 3000, AU", "gleif_record": "https://search.gleif.org/#/record/F8SB4JFBSYQFRQEH3Z21", "position": "The headquarters city in the GLEIF register (the street address was not found in OpenStreetMap).", "source": "Banking on Climate Chaos 2026 (RAN, BankTrack, Indigenous Environmental Network, Oil Change International, Reclaim Finance, Sierra Club, Urgewald and others), league tables pp. 10-13 and 32-35"}}, {"type": "Feature", "geometry": {"type": "Point", "coordinates": [116.4100395, 39.9269012]}, "properties": {"bank": "Hua Xia Bank", "fossil_fuel_financing_rank_2025": 60, "fossil_fuel_financing_2021": "$3.1 B", "fossil_fuel_financing_2022": "$2.1 B", "fossil_fuel_financing_2023": "$1.6 B", "fossil_fuel_financing_2024": "$1.3 B", "fossil_fuel_financing_2025": "$1.2 B", "fossil_fuel_financing_total_2021_2025": "$9.3 B", "fossil_fuel_financing_change_2024_2025": "-$95 M", "fossil_fuel_financing_change_pct_2024_2025": "-7.2%", "expansion_financing_rank_2025": 54, "expansion_financing_2021": "$2.2 B", "expansion_financing_2022": "$1.5 B", "expansion_financing_2023": "$934 M", "expansion_financing_2024": "$854 M", "expansion_financing_2025": "$695 M", "expansion_financing_total_2021_2025": "$6.2 B", "expansion_financing_change_2024_2025": "-$159 M", "expansion_financing_change_pct_2024_2025": "-18.6%", "fossil_fuel_financing_2025_usd": 1200000000, "legal_entity": "华夏银行股份有限公司", "lei": "300300AKNDEHIGVDZW37", "headquarters_address": "建国门内大街22号华夏银行大厦, 东城区, CN-BJ, 100005, CN", "gleif_record": "https://search.gleif.org/#/record/300300AKNDEHIGVDZW37", "position": "The headquarters city in the GLEIF register (the street address was not found in OpenStreetMap).", "source": "Banking on Climate Chaos 2026 (RAN, BankTrack, Indigenous Environmental Network, Oil Change International, Reclaim Finance, Sierra Club, Urgewald and others), league tables pp. 10-13 and 32-35"}}, {"type": "Feature", "geometry": {"type": "Point", "coordinates": [151.2082848, -33.8698439]}, "properties": {"bank": "Westpac", "fossil_fuel_financing_rank_2025": 61, "fossil_fuel_financing_2021": "$730 M", "fossil_fuel_financing_2022": "$1.6 B", "fossil_fuel_financing_2023": "$666 M", "fossil_fuel_financing_2024": "$1.3 B", "fossil_fuel_financing_2025": "$1.1 B", "fossil_fuel_financing_total_2021_2025": "$5.4 B", "fossil_fuel_financing_change_2024_2025": "-$150 M", "fossil_fuel_financing_change_pct_2024_2025": "-12.0%", "expansion_financing_rank_2025": 61, "expansion_financing_2021": "$90 M", "expansion_financing_2022": "$311 M", "expansion_financing_2023": "$105 M", "expansion_financing_2024": "$277 M", "expansion_financing_2025": "$240 M", "expansion_financing_total_2021_2025": "$1.0 B", "expansion_financing_change_2024_2025": "-$37 M", "expansion_financing_change_pct_2024_2025": "-13.3%", "fossil_fuel_financing_2025_usd": 1100000000, "legal_entity": "WESTPAC BANKING CORPORATION", "lei": "EN5TNI6CI43VEPAMHL14", "headquarters_address": "C/O WESTPAC GROUP, LEVEL 18,WESTPAC PLACE,275 KENT STREET, SYDNEY, AU-NSW, 2000, AU", "gleif_record": "https://search.gleif.org/#/record/EN5TNI6CI43VEPAMHL14", "position": "The headquarters city in the GLEIF register (the street address was not found in OpenStreetMap).", "source": "Banking on Climate Chaos 2026 (RAN, BankTrack, Indigenous Environmental Network, Oil Change International, Reclaim Finance, Sierra Club, Urgewald and others), league tables pp. 10-13 and 32-35"}}, {"type": "Feature", "geometry": {"type": "Point", "coordinates": [24.9544841, 60.1905269]}, "properties": {"bank": "Nordea", "fossil_fuel_financing_rank_2025": 62, "fossil_fuel_financing_2021": "$1.5 B", "fossil_fuel_financing_2022": "$1.2 B", "fossil_fuel_financing_2023": "$1.7 B", "fossil_fuel_financing_2024": "$1.5 B", "fossil_fuel_financing_2025": "$1.1 B", "fossil_fuel_financing_total_2021_2025": "$6.9 B", "fossil_fuel_financing_change_2024_2025": "-$376 M", "fossil_fuel_financing_change_pct_2024_2025": "-25.8%", "expansion_financing_rank_2025": 56, "expansion_financing_2021": "$819 M", "expansion_financing_2022": "$89 M", "expansion_financing_2023": "$585 M", "expansion_financing_2024": "$419 M", "expansion_financing_2025": "$486 M", "expansion_financing_total_2021_2025": "$2.4 B", "expansion_financing_change_2024_2025": "+$66 M", "expansion_financing_change_pct_2024_2025": "+15.8%", "fossil_fuel_financing_2025_usd": 1100000000, "legal_entity": "Nordea Bank Abp", "lei": "529900ODI3047E2LIV03", "headquarters_address": "Hamnbanegatan 5, Helsinki, FI-18, 00020, FI", "gleif_record": "https://search.gleif.org/#/record/529900ODI3047E2LIV03", "position": "The headquarters address in the GLEIF register, found in OpenStreetMap.", "source": "Banking on Climate Chaos 2026 (RAN, BankTrack, Indigenous Environmental Network, Oil Change International, Reclaim Finance, Sierra Club, Urgewald and others), league tables pp. 10-13 and 32-35"}}, {"type": "Feature", "geometry": {"type": "Point", "coordinates": [151.2082848, -33.8698439]}, "properties": {"bank": "Commonwealth Bank of Australia", "fossil_fuel_financing_rank_2025": 63, "fossil_fuel_financing_2021": "$1.2 B", "fossil_fuel_financing_2022": "$456 M", "fossil_fuel_financing_2023": "$517 M", "fossil_fuel_financing_2024": "$607 M", "fossil_fuel_financing_2025": "$775 M", "fossil_fuel_financing_total_2021_2025": "$3.6 B", "fossil_fuel_financing_change_2024_2025": "+$169 M", "fossil_fuel_financing_change_pct_2024_2025": "+27.8%", "expansion_financing_rank_2025": 62, "expansion_financing_2021": "$619 M", "expansion_financing_2022": "$165 M", "expansion_financing_2023": "$176 M", "expansion_financing_2024": "$137 M", "expansion_financing_2025": "$190 M", "expansion_financing_total_2021_2025": "$1.3 B", "expansion_financing_change_2024_2025": "+$53 M", "expansion_financing_change_pct_2024_2025": "+38.9%", "fossil_fuel_financing_2025_usd": 775000000, "legal_entity": "COMMONWEALTH BANK OF AUSTRALIA", "lei": "MSFSBD3QN1GSN7Q6C537", "headquarters_address": "Commonwealth Bank Place South, Level 1,11 Harbour Street, SYDNEY, AU-NSW, 2000, AU", "gleif_record": "https://search.gleif.org/#/record/MSFSBD3QN1GSN7Q6C537", "position": "The headquarters city in the GLEIF register (the street address was not found in OpenStreetMap).", "source": "Banking on Climate Chaos 2026 (RAN, BankTrack, Indigenous Environmental Network, Oil Change International, Reclaim Finance, Sierra Club, Urgewald and others), league tables pp. 10-13 and 32-35"}}, {"type": "Feature", "geometry": {"type": "Point", "coordinates": [2.3082727, 48.8928115]}, "properties": {"bank": "Crédit Mutuel", "fossil_fuel_financing_rank_2025": 64, "fossil_fuel_financing_2021": "$317 M", "fossil_fuel_financing_2022": "$105 M", "fossil_fuel_financing_2023": "$164 M", "fossil_fuel_financing_2024": "$164 M", "fossil_fuel_financing_2025": "$308 M", "fossil_fuel_financing_total_2021_2025": "$1.1 B", "fossil_fuel_financing_change_2024_2025": "+$144 M", "fossil_fuel_financing_change_pct_2024_2025": "+87.6%", "expansion_financing_rank_2025": 64, "expansion_financing_2021": "$50 M", "expansion_financing_2022": "$30 M", "expansion_financing_2023": "$149 M", "expansion_financing_2024": "$13 M", "expansion_financing_2025": "$24 M", "expansion_financing_total_2021_2025": "$266 M", "expansion_financing_change_2024_2025": "+$12 M", "expansion_financing_change_pct_2024_2025": "+92.8%", "fossil_fuel_financing_2025_usd": 308000000, "legal_entity": "CONFEDERATION NATIONALE CREDIT MUTUEL", "lei": "9695000CG7B84NLR5984", "headquarters_address": "46 RUE DU BASTION, PARIS, FR-75C, 75017, FR", "gleif_record": "https://search.gleif.org/#/record/9695000CG7B84NLR5984", "position": "The headquarters address in the GLEIF register, found in OpenStreetMap.", "source": "Banking on Climate Chaos 2026 (RAN, BankTrack, Indigenous Environmental Network, Oil Change International, Reclaim Finance, Sierra Club, Urgewald and others), league tables pp. 10-13 and 32-35"}}, {"type": "Feature", "geometry": {"type": "Point", "coordinates": [2.3197946, 48.8479388]}, "properties": {"bank": "La Banque Postale", "fossil_fuel_financing_rank_2025": 65, "fossil_fuel_financing_2021": "$241 M", "fossil_fuel_financing_2022": "$9 M", "fossil_fuel_financing_2023": "$66 M", "fossil_fuel_financing_2024": "$90 M", "fossil_fuel_financing_2025": "-", "fossil_fuel_financing_total_2021_2025": "$406 M", "fossil_fuel_financing_change_2024_2025": "-$90 M", "fossil_fuel_financing_change_pct_2024_2025": "-100.0%", "expansion_financing_rank_2025": 65, "expansion_financing_2021": "$241 M", "expansion_financing_2022": "-", "expansion_financing_2023": "$66 M", "expansion_financing_2024": "$6 M", "expansion_financing_2025": "-", "expansion_financing_total_2021_2025": "$313 M", "expansion_financing_change_2024_2025": "-$6 M", "expansion_financing_change_pct_2024_2025": "-100.0%", "fossil_fuel_financing_2025_usd": null, "legal_entity": "LA BANQUE POSTALE", "lei": "96950066U5XAAIRCPA78", "headquarters_address": "115 RUE DE SEVRES, PARIS, FR-75C, 75006, FR", "gleif_record": "https://search.gleif.org/#/record/96950066U5XAAIRCPA78", "position": "The headquarters address in the GLEIF register, found in OpenStreetMap.", "source": "Banking on Climate Chaos 2026 (RAN, BankTrack, Indigenous Environmental Network, Oil Change International, Reclaim Finance, Sierra Club, Urgewald and others), league tables pp. 10-13 and 32-35"}}]}