{"type":"FeatureCollection","features":[{"type":"Feature","geometry":{"type":"Point","coordinates":[-70.2976,-8.9285]},"properties":{"state":"AC","state name":"Acre","workers freed from slave labour, by year (block \"LIBERTADOS DO T.E\")":{"1995":0,"1996":0,"1997":0,"1998":0,"1999":0,"2000":0,"2001":0,"2002":0,"2003":0,"2004":0,"2005":12,"2006":8,"2007":2,"2008":0,"2009":14,"2010":28,"2011":15,"2012":0,"2013":13,"2014":74,"2015":0,"2016":17,"2017":0,"2018":0,"2019":0,"2020":0},"totals and averages (same block)":{"TOT 1995-2020":183,"TOT 1995-2002":0,"TOT 2003-2020":0,"média anual 1995-2020":0,"méd 1995-2002":27,"méd 2003-2020":10.166666666666666},"distinct names on the accumulated \"lista suja\" Nov 2003 - Oct 2018 (N)":19,"(share of all distinct names)":0.011949685534591196,"name":"Acre (AC)","group":"Region: Norte","source":"CPT slave-labour campaign, \"Síntese dos dados – panorama provisório do TE até 2020\", updated 25/01/2021 (file: Amazon Killings/PASTORAL COMMISSION OF THE LAND/Reports on Violence in Brazil, 2022/Slavery/SI NTESE DOS DADOS - panorama provisorio do TE ate 2020.xlsx, sheet Plan1)","placed at":"the middle of Acre state (Natural Earth admin-1 label point); the source gives state totals only"}},{"type":"Feature","geometry":{"type":"Point","coordinates":[-36.6917,-9.77391]},"properties":{"state":"AL","state name":"Alagoas","workers freed from slave labour, by year (block \"LIBERTADOS DO T.E\")":{"1995":0,"1996":0,"1997":0,"1998":0,"1999":0,"2000":0,"2001":0,"2002":0,"2003":0,"2004":0,"2005":0,"2006":0,"2007":0,"2008":656,"2009":0,"2010":20,"2011":51,"2012":43,"2013":0,"2014":0,"2015":0,"2016":0,"2017":0,"2018":90,"2019":0,"2020":0},"totals and averages (same block)":{"TOT 1995-2020":860,"TOT 1995-2002":0,"TOT 2003-2020":860,"média anual 1995-2020":33.07692307692308,"méd 1995-2002":0,"méd 2003-2020":47.77777777777778},"distinct names on the accumulated \"lista suja\" Nov 2003 - Oct 2018 (N)":2,"(share of all distinct names)":0.0012578616352201257,"name":"Alagoas (AL)","group":"Region: Nordeste","source":"CPT slave-labour campaign, \"Síntese dos dados – panorama provisório do TE até 2020\", updated 25/01/2021 (file: Amazon Killings/PASTORAL COMMISSION OF THE LAND/Reports on Violence in Brazil, 2022/Slavery/SI NTESE DOS DADOS - panorama provisorio do TE ate 2020.xlsx, sheet Plan1)","placed at":"the middle of Alagoas state (Natural Earth admin-1 label point); the source gives state totals only"}},{"type":"Feature","geometry":{"type":"Point","coordinates":[-63.7853,-4.21774]},"properties":{"state":"AM","state name":"Amazonas","workers freed from slave labour, by year (block \"LIBERTADOS DO T.E\")":{"1995":0,"1996":0,"1997":0,"1998":0,"1999":0,"2000":0,"2001":0,"2002":0,"2003":0,"2004":0,"2005":0,"2006":8,"2007":10,"2008":85,"2009":0,"2010":78,"2011":63,"2012":177,"2013":0,"2014":41,"2015":56,"2016":6,"2017":0,"2018":0,"2019":0,"2020":11},"totals and averages (same block)":{"TOT 1995-2020":535,"TOT 1995-2002":0,"TOT 2003-2020":535,"média anual 1995-2020":20.576923076923077,"méd 1995-2002":0,"méd 2003-2020":29.72222222222222},"distinct names on the accumulated \"lista suja\" Nov 2003 - Oct 2018 (N)":33,"(share of all distinct names)":0.020754716981132074,"name":"Amazonas (AM)","group":"Region: Norte","source":"CPT slave-labour campaign, \"Síntese dos dados – panorama provisório do TE até 2020\", updated 25/01/2021 (file: Amazon Killings/PASTORAL COMMISSION OF THE LAND/Reports on Violence in Brazil, 2022/Slavery/SI NTESE DOS DADOS - panorama provisorio do TE ate 2020.xlsx, sheet Plan1)","placed at":"the middle of Amazonas state (Natural Earth admin-1 label point); the source gives state totals only"}},{"type":"Feature","geometry":{"type":"Point","coordinates":[-51.6842,1.41157]},"properties":{"state":"AP","state name":"Amapá","workers freed from slave labour, by year (block \"LIBERTADOS DO T.E\")":{"1995":0,"1996":0,"1997":0,"1998":0,"1999":0,"2000":0,"2001":0,"2002":0,"2003":0,"2004":0,"2005":0,"2006":0,"2007":0,"2008":0,"2009":0,"2010":0,"2011":0,"2012":3,"2013":23,"2014":0,"2015":0,"2016":0,"2017":11,"2018":0,"2019":0,"2020":0},"totals and averages (same block)":{"TOT 1995-2020":37,"TOT 1995-2002":0,"TOT 2003-2020":37,"média anual 1995-2020":1.4230769230769231,"méd 1995-2002":0,"méd 2003-2020":2.0555555555555554},"name":"Amapá (AP)","group":"Region: Norte","source":"CPT slave-labour campaign, \"Síntese dos dados – panorama provisório do TE até 2020\", updated 25/01/2021 (file: Amazon Killings/PASTORAL COMMISSION OF THE LAND/Reports on Violence in Brazil, 2022/Slavery/SI NTESE DOS DADOS - panorama provisorio do TE ate 2020.xlsx, sheet Plan1)","placed at":"the middle of Amapá state (Natural Earth admin-1 label point); the source gives state totals only"}},{"type":"Feature","geometry":{"type":"Point","coordinates":[-41.8027,-12.3651]},"properties":{"state":"BA","state name":"Bahia","workers freed from slave labour, by year (block \"LIBERTADOS DO T.E\")":{"1995":0,"1996":0,"1997":0,"1998":0,"1999":0,"2000":0,"2001":0,"2002":0,"2003":1089,"2004":150,"2005":312,"2006":589,"2007":175,"2008":105,"2009":285,"2010":101,"2011":110,"2012":52,"2013":149,"2014":72,"2015":6,"2016":66,"2017":34,"2018":55,"2019":24,"2020":70},"totals and averages (same block)":{"TOT 1995-2020":3444,"TOT 1995-2002":0,"TOT 2003-2020":3444,"média anual 1995-2020":132.46153846153845,"méd 1995-2002":0,"méd 2003-2020":191.33333333333334},"distinct names on the accumulated \"lista suja\" Nov 2003 - Oct 2018 (N)":56,"(share of all distinct names)":0.03522012578616352,"name":"Bahia (BA)","group":"Region: Nordeste","source":"CPT slave-labour campaign, \"Síntese dos dados – panorama provisório do TE até 2020\", updated 25/01/2021 (file: Amazon Killings/PASTORAL COMMISSION OF THE LAND/Reports on Violence in Brazil, 2022/Slavery/SI NTESE DOS DADOS - panorama provisorio do TE ate 2020.xlsx, sheet Plan1)","placed at":"the middle of Bahia state (Natural Earth admin-1 label point); the source gives state totals only"}},{"type":"Feature","geometry":{"type":"Point","coordinates":[-39.3429,-5.37602]},"properties":{"state":"CE","state name":"Ceará","workers freed from slave labour, by year (block \"LIBERTADOS DO T.E\")":{"1995":0,"1996":0,"1997":0,"1998":0,"1999":0,"2000":0,"2001":0,"2002":0,"2003":0,"2004":0,"2005":0,"2006":88,"2007":19,"2008":192,"2009":20,"2010":0,"2011":0,"2012":0,"2013":103,"2014":69,"2015":78,"2016":3,"2017":20,"2018":35,"2019":0,"2020":0},"totals and averages (same block)":{"TOT 1995-2020":627,"TOT 1995-2002":0,"TOT 2003-2020":627,"média anual 1995-2020":24.115384615384617,"méd 1995-2002":0,"méd 2003-2020":34.833333333333336},"distinct names on the accumulated \"lista suja\" Nov 2003 - Oct 2018 (N)":22,"(share of all distinct names)":0.013836477987421384,"name":"Ceará (CE)","group":"Region: Nordeste","source":"CPT slave-labour campaign, \"Síntese dos dados – panorama provisório do TE até 2020\", updated 25/01/2021 (file: Amazon Killings/PASTORAL COMMISSION OF THE LAND/Reports on Violence in Brazil, 2022/Slavery/SI NTESE DOS DADOS - panorama provisorio do TE ate 2020.xlsx, sheet Plan1)","placed at":"the middle of Ceará state (Natural Earth admin-1 label point); the source gives state totals only"}},{"type":"Feature","geometry":{"type":"Point","coordinates":[-47.7902,-15.7665]},"properties":{"state":"DF","state name":"Distrito Federal","workers freed from slave labour, by year (block \"LIBERTADOS DO T.E\")":{"1995":0,"1996":0,"1997":0,"1998":0,"1999":0,"2000":0,"2001":0,"2002":0,"2003":0,"2004":0,"2005":0,"2006":0,"2007":0,"2008":0,"2009":0,"2010":0,"2011":0,"2012":0,"2013":0,"2014":33,"2015":0,"2016":0,"2017":0,"2018":0,"2019":79,"2020":78},"totals and averages (same block)":{"TOT 1995-2020":190,"TOT 1995-2002":0,"TOT 2003-2020":190,"média anual 1995-2020":7.3076923076923075,"méd 1995-2002":0,"méd 2003-2020":10.555555555555555},"name":"Distrito Federal (DF)","group":"Region: Centro-Oeste","source":"CPT slave-labour campaign, \"Síntese dos dados – panorama provisório do TE até 2020\", updated 25/01/2021 (file: Amazon Killings/PASTORAL COMMISSION OF THE LAND/Reports on Violence in Brazil, 2022/Slavery/SI NTESE DOS DADOS - panorama provisorio do TE ate 2020.xlsx, sheet Plan1)","placed at":"the middle of Distrito Federal state (Natural Earth admin-1 label point); the source gives state totals only"}},{"type":"Feature","geometry":{"type":"Point","coordinates":[-40.5436,-19.6916]},"properties":{"state":"ES","state name":"Espírito Santo","workers freed from slave labour, by year (block \"LIBERTADOS DO T.E\")":{"1995":0,"1996":0,"1997":0,"1998":0,"1999":0,"2000":0,"2001":0,"2002":0,"2003":0,"2004":214,"2005":80,"2006":0,"2007":22,"2008":89,"2009":387,"2010":146,"2011":22,"2012":26,"2013":13,"2014":91,"2015":0,"2016":26,"2017":3,"2018":67,"2019":1,"2020":0},"totals and averages (same block)":{"TOT 1995-2020":1187,"TOT 1995-2002":0,"TOT 2003-2020":1187,"média anual 1995-2020":45.65384615384615,"méd 1995-2002":0,"méd 2003-2020":65.94444444444444},"distinct names on the accumulated \"lista suja\" Nov 2003 - Oct 2018 (N)":19,"(share of all distinct names)":0.011949685534591196,"name":"Espírito Santo (ES)","group":"Region: Sudeste","source":"CPT slave-labour campaign, \"Síntese dos dados – panorama provisório do TE até 2020\", updated 25/01/2021 (file: Amazon Killings/PASTORAL COMMISSION OF THE LAND/Reports on Violence in Brazil, 2022/Slavery/SI NTESE DOS DADOS - panorama provisorio do TE ate 2020.xlsx, sheet Plan1)","placed at":"the middle of Espírito Santo state (Natural Earth admin-1 label point); the source gives state totals only"}},{"type":"Feature","geometry":{"type":"Point","coordinates":[-49.5786,-15.863]},"properties":{"state":"GO","state name":"Goiás","workers freed from slave labour, by year (block \"LIBERTADOS DO T.E\")":{"1995":0,"1996":0,"1997":0,"1998":0,"1999":0,"2000":79,"2001":0,"2002":0,"2003":0,"2004":261,"2005":420,"2006":154,"2007":658,"2008":867,"2009":328,"2010":428,"2011":309,"2012":201,"2013":133,"2014":141,"2015":8,"2016":12,"2017":39,"2018":138,"2019":0,"2020":75},"totals and averages (same block)":{"TOT 1995-2020":4251,"TOT 1995-2002":79,"TOT 2003-2020":4172,"média anual 1995-2020":163.5,"méd 1995-2002":9.875,"méd 2003-2020":231.77777777777777},"distinct names on the accumulated \"lista suja\" Nov 2003 - Oct 2018 (N)":110,"(share of all distinct names)":0.06918238993710692,"name":"Goiás (GO)","group":"Region: Centro-Oeste","source":"CPT slave-labour campaign, \"Síntese dos dados – panorama provisório do TE até 2020\", updated 25/01/2021 (file: Amazon Killings/PASTORAL COMMISSION OF THE LAND/Reports on Violence in Brazil, 2022/Slavery/SI NTESE DOS DADOS - panorama provisorio do TE ate 2020.xlsx, sheet Plan1)","placed at":"the middle of Goiás state (Natural Earth admin-1 label point); the source gives state totals only"}},{"type":"Feature","geometry":{"type":"Point","coordinates":[-45.389,-5.01897]},"properties":{"state":"MA","state name":"Maranhão","workers freed from slave labour, by year (block \"LIBERTADOS DO T.E\")":{"1995":0,"1996":0,"1997":0,"1998":8,"1999":27,"2000":0,"2001":457,"2002":184,"2003":400,"2004":220,"2005":464,"2006":284,"2007":378,"2008":89,"2009":161,"2010":127,"2011":130,"2012":88,"2013":71,"2014":83,"2015":107,"2016":49,"2017":26,"2018":42,"2019":59,"2020":35},"totals and averages (same block)":{"TOT 1995-2020":3489,"TOT 1995-2002":676,"TOT 2003-2020":2813,"média anual 1995-2020":134.19230769230768,"méd 1995-2002":84.5,"méd 2003-2020":156.27777777777777},"distinct names on the accumulated \"lista suja\" Nov 2003 - Oct 2018 (N)":129,"(share of all distinct names)":0.08113207547169811,"name":"Maranhão (MA)","group":"Region: Nordeste","source":"CPT slave-labour campaign, \"Síntese dos dados – panorama provisório do TE até 2020\", updated 25/01/2021 (file: Amazon Killings/PASTORAL COMMISSION OF THE LAND/Reports on Violence in Brazil, 2022/Slavery/SI NTESE DOS DADOS - panorama provisorio do TE ate 2020.xlsx, sheet Plan1)","placed at":"the middle of Maranhão state (Natural Earth admin-1 label point); the source gives state totals only"}},{"type":"Feature","geometry":{"type":"Point","coordinates":[-44.4808,-18.5895]},"properties":{"state":"MG","state name":"Minas Gerais","workers freed from slave labour, by year (block \"LIBERTADOS DO T.E\")":{"1995":0,"1996":46,"1997":0,"1998":0,"1999":0,"2000":0,"2001":0,"2002":24,"2003":0,"2004":19,"2005":0,"2006":221,"2007":425,"2008":231,"2009":421,"2010":533,"2011":407,"2012":226,"2013":435,"2014":171,"2015":221,"2016":165,"2017":95,"2018":266,"2019":406,"2020":351},"totals and averages (same block)":{"TOT 1995-2020":4663,"TOT 1995-2002":70,"TOT 2003-2020":4593,"média anual 1995-2020":179.34615384615384,"méd 1995-2002":8.75,"méd 2003-2020":255.16666666666666},"distinct names on the accumulated \"lista suja\" Nov 2003 - Oct 2018 (N)":151,"(share of all distinct names)":0.0949685534591195,"name":"Minas Gerais (MG)","group":"Region: Sudeste","source":"CPT slave-labour campaign, \"Síntese dos dados – panorama provisório do TE até 2020\", updated 25/01/2021 (file: Amazon Killings/PASTORAL COMMISSION OF THE LAND/Reports on Violence in Brazil, 2022/Slavery/SI NTESE DOS DADOS - panorama provisorio do TE ate 2020.xlsx, sheet Plan1)","placed at":"the middle of Minas Gerais state (Natural Earth admin-1 label point); the source gives state totals only"}},{"type":"Feature","geometry":{"type":"Point","coordinates":[-54.5502,-20.6756]},"properties":{"state":"MS","state name":"Mato Grosso do Sul","workers freed from slave labour, by year (block \"LIBERTADOS DO T.E\")":{"1995":50,"1996":0,"1997":0,"1998":0,"1999":0,"2000":0,"2001":0,"2002":0,"2003":29,"2004":0,"2005":26,"2006":29,"2007":1634,"2008":245,"2009":22,"2010":22,"2011":389,"2012":49,"2013":101,"2014":7,"2015":25,"2016":82,"2017":30,"2018":0,"2019":42,"2020":63},"totals and averages (same block)":{"TOT 1995-2020":2845,"TOT 1995-2002":50,"TOT 2003-2020":2795,"média anual 1995-2020":109.42307692307692,"méd 1995-2002":6.25,"méd 2003-2020":155.27777777777777},"distinct names on the accumulated \"lista suja\" Nov 2003 - Oct 2018 (N)":53,"(share of all distinct names)":0.03333333333333333,"name":"Mato Grosso do Sul (MS)","group":"Region: Centro-Oeste","source":"CPT slave-labour campaign, \"Síntese dos dados – panorama provisório do TE até 2020\", updated 25/01/2021 (file: Amazon Killings/PASTORAL COMMISSION OF THE LAND/Reports on Violence in Brazil, 2022/Slavery/SI NTESE DOS DADOS - panorama provisorio do TE ate 2020.xlsx, sheet Plan1)","placed at":"the middle of Mato Grosso do Sul state (Natural Earth admin-1 label point); the source gives state totals only"}},{"type":"Feature","geometry":{"type":"Point","coordinates":[-55.9235,-13.3926]},"properties":{"state":"MT","state name":"Mato Grosso","workers freed from slave labour, by year (block \"LIBERTADOS DO T.E\")":{"1995":34,"1996":266,"1997":170,"1998":19,"1999":283,"2000":157,"2001":245,"2002":567,"2003":675,"2004":329,"2005":1412,"2006":444,"2007":112,"2008":578,"2009":308,"2010":119,"2011":91,"2012":83,"2013":86,"2014":1,"2015":44,"2016":22,"2017":90,"2018":8,"2019":34,"2020":3},"totals and averages (same block)":{"TOT 1995-2020":6180,"TOT 1995-2002":1741,"TOT 2003-2020":4439,"média anual 1995-2020":237.69230769230768,"méd 1995-2002":217.625,"méd 2003-2020":246.61111111111111},"distinct names on the accumulated \"lista suja\" Nov 2003 - Oct 2018 (N)":163,"(share of all distinct names)":0.10251572327044026,"name":"Mato Grosso (MT)","group":"Region: Centro-Oeste","source":"CPT slave-labour campaign, \"Síntese dos dados – panorama provisório do TE até 2020\", updated 25/01/2021 (file: Amazon Killings/PASTORAL COMMISSION OF THE LAND/Reports on Violence in Brazil, 2022/Slavery/SI NTESE DOS DADOS - panorama provisorio do TE ate 2020.xlsx, sheet Plan1)","placed at":"the middle of Mato Grosso state (Natural Earth admin-1 label point); the source gives state totals only"}},{"type":"Feature","geometry":{"type":"Point","coordinates":[-52.6491,-4.44313]},"properties":{"state":"PA","state name":"Pará","workers freed from slave labour, by year (block \"LIBERTADOS DO T.E\")":{"1995":0,"1996":30,"1997":224,"1998":132,"1999":402,"2000":280,"2001":576,"2002":1379,"2003":1760,"2004":1037,"2005":1275,"2006":1182,"2007":1942,"2008":830,"2009":327,"2010":562,"2011":242,"2012":581,"2013":141,"2014":132,"2015":36,"2016":91,"2017":73,"2018":159,"2019":57,"2020":116},"totals and averages (same block)":{"TOT 1995-2020":13566,"TOT 1995-2002":3023,"TOT 2003-2020":10543,"média anual 1995-2020":521.7692307692307,"méd 1995-2002":377.875,"méd 2003-2020":585.7222222222222},"distinct names on the accumulated \"lista suja\" Nov 2003 - Oct 2018 (N)":375,"(share of all distinct names)":0.2358490566037736,"name":"Pará (PA)","group":"Region: Norte","source":"CPT slave-labour campaign, \"Síntese dos dados – panorama provisório do TE até 2020\", updated 25/01/2021 (file: Amazon Killings/PASTORAL COMMISSION OF THE LAND/Reports on Violence in Brazil, 2022/Slavery/SI NTESE DOS DADOS - panorama provisorio do TE ate 2020.xlsx, sheet Plan1)","placed at":"the middle of Pará state (Natural Earth admin-1 label point); the source gives state totals only"}},{"type":"Feature","geometry":{"type":"Point","coordinates":[-36.2726,-7.34234]},"properties":{"state":"PB","state name":"Paraíba","workers freed from slave labour, by year (block \"LIBERTADOS DO T.E\")":{"1995":0,"1996":0,"1997":0,"1998":0,"1999":0,"2000":0,"2001":0,"2002":0,"2003":0,"2004":0,"2005":0,"2006":0,"2007":0,"2008":0,"2009":0,"2010":27,"2011":0,"2012":0,"2013":21,"2014":0,"2015":0,"2016":0,"2017":0,"2018":0,"2019":20,"2020":0},"totals and averages (same block)":{"TOT 1995-2020":68,"TOT 1995-2002":0,"TOT 2003-2020":68,"média anual 1995-2020":2.6153846153846154,"méd 1995-2002":0,"méd 2003-2020":3.7777777777777777},"distinct names on the accumulated \"lista suja\" Nov 2003 - Oct 2018 (N)":1,"(share of all distinct names)":0.0006289308176100629,"name":"Paraíba (PB)","group":"Region: Nordeste","source":"CPT slave-labour campaign, \"Síntese dos dados – panorama provisório do TE até 2020\", updated 25/01/2021 (file: Amazon Killings/PASTORAL COMMISSION OF THE LAND/Reports on Violence in Brazil, 2022/Slavery/SI NTESE DOS DADOS - panorama provisorio do TE ate 2020.xlsx, sheet Plan1)","placed at":"the middle of Paraíba state (Natural Earth admin-1 label point); the source gives state totals only"}},{"type":"Feature","geometry":{"type":"Point","coordinates":[-37.2958,-8.47283]},"properties":{"state":"PE","state name":"Pernambuco","workers freed from slave labour, by year (block \"LIBERTADOS DO T.E\")":{"1995":0,"1996":0,"1997":0,"1998":0,"1999":0,"2000":0,"2001":0,"2002":0,"2003":0,"2004":0,"2005":0,"2006":0,"2007":0,"2008":309,"2009":419,"2010":0,"2011":0,"2012":25,"2013":8,"2014":8,"2015":0,"2016":0,"2017":0,"2018":0,"2019":15,"2020":10},"totals and averages (same block)":{"TOT 1995-2020":794,"TOT 1995-2002":0,"TOT 2003-2020":794,"média anual 1995-2020":30.53846153846154,"méd 1995-2002":0,"méd 2003-2020":44.111111111111114},"distinct names on the accumulated \"lista suja\" Nov 2003 - Oct 2018 (N)":9,"(share of all distinct names)":0.005660377358490566,"name":"Pernambuco (PE)","group":"Region: Nordeste","source":"CPT slave-labour campaign, \"Síntese dos dados – panorama provisório do TE até 2020\", updated 25/01/2021 (file: Amazon Killings/PASTORAL COMMISSION OF THE LAND/Reports on Violence in Brazil, 2022/Slavery/SI NTESE DOS DADOS - panorama provisorio do TE ate 2020.xlsx, sheet Plan1)","placed at":"the middle of Pernambuco state (Natural Earth admin-1 label point); the source gives state totals only"}},{"type":"Feature","geometry":{"type":"Point","coordinates":[-43.1974,-8.08698]},"properties":{"state":"PI","state name":"Piauí","workers freed from slave labour, by year (block \"LIBERTADOS DO T.E\")":{"1995":0,"1996":83,"1997":0,"1998":0,"1999":0,"2000":0,"2001":0,"2002":0,"2003":0,"2004":38,"2005":55,"2006":123,"2007":195,"2008":156,"2009":11,"2010":20,"2011":36,"2012":99,"2013":26,"2014":179,"2015":52,"2016":136,"2017":4,"2018":74,"2019":105,"2020":44},"totals and averages (same block)":{"TOT 1995-2020":1436,"TOT 1995-2002":83,"TOT 2003-2020":1353,"média anual 1995-2020":55.23076923076923,"méd 1995-2002":10.375,"méd 2003-2020":75.16666666666667},"distinct names on the accumulated \"lista suja\" Nov 2003 - Oct 2018 (N)":45,"(share of all distinct names)":0.02830188679245283,"name":"Piauí (PI)","group":"Region: Nordeste","source":"CPT slave-labour campaign, \"Síntese dos dados – panorama provisório do TE até 2020\", updated 25/01/2021 (file: Amazon Killings/PASTORAL COMMISSION OF THE LAND/Reports on Violence in Brazil, 2022/Slavery/SI NTESE DOS DADOS - panorama provisorio do TE ate 2020.xlsx, sheet Plan1)","placed at":"the middle of Piauí state (Natural Earth admin-1 label point); the source gives state totals only"}},{"type":"Feature","geometry":{"type":"Point","coordinates":[-51.3228,-24.6618]},"properties":{"state":"PR","state name":"Paraná","workers freed from slave labour, by year (block \"LIBERTADOS DO T.E\")":{"1995":0,"1996":0,"1997":0,"1998":0,"1999":0,"2000":0,"2001":0,"2002":0,"2003":0,"2004":0,"2005":82,"2006":64,"2007":129,"2008":391,"2009":227,"2010":120,"2011":19,"2012":257,"2013":77,"2014":31,"2015":10,"2016":19,"2017":15,"2018":2,"2019":11,"2020":5},"totals and averages (same block)":{"TOT 1995-2020":1459,"TOT 1995-2002":0,"TOT 2003-2020":1459,"média anual 1995-2020":56.11538461538461,"méd 1995-2002":0,"méd 2003-2020":81.05555555555556},"distinct names on the accumulated \"lista suja\" Nov 2003 - Oct 2018 (N)":49,"(share of all distinct names)":0.030817610062893082,"name":"Paraná (PR)","group":"Region: Sul","source":"CPT slave-labour campaign, \"Síntese dos dados – panorama provisório do TE até 2020\", updated 25/01/2021 (file: Amazon Killings/PASTORAL COMMISSION OF THE LAND/Reports on Violence in Brazil, 2022/Slavery/SI NTESE DOS DADOS - panorama provisorio do TE ate 2020.xlsx, sheet Plan1)","placed at":"the middle of Paraná state (Natural Earth admin-1 label point); the source gives state totals only"}},{"type":"Feature","geometry":{"type":"Point","coordinates":[-43.1152,-22.4049]},"properties":{"state":"RJ","state name":"Rio de Janeiro","workers freed from slave labour, by year (block \"LIBERTADOS DO T.E\")":{"1995":0,"1996":0,"1997":0,"1998":0,"1999":0,"2000":0,"2001":0,"2002":0,"2003":446,"2004":183,"2005":0,"2006":44,"2007":49,"2008":46,"2009":671,"2010":153,"2011":112,"2012":16,"2013":129,"2014":141,"2015":81,"2016":21,"2017":2,"2018":10,"2019":23,"2020":2},"totals and averages (same block)":{"TOT 1995-2020":2104,"TOT 1995-2002":0,"TOT 2003-2020":2104,"média anual 1995-2020":81.88461538461539,"méd 1995-2002":0,"méd 2003-2020":118.27777777777777},"distinct names on the accumulated \"lista suja\" Nov 2003 - Oct 2018 (N)":35,"(share of all distinct names)":0.0220125786163522,"name":"Rio de Janeiro (RJ)","group":"Region: Sudeste","source":"CPT slave-labour campaign, \"Síntese dos dados – panorama provisório do TE até 2020\", updated 25/01/2021 (file: Amazon Killings/PASTORAL COMMISSION OF THE LAND/Reports on Violence in Brazil, 2022/Slavery/SI NTESE DOS DADOS - panorama provisorio do TE ate 2020.xlsx, sheet Plan1)","placed at":"the middle of Rio de Janeiro state (Natural Earth admin-1 label point); the source gives state totals only"}},{"type":"Feature","geometry":{"type":"Point","coordinates":[-36.5472,-5.66157]},"properties":{"state":"RN","state name":"Rio Grande do Norte","workers freed from slave labour, by year (block \"LIBERTADOS DO T.E\")":{"1995":0,"1996":0,"1997":0,"1998":0,"1999":0,"2000":0,"2001":0,"2002":0,"2003":0,"2004":29,"2005":0,"2006":0,"2007":0,"2008":7,"2009":0,"2010":0,"2011":0,"2012":0,"2013":0,"2014":0,"2015":0,"2016":0,"2017":0,"2018":25,"2019":18,"2020":0},"totals and averages (same block)":{"TOT 1995-2020":79,"TOT 1995-2002":0,"TOT 2003-2020":79,"média anual 1995-2020":3.0384615384615383,"méd 1995-2002":0,"méd 2003-2020":4.388888888888889},"distinct names on the accumulated \"lista suja\" Nov 2003 - Oct 2018 (N)":2,"(share of all distinct names)":0.0012578616352201257,"name":"Rio Grande do Norte (RN)","group":"Region: Nordeste","source":"CPT slave-labour campaign, \"Síntese dos dados – panorama provisório do TE até 2020\", updated 25/01/2021 (file: Amazon Killings/PASTORAL COMMISSION OF THE LAND/Reports on Violence in Brazil, 2022/Slavery/SI NTESE DOS DADOS - panorama provisorio do TE ate 2020.xlsx, sheet Plan1)","placed at":"the middle of Rio Grande do Norte state (Natural Earth admin-1 label point); the source gives state totals only"}},{"type":"Feature","geometry":{"type":"Point","coordinates":[-63.1439,-10.9712]},"properties":{"state":"RO","state name":"Rondônia","workers freed from slave labour, by year (block \"LIBERTADOS DO T.E\")":{"1995":0,"1996":0,"1997":0,"1998":0,"1999":0,"2000":0,"2001":0,"2002":42,"2003":483,"2004":18,"2005":42,"2006":0,"2007":0,"2008":28,"2009":74,"2010":41,"2011":90,"2012":39,"2013":25,"2014":16,"2015":2,"2016":0,"2017":8,"2018":0,"2019":34,"2020":8},"totals and averages (same block)":{"TOT 1995-2020":950,"TOT 1995-2002":42,"TOT 2003-2020":908,"média anual 1995-2020":36.53846153846154,"méd 1995-2002":5.25,"méd 2003-2020":50.44444444444444},"distinct names on the accumulated \"lista suja\" Nov 2003 - Oct 2018 (N)":44,"(share of all distinct names)":0.027672955974842768,"name":"Rondônia (RO)","group":"Region: Norte","source":"CPT slave-labour campaign, \"Síntese dos dados – panorama provisório do TE até 2020\", updated 25/01/2021 (file: Amazon Killings/PASTORAL COMMISSION OF THE LAND/Reports on Violence in Brazil, 2022/Slavery/SI NTESE DOS DADOS - panorama provisorio do TE ate 2020.xlsx, sheet Plan1)","placed at":"the middle of Rondônia state (Natural Earth admin-1 label point); the source gives state totals only"}},{"type":"Feature","geometry":{"type":"Point","coordinates":[-61.3325,1.93803]},"properties":{"state":"RR","state name":"Roraima","workers freed from slave labour, by year (block \"LIBERTADOS DO T.E\")":{"1995":0,"1996":0,"1997":0,"1998":0,"1999":0,"2000":0,"2001":0,"2002":0,"2003":0,"2004":0,"2005":0,"2006":0,"2007":0,"2008":0,"2009":26,"2010":0,"2011":0,"2012":0,"2013":0,"2014":27,"2015":1,"2016":1,"2017":6,"2018":15,"2019":16,"2020":0},"totals and averages (same block)":{"TOT 1995-2020":92,"TOT 1995-2002":0,"TOT 2003-2020":92,"média anual 1995-2020":3.5384615384615383,"méd 1995-2002":0,"méd 2003-2020":5.111111111111111},"distinct names on the accumulated \"lista suja\" Nov 2003 - Oct 2018 (N)":1,"(share of all distinct names)":0.0006289308176100629,"name":"Roraima (RR)","group":"Region: Norte","source":"CPT slave-labour campaign, \"Síntese dos dados – panorama provisório do TE até 2020\", updated 25/01/2021 (file: Amazon Killings/PASTORAL COMMISSION OF THE LAND/Reports on Violence in Brazil, 2022/Slavery/SI NTESE DOS DADOS - panorama provisorio do TE ate 2020.xlsx, sheet Plan1)","placed at":"the middle of Roraima state (Natural Earth admin-1 label point); the source gives state totals only"}},{"type":"Feature","geometry":{"type":"Point","coordinates":[-53.656,-29.7277]},"properties":{"state":"RS","state name":"Rio Grande do Sul","workers freed from slave labour, by year (block \"LIBERTADOS DO T.E\")":{"1995":0,"1996":0,"1997":0,"1998":0,"1999":0,"2000":0,"2001":0,"2002":0,"2003":0,"2004":0,"2005":35,"2006":0,"2007":47,"2008":4,"2009":18,"2010":24,"2011":28,"2012":59,"2013":44,"2014":11,"2015":32,"2016":17,"2017":6,"2018":0,"2019":2,"2020":5},"totals and averages (same block)":{"TOT 1995-2020":332,"TOT 1995-2002":0,"TOT 2003-2020":332,"média anual 1995-2020":12.76923076923077,"méd 1995-2002":0,"méd 2003-2020":18.444444444444443},"distinct names on the accumulated \"lista suja\" Nov 2003 - Oct 2018 (N)":24,"(share of all distinct names)":0.01509433962264151,"name":"Rio Grande do Sul (RS)","group":"Region: Sul","source":"CPT slave-labour campaign, \"Síntese dos dados – panorama provisório do TE até 2020\", updated 25/01/2021 (file: Amazon Killings/PASTORAL COMMISSION OF THE LAND/Reports on Violence in Brazil, 2022/Slavery/SI NTESE DOS DADOS - panorama provisorio do TE ate 2020.xlsx, sheet Plan1)","placed at":"the middle of Rio Grande do Sul state (Natural Earth admin-1 label point); the source gives state totals only"}},{"type":"Feature","geometry":{"type":"Point","coordinates":[-51.1586,-27.0392]},"properties":{"state":"SC","state name":"Santa Catarina","workers freed from slave labour, by year (block \"LIBERTADOS DO T.E\")":{"1995":0,"1996":0,"1997":0,"1998":0,"1999":0,"2000":0,"2001":0,"2002":0,"2003":0,"2004":0,"2005":0,"2006":44,"2007":52,"2008":132,"2009":98,"2010":253,"2011":107,"2012":52,"2013":27,"2014":48,"2015":48,"2016":4,"2017":0,"2018":61,"2019":5,"2020":93},"totals and averages (same block)":{"TOT 1995-2020":1024,"TOT 1995-2002":0,"TOT 2003-2020":1024,"média anual 1995-2020":39.38461538461539,"méd 1995-2002":0,"méd 2003-2020":56.888888888888886},"distinct names on the accumulated \"lista suja\" Nov 2003 - Oct 2018 (N)":55,"(share of all distinct names)":0.03459119496855346,"name":"Santa Catarina (SC)","group":"Region: Sul","source":"CPT slave-labour campaign, \"Síntese dos dados – panorama provisório do TE até 2020\", updated 25/01/2021 (file: Amazon Killings/PASTORAL COMMISSION OF THE LAND/Reports on Violence in Brazil, 2022/Slavery/SI NTESE DOS DADOS - panorama provisorio do TE ate 2020.xlsx, sheet Plan1)","placed at":"the middle of Santa Catarina state (Natural Earth admin-1 label point); the source gives state totals only"}},{"type":"Feature","geometry":{"type":"Point","coordinates":[-37.3836,-10.5918]},"properties":{"state":"SE","state name":"Sergipe","workers freed from slave labour, by year (block \"LIBERTADOS DO T.E\")":{"1995":0,"1996":0,"1997":0,"1998":0,"1999":0,"2000":0,"2001":0,"2002":0,"2003":0,"2004":0,"2005":0,"2006":0,"2007":0,"2008":0,"2009":0,"2010":0,"2011":0,"2012":0,"2013":0,"2014":40,"2015":0,"2016":0,"2017":0,"2018":0,"2019":0,"2020":0},"totals and averages (same block)":{"TOT 1995-2020":40,"TOT 1995-2002":0,"TOT 2003-2020":40,"média anual 1995-2020":1.5384615384615385,"méd 1995-2002":0,"méd 2003-2020":2.2222222222222223},"name":"Sergipe (SE)","group":"Region: Nordeste","source":"CPT slave-labour campaign, \"Síntese dos dados – panorama provisório do TE até 2020\", updated 25/01/2021 (file: Amazon Killings/PASTORAL COMMISSION OF THE LAND/Reports on Violence in Brazil, 2022/Slavery/SI NTESE DOS DADOS - panorama provisorio do TE ate 2020.xlsx, sheet Plan1)","placed at":"the middle of Sergipe state (Natural Earth admin-1 label point); the source gives state totals only"}},{"type":"Feature","geometry":{"type":"Point","coordinates":[-48.5206,-22.2267]},"properties":{"state":"SP","state name":"São Paulo","workers freed from slave labour, by year (block \"LIBERTADOS DO T.E\")":{"1995":0,"1996":0,"1997":0,"1998":0,"1999":0,"2000":0,"2001":0,"2002":76,"2003":0,"2004":142,"2005":0,"2006":0,"2007":61,"2008":182,"2009":70,"2010":109,"2011":182,"2012":239,"2013":545,"2014":217,"2015":76,"2016":66,"2017":68,"2018":102,"2019":95,"2020":66},"totals and averages (same block)":{"TOT 1995-2020":2296,"TOT 1995-2002":76,"TOT 2003-2020":2220,"média anual 1995-2020":88.3076923076923,"méd 1995-2002":9.5,"méd 2003-2020":123.33333333333333},"distinct names on the accumulated \"lista suja\" Nov 2003 - Oct 2018 (N)":60,"(share of all distinct names)":0.03773584905660377,"name":"São Paulo (SP)","group":"Region: Sudeste","source":"CPT slave-labour campaign, \"Síntese dos dados – panorama provisório do TE até 2020\", updated 25/01/2021 (file: Amazon Killings/PASTORAL COMMISSION OF THE LAND/Reports on Violence in Brazil, 2022/Slavery/SI NTESE DOS DADOS - panorama provisorio do TE ate 2020.xlsx, sheet Plan1)","placed at":"the middle of São Paulo state (Natural Earth admin-1 label point); the source gives state totals only"}},{"type":"Feature","geometry":{"type":"Point","coordinates":[-48.2502,-10.223]},"properties":{"state":"TO","state name":"Tocantins","workers freed from slave labour, by year (block \"LIBERTADOS DO T.E\")":{"1995":0,"1996":0,"1997":0,"1998":0,"1999":13,"2000":0,"2001":27,"2002":0,"2003":347,"2004":545,"2005":318,"2006":455,"2007":91,"2008":78,"2009":353,"2010":115,"2011":108,"2012":311,"2013":59,"2014":159,"2015":18,"2016":28,"2017":19,"2018":9,"2019":4,"2020":5},"totals and averages (same block)":{"TOT 1995-2020":3062,"TOT 1995-2002":40,"TOT 2003-2020":3022,"média anual 1995-2020":117.76923076923077,"méd 1995-2002":5,"méd 2003-2020":167.88888888888889},"distinct names on the accumulated \"lista suja\" Nov 2003 - Oct 2018 (N)":133,"(share of all distinct names)":0.08364779874213836,"name":"Tocantins (TO)","group":"Region: Norte","source":"CPT slave-labour campaign, \"Síntese dos dados – panorama provisório do TE até 2020\", updated 25/01/2021 (file: Amazon Killings/PASTORAL COMMISSION OF THE LAND/Reports on Violence in Brazil, 2022/Slavery/SI NTESE DOS DADOS - panorama provisorio do TE ate 2020.xlsx, sheet Plan1)","placed at":"the middle of Tocantins state (Natural Earth admin-1 label point); the source gives state totals only"}}]}