{"type": "FeatureCollection", "features": [{"type": "Feature", "geometry": {"type": "Point", "coordinates": [-87.64, 41.89]}, "properties": {"name": "ADM", "trader": "ADM", "revenue, US$ billion": 101.6, "revenue year": "2022", "wikidata": "https://www.wikidata.org/wiki/Q632694", "_html": "<b>ADM</b><br>Global HQ<br>Chicago<br><small>ABCD: 50-60% wheat/corn/soy<br>Brazil top 6: 57% soy</small><br><small>Revenue of Archer Daniels Midland, 2022: <b>US$101.6 billion</b> (<a href=\"https://www.wikidata.org/wiki/Q632694\" target=\"_blank\" rel=\"noopener\">Wikidata</a>)</small>"}}, {"type": "Feature", "geometry": {"type": "Point", "coordinates": [-88.95, 39.84]}, "properties": {"name": "ADM", "trader": "ADM", "revenue, US$ billion": 101.6, "revenue year": "2022", "wikidata": "https://www.wikidata.org/wiki/Q632694", "_html": "<b>ADM</b><br>N.America HQ<br>Decatur<br><small>ABCD: 50-60% wheat/corn/soy<br>Brazil top 6: 57% soy</small><br><small>Revenue of Archer Daniels Midland, 2022: <b>US$101.6 billion</b> (<a href=\"https://www.wikidata.org/wiki/Q632694\" target=\"_blank\" rel=\"noopener\">Wikidata</a>)</small>"}}, {"type": "Feature", "geometry": {"type": "Point", "coordinates": [6.34, 46.46]}, "properties": {"name": "ADM", "trader": "ADM", "revenue, US$ billion": 101.6, "revenue year": "2022", "wikidata": "https://www.wikidata.org/wiki/Q632694", "_html": "<b>ADM</b><br>Europe HQ<br>Rolle<br><small>ABCD: 50-60% wheat/corn/soy<br>Brazil top 6: 57% soy</small><br><small>Revenue of Archer Daniels Midland, 2022: <b>US$101.6 billion</b> (<a href=\"https://www.wikidata.org/wiki/Q632694\" target=\"_blank\" rel=\"noopener\">Wikidata</a>)</small>"}}, {"type": "Feature", "geometry": {"type": "Point", "coordinates": [103.82, 1.35]}, "properties": {"name": "ADM", "trader": "ADM", "revenue, US$ billion": 101.6, "revenue year": "2022", "wikidata": "https://www.wikidata.org/wiki/Q632694", "_html": "<b>ADM</b><br>Asia-Pacific HQ<br>Singapore<br><small>ABCD: 50-60% wheat/corn/soy<br>Brazil top 6: 57% soy</small><br><small>Revenue of Archer Daniels Midland, 2022: <b>US$101.6 billion</b> (<a href=\"https://www.wikidata.org/wiki/Q632694\" target=\"_blank\" rel=\"noopener\">Wikidata</a>)</small>"}}, {"type": "Feature", "geometry": {"type": "Point", "coordinates": [-46.63, -23.55]}, "properties": {"name": "ADM", "trader": "ADM", "revenue, US$ billion": 101.6, "revenue year": "2022", "wikidata": "https://www.wikidata.org/wiki/Q632694", "_html": "<b>ADM</b><br>Regional<br>São Paulo<br><small>ABCD: 50-60% wheat/corn/soy<br>Brazil top 6: 57% soy</small><br><small>Revenue of Archer Daniels Midland, 2022: <b>US$101.6 billion</b> (<a href=\"https://www.wikidata.org/wiki/Q632694\" target=\"_blank\" rel=\"noopener\">Wikidata</a>)</small>"}}, {"type": "Feature", "geometry": {"type": "Point", "coordinates": [-90.2, 38.63]}, "properties": {"name": "Bunge", "trader": "Bunge", "revenue, US$ billion": 67.2, "revenue year": "2022", "wikidata": "https://www.wikidata.org/wiki/Q1009458", "_html": "<b>Bunge</b><br>Global HQ<br>St. Louis<br><small>ABCD: 50-60% wheat/corn/soy<br>Brazil top 6: 57% soy</small><br><small>Revenue of Bunge Limited, 2022: <b>US$67.2 billion</b> (<a href=\"https://www.wikidata.org/wiki/Q1009458\" target=\"_blank\" rel=\"noopener\">Wikidata</a>)</small>"}}, {"type": "Feature", "geometry": {"type": "Point", "coordinates": [6.14, 46.2]}, "properties": {"name": "Bunge", "trader": "Bunge", "revenue, US$ billion": 67.2, "revenue year": "2022", "wikidata": "https://www.wikidata.org/wiki/Q1009458", "_html": "<b>Bunge</b><br>Registered<br>Geneva<br><small>ABCD: 50-60% wheat/corn/soy<br>Brazil top 6: 57% soy</small><br><small>Revenue of Bunge Limited, 2022: <b>US$67.2 billion</b> (<a href=\"https://www.wikidata.org/wiki/Q1009458\" target=\"_blank\" rel=\"noopener\">Wikidata</a>)</small>"}}, {"type": "Feature", "geometry": {"type": "Point", "coordinates": [-46.63, -23.55]}, "properties": {"name": "Bunge", "trader": "Bunge", "revenue, US$ billion": 67.2, "revenue year": "2022", "wikidata": "https://www.wikidata.org/wiki/Q1009458", "_html": "<b>Bunge</b><br>Regional<br>São Paulo<br><small>ABCD: 50-60% wheat/corn/soy<br>Brazil top 6: 57% soy</small><br><small>Revenue of Bunge Limited, 2022: <b>US$67.2 billion</b> (<a href=\"https://www.wikidata.org/wiki/Q1009458\" target=\"_blank\" rel=\"noopener\">Wikidata</a>)</small>"}}, {"type": "Feature", "geometry": {"type": "Point", "coordinates": [-58.38, -34.6]}, "properties": {"name": "Bunge", "trader": "Bunge", "revenue, US$ billion": 67.2, "revenue year": "2022", "wikidata": "https://www.wikidata.org/wiki/Q1009458", "_html": "<b>Bunge</b><br>Regional<br>Buenos Aires<br><small>ABCD: 50-60% wheat/corn/soy<br>Brazil top 6: 57% soy</small><br><small>Revenue of Bunge Limited, 2022: <b>US$67.2 billion</b> (<a href=\"https://www.wikidata.org/wiki/Q1009458\" target=\"_blank\" rel=\"noopener\">Wikidata</a>)</small>"}}, {"type": "Feature", "geometry": {"type": "Point", "coordinates": [-93.51, 44.97]}, "properties": {"name": "Cargill", "trader": "Cargill", "revenue, US$ billion": 144.7, "revenue year": "2018", "wikidata": "https://www.wikidata.org/wiki/Q1036056", "_html": "<b>Cargill</b><br>Global HQ<br>Wayzata<br><small>ABCD: 50-60% wheat/corn/soy<br>Brazil top 6: 57% soy</small><br><small>Revenue of Cargill, 2018: <b>US$144.7 billion</b> (<a href=\"https://www.wikidata.org/wiki/Q1036056\" target=\"_blank\" rel=\"noopener\">Wikidata</a>)</small>"}}, {"type": "Feature", "geometry": {"type": "Point", "coordinates": [6.14, 46.2]}, "properties": {"name": "Cargill", "trader": "Cargill", "revenue, US$ billion": 144.7, "revenue year": "2018", "wikidata": "https://www.wikidata.org/wiki/Q1036056", "_html": "<b>Cargill</b><br>Ocean HQ<br>Geneva<br><small>ABCD: 50-60% wheat/corn/soy<br>Brazil top 6: 57% soy</small><br><small>Revenue of Cargill, 2018: <b>US$144.7 billion</b> (<a href=\"https://www.wikidata.org/wiki/Q1036056\" target=\"_blank\" rel=\"noopener\">Wikidata</a>)</small>"}}, {"type": "Feature", "geometry": {"type": "Point", "coordinates": [103.82, 1.35]}, "properties": {"name": "Cargill", "trader": "Cargill", "revenue, US$ billion": 144.7, "revenue year": "2018", "wikidata": "https://www.wikidata.org/wiki/Q1036056", "_html": "<b>Cargill</b><br>Regional<br>Singapore<br><small>ABCD: 50-60% wheat/corn/soy<br>Brazil top 6: 57% soy</small><br><small>Revenue of Cargill, 2018: <b>US$144.7 billion</b> (<a href=\"https://www.wikidata.org/wiki/Q1036056\" target=\"_blank\" rel=\"noopener\">Wikidata</a>)</small>"}}, {"type": "Feature", "geometry": {"type": "Point", "coordinates": [121.47, 31.23]}, "properties": {"name": "Cargill", "trader": "Cargill", "revenue, US$ billion": 144.7, "revenue year": "2018", "wikidata": "https://www.wikidata.org/wiki/Q1036056", "_html": "<b>Cargill</b><br>Regional<br>Shanghai<br><small>ABCD: 50-60% wheat/corn/soy<br>Brazil top 6: 57% soy</small><br><small>Revenue of Cargill, 2018: <b>US$144.7 billion</b> (<a href=\"https://www.wikidata.org/wiki/Q1036056\" target=\"_blank\" rel=\"noopener\">Wikidata</a>)</small>"}}, {"type": "Feature", "geometry": {"type": "Point", "coordinates": [4.48, 51.92]}, "properties": {"name": "Louis Dreyfus", "trader": "Louis Dreyfus", "revenue, US$ billion": null, "revenue year": null, "wikidata": null, "_html": "<b>Louis Dreyfus</b><br>Head Office<br>Rotterdam<br><small>ABCD: 50-60% wheat/corn/soy<br>Brazil top 6: 57% soy</small><br><small>Revenue: none found in Wikidata</small>"}}, {"type": "Feature", "geometry": {"type": "Point", "coordinates": [4.9, 52.37]}, "properties": {"name": "Louis Dreyfus", "trader": "Louis Dreyfus", "revenue, US$ billion": null, "revenue year": null, "wikidata": null, "_html": "<b>Louis Dreyfus</b><br>Holding HQ<br>Amsterdam<br><small>ABCD: 50-60% wheat/corn/soy<br>Brazil top 6: 57% soy</small><br><small>Revenue: none found in Wikidata</small>"}}, {"type": "Feature", "geometry": {"type": "Point", "coordinates": [103.85, 1.28]}, "properties": {"name": "Louis Dreyfus", "trader": "Louis Dreyfus", "revenue, US$ billion": null, "revenue year": null, "wikidata": null, "_html": "<b>Louis Dreyfus</b><br>Regional<br>Singapore<br><small>ABCD: 50-60% wheat/corn/soy<br>Brazil top 6: 57% soy</small><br><small>Revenue: none found in Wikidata</small>"}}, {"type": "Feature", "geometry": {"type": "Point", "coordinates": [-46.69, -23.56]}, "properties": {"name": "Louis Dreyfus", "trader": "Louis Dreyfus", "revenue, US$ billion": null, "revenue year": null, "wikidata": null, "_html": "<b>Louis Dreyfus</b><br>Regional<br>São Paulo<br><small>ABCD: 50-60% wheat/corn/soy<br>Brazil top 6: 57% soy</small><br><small>Revenue: none found in Wikidata</small>"}}, {"type": "Feature", "geometry": {"type": "Point", "coordinates": [6.17, 46.2]}, "properties": {"name": "COFCO Intl", "trader": "COFCO Intl", "revenue, US$ billion": 1.0, "revenue year": "2018", "wikidata": "https://www.wikidata.org/wiki/Q108169280", "_html": "<b>COFCO Intl</b><br>Global HQ<br>Geneva<br><small>ABCD: 50-60% wheat/corn/soy<br>Brazil top 6: 57% soy</small><br><small>Revenue of Cofco International Romania, 2018: <b>US$1.0 billion</b> (837,000,000 EUR; European Central Bank, 2018 average) (<a href=\"https://www.wikidata.org/wiki/Q108169280\" target=\"_blank\" rel=\"noopener\">Wikidata</a>)</small>"}}, {"type": "Feature", "geometry": {"type": "Point", "coordinates": [116.42, 39.92]}, "properties": {"name": "COFCO Corp", "trader": "COFCO Corp", "revenue, US$ billion": 71.2, "revenue year": "2018", "wikidata": "https://www.wikidata.org/wiki/Q4382137", "_html": "<b>COFCO Corp</b><br>Corporate HQ<br>Beijing<br><small>ABCD: 50-60% wheat/corn/soy<br>Brazil top 6: 57% soy</small><br><small>Revenue of COFCO Group, 2018: <b>US$71.2 billion</b> (471,119,900,000 CNY; European Central Bank, 2018 average) (<a href=\"https://www.wikidata.org/wiki/Q4382137\" target=\"_blank\" rel=\"noopener\">Wikidata</a>)</small>"}}, {"type": "Feature", "geometry": {"type": "Point", "coordinates": [-46.69, -23.57]}, "properties": {"name": "COFCO Intl", "trader": "COFCO Intl", "revenue, US$ billion": 1.0, "revenue year": "2018", "wikidata": "https://www.wikidata.org/wiki/Q108169280", "_html": "<b>COFCO Intl</b><br>Regional<br>São Paulo<br><small>ABCD: 50-60% wheat/corn/soy<br>Brazil top 6: 57% soy</small><br><small>Revenue of Cofco International Romania, 2018: <b>US$1.0 billion</b> (837,000,000 EUR; European Central Bank, 2018 average) (<a href=\"https://www.wikidata.org/wiki/Q108169280\" target=\"_blank\" rel=\"noopener\">Wikidata</a>)</small>"}}, {"type": "Feature", "geometry": {"type": "Point", "coordinates": [-58.49, -34.55]}, "properties": {"name": "COFCO Intl", "trader": "COFCO Intl", "revenue, US$ billion": 1.0, "revenue year": "2018", "wikidata": "https://www.wikidata.org/wiki/Q108169280", "_html": "<b>COFCO Intl</b><br>Regional<br>Buenos Aires<br><small>ABCD: 50-60% wheat/corn/soy<br>Brazil top 6: 57% soy</small><br><small>Revenue of Cofco International Romania, 2018: <b>US$1.0 billion</b> (837,000,000 EUR; European Central Bank, 2018 average) (<a href=\"https://www.wikidata.org/wiki/Q108169280\" target=\"_blank\" rel=\"noopener\">Wikidata</a>)</small>"}}, {"type": "Feature", "geometry": {"type": "Point", "coordinates": [-56.1, -15.6]}, "properties": {"name": "Amaggi", "trader": "Amaggi", "revenue, US$ billion": null, "revenue year": null, "wikidata": null, "_html": "<b>Amaggi</b><br>Global HQ<br>Cuiabá<br><small>ABCD: 50-60% wheat/corn/soy<br>Brazil top 6: 57% soy</small><br><small>Revenue: none found in Wikidata</small>"}}, {"type": "Feature", "geometry": {"type": "Point", "coordinates": [4.48, 51.92]}, "properties": {"name": "Amaggi", "trader": "Amaggi", "revenue, US$ billion": null, "revenue year": null, "wikidata": null, "_html": "<b>Amaggi</b><br>Regional<br>Rotterdam<br><small>ABCD: 50-60% wheat/corn/soy<br>Brazil top 6: 57% soy</small><br><small>Revenue: none found in Wikidata</small>"}}, {"type": "Feature", "geometry": {"type": "Point", "coordinates": [-58.38, -34.6]}, "properties": {"name": "Amaggi", "trader": "Amaggi", "revenue, US$ billion": null, "revenue year": null, "wikidata": null, "_html": "<b>Amaggi</b><br>Regional<br>Buenos Aires<br><small>ABCD: 50-60% wheat/corn/soy<br>Brazil top 6: 57% soy</small><br><small>Revenue: none found in Wikidata</small>"}}]}